{"type":"FeatureCollection","features":[{"type":"Feature","properties":{"name":"磯辺一丁目","setai":756,"jinko":1831,"key":"12106001001","units":1,"m":861,"f":970,"gk":28,"a0":159,"a1":913,"a2":753,"a75":495,"ag":[37,61,61,100,83,43,45,81,89,138,144,115,75,85,173,219,159,90,22,5,0],"nf":6},"geometry":{"type":"Polygon","coordinates":[[[140.06363,35.62684],[140.06277,35.62617],[140.06219,35.62666],[140.06131,35.6274],[140.0613,35.62742],[140.0606,35.62801],[140.05972,35.62873],[140.05991,35.62891],[140.06006,35.62905],[140.06011,35.62909],[140.06063,35.62955],[140.06113,35.63],[140.06147,35.63032],[140.06226,35.631],[140.06284,35.63152],[140.06315,35.6318],[140.06345,35.63206],[140.06351,35.63213],[140.06357,35.63218],[140.06362,35.63222],[140.06465,35.63314],[140.0658,35.63234],[140.06627,35.63202],[140.0666,35.63177],[140.06675,35.63168],[140.067,35.6315],[140.06714,35.63142],[140.06724,35.63136],[140.06742,35.63125],[140.06751,35.63119],[140.06761,35.63113],[140.06772,35.63108],[140.06784,35.63102],[140.06801,35.63092],[140.0682,35.63082],[140.0683,35.63077],[140.06842,35.63072],[140.06852,35.63066],[140.06844,35.63059],[140.06807,35.63029],[140.06788,35.63015],[140.06728,35.62968],[140.06713,35.62957],[140.06651,35.62909],[140.0665,35.62908],[140.0663,35.62893],[140.06548,35.62827],[140.06513,35.628],[140.06418,35.62725],[140.0641,35.6272],[140.06363,35.62684]]]}},{"type":"Feature","properties":{"name":"磯辺二丁目","setai":221,"jinko":846,"key":"12106001002","units":1,"m":376,"f":470,"gk":10,"a0":68,"a1":487,"a2":291,"a75":212,"ag":[13,23,32,59,59,23,16,24,39,67,76,81,43,31,48,41,36,47,47,35,6]},"geometry":{"type":"Polygon","coordinates":[[[140.06169,35.62532],[140.06068,35.62452],[140.06028,35.6242],[140.05963,35.6237],[140.05949,35.62359],[140.05805,35.62248],[140.05798,35.62255],[140.05785,35.62265],[140.05761,35.62247],[140.05756,35.62251],[140.05779,35.62269],[140.05745,35.62298],[140.05775,35.62323],[140.0577,35.62327],[140.05773,35.62329],[140.05747,35.62351],[140.05714,35.62325],[140.05689,35.62347],[140.05674,35.62335],[140.05678,35.62332],[140.05672,35.62328],[140.05676,35.62324],[140.05682,35.62329],[140.05685,35.62327],[140.05679,35.62322],[140.05683,35.62319],[140.05689,35.62323],[140.05691,35.62321],[140.05685,35.62317],[140.0569,35.62313],[140.05696,35.62317],[140.05698,35.62315],[140.05693,35.62311],[140.05688,35.62307],[140.05683,35.62303],[140.0568,35.62305],[140.05686,35.6231],[140.05681,35.62314],[140.05676,35.62309],[140.05673,35.62311],[140.05679,35.62316],[140.05675,35.62319],[140.05669,35.62315],[140.05667,35.62317],[140.05672,35.62321],[140.05668,35.62325],[140.05663,35.62321],[140.05659,35.62324],[140.05649,35.62316],[140.05653,35.62313],[140.05647,35.62309],[140.05652,35.62305],[140.05657,35.62309],[140.05659,35.62307],[140.05654,35.62303],[140.05658,35.62299],[140.05664,35.62304],[140.05666,35.62302],[140.0566,35.62298],[140.05665,35.62293],[140.05671,35.62298],[140.05673,35.62296],[140.05668,35.62291],[140.05663,35.62288],[140.05658,35.62284],[140.05655,35.62286],[140.05661,35.6229],[140.05656,35.62294],[140.05651,35.6229],[140.05648,35.62292],[140.05654,35.62296],[140.0565,35.623],[140.05644,35.62295],[140.05642,35.62298],[140.05647,35.62302],[140.05643,35.62306],[140.05638,35.62301],[140.05634,35.62304],[140.05617,35.62291],[140.05619,35.62289],[140.05613,35.62285],[140.05617,35.62282],[140.05622,35.62286],[140.05625,35.62283],[140.0562,35.62279],[140.05624,35.62275],[140.0563,35.6228],[140.05633,35.62277],[140.05627,35.62273],[140.05632,35.62269],[140.05638,35.62273],[140.0564,35.62271],[140.05634,35.62267],[140.05638,35.62263],[140.05644,35.62268],[140.05646,35.62266],[140.05641,35.62261],[140.05645,35.62258],[140.0565,35.62262],[140.05653,35.6226],[140.05648,35.62256],[140.0565,35.62253],[140.05649,35.62252],[140.05659,35.62242],[140.05662,35.62244],[140.05665,35.62241],[140.0567,35.62246],[140.05673,35.62243],[140.05668,35.62239],[140.05672,35.62235],[140.05677,35.62239],[140.05681,35.62236],[140.05676,35.62232],[140.05679,35.62229],[140.05684,35.62233],[140.05687,35.62231],[140.05682,35.62227],[140.05687,35.62223],[140.05692,35.62227],[140.05694,35.62225],[140.05689,35.62221],[140.05694,35.62217],[140.05699,35.62221],[140.05701,35.62219],[140.05696,35.62215],[140.057,35.62212],[140.05721,35.62227],[140.05728,35.62221],[140.05656,35.62165],[140.05666,35.62156],[140.05658,35.6215],[140.05558,35.62232],[140.05555,35.6223],[140.05553,35.62229],[140.0555,35.62227],[140.05547,35.62226],[140.05544,35.62226],[140.05541,35.62226],[140.05539,35.62227],[140.05537,35.62228],[140.05536,35.62229],[140.05533,35.62232],[140.05531,35.62234],[140.0539,35.6212],[140.05391,35.6212],[140.05383,35.62114],[140.05374,35.62108],[140.05364,35.62101],[140.05357,35.62097],[140.05348,35.62091],[140.05332,35.62083],[140.05315,35.62075],[140.05299,35.6207],[140.05286,35.62065],[140.05272,35.62062],[140.05256,35.62058],[140.05242,35.62055],[140.05223,35.62053],[140.05206,35.62052],[140.05187,35.62051],[140.05165,35.62053],[140.05136,35.62057],[140.05115,35.62026],[140.05113,35.62028],[140.05133,35.62057],[140.05121,35.62059],[140.05122,35.62065],[140.05166,35.62059],[140.05188,35.62057],[140.05205,35.62058],[140.05222,35.62059],[140.0524,35.62061],[140.05255,35.62064],[140.0527,35.62068],[140.05284,35.62071],[140.05296,35.62075],[140.05312,35.62081],[140.05329,35.62089],[140.05343,35.62096],[140.05353,35.62102],[140.05364,35.62109],[140.0537,35.62113],[140.05378,35.62119],[140.05386,35.62124],[140.05387,35.62123],[140.05498,35.62213],[140.05476,35.62232],[140.05468,35.62241],[140.05465,35.62243],[140.05456,35.62247],[140.0545,35.62253],[140.05444,35.62259],[140.05436,35.6227],[140.0543,35.62277],[140.05413,35.62291],[140.05401,35.62298],[140.05399,35.62299],[140.05398,35.623],[140.05395,35.62303],[140.05391,35.62307],[140.05378,35.62315],[140.05372,35.6232],[140.05367,35.62325],[140.05365,35.62328],[140.05342,35.62355],[140.05318,35.62378],[140.05292,35.62401],[140.05268,35.62424],[140.05246,35.62443],[140.05241,35.62449],[140.05234,35.62454],[140.05229,35.62459],[140.05222,35.62465],[140.05212,35.62473],[140.05203,35.6248],[140.05198,35.62485],[140.05196,35.62488],[140.05192,35.62492],[140.05187,35.62497],[140.05181,35.62502],[140.05175,35.62507],[140.05169,35.62512],[140.05161,35.62518],[140.05151,35.62527],[140.0514,35.62536],[140.0513,35.62545],[140.05121,35.62552],[140.05114,35.62559],[140.05109,35.62563],[140.05107,35.62565],[140.05104,35.62566],[140.05101,35.62568],[140.05098,35.62571],[140.05095,35.62573],[140.05091,35.62575],[140.05089,35.62576],[140.05086,35.62577],[140.05082,35.6258],[140.05076,35.62585],[140.05069,35.62592],[140.0506,35.626],[140.05051,35.62607],[140.05043,35.62615],[140.05035,35.62621],[140.05027,35.62626],[140.05019,35.62632],[140.05013,35.62637],[140.0501,35.6264],[140.05006,35.62643],[140.04997,35.6265],[140.04986,35.62657],[140.04948,35.62684],[140.04944,35.62686],[140.04939,35.62689],[140.04934,35.62693],[140.0493,35.62697],[140.04927,35.62699],[140.04923,35.62703],[140.04917,35.62708],[140.0491,35.62714],[140.04902,35.62719],[140.04896,35.62723],[140.0489,35.62728],[140.04975,35.62796],[140.05012,35.62769],[140.05055,35.62738],[140.05112,35.62699],[140.05159,35.6267],[140.0522,35.6264],[140.05272,35.62616],[140.05301,35.62604],[140.0535,35.62586],[140.05398,35.62569],[140.05466,35.6255],[140.05578,35.62521],[140.05665,35.62599],[140.05749,35.62674],[140.05841,35.62756],[140.0587,35.62782],[140.05933,35.62838],[140.05972,35.62873],[140.0606,35.62801],[140.0613,35.62742],[140.06131,35.6274],[140.06219,35.62666],[140.06277,35.62617],[140.06183,35.62543],[140.06169,35.62532]]]}},{"type":"Feature","properties":{"name":"磯辺三丁目","setai":730,"jinko":1832,"key":"12106001003","units":1,"m":879,"f":953,"gk":32,"a0":183,"a1":779,"a2":802,"a75":514,"ag":[59,57,67,76,60,33,41,62,114,151,124,68,50,82,206,277,162,57,12,5,1],"nf":68},"geometry":{"type":"Polygon","coordinates":[[[140.05652,35.62939],[140.05665,35.62937],[140.05674,35.62939],[140.05682,35.62943],[140.05733,35.62987],[140.05815,35.63059],[140.05874,35.63015],[140.05982,35.62931],[140.06011,35.62909],[140.06006,35.62905],[140.05991,35.62891],[140.05972,35.62873],[140.05933,35.62838],[140.0587,35.62782],[140.05841,35.62756],[140.05749,35.62674],[140.05665,35.62599],[140.05578,35.62521],[140.05466,35.6255],[140.05398,35.62569],[140.0535,35.62586],[140.05301,35.62604],[140.05272,35.62616],[140.0522,35.6264],[140.05159,35.6267],[140.05112,35.62699],[140.05055,35.62738],[140.05012,35.62769],[140.04975,35.62796],[140.05079,35.62892],[140.05167,35.62972],[140.05221,35.6302],[140.05276,35.63071],[140.05281,35.63076],[140.05307,35.63097],[140.05344,35.63131],[140.05359,35.63144],[140.05405,35.63183],[140.05498,35.63114],[140.05503,35.63109],[140.05506,35.63104],[140.05507,35.63099],[140.05508,35.63095],[140.05509,35.63069],[140.0551,35.63064],[140.0551,35.63059],[140.05512,35.63052],[140.05514,35.63045],[140.05518,35.63039],[140.05551,35.63013],[140.05571,35.62998],[140.05572,35.62997],[140.05644,35.62942],[140.05652,35.62939]]]}},{"type":"Feature","properties":{"name":"磯辺四丁目","setai":728,"jinko":1696,"key":"12106001004","units":1,"m":768,"f":928,"gk":107,"a0":164,"a1":878,"a2":647,"a75":355,"ag":[25,50,89,104,60,45,31,63,106,156,144,97,72,87,205,185,111,45,13,1,0],"nf":7},"geometry":{"type":"Polygon","coordinates":[[[140.05949,35.63307],[140.06063,35.63221],[140.06086,35.63205],[140.06194,35.63123],[140.06226,35.631],[140.06147,35.63032],[140.06113,35.63],[140.06063,35.62955],[140.06011,35.62909],[140.05982,35.62931],[140.05874,35.63015],[140.05815,35.63059],[140.05733,35.62987],[140.05682,35.62943],[140.05674,35.62939],[140.05665,35.62937],[140.05652,35.62939],[140.05644,35.62942],[140.05572,35.62997],[140.05571,35.62998],[140.05551,35.63013],[140.05518,35.63039],[140.05514,35.63045],[140.05512,35.63052],[140.0551,35.63059],[140.0551,35.63064],[140.05509,35.63069],[140.05508,35.63095],[140.05507,35.63099],[140.05506,35.63104],[140.05503,35.63109],[140.05498,35.63114],[140.05405,35.63183],[140.05464,35.63235],[140.05557,35.63317],[140.05559,35.63316],[140.05614,35.63274],[140.05666,35.63237],[140.05686,35.63255],[140.05714,35.6328],[140.05716,35.63282],[140.05754,35.63314],[140.05766,35.63325],[140.05778,35.63336],[140.05787,35.63343],[140.05793,35.6335],[140.05809,35.63365],[140.05815,35.6337],[140.05819,35.63375],[140.05825,35.63378],[140.0583,35.6338],[140.05837,35.63382],[140.05848,35.63382],[140.05855,35.63378],[140.05862,35.63373],[140.05874,35.63363],[140.05894,35.63348],[140.05947,35.63309],[140.05949,35.63307]]]}},{"type":"Feature","properties":{"name":"磯辺五丁目","setai":3045,"jinko":7430,"key":"12106001005","units":1,"m":3552,"f":3878,"gk":251,"a0":1020,"a1":4239,"a2":2144,"a75":915,"ag":[442,321,257,292,279,220,429,578,542,542,544,451,362,492,737,465,297,126,20,6,1],"nf":27},"geometry":{"type":"Polygon","coordinates":[[[140.06352,35.63396],[140.06407,35.63356],[140.06425,35.63344],[140.06466,35.63315],[140.06465,35.63314],[140.06362,35.63222],[140.06357,35.63218],[140.06351,35.63213],[140.06345,35.63206],[140.06315,35.6318],[140.06284,35.63152],[140.06226,35.631],[140.06194,35.63123],[140.06086,35.63205],[140.06063,35.63221],[140.05949,35.63307],[140.05947,35.63309],[140.05894,35.63348],[140.05874,35.63363],[140.05862,35.63373],[140.05855,35.63378],[140.05848,35.63382],[140.05837,35.63382],[140.0583,35.6338],[140.05825,35.63378],[140.05819,35.63375],[140.05815,35.6337],[140.05809,35.63365],[140.05793,35.6335],[140.05787,35.63343],[140.05778,35.63336],[140.05766,35.63325],[140.05754,35.63314],[140.05716,35.63282],[140.05714,35.6328],[140.05686,35.63255],[140.05666,35.63237],[140.05614,35.63274],[140.05559,35.63316],[140.05577,35.63337],[140.05588,35.63349],[140.05594,35.63358],[140.05603,35.63371],[140.05607,35.63378],[140.05609,35.63383],[140.05613,35.63391],[140.05615,35.63401],[140.05618,35.63413],[140.05618,35.63418],[140.05619,35.63426],[140.05621,35.63435],[140.05622,35.6345],[140.05622,35.63466],[140.05622,35.63479],[140.05623,35.63495],[140.05623,35.63501],[140.05624,35.63515],[140.05624,35.63527],[140.05625,35.63539],[140.05628,35.63553],[140.0563,35.63561],[140.05633,35.63568],[140.05637,35.63578],[140.05644,35.6359],[140.05658,35.63609],[140.05668,35.63617],[140.05706,35.63652],[140.05731,35.63675],[140.05754,35.63694],[140.05781,35.63717],[140.05804,35.6374],[140.05813,35.63747],[140.05833,35.63764],[140.05834,35.63763],[140.05908,35.63711],[140.05979,35.63659],[140.05979,35.63659],[140.0599,35.63652],[140.06012,35.63637],[140.06032,35.63624],[140.06109,35.63566],[140.06168,35.63527],[140.06296,35.63435],[140.06298,35.63434],[140.06352,35.63396]]]}},{"type":"Feature","properties":{"name":"磯辺六丁目","setai":1253,"jinko":2807,"key":"12106001006","units":1,"m":1331,"f":1476,"gk":35,"a0":280,"a1":1403,"a2":1104,"a75":521,"ag":[74,117,89,97,81,73,95,141,208,239,199,138,132,214,369,291,162,57,10,1,0],"nf":20},"geometry":{"type":"Polygon","coordinates":[[[140.05577,35.63337],[140.05559,35.63316],[140.05557,35.63317],[140.05515,35.63348],[140.05446,35.63401],[140.05415,35.63424],[140.05375,35.63455],[140.05329,35.63489],[140.05325,35.63493],[140.05322,35.63495],[140.05318,35.63498],[140.05316,35.63505],[140.05315,35.63512],[140.05316,35.63517],[140.0532,35.63523],[140.05346,35.63545],[140.05368,35.63564],[140.05386,35.63579],[140.0535,35.63606],[140.05291,35.63652],[140.0529,35.63654],[140.05315,35.63688],[140.05336,35.63709],[140.05372,35.6374],[140.0544,35.63807],[140.05417,35.63823],[140.05407,35.6383],[140.05377,35.63854],[140.05301,35.63909],[140.05272,35.6393],[140.05206,35.63975],[140.05348,35.6412],[140.05458,35.64036],[140.05587,35.63944],[140.0565,35.639],[140.05833,35.63764],[140.05813,35.63747],[140.05804,35.6374],[140.05781,35.63717],[140.05754,35.63694],[140.05731,35.63675],[140.05706,35.63652],[140.05668,35.63617],[140.05658,35.63609],[140.05644,35.6359],[140.05637,35.63578],[140.05633,35.63568],[140.0563,35.63561],[140.05628,35.63553],[140.05625,35.63539],[140.05624,35.63527],[140.05624,35.63515],[140.05623,35.63501],[140.05623,35.63495],[140.05622,35.63479],[140.05622,35.63466],[140.05622,35.6345],[140.05621,35.63435],[140.05619,35.63426],[140.05618,35.63418],[140.05618,35.63413],[140.05615,35.63401],[140.05613,35.63391],[140.05609,35.63383],[140.05607,35.63378],[140.05603,35.63371],[140.05594,35.63358],[140.05588,35.63349],[140.05577,35.63337]]]}},{"type":"Feature","properties":{"name":"磯辺七丁目","setai":534,"jinko":1273,"key":"12106001007","units":1,"m":615,"f":658,"gk":15,"a0":123,"a1":524,"a2":624,"a75":343,"ag":[27,37,59,47,33,18,26,49,71,109,79,52,40,76,205,185,106,43,6,3,0],"nf":2},"geometry":{"type":"Polygon","coordinates":[[[140.05375,35.63455],[140.05415,35.63424],[140.05446,35.63401],[140.05515,35.63348],[140.05557,35.63317],[140.05464,35.63235],[140.05405,35.63183],[140.05348,35.63226],[140.05263,35.63289],[140.0519,35.63343],[140.05176,35.63354],[140.05095,35.63414],[140.0507,35.63393],[140.05043,35.63412],[140.05018,35.63432],[140.04991,35.6345],[140.0492,35.63387],[140.04896,35.63404],[140.04893,35.63407],[140.04861,35.6338],[140.04815,35.63413],[140.04721,35.63483],[140.0498,35.63747],[140.05045,35.63813],[140.05135,35.63903],[140.05206,35.63975],[140.05272,35.6393],[140.05301,35.63909],[140.05377,35.63854],[140.05407,35.6383],[140.05417,35.63823],[140.0544,35.63807],[140.05372,35.6374],[140.05336,35.63709],[140.05315,35.63688],[140.0529,35.63654],[140.05291,35.63652],[140.0535,35.63606],[140.05386,35.63579],[140.05368,35.63564],[140.05346,35.63545],[140.0532,35.63523],[140.05316,35.63517],[140.05315,35.63512],[140.05316,35.63505],[140.05318,35.63498],[140.05322,35.63495],[140.05325,35.63493],[140.05329,35.63489],[140.05375,35.63455]]]}},{"type":"Feature","properties":{"name":"磯辺八丁目","setai":268,"jinko":656,"key":"12106001008","units":1,"m":319,"f":337,"gk":9,"a0":67,"a1":277,"a2":310,"a75":129,"ag":[14,25,28,20,16,13,19,32,46,54,40,19,18,57,124,76,32,14,4,3,0],"nf":2},"geometry":{"type":"Polygon","coordinates":[[[140.04815,35.63413],[140.04861,35.6338],[140.04893,35.63407],[140.04896,35.63404],[140.0492,35.63387],[140.04991,35.6345],[140.05018,35.63432],[140.05043,35.63412],[140.0507,35.63393],[140.05095,35.63414],[140.05176,35.63354],[140.0519,35.63343],[140.05263,35.63289],[140.05348,35.63226],[140.05405,35.63183],[140.05359,35.63144],[140.05344,35.63131],[140.05307,35.63097],[140.05281,35.63076],[140.05276,35.63071],[140.05221,35.6302],[140.05167,35.62972],[140.05079,35.62892],[140.04975,35.62796],[140.0489,35.62728],[140.04848,35.6269],[140.04846,35.62691],[140.04835,35.62681],[140.04849,35.62665],[140.04844,35.62662],[140.04821,35.62686],[140.04826,35.62689],[140.04832,35.62683],[140.04843,35.62693],[140.04843,35.62694],[140.04884,35.62732],[140.0488,35.62735],[140.04876,35.62737],[140.04871,35.62742],[140.04869,35.62744],[140.04866,35.62746],[140.04862,35.6275],[140.04855,35.62755],[140.04846,35.62763],[140.04837,35.62771],[140.04827,35.6278],[140.04819,35.62788],[140.04814,35.62794],[140.0481,35.62798],[140.04804,35.62803],[140.04797,35.62807],[140.04793,35.6281],[140.04789,35.62813],[140.04782,35.62818],[140.04775,35.62825],[140.04774,35.62825],[140.04768,35.62831],[140.04761,35.62837],[140.04755,35.62842],[140.04749,35.62847],[140.04739,35.62855],[140.04734,35.62859],[140.04726,35.62866],[140.04715,35.62873],[140.04703,35.62882],[140.04681,35.62895],[140.0466,35.62907],[140.04655,35.62909],[140.04641,35.62915],[140.04626,35.6292],[140.0461,35.62926],[140.04592,35.62931],[140.04573,35.62938],[140.04565,35.62941],[140.04549,35.62947],[140.04539,35.62951],[140.04439,35.63001],[140.04415,35.62982],[140.04373,35.62947],[140.04374,35.62945],[140.0436,35.62932],[140.04349,35.62921],[140.04341,35.62912],[140.04336,35.62905],[140.04329,35.62896],[140.04313,35.62869],[140.04306,35.62857],[140.04302,35.62847],[140.04298,35.62836],[140.04295,35.62825],[140.04294,35.62824],[140.04292,35.62813],[140.0429,35.62802],[140.04289,35.6279],[140.04288,35.62778],[140.04289,35.62767],[140.0429,35.62755],[140.04292,35.62744],[140.04294,35.62732],[140.04298,35.62721],[140.04302,35.6271],[140.04306,35.627],[140.04313,35.62688],[140.04319,35.62678],[140.04326,35.62667],[140.04334,35.62658],[140.04342,35.62648],[140.04351,35.62639],[140.0436,35.62631],[140.0437,35.62622],[140.04365,35.62617],[140.04354,35.62626],[140.04345,35.62635],[140.04335,35.62644],[140.04327,35.62654],[140.04319,35.62664],[140.04312,35.62675],[140.04305,35.62685],[140.043,35.62696],[140.04295,35.62708],[140.0429,35.62719],[140.04287,35.62731],[140.04284,35.62743],[140.04282,35.62754],[140.04281,35.62766],[140.0428,35.62778],[140.04281,35.6279],[140.04282,35.62802],[140.04284,35.62814],[140.04286,35.62825],[140.04287,35.62826],[140.0429,35.62838],[140.04294,35.62849],[140.04299,35.6286],[140.04305,35.62871],[140.04321,35.62896],[140.04325,35.62903],[140.04333,35.62913],[140.04343,35.62924],[140.04355,35.62936],[140.0437,35.62949],[140.04413,35.62984],[140.04479,35.63039],[140.04526,35.63078],[140.04515,35.63087],[140.04462,35.63132],[140.04489,35.6316],[140.04439,35.63202],[140.04441,35.63204],[140.04446,35.63209],[140.04452,35.63215],[140.04583,35.63346],[140.04594,35.63357],[140.04706,35.63468],[140.04721,35.63483],[140.04815,35.63413]]]}},{"type":"Feature","properties":{"name":"稲毛海岸一丁目","setai":861,"jinko":1763,"key":"12106002001","units":1,"m":909,"f":854,"gk":142,"a0":294,"a1":1071,"a2":313,"a75":168,"ag":[63,111,120,82,78,66,84,123,208,182,116,72,60,63,82,75,47,30,14,1,1],"nf":85},"geometry":{"type":"Polygon","coordinates":[[[140.08623,35.62683],[140.08569,35.62631],[140.08536,35.62658],[140.08518,35.62673],[140.08489,35.62697],[140.08482,35.62703],[140.08458,35.62722],[140.08447,35.62733],[140.08446,35.62733],[140.08421,35.62754],[140.08376,35.62792],[140.08371,35.62796],[140.08398,35.62819],[140.08434,35.62845],[140.08453,35.6286],[140.08478,35.62879],[140.08513,35.62905],[140.0857,35.62949],[140.08604,35.62976],[140.0864,35.63002],[140.08683,35.63034],[140.08756,35.62965],[140.08814,35.62902],[140.08829,35.62885],[140.0877,35.62824],[140.08763,35.62819],[140.08702,35.6276],[140.08663,35.6272],[140.08623,35.62683]]]}},{"type":"Feature","properties":{"name":"稲毛海岸二丁目","setai":377,"jinko":895,"key":"12106002002","units":1,"m":420,"f":475,"gk":35,"a0":134,"a1":553,"a2":195,"a75":79,"ag":[53,38,43,46,24,34,62,58,70,89,71,52,47,55,61,41,21,11,6,0,0],"nf":13},"geometry":{"type":"Polygon","coordinates":[[[140.08398,35.62819],[140.08371,35.62796],[140.08324,35.62835],[140.08274,35.62877],[140.08269,35.62881],[140.08233,35.62912],[140.08198,35.62946],[140.08178,35.62964],[140.07958,35.63151],[140.08008,35.63192],[140.08045,35.6322],[140.08122,35.63281],[140.08206,35.63346],[140.0822,35.63358],[140.08244,35.63375],[140.08277,35.63401],[140.0828,35.63397],[140.08311,35.63365],[140.08337,35.63339],[140.08371,35.63309],[140.08441,35.63246],[140.08486,35.63207],[140.08616,35.63093],[140.08683,35.63034],[140.0864,35.63002],[140.08604,35.62976],[140.0857,35.62949],[140.08513,35.62905],[140.08478,35.62879],[140.08453,35.6286],[140.08434,35.62845],[140.08398,35.62819]]]}},{"type":"Feature","properties":{"name":"稲毛海岸三丁目","setai":814,"jinko":1659,"key":"12106002003","units":1,"m":794,"f":865,"gk":111,"a0":152,"a1":999,"a2":482,"a75":276,"ag":[50,55,47,68,85,81,87,101,113,133,146,110,75,105,101,101,97,65,12,1,0],"nf":26},"geometry":{"type":"Polygon","coordinates":[[[140.08008,35.63192],[140.07958,35.63151],[140.07883,35.63216],[140.07856,35.63239],[140.07837,35.63254],[140.07819,35.63269],[140.07807,35.63279],[140.07781,35.633],[140.07736,35.63339],[140.07699,35.63369],[140.07701,35.63371],[140.07774,35.63427],[140.07824,35.6346],[140.07852,35.63482],[140.07878,35.635],[140.07926,35.63537],[140.07957,35.63561],[140.07961,35.63565],[140.07972,35.63574],[140.08028,35.63617],[140.08103,35.63561],[140.08199,35.63483],[140.08222,35.63461],[140.08277,35.63401],[140.08244,35.63375],[140.0822,35.63358],[140.08206,35.63346],[140.08122,35.63281],[140.08045,35.6322],[140.08008,35.63192]]]}},{"type":"Feature","properties":{"name":"稲毛海岸四丁目","setai":651,"jinko":1207,"key":"12106002004","units":1,"m":593,"f":614,"gk":30,"a0":90,"a1":750,"a2":332,"a75":157,"ag":[26,37,27,46,81,85,56,80,69,94,92,82,65,73,102,67,55,20,10,5,0],"nf":35},"geometry":{"type":"Polygon","coordinates":[[[140.07701,35.63371],[140.07699,35.63369],[140.07639,35.63421],[140.07597,35.63456],[140.07571,35.63479],[140.07556,35.63491],[140.07547,35.63498],[140.07531,35.63512],[140.07512,35.63528],[140.07479,35.63557],[140.07608,35.63673],[140.07628,35.63691],[140.07667,35.63722],[140.07682,35.63733],[140.07694,35.63743],[140.07709,35.63754],[140.07719,35.63762],[140.07779,35.63811],[140.07827,35.63773],[140.07853,35.63754],[140.07917,35.63704],[140.07933,35.63692],[140.07958,35.63672],[140.07988,35.63648],[140.08025,35.63619],[140.08028,35.63617],[140.07972,35.63574],[140.07961,35.63565],[140.07957,35.63561],[140.07926,35.63537],[140.07878,35.635],[140.07852,35.63482],[140.07824,35.6346],[140.07774,35.63427],[140.07701,35.63371]]]}},{"type":"Feature","properties":{"name":"稲毛海岸五丁目","setai":1172,"jinko":3612,"key":"12106002005","units":1,"m":1748,"f":1864,"gk":105,"a0":1020,"a1":2222,"a2":358,"a75":171,"ag":[172,472,376,212,110,51,94,344,519,451,235,118,88,90,97,72,37,30,21,9,2],"nf":12},"geometry":{"type":"Polygon","coordinates":[[[140.07608,35.63673],[140.07479,35.63557],[140.07394,35.63629],[140.07347,35.63669],[140.07287,35.6372],[140.07192,35.63802],[140.071,35.63879],[140.07094,35.63885],[140.071,35.63891],[140.07109,35.63899],[140.07115,35.63906],[140.07119,35.63909],[140.07153,35.63939],[140.07165,35.63948],[140.07165,35.63949],[140.07176,35.63957],[140.07184,35.63964],[140.07225,35.64002],[140.07227,35.64004],[140.0723,35.64005],[140.07298,35.64067],[140.07309,35.64078],[140.07312,35.6408],[140.0732,35.64088],[140.07341,35.64107],[140.07364,35.64126],[140.0738,35.64142],[140.07475,35.64065],[140.07586,35.63976],[140.07617,35.63953],[140.07649,35.63928],[140.07668,35.63915],[140.07681,35.6391],[140.07691,35.63906],[140.07694,35.63905],[140.07702,35.639],[140.07714,35.63894],[140.0774,35.63874],[140.07742,35.63872],[140.07742,35.63872],[140.07754,35.63859],[140.07756,35.63857],[140.07788,35.63818],[140.07789,35.63816],[140.07779,35.63811],[140.07719,35.63762],[140.07709,35.63754],[140.07694,35.63743],[140.07682,35.63733],[140.07667,35.63722],[140.07628,35.63691],[140.07608,35.63673]]]}},{"type":"Feature","properties":{"name":"打瀬一丁目","setai":3579,"jinko":10199,"key":"12106003001","units":1,"m":4924,"f":5275,"gk":200,"a0":1728,"a1":7525,"a2":893,"a75":369,"ag":[324,587,817,1009,697,267,194,444,718,1407,1429,913,447,259,265,167,108,61,30,3,0],"nf":53},"geometry":{"type":"Polygon","coordinates":[[[140.05025,35.64335],[140.05096,35.64293],[140.05101,35.6429],[140.05137,35.64266],[140.0518,35.64239],[140.05213,35.64217],[140.05217,35.64214],[140.05267,35.64179],[140.05348,35.6412],[140.05206,35.63975],[140.05135,35.63903],[140.05045,35.63813],[140.0498,35.63747],[140.04892,35.63799],[140.04882,35.63805],[140.04827,35.63839],[140.04823,35.63841],[140.04806,35.63857],[140.04799,35.63864],[140.04791,35.63884],[140.04782,35.63905],[140.04772,35.63927],[140.04742,35.63998],[140.04709,35.64074],[140.04679,35.64147],[140.04663,35.64191],[140.04651,35.64218],[140.04615,35.643],[140.04584,35.64291],[140.04513,35.6427],[140.04493,35.64296],[140.04489,35.64302],[140.04469,35.64322],[140.04459,35.64332],[140.0445,35.6434],[140.04427,35.64366],[140.04411,35.64384],[140.04434,35.64402],[140.04452,35.64415],[140.04469,35.64427],[140.04484,35.64443],[140.04496,35.64458],[140.04507,35.64473],[140.04529,35.64509],[140.04533,35.64515],[140.04555,35.64569],[140.04561,35.64618],[140.04801,35.64469],[140.04861,35.64433],[140.04875,35.64425],[140.04903,35.64408],[140.04949,35.64381],[140.04962,35.64373],[140.04975,35.64365],[140.05007,35.64346],[140.05025,35.64335]]]}},{"type":"Feature","properties":{"name":"打瀬二丁目","setai":3269,"jinko":8360,"key":"12106003002","units":1,"m":4015,"f":4345,"gk":240,"a0":1230,"a1":5952,"a2":1085,"a75":379,"ag":[313,424,493,521,504,320,309,411,588,848,942,916,593,353,353,197,114,48,18,2,0],"nf":93},"geometry":{"type":"Polygon","coordinates":[[[140.04493,35.64296],[140.04513,35.6427],[140.04584,35.64291],[140.04615,35.643],[140.04651,35.64218],[140.04663,35.64191],[140.04679,35.64147],[140.04709,35.64074],[140.04742,35.63998],[140.04772,35.63927],[140.04782,35.63905],[140.04791,35.63884],[140.04799,35.63864],[140.04806,35.63857],[140.04823,35.63841],[140.04827,35.63839],[140.04882,35.63805],[140.04892,35.63799],[140.0498,35.63747],[140.04721,35.63483],[140.04594,35.6358],[140.0457,35.63603],[140.04569,35.63603],[140.04561,35.63611],[140.04528,35.6364],[140.04472,35.63689],[140.04418,35.63737],[140.04417,35.63739],[140.04359,35.63813],[140.04353,35.6382],[140.04331,35.63867],[140.04329,35.63873],[140.04324,35.63884],[140.04308,35.63919],[140.04294,35.6395],[140.04293,35.63953],[140.04292,35.63956],[140.04273,35.64005],[140.04264,35.64028],[140.0425,35.64063],[140.04236,35.64101],[140.04235,35.64102],[140.04206,35.64178],[140.04204,35.64184],[140.04203,35.64185],[140.04194,35.64208],[140.04188,35.64225],[140.0417,35.64267],[140.04157,35.64294],[140.04185,35.64303],[140.04205,35.64309],[140.04263,35.64326],[140.04272,35.64329],[140.04297,35.64337],[140.04305,35.64339],[140.04347,35.64351],[140.04373,35.64365],[140.04411,35.64384],[140.04427,35.64366],[140.0445,35.6434],[140.04459,35.64332],[140.04469,35.64322],[140.04489,35.64302],[140.04493,35.64296]]]}},{"type":"Feature","properties":{"name":"打瀬三丁目","setai":2455,"jinko":6686,"key":"12106003003","units":1,"m":3221,"f":3465,"gk":210,"a0":1278,"a1":4888,"a2":444,"a75":186,"ag":[273,463,542,591,412,162,193,379,596,888,939,508,220,128,130,90,61,26,8,1,0],"nf":76},"geometry":{"type":"Polygon","coordinates":[[[140.04452,35.63215],[140.04446,35.63209],[140.04423,35.63228],[140.04335,35.63299],[140.04328,35.63304],[140.04231,35.63386],[140.04174,35.63435],[140.04133,35.63474],[140.04121,35.63485],[140.04071,35.63539],[140.04068,35.63545],[140.04043,35.63596],[140.04034,35.63615],[140.04015,35.63657],[140.0401,35.63667],[140.04005,35.63695],[140.04002,35.63705],[140.04002,35.63708],[140.03995,35.63739],[140.03994,35.63745],[140.03992,35.63752],[140.03989,35.63769],[140.03987,35.63779],[140.03983,35.63797],[140.03975,35.63836],[140.0397,35.63856],[140.03969,35.6386],[140.03968,35.63866],[140.0396,35.639],[140.0396,35.63902],[140.03956,35.63918],[140.0395,35.6395],[140.03944,35.63974],[140.0394,35.6399],[140.03938,35.63999],[140.0393,35.64026],[140.03927,35.64034],[140.03925,35.64041],[140.03902,35.64093],[140.03897,35.64103],[140.03874,35.64135],[140.0386,35.64153],[140.0384,35.64178],[140.0382,35.64197],[140.03953,35.64236],[140.04023,35.64256],[140.04099,35.64278],[140.04157,35.64294],[140.0417,35.64267],[140.04188,35.64225],[140.04194,35.64208],[140.04203,35.64185],[140.04204,35.64184],[140.04206,35.64178],[140.04235,35.64102],[140.04236,35.64101],[140.0425,35.64063],[140.04264,35.64028],[140.04273,35.64005],[140.04292,35.63956],[140.04293,35.63953],[140.04294,35.6395],[140.04308,35.63919],[140.04324,35.63884],[140.04329,35.63873],[140.04331,35.63867],[140.04353,35.6382],[140.04359,35.63813],[140.04417,35.63739],[140.04418,35.63737],[140.04472,35.63689],[140.04528,35.6364],[140.04561,35.63611],[140.04569,35.63603],[140.0457,35.63603],[140.04594,35.6358],[140.04721,35.63483],[140.04706,35.63468],[140.04594,35.63357],[140.04583,35.63346],[140.04452,35.63215]]]}},{"type":"Feature","properties":{"name":"幸町一丁目","setai":3393,"jinko":7407,"key":"12106004001","units":1,"m":3615,"f":3792,"gk":250,"a0":686,"a1":4445,"a2":2200,"a75":1200,"ag":[165,229,292,396,420,343,254,329,406,710,610,525,452,470,530,520,381,209,74,15,1],"nf":76},"geometry":{"type":"Polygon","coordinates":[[[140.10139,35.6085],[140.10131,35.60844],[140.10123,35.60852],[140.10122,35.60853],[140.10084,35.60889],[140.1008,35.60893],[140.10019,35.60953],[140.09998,35.60974],[140.09933,35.61039],[140.09913,35.61058],[140.09884,35.61087],[140.0967,35.61299],[140.09623,35.61343],[140.09582,35.61383],[140.09563,35.61404],[140.09542,35.61423],[140.09517,35.61448],[140.09595,35.61503],[140.09628,35.61527],[140.09636,35.61532],[140.09679,35.61562],[140.09727,35.61595],[140.09781,35.61631],[140.09817,35.61656],[140.09922,35.61728],[140.09931,35.61758],[140.09932,35.61757],[140.09947,35.61744],[140.10014,35.61684],[140.1002,35.61678],[140.10039,35.6166],[140.10039,35.6166],[140.10083,35.61617],[140.10151,35.61553],[140.10151,35.61552],[140.10152,35.61552],[140.10173,35.61532],[140.10178,35.61527],[140.10178,35.61527],[140.10179,35.61527],[140.10179,35.61526],[140.10198,35.61508],[140.10199,35.61507],[140.10199,35.61507],[140.10236,35.61472],[140.10236,35.61472],[140.10249,35.61459],[140.1025,35.61459],[140.10251,35.61458],[140.10282,35.61428],[140.10285,35.61425],[140.10299,35.61412],[140.10306,35.61406],[140.10307,35.61404],[140.1033,35.61383],[140.10338,35.61374],[140.10339,35.61373],[140.10339,35.61373],[140.10355,35.61355],[140.10355,35.61355],[140.10355,35.61355],[140.10363,35.61346],[140.10404,35.61297],[140.10416,35.61282],[140.10425,35.61272],[140.10426,35.61271],[140.10426,35.6127],[140.10436,35.61258],[140.10443,35.6125],[140.10448,35.61243],[140.10448,35.61243],[140.10448,35.61243],[140.10454,35.61236],[140.1046,35.61226],[140.10475,35.61201],[140.10477,35.61198],[140.1048,35.61193],[140.10483,35.61188],[140.10486,35.61185],[140.10498,35.61166],[140.10505,35.61156],[140.10505,35.61156],[140.10515,35.6114],[140.1052,35.61133],[140.10529,35.61119],[140.10529,35.61118],[140.10519,35.61111],[140.10462,35.61073],[140.10438,35.61056],[140.10425,35.61047],[140.10401,35.6103],[140.10401,35.6103],[140.10377,35.61013],[140.10355,35.60997],[140.10328,35.60978],[140.10259,35.6093],[140.10157,35.60862],[140.10145,35.60854],[140.10139,35.6085]]]}},{"type":"Feature","properties":{"name":"幸町二丁目","setai":5896,"jinko":10888,"key":"12106004002","units":1,"m":5351,"f":5537,"gk":831,"a0":755,"a1":6310,"a2":3577,"a75":2004,"ag":[220,231,304,403,561,439,492,473,639,938,947,763,655,737,836,850,704,304,111,29,6],"nf":246},"geometry":{"type":"Polygon","coordinates":[[[140.09595,35.61503],[140.09517,35.61448],[140.09515,35.6145],[140.09472,35.61492],[140.09416,35.61547],[140.0938,35.61583],[140.09302,35.61659],[140.09311,35.61669],[140.0927,35.61711],[140.09223,35.61756],[140.09176,35.61802],[140.0915,35.61828],[140.0909,35.61886],[140.09061,35.61914],[140.08983,35.61991],[140.08881,35.62091],[140.08833,35.62139],[140.08797,35.62173],[140.0876,35.62208],[140.08737,35.62232],[140.0867,35.62297],[140.08622,35.62343],[140.08561,35.62403],[140.08507,35.62457],[140.08452,35.6251],[140.08531,35.62596],[140.08556,35.62621],[140.08569,35.62631],[140.08623,35.62683],[140.08663,35.6272],[140.08702,35.6276],[140.08763,35.62819],[140.0877,35.62824],[140.08829,35.62885],[140.08833,35.6288],[140.08952,35.62747],[140.09003,35.62694],[140.09027,35.6267],[140.09045,35.62652],[140.09058,35.62639],[140.09084,35.62613],[140.09108,35.62589],[140.09151,35.62547],[140.09197,35.62505],[140.09223,35.6248],[140.09259,35.62437],[140.0929,35.62404],[140.09357,35.62335],[140.09404,35.62288],[140.09412,35.62279],[140.09457,35.6223],[140.09499,35.62184],[140.09517,35.62165],[140.09549,35.62132],[140.09675,35.62008],[140.0968,35.62002],[140.09699,35.61984],[140.09751,35.61934],[140.09758,35.61926],[140.09773,35.61912],[140.09784,35.61901],[140.09812,35.61873],[140.09892,35.61796],[140.09928,35.61761],[140.09931,35.61758],[140.09922,35.61728],[140.09817,35.61656],[140.09781,35.61631],[140.09727,35.61595],[140.09679,35.61562],[140.09636,35.61532],[140.09628,35.61527],[140.09595,35.61503]]]}},{"type":"Feature","properties":{"name":"新港","setai":459,"jinko":1031,"key":"121060050","units":1,"m":458,"f":573,"gk":14,"a0":121,"a1":759,"a2":150,"a75":56,"ag":[22,37,62,104,97,36,25,39,81,163,96,74,44,50,44,37,9,6,4,0,0],"nf":1},"geometry":{"type":"Polygon","coordinates":[[[140.09563,35.61404],[140.09582,35.61383],[140.09623,35.61343],[140.0967,35.61299],[140.09884,35.61087],[140.09913,35.61058],[140.09933,35.61039],[140.09998,35.60974],[140.10019,35.60953],[140.1008,35.60893],[140.10084,35.60889],[140.10122,35.60853],[140.10123,35.60852],[140.10131,35.60844],[140.10097,35.60821],[140.10046,35.60786],[140.09901,35.60687],[140.09896,35.60683],[140.09889,35.60688],[140.0984,35.60653],[140.09839,35.60654],[140.09837,35.60657],[140.09836,35.60658],[140.09809,35.6064],[140.09797,35.60632],[140.09712,35.60573],[140.09552,35.60464],[140.09565,35.60451],[140.09636,35.605],[140.09647,35.6049],[140.09512,35.60398],[140.09501,35.60408],[140.0955,35.60442],[140.09538,35.60454],[140.09513,35.60437],[140.09513,35.60434],[140.09511,35.60434],[140.09511,35.60436],[140.09499,35.60428],[140.09472,35.60409],[140.09411,35.60369],[140.09334,35.60374],[140.09289,35.60418],[140.09275,35.60408],[140.09274,35.60402],[140.09288,35.60388],[140.09278,35.60382],[140.09193,35.60465],[140.09203,35.60471],[140.09217,35.60457],[140.09226,35.60457],[140.0924,35.60466],[140.09151,35.60555],[140.09134,35.60543],[140.0914,35.60537],[140.09128,35.6053],[140.09083,35.60573],[140.09022,35.60633],[140.09034,35.60642],[140.09043,35.60633],[140.09085,35.60592],[140.09101,35.60603],[140.0907,35.60633],[140.08992,35.6071],[140.08789,35.60909],[140.08778,35.60901],[140.08845,35.60836],[140.08827,35.60823],[140.08722,35.60926],[140.08738,35.60937],[140.08744,35.60932],[140.08746,35.60932],[140.08766,35.60913],[140.08777,35.6092],[140.08715,35.60981],[140.08688,35.60963],[140.08684,35.60963],[140.08673,35.60975],[140.08583,35.61064],[140.08583,35.61066],[140.08597,35.61076],[140.0864,35.61035],[140.08652,35.61044],[140.0861,35.61085],[140.08541,35.6115],[140.08534,35.61145],[140.0856,35.61118],[140.08544,35.61108],[140.08445,35.61203],[140.08462,35.61215],[140.08489,35.61189],[140.08496,35.61195],[140.08415,35.61274],[140.08407,35.61268],[140.08406,35.61266],[140.08415,35.61257],[140.08398,35.61245],[140.08314,35.61326],[140.08313,35.61327],[140.08315,35.61328],[140.08331,35.61339],[140.0834,35.61331],[140.08343,35.61331],[140.08352,35.61338],[140.08299,35.61389],[140.08172,35.61302],[140.08186,35.61288],[140.08024,35.61177],[140.08016,35.61176],[140.08004,35.61186],[140.07927,35.61132],[140.07945,35.61115],[140.07955,35.61117],[140.07966,35.61125],[140.07969,35.61122],[140.07966,35.6112],[140.07964,35.6112],[140.07955,35.61114],[140.07952,35.61113],[140.07952,35.61111],[140.07946,35.61107],[140.07942,35.61107],[140.07941,35.61105],[140.07934,35.611],[140.07935,35.61098],[140.0793,35.61095],[140.07927,35.61097],[140.07939,35.61106],[140.07941,35.61112],[140.07923,35.61129],[140.07858,35.61086],[140.07845,35.61077],[140.07792,35.61041],[140.07845,35.60989],[140.07917,35.60918],[140.07919,35.6092],[140.07921,35.60921],[140.07918,35.60926],[140.07918,35.6093],[140.0792,35.60932],[140.07922,35.60936],[140.07937,35.60946],[140.08064,35.60821],[140.08056,35.60816],[140.08047,35.60811],[140.08044,35.6081],[140.08039,35.60811],[140.08035,35.60812],[140.08031,35.60814],[140.08027,35.60811],[140.08176,35.60664],[140.08192,35.60675],[140.08137,35.6073],[140.08149,35.60738],[140.08234,35.60655],[140.08254,35.60635],[140.08261,35.60628],[140.08257,35.60625],[140.08299,35.60583],[140.08299,35.60584],[140.08301,35.60585],[140.08302,35.60585],[140.08304,35.60586],[140.08305,35.60585],[140.08307,35.60584],[140.08308,35.60583],[140.08308,35.60582],[140.08308,35.60581],[140.08308,35.60579],[140.08307,35.60578],[140.08305,35.60578],[140.08303,35.60577],[140.08302,35.60577],[140.083,35.60578],[140.08299,35.60579],[140.08298,35.6058],[140.08298,35.60582],[140.08255,35.60624],[140.08249,35.6062],[140.08234,35.60635],[140.08196,35.60672],[140.0818,35.60661],[140.08198,35.60643],[140.082,35.60644],[140.08206,35.60639],[140.08203,35.60637],[140.08206,35.60635],[140.08244,35.60599],[140.08271,35.60572],[140.08316,35.60528],[140.08371,35.60474],[140.08372,35.60473],[140.08414,35.60432],[140.08426,35.6044],[140.08414,35.60451],[140.08416,35.60453],[140.08413,35.60455],[140.08419,35.60459],[140.08422,35.60457],[140.08421,35.60456],[140.08449,35.60428],[140.0845,35.60429],[140.08453,35.60426],[140.08447,35.60422],[140.08444,35.60425],[140.08442,35.60424],[140.08441,35.60425],[140.08441,35.60404],[140.08504,35.60342],[140.08517,35.60351],[140.08515,35.60354],[140.08518,35.60357],[140.08533,35.60343],[140.08532,35.60342],[140.08536,35.60338],[140.08537,35.60339],[140.08538,35.60338],[140.08536,35.60336],[140.0853,35.60341],[140.08529,35.6034],[140.08525,35.60344],[140.08512,35.60335],[140.08605,35.60244],[140.08617,35.60252],[140.08616,35.60253],[140.08618,35.60255],[140.08616,35.60257],[140.08612,35.6026],[140.0861,35.60259],[140.08608,35.60261],[140.08612,35.60265],[140.08615,35.60262],[140.08614,35.60261],[140.08619,35.60255],[140.08621,35.60257],[140.08628,35.60249],[140.08627,35.60248],[140.08632,35.60244],[140.08634,35.60245],[140.08636,35.60242],[140.08631,35.60238],[140.08628,35.60241],[140.08631,35.60243],[140.08625,35.60248],[140.08623,35.60246],[140.0862,35.60249],[140.08608,35.60241],[140.0866,35.6019],[140.08657,35.60183],[140.08657,35.60183],[140.08656,35.60181],[140.0867,35.60176],[140.08675,35.60175],[140.08675,35.60177],[140.08681,35.60175],[140.08678,35.6017],[140.08673,35.60172],[140.08674,35.60174],[140.0867,35.60175],[140.08655,35.6018],[140.08625,35.60123],[140.08643,35.60117],[140.08645,35.60121],[140.08647,35.6012],[140.08653,35.6013],[140.08658,35.60128],[140.08656,35.60123],[140.08653,35.60124],[140.0865,35.60119],[140.08653,35.60118],[140.08647,35.60108],[140.08644,35.60109],[140.08642,35.60104],[140.08645,35.60103],[140.08642,35.60099],[140.08637,35.60101],[140.08642,35.60109],[140.08639,35.6011],[140.08641,35.60114],[140.08624,35.6012],[140.08601,35.60078],[140.08624,35.6007],[140.08622,35.60066],[140.08617,35.60068],[140.08618,35.60069],[140.086,35.60076],[140.08578,35.60035],[140.08597,35.60029],[140.08604,35.60042],[140.0861,35.6004],[140.08608,35.60035],[140.08604,35.60036],[140.08602,35.60032],[140.08605,35.6003],[140.08601,35.60022],[140.08597,35.60023],[140.08595,35.60018],[140.08599,35.60017],[140.08596,35.60012],[140.08589,35.60014],[140.08596,35.60028],[140.08578,35.60034],[140.08557,35.59994],[140.08575,35.59988],[140.08576,35.5999],[140.08581,35.59988],[140.08579,35.59984],[140.08573,35.59986],[140.08574,35.59987],[140.08556,35.59993],[140.08541,35.59964],[140.08549,35.59962],[140.08549,35.59962],[140.08561,35.59959],[140.08567,35.59957],[140.0845,35.59733],[140.08438,35.59709],[140.08431,35.59711],[140.08443,35.59733],[140.08457,35.5976],[140.08437,35.59767],[140.08419,35.59733],[140.08391,35.5968],[140.08336,35.59733],[140.08224,35.59842],[140.08208,35.59831],[140.0821,35.59828],[140.08201,35.59822],[140.08198,35.59824],[140.08154,35.59795],[140.08158,35.59794],[140.08156,35.59789],[140.08147,35.59791],[140.08102,35.5976],[140.08105,35.59757],[140.08099,35.59752],[140.08096,35.59755],[140.08064,35.59734],[140.08063,35.59733],[140.08066,35.5973],[140.0806,35.59726],[140.08057,35.59729],[140.08014,35.597],[140.08022,35.59692],[140.08034,35.597],[140.08039,35.59694],[140.08057,35.59705],[140.08055,35.59708],[140.08061,35.59711],[140.08068,35.59704],[140.08062,35.597],[140.08058,35.59704],[140.08048,35.59698],[140.08052,35.59694],[140.08047,35.59691],[140.08043,35.59694],[140.08035,35.59689],[140.08015,35.59676],[140.08011,35.59673],[140.08016,35.59668],[140.08011,35.59665],[140.08006,35.5967],[140.07996,35.59663],[140.08,35.59658],[140.07994,35.59654],[140.07986,35.59661],[140.07993,35.59666],[140.07994,35.59664],[140.0801,35.59674],[140.08003,35.59681],[140.08015,35.59688],[140.08008,35.59695],[140.07964,35.59666],[140.07968,35.59662],[140.07961,35.59657],[140.07957,35.59661],[140.07924,35.59638],[140.07927,35.59635],[140.07921,35.59632],[140.07919,35.59635],[140.07885,35.5961],[140.07885,35.59604],[140.07879,35.59604],[140.07878,35.5961],[140.07883,35.5961],[140.07918,35.59636],[140.07915,35.5964],[140.07919,35.59642],[140.07922,35.59639],[140.07956,35.59663],[140.0795,35.59669],[140.07946,35.59666],[140.07943,35.5967],[140.07941,35.59668],[140.07942,35.59667],[140.07938,35.59665],[140.07934,35.59669],[140.07938,35.59672],[140.0794,35.5967],[140.07942,35.59671],[140.0794,35.59673],[140.07952,35.59681],[140.07954,35.5968],[140.07957,35.59681],[140.07955,35.59683],[140.07959,35.59686],[140.07963,35.59681],[140.07959,35.59679],[140.07958,35.5968],[140.07955,35.59679],[140.07959,35.59675],[140.07956,35.59673],[140.07958,35.59671],[140.07986,35.59689],[140.07983,35.59691],[140.07986,35.59693],[140.07989,35.59691],[140.08015,35.59709],[140.08013,35.59712],[140.08016,35.59714],[140.08019,35.59712],[140.08051,35.59734],[140.08053,35.59735],[140.08051,35.59738],[140.08054,35.5974],[140.08057,35.59738],[140.08072,35.59748],[140.0807,35.5975],[140.08065,35.59747],[140.08062,35.5975],[140.0806,35.59749],[140.08062,35.59748],[140.08058,35.59745],[140.08053,35.5975],[140.08057,35.59753],[140.08059,35.59751],[140.0806,35.59752],[140.08058,35.59754],[140.08072,35.59764],[140.08074,35.59762],[140.08076,35.59763],[140.08074,35.59765],[140.08078,35.59768],[140.08083,35.59763],[140.08079,35.5976],[140.08078,35.59762],[140.08076,35.59761],[140.08079,35.59757],[140.08076,35.59755],[140.08078,35.59753],[140.0808,35.59754],[140.0808,35.59754],[140.08092,35.59762],[140.0809,35.59764],[140.08094,35.59767],[140.08096,35.59765],[140.08129,35.59788],[140.08127,35.5979],[140.08131,35.59792],[140.08132,35.5979],[140.08153,35.59804],[140.0815,35.59807],[140.08164,35.59817],[140.08168,35.59813],[140.08218,35.59849],[140.08047,35.60017],[140.07974,35.59968],[140.07965,35.59952],[140.07963,35.59948],[140.07932,35.59892],[140.07925,35.59893],[140.07928,35.59897],[140.07929,35.59897],[140.07934,35.59906],[140.07933,35.59906],[140.07936,35.59911],[140.07937,35.5991],[140.07941,35.59917],[140.07937,35.59919],[140.07941,35.59925],[140.07944,35.59924],[140.07947,35.59928],[140.07944,35.59929],[140.07948,35.59937],[140.07951,35.59936],[140.07954,35.5994],[140.07952,35.59941],[140.0795,35.59942],[140.07952,35.59948],[140.07957,35.59947],[140.07962,35.59954],[140.07961,35.59954],[140.07962,35.59958],[140.07963,35.59957],[140.07967,35.59963],[140.07971,35.59971],[140.08043,35.6002],[140.07875,35.60185],[140.07843,35.60217],[140.07833,35.60227],[140.07611,35.60443],[140.07566,35.60487],[140.07428,35.60622],[140.07413,35.60637],[140.074,35.60649],[140.07334,35.60714],[140.07244,35.60803],[140.07232,35.60815],[140.07119,35.60925],[140.07035,35.61007],[140.07017,35.61025],[140.06963,35.61078],[140.0704,35.6116],[140.07048,35.61168],[140.07426,35.61524],[140.07491,35.61587],[140.07496,35.61592],[140.0752,35.61615],[140.07556,35.6165],[140.07584,35.61677],[140.07612,35.61703],[140.07616,35.61707],[140.07641,35.61731],[140.07641,35.61731],[140.07667,35.61756],[140.07743,35.61829],[140.07773,35.61859],[140.07825,35.61909],[140.07848,35.61931],[140.07862,35.61944],[140.07895,35.61975],[140.07979,35.62056],[140.08044,35.62119],[140.08055,35.62129],[140.08121,35.62193],[140.08141,35.62212],[140.08205,35.62274],[140.0824,35.62308],[140.08253,35.62319],[140.0829,35.62356],[140.08375,35.62437],[140.08408,35.62469],[140.08429,35.62489],[140.08436,35.62496],[140.08452,35.6251],[140.08507,35.62457],[140.08561,35.62403],[140.08622,35.62343],[140.0867,35.62297],[140.08737,35.62232],[140.0876,35.62208],[140.08797,35.62173],[140.08833,35.62139],[140.08881,35.62091],[140.08983,35.61991],[140.09061,35.61914],[140.0909,35.61886],[140.0915,35.61828],[140.09176,35.61802],[140.09223,35.61756],[140.0927,35.61711],[140.09311,35.61669],[140.09302,35.61659],[140.0938,35.61583],[140.09416,35.61547],[140.09472,35.61492],[140.09515,35.6145],[140.09517,35.61448],[140.09542,35.61423],[140.09563,35.61404]]]}},{"type":"Feature","properties":{"name":"高洲一丁目","setai":2167,"jinko":3964,"key":"12106006001","units":1,"m":1928,"f":2036,"gk":158,"a0":281,"a1":2367,"a2":1196,"a75":674,"ag":[66,104,111,182,223,205,167,208,239,337,338,258,210,201,321,284,216,120,47,5,2],"nf":120},"geometry":{"type":"Polygon","coordinates":[[[140.08178,35.62964],[140.08198,35.62946],[140.08233,35.62912],[140.08269,35.62881],[140.08274,35.62877],[140.08324,35.62835],[140.08371,35.62796],[140.08376,35.62792],[140.08421,35.62754],[140.08446,35.62733],[140.08447,35.62733],[140.08458,35.62722],[140.08482,35.62703],[140.08489,35.62697],[140.08518,35.62673],[140.08536,35.62658],[140.08569,35.62631],[140.08556,35.62621],[140.08531,35.62596],[140.08452,35.6251],[140.08422,35.62539],[140.08398,35.62558],[140.08383,35.62571],[140.08367,35.62584],[140.08347,35.62602],[140.08323,35.6262],[140.08299,35.62638],[140.08282,35.62653],[140.08264,35.62666],[140.08246,35.62682],[140.08226,35.62697],[140.08202,35.62716],[140.08181,35.62731],[140.08157,35.6275],[140.08137,35.62761],[140.08114,35.62776],[140.08082,35.62796],[140.0806,35.62808],[140.08038,35.6282],[140.08011,35.62833],[140.07979,35.62848],[140.0795,35.62861],[140.07942,35.62864],[140.07924,35.62873],[140.07883,35.62889],[140.07851,35.62899],[140.07839,35.62903],[140.07825,35.62907],[140.07777,35.62921],[140.07746,35.6293],[140.07677,35.62944],[140.07677,35.62944],[140.07675,35.62939],[140.07672,35.62931],[140.07634,35.62935],[140.0759,35.6294],[140.07495,35.6295],[140.07495,35.6295],[140.07476,35.62951],[140.07477,35.62968],[140.07473,35.62968],[140.07431,35.6297],[140.07404,35.62972],[140.0729,35.62981],[140.07208,35.62987],[140.07269,35.63036],[140.07301,35.63063],[140.07303,35.63064],[140.07341,35.63091],[140.07387,35.63128],[140.07389,35.63129],[140.07418,35.63151],[140.07463,35.63186],[140.07491,35.63207],[140.07521,35.63231],[140.07532,35.6324],[140.07559,35.63261],[140.0756,35.63262],[140.07574,35.63274],[140.07594,35.63288],[140.07617,35.63307],[140.07654,35.63335],[140.07656,35.63337],[140.0766,35.6334],[140.07699,35.63369],[140.07736,35.63339],[140.07781,35.633],[140.07807,35.63279],[140.07819,35.63269],[140.07837,35.63254],[140.07856,35.63239],[140.07883,35.63216],[140.07958,35.63151],[140.08178,35.62964]]]}},{"type":"Feature","properties":{"name":"高洲二丁目","setai":4581,"jinko":8403,"key":"12106006002","units":1,"m":4230,"f":4173,"gk":655,"a0":761,"a1":4785,"a2":2704,"a75":1265,"ag":[273,229,259,289,316,327,396,474,578,742,626,553,484,654,785,637,409,161,46,9,3],"nf":153},"geometry":{"type":"Polygon","coordinates":[[[140.07848,35.61931],[140.07825,35.61909],[140.07799,35.61929],[140.07778,35.61946],[140.07738,35.61981],[140.07735,35.61984],[140.07714,35.62003],[140.07685,35.62026],[140.07621,35.62081],[140.07556,35.62136],[140.0755,35.62141],[140.07504,35.62181],[140.07503,35.62182],[140.075,35.62185],[140.07435,35.62239],[140.07399,35.62271],[140.0735,35.62313],[140.07358,35.62319],[140.07434,35.62378],[140.0746,35.62399],[140.07483,35.62417],[140.07519,35.62447],[140.07562,35.62483],[140.07566,35.62486],[140.07602,35.62513],[140.07675,35.62571],[140.07748,35.62628],[140.07765,35.62642],[140.07797,35.62666],[140.07825,35.62688],[140.0785,35.62709],[140.07864,35.62718],[140.07887,35.62737],[140.07914,35.62757],[140.07918,35.62761],[140.07954,35.62789],[140.07994,35.6282],[140.08011,35.62833],[140.08038,35.6282],[140.0806,35.62808],[140.08082,35.62796],[140.08114,35.62776],[140.08137,35.62761],[140.08157,35.6275],[140.08181,35.62731],[140.08202,35.62716],[140.08226,35.62697],[140.08246,35.62682],[140.08264,35.62666],[140.08282,35.62653],[140.08299,35.62638],[140.08323,35.6262],[140.08347,35.62602],[140.08367,35.62584],[140.08383,35.62571],[140.08398,35.62558],[140.08422,35.62539],[140.08452,35.6251],[140.08436,35.62496],[140.08429,35.62489],[140.08408,35.62469],[140.08375,35.62437],[140.0829,35.62356],[140.08253,35.62319],[140.0824,35.62308],[140.08205,35.62274],[140.08141,35.62212],[140.08121,35.62193],[140.08055,35.62129],[140.08044,35.62119],[140.07979,35.62056],[140.07895,35.61975],[140.07862,35.61944],[140.07848,35.61931]]]}},{"type":"Feature","properties":{"name":"高洲三丁目","setai":4617,"jinko":9769,"key":"12106006003","units":1,"m":4611,"f":5158,"gk":347,"a0":942,"a1":6110,"a2":2542,"a75":1189,"ag":[307,298,337,418,484,422,461,483,625,852,961,833,571,630,723,566,390,165,56,12,0],"nf":175},"geometry":{"type":"Polygon","coordinates":[[[140.07476,35.62951],[140.07495,35.6295],[140.07495,35.6295],[140.0759,35.6294],[140.07634,35.62935],[140.07672,35.62931],[140.07675,35.62939],[140.07677,35.62944],[140.07677,35.62944],[140.07746,35.6293],[140.07777,35.62921],[140.07825,35.62907],[140.07839,35.62903],[140.07851,35.62899],[140.07883,35.62889],[140.07924,35.62873],[140.07942,35.62864],[140.0795,35.62861],[140.07979,35.62848],[140.08011,35.62833],[140.07994,35.6282],[140.07954,35.62789],[140.07918,35.62761],[140.07914,35.62757],[140.07887,35.62737],[140.07864,35.62718],[140.0785,35.62709],[140.07825,35.62688],[140.07797,35.62666],[140.07765,35.62642],[140.07748,35.62628],[140.07675,35.62571],[140.07602,35.62513],[140.07566,35.62486],[140.07562,35.62483],[140.07519,35.62447],[140.07483,35.62417],[140.0746,35.62399],[140.07434,35.62378],[140.07358,35.62319],[140.0735,35.62313],[140.07297,35.62357],[140.07207,35.62434],[140.07198,35.62444],[140.0714,35.62491],[140.07109,35.62517],[140.07077,35.62545],[140.07052,35.62565],[140.07044,35.62573],[140.07022,35.62592],[140.06997,35.62612],[140.06981,35.62626],[140.06969,35.62637],[140.06953,35.62651],[140.06936,35.62665],[140.06914,35.62683],[140.06892,35.62702],[140.0687,35.62722],[140.06869,35.62723],[140.06938,35.62776],[140.06945,35.62781],[140.06975,35.62805],[140.07006,35.6283],[140.07018,35.62839],[140.07059,35.6287],[140.07095,35.62898],[140.07142,35.62934],[140.07167,35.62957],[140.07175,35.62964],[140.07208,35.62987],[140.0729,35.62981],[140.07404,35.62972],[140.07431,35.6297],[140.07473,35.62968],[140.07477,35.62968],[140.07476,35.62951]]]}},{"type":"Feature","properties":{"name":"高洲四丁目","setai":2279,"jinko":4343,"key":"12106006004","units":1,"m":2206,"f":2137,"gk":373,"a0":526,"a1":2829,"a2":889,"a75":429,"ag":[148,197,181,180,217,179,238,278,365,417,388,332,235,217,243,217,132,60,17,3,0],"nf":99},"geometry":{"type":"Polygon","coordinates":[[[140.06938,35.62776],[140.06869,35.62723],[140.06838,35.62749],[140.06832,35.62753],[140.06808,35.62774],[140.06765,35.62811],[140.0676,35.62816],[140.06759,35.62817],[140.06707,35.6286],[140.06665,35.62895],[140.0666,35.62901],[140.06651,35.62909],[140.06713,35.62957],[140.06728,35.62968],[140.06788,35.63015],[140.06807,35.63029],[140.06844,35.63059],[140.06852,35.63066],[140.06874,35.63081],[140.06914,35.63113],[140.06951,35.63143],[140.06958,35.63149],[140.06972,35.6316],[140.06996,35.63178],[140.07048,35.63218],[140.07088,35.63249],[140.07127,35.63281],[140.07161,35.63305],[140.07186,35.63325],[140.07207,35.63341],[140.07225,35.63356],[140.0725,35.63375],[140.07259,35.63382],[140.07277,35.63395],[140.07297,35.63411],[140.07305,35.63418],[140.07342,35.63449],[140.07438,35.63524],[140.07468,35.63547],[140.07479,35.63557],[140.07512,35.63528],[140.07531,35.63512],[140.07547,35.63498],[140.07556,35.63491],[140.07571,35.63479],[140.07597,35.63456],[140.07639,35.63421],[140.07699,35.63369],[140.0766,35.6334],[140.07656,35.63337],[140.07654,35.63335],[140.07617,35.63307],[140.07594,35.63288],[140.07574,35.63274],[140.0756,35.63262],[140.07559,35.63261],[140.07532,35.6324],[140.07521,35.63231],[140.07491,35.63207],[140.07463,35.63186],[140.07418,35.63151],[140.07389,35.63129],[140.07387,35.63128],[140.07341,35.63091],[140.07303,35.63064],[140.07301,35.63063],[140.07269,35.63036],[140.07208,35.62987],[140.07175,35.62964],[140.07167,35.62957],[140.07142,35.62934],[140.07095,35.62898],[140.07059,35.6287],[140.07018,35.62839],[140.07006,35.6283],[140.06975,35.62805],[140.06945,35.62781],[140.06938,35.62776]]]}},{"type":"Feature","properties":{"name":"高浜一丁目","setai":2334,"jinko":4944,"key":"12106007001","units":1,"m":2310,"f":2634,"gk":1083,"a0":511,"a1":3021,"a2":1383,"a75":632,"ag":[171,137,203,210,257,175,244,300,355,427,400,356,297,328,423,325,187,93,20,6,1],"nf":29},"geometry":{"type":"Polygon","coordinates":[[[140.07496,35.61592],[140.07491,35.61587],[140.07466,35.61608],[140.07424,35.61642],[140.07398,35.61665],[140.07364,35.61693],[140.07332,35.6172],[140.07266,35.61776],[140.0721,35.61824],[140.07122,35.61899],[140.0711,35.61908],[140.07072,35.61941],[140.06978,35.62024],[140.06978,35.62025],[140.07017,35.62053],[140.0706,35.62086],[140.0706,35.62086],[140.07097,35.62115],[140.07098,35.62116],[140.07138,35.62148],[140.07163,35.62167],[140.07179,35.6218],[140.07189,35.62188],[140.07213,35.62206],[140.07249,35.62234],[140.07256,35.6224],[140.07282,35.6226],[140.07311,35.62283],[140.0735,35.62313],[140.07399,35.62271],[140.07435,35.62239],[140.075,35.62185],[140.07503,35.62182],[140.07504,35.62181],[140.0755,35.62141],[140.07556,35.62136],[140.07621,35.62081],[140.07685,35.62026],[140.07714,35.62003],[140.07735,35.61984],[140.07738,35.61981],[140.07778,35.61946],[140.07799,35.61929],[140.07825,35.61909],[140.07773,35.61859],[140.07743,35.61829],[140.07667,35.61756],[140.07641,35.61731],[140.07641,35.61731],[140.07616,35.61707],[140.07612,35.61703],[140.07584,35.61677],[140.07556,35.6165],[140.0752,35.61615],[140.07496,35.61592]]]}},{"type":"Feature","properties":{"name":"高浜二丁目","setai":1,"jinko":51,"key":"12106007002","units":1,"m":17,"f":34,"gk":0,"a0":0,"a1":0,"a2":0,"a75":0,"ag":[0,0,0,0,0,0,0,0,0,0,0,0,0,0,0,0,0,0,0,0,0],"nf":51},"geometry":{"type":"Polygon","coordinates":[[[140.07426,35.61524],[140.07048,35.61168],[140.07042,35.61211],[140.07038,35.61243],[140.07034,35.61277],[140.07028,35.61312],[140.07022,35.61342],[140.07013,35.61373],[140.06997,35.61408],[140.06969,35.61459],[140.06945,35.61491],[140.06925,35.61516],[140.06904,35.61539],[140.06722,35.61697],[140.06645,35.6176],[140.0691,35.6197],[140.06978,35.62024],[140.07072,35.61941],[140.0711,35.61908],[140.07122,35.61899],[140.0721,35.61824],[140.07266,35.61776],[140.07332,35.6172],[140.07364,35.61693],[140.07398,35.61665],[140.07424,35.61642],[140.07466,35.61608],[140.07491,35.61587],[140.07426,35.61524]]]}},{"type":"Feature","properties":{"name":"高浜三丁目","setai":1054,"jinko":2405,"key":"12106007003","units":1,"m":1153,"f":1252,"gk":66,"a0":248,"a1":1224,"a2":910,"a75":320,"ag":[53,81,114,98,85,47,70,85,201,244,148,131,115,243,347,214,75,26,2,2,1],"nf":23},"geometry":{"type":"Polygon","coordinates":[[[140.0691,35.6197],[140.06645,35.6176],[140.06491,35.61893],[140.0642,35.61954],[140.06367,35.62],[140.06336,35.62027],[140.06306,35.62051],[140.06245,35.62105],[140.06167,35.62172],[140.06229,35.62218],[140.06279,35.62256],[140.0628,35.62258],[140.06352,35.62314],[140.06369,35.62328],[140.06428,35.62374],[140.06455,35.62396],[140.065,35.6243],[140.06502,35.62429],[140.06584,35.62358],[140.06604,35.6234],[140.06605,35.62339],[140.06652,35.62298],[140.06653,35.62298],[140.06675,35.62279],[140.06703,35.62256],[140.06729,35.62233],[140.06732,35.62232],[140.06761,35.62207],[140.06823,35.62155],[140.0684,35.6214],[140.06905,35.62085],[140.06978,35.62025],[140.06978,35.62024],[140.0691,35.6197]]]}},{"type":"Feature","properties":{"name":"高浜四丁目","setai":1608,"jinko":3594,"key":"12106007004","units":1,"m":1683,"f":1911,"gk":218,"a0":309,"a1":1800,"a2":1459,"a75":634,"ag":[60,94,155,143,125,115,128,171,225,263,240,180,210,306,519,370,189,50,22,3,0],"nf":26},"geometry":{"type":"Polygon","coordinates":[[[140.07017,35.62053],[140.06978,35.62025],[140.06905,35.62085],[140.0684,35.6214],[140.06823,35.62155],[140.06761,35.62207],[140.06732,35.62232],[140.06729,35.62233],[140.06703,35.62256],[140.06675,35.62279],[140.06653,35.62298],[140.06652,35.62298],[140.06605,35.62339],[140.06604,35.6234],[140.06584,35.62358],[140.06502,35.62429],[140.06551,35.62471],[140.06586,35.62497],[140.06607,35.62516],[140.0672,35.62604],[140.06785,35.62655],[140.06835,35.62695],[140.06837,35.62697],[140.0687,35.62722],[140.06892,35.62702],[140.06914,35.62683],[140.06936,35.62665],[140.06953,35.62651],[140.06969,35.62637],[140.06981,35.62626],[140.06997,35.62612],[140.07022,35.62592],[140.07044,35.62573],[140.07052,35.62565],[140.07077,35.62545],[140.07109,35.62517],[140.0714,35.62491],[140.07198,35.62444],[140.07207,35.62434],[140.07297,35.62357],[140.0735,35.62313],[140.07311,35.62283],[140.07282,35.6226],[140.07256,35.6224],[140.07249,35.62234],[140.07213,35.62206],[140.07189,35.62188],[140.07179,35.6218],[140.07163,35.62167],[140.07138,35.62148],[140.07098,35.62116],[140.07097,35.62115],[140.0706,35.62086],[140.0706,35.62086],[140.07017,35.62053]]]}},{"type":"Feature","properties":{"name":"高浜五丁目","setai":394,"jinko":929,"key":"12106007005","units":1,"m":443,"f":486,"gk":11,"a0":74,"a1":392,"a2":462,"a75":252,"ag":[9,29,36,27,35,10,17,30,64,84,58,38,29,51,159,125,84,38,4,1,0],"nf":1},"geometry":{"type":"Polygon","coordinates":[[[140.06551,35.62471],[140.06502,35.62429],[140.065,35.6243],[140.06434,35.62482],[140.06411,35.62501],[140.06388,35.62522],[140.06387,35.62522],[140.06374,35.62532],[140.06309,35.62589],[140.06277,35.62617],[140.06363,35.62684],[140.0641,35.6272],[140.06418,35.62725],[140.06513,35.628],[140.06548,35.62827],[140.0663,35.62893],[140.0665,35.62908],[140.06651,35.62909],[140.0666,35.62901],[140.06665,35.62895],[140.06707,35.6286],[140.06759,35.62817],[140.0676,35.62816],[140.06765,35.62811],[140.06808,35.62774],[140.06832,35.62753],[140.06838,35.62749],[140.06869,35.62723],[140.0687,35.62722],[140.06837,35.62697],[140.06835,35.62695],[140.06785,35.62655],[140.0672,35.62604],[140.06607,35.62516],[140.06586,35.62497],[140.06551,35.62471]]]}},{"type":"Feature","properties":{"name":"高浜六丁目","setai":346,"jinko":802,"key":"12106007006","units":1,"m":385,"f":417,"gk":9,"a0":63,"a1":305,"a2":433,"a75":227,"ag":[19,18,26,20,17,10,17,29,61,58,46,21,26,62,144,128,71,19,6,3,0],"nf":1},"geometry":{"type":"Polygon","coordinates":[[[140.06229,35.62218],[140.06167,35.62172],[140.06054,35.62264],[140.05961,35.62349],[140.05949,35.62359],[140.05963,35.6237],[140.06028,35.6242],[140.06068,35.62452],[140.06169,35.62532],[140.06183,35.62543],[140.06277,35.62617],[140.06309,35.62589],[140.06374,35.62532],[140.06387,35.62522],[140.06388,35.62522],[140.06411,35.62501],[140.06434,35.62482],[140.065,35.6243],[140.06455,35.62396],[140.06428,35.62374],[140.06369,35.62328],[140.06352,35.62314],[140.0628,35.62258],[140.06279,35.62256],[140.06229,35.62218]]]}},{"type":"Feature","properties":{"name":"高浜七丁目","setai":0,"jinko":0,"key":"12106007007","units":1,"m":0,"f":0,"gk":0,"a0":0,"a1":0,"a2":0,"a75":0,"ag":[0,0,0,0,0,0,0,0,0,0,0,0,0,0,0,0,0,0,0,0,0]},"geometry":{"type":"Polygon","coordinates":[[[140.06167,35.62172],[140.06245,35.62105],[140.06306,35.62051],[140.06336,35.62027],[140.06367,35.62],[140.0642,35.61954],[140.06491,35.61893],[140.06645,35.6176],[140.06722,35.61697],[140.06904,35.61539],[140.06925,35.61516],[140.06945,35.61491],[140.06969,35.61459],[140.06997,35.61408],[140.07013,35.61373],[140.07022,35.61342],[140.07028,35.61312],[140.07034,35.61277],[140.07038,35.61243],[140.07042,35.61211],[140.07048,35.61168],[140.0704,35.6116],[140.06963,35.61078],[140.06937,35.61101],[140.06783,35.61227],[140.06721,35.61176],[140.06627,35.61098],[140.06625,35.611],[140.0672,35.61178],[140.06685,35.61211],[140.06647,35.6125],[140.06627,35.61267],[140.06602,35.61288],[140.06576,35.61311],[140.0655,35.6133],[140.06414,35.61434],[140.06365,35.61471],[140.06345,35.61486],[140.06322,35.61507],[140.06315,35.61512],[140.06303,35.61524],[140.06292,35.61533],[140.06284,35.6154],[140.06231,35.61591],[140.06191,35.61628],[140.06176,35.61642],[140.06153,35.61663],[140.06139,35.61676],[140.06084,35.61724],[140.06074,35.61734],[140.06065,35.61741],[140.06045,35.61758],[140.06034,35.61766],[140.06014,35.61783],[140.06005,35.6179],[140.05994,35.61798],[140.05977,35.61812],[140.05956,35.61826],[140.05928,35.61848],[140.05924,35.6185],[140.05906,35.61864],[140.0587,35.61885],[140.05864,35.61889],[140.05855,35.61894],[140.05842,35.61904],[140.05818,35.6192],[140.05805,35.61926],[140.05795,35.6193],[140.0579,35.61931],[140.05784,35.61932],[140.05777,35.61932],[140.05733,35.61897],[140.05727,35.61902],[140.0582,35.61977],[140.05836,35.61992],[140.05844,35.61998],[140.05682,35.62131],[140.0569,35.62137],[140.05701,35.62128],[140.05798,35.62204],[140.05827,35.62227],[140.05805,35.62248],[140.05949,35.62359],[140.05961,35.62349],[140.06054,35.62264],[140.06167,35.62172]]]}},{"type":"Feature","properties":{"name":"豊砂","setai":69,"jinko":73,"key":"121060080","units":1,"hi":1},"geometry":{"type":"Polygon","coordinates":[[[140.0352,35.65239],[140.03427,35.65153],[140.03072,35.64807],[140.02877,35.64622],[140.02865,35.64632],[140.02839,35.64654],[140.02767,35.64585],[140.02691,35.6465],[140.02492,35.64495],[140.0249,35.64497],[140.02672,35.64639],[140.02671,35.6464],[140.02669,35.64641],[140.02667,35.64642],[140.02666,35.64644],[140.02665,35.64647],[140.02664,35.64649],[140.02663,35.64652],[140.02662,35.64654],[140.0266,35.64656],[140.02655,35.64659],[140.02647,35.64666],[140.02637,35.64675],[140.02628,35.64684],[140.0262,35.64691],[140.02613,35.64697],[140.02608,35.64701],[140.026,35.64709],[140.0259,35.64717],[140.02585,35.64723],[140.02581,35.64728],[140.02578,35.64732],[140.02576,35.64734],[140.02572,35.64737],[140.02565,35.64741],[140.0256,35.64743],[140.0255,35.64751],[140.02539,35.6476],[140.02527,35.64768],[140.02512,35.64778],[140.02492,35.64792],[140.02471,35.64807],[140.02455,35.64819],[140.02441,35.6483],[140.02425,35.64843],[140.02411,35.64853],[140.02405,35.64858],[140.02403,35.6486],[140.02402,35.64862],[140.02401,35.64864],[140.02401,35.64865],[140.02402,35.64866],[140.02402,35.64868],[140.02401,35.64869],[140.02399,35.6487],[140.02396,35.6487],[140.02392,35.64872],[140.02387,35.64873],[140.02383,35.64875],[140.0238,35.64876],[140.02376,35.64876],[140.02374,35.64877],[140.02371,35.64878],[140.02365,35.64881],[140.02358,35.64886],[140.0235,35.64891],[140.02342,35.64896],[140.02333,35.64901],[140.02321,35.64909],[140.02305,35.64919],[140.0229,35.64929],[140.02281,35.64935],[140.02276,35.64938],[140.02269,35.6494],[140.0226,35.64945],[140.02249,35.64951],[140.02236,35.64959],[140.02222,35.64968],[140.02205,35.64976],[140.02186,35.64987],[140.02177,35.64992],[140.02168,35.64997],[140.02161,35.65001],[140.0215,35.65009],[140.02142,35.65015],[140.02135,35.6502],[140.02131,35.65023],[140.02127,35.65026],[140.02124,35.65027],[140.0212,35.65029],[140.02115,35.6503],[140.0211,35.65031],[140.02105,35.65034],[140.021,35.65038],[140.02096,35.65041],[140.02092,35.65045],[140.02088,35.65048],[140.02081,35.65052],[140.02071,35.65058],[140.0206,35.65069],[140.02052,35.65076],[140.02045,35.65081],[140.02038,35.65089],[140.02031,35.65096],[140.02028,35.651],[140.02027,35.65102],[140.02027,35.65106],[140.02026,35.65111],[140.02025,35.65115],[140.02023,35.65118],[140.0202,35.65124],[140.02012,35.65137],[140.02004,35.65147],[140.02,35.65153],[140.01993,35.6516],[140.01985,35.65168],[140.0198,35.65173],[140.01973,35.65177],[140.01943,35.65153],[140.0183,35.65064],[140.01828,35.65066],[140.01937,35.65153],[140.01989,35.65193],[140.02025,35.65221],[140.01985,35.65257],[140.01974,35.65266],[140.02185,35.65511],[140.02191,35.65517],[140.02298,35.65632],[140.02411,35.65754],[140.02415,35.65758],[140.02485,35.65831],[140.02533,35.65883],[140.0255,35.65901],[140.02936,35.65637],[140.0352,35.65239]]]}},{"type":"Feature","properties":{"name":"中瀬一丁目","setai":0,"jinko":0,"key":"12106009001","units":1,"m":0,"f":0,"gk":0,"a0":0,"a1":0,"a2":0,"a75":0,"ag":[0,0,0,0,0,0,0,0,0,0,0,0,0,0,0,0,0,0,0,0,0]},"geometry":{"type":"Polygon","coordinates":[[[140.04529,35.65322],[140.04081,35.64903],[140.03907,35.65009],[140.03533,35.65251],[140.0363,35.65342],[140.03959,35.65652],[140.04052,35.65599],[140.04183,35.65522],[140.04297,35.65455],[140.04418,35.65382],[140.04529,35.65322]]]}},{"type":"Feature","properties":{"name":"中瀬二丁目","setai":0,"jinko":0,"key":"12106009002","units":1,"m":0,"f":0,"gk":0,"a0":0,"a1":0,"a2":0,"a75":0,"ag":[0,0,0,0,0,0,0,0,0,0,0,0,0,0,0,0,0,0,0,0,0]},"geometry":{"type":"Polygon","coordinates":[[[140.04081,35.64903],[140.03548,35.64413],[140.03072,35.64807],[140.03427,35.65153],[140.0352,35.65239],[140.03533,35.65251],[140.03907,35.65009],[140.04081,35.64903]]]}},{"type":"Feature","properties":{"name":"浜田一丁目","setai":1151,"jinko":3485,"key":"12106010001","units":1,"m":1709,"f":1776,"gk":110,"a0":829,"a1":2449,"a2":202,"a75":66,"ag":[109,248,472,331,163,49,67,160,507,542,377,169,84,61,75,41,20,1,4,0,0],"nf":5},"geometry":{"type":"Polygon","coordinates":[[[140.0382,35.66065],[140.03911,35.66063],[140.03937,35.66082],[140.0394,35.6608],[140.04087,35.65997],[140.04234,35.65919],[140.04229,35.65915],[140.04227,35.65913],[140.04203,35.65891],[140.03959,35.65652],[140.03846,35.65712],[140.0375,35.65758],[140.03671,35.65794],[140.03548,35.65841],[140.03457,35.65872],[140.03356,35.65901],[140.03328,35.6591],[140.03311,35.65915],[140.03325,35.6599],[140.03327,35.66017],[140.03334,35.66044],[140.03337,35.66066],[140.03342,35.66089],[140.0343,35.66082],[140.03479,35.66078],[140.03489,35.66077],[140.03498,35.66076],[140.03526,35.66075],[140.03601,35.66073],[140.03608,35.66072],[140.03616,35.66072],[140.03635,35.66071],[140.03652,35.6607],[140.0366,35.6607],[140.03682,35.66069],[140.03699,35.66069],[140.037,35.66069],[140.03745,35.66067],[140.03796,35.66066],[140.0382,35.66065]]]}},{"type":"Feature","properties":{"name":"浜田二丁目","setai":218,"jinko":406,"key":"12106010002","units":1,"m":313,"f":166,"gk":12,"a0":46,"a1":371,"a2":23,"a75":5,"ag":[14,11,21,25,74,46,22,19,30,52,57,33,13,8,10,4,1,0,0,0,0],"nf":39,"tt":479,"gs":1},"geometry":{"type":"Polygon","coordinates":[[[140.03533,35.65251],[140.0352,35.65239],[140.02936,35.65637],[140.0255,35.65901],[140.02597,35.65953],[140.0261,35.65966],[140.02646,35.66005],[140.02651,35.6601],[140.02653,35.66012],[140.02703,35.66068],[140.02805,35.66029],[140.02933,35.65994],[140.03108,35.6596],[140.03157,35.65949],[140.03311,35.65915],[140.03328,35.6591],[140.03356,35.65901],[140.03457,35.65872],[140.03548,35.65841],[140.03671,35.65794],[140.0375,35.65758],[140.03846,35.65712],[140.03959,35.65652],[140.0363,35.65342],[140.03533,35.65251]]]}},{"type":"Feature","properties":{"name":"ひび野一丁目","setai":0,"jinko":0,"key":"12106011001","units":1,"m":0,"f":0,"gk":0,"a0":0,"a1":0,"a2":0,"a75":0,"ag":[0,0,0,0,0,0,0,0,0,0,0,0,0,0,0,0,0,0,0,0,0]},"geometry":{"type":"Polygon","coordinates":[[[140.04929,35.65146],[140.04898,35.65116],[140.04783,35.65006],[140.04631,35.64867],[140.04602,35.64835],[140.04586,35.64807],[140.04577,35.64791],[140.04567,35.64762],[140.04559,35.6472],[140.04559,35.64678],[140.04564,35.64648],[140.04561,35.64618],[140.04487,35.64661],[140.04415,35.64704],[140.04377,35.64726],[140.04349,35.64742],[140.04081,35.64903],[140.04529,35.65322],[140.04572,35.653],[140.04646,35.65264],[140.04725,35.65228],[140.04817,35.65188],[140.04929,35.65146]]]}},{"type":"Feature","properties":{"name":"ひび野二丁目","setai":0,"jinko":0,"key":"12106011002","units":1,"m":0,"f":0,"gk":0,"a0":0,"a1":0,"a2":0,"a75":0,"ag":[0,0,0,0,0,0,0,0,0,0,0,0,0,0,0,0,0,0,0,0,0]},"geometry":{"type":"Polygon","coordinates":[[[140.04561,35.64618],[140.04555,35.64569],[140.04533,35.64515],[140.04529,35.64509],[140.04507,35.64473],[140.04496,35.64458],[140.04484,35.64443],[140.04469,35.64427],[140.04452,35.64415],[140.04434,35.64402],[140.04411,35.64384],[140.04373,35.64365],[140.04347,35.64351],[140.04305,35.64339],[140.04297,35.64337],[140.04272,35.64329],[140.04263,35.64326],[140.04205,35.64309],[140.04185,35.64303],[140.04157,35.64294],[140.04099,35.64278],[140.04023,35.64256],[140.03953,35.64236],[140.0382,35.64197],[140.03756,35.64249],[140.03548,35.64413],[140.04081,35.64903],[140.04349,35.64742],[140.04377,35.64726],[140.04415,35.64704],[140.04487,35.64661],[140.04561,35.64618]]]}},{"type":"Feature","properties":{"name":"幕張西一丁目","setai":663,"jinko":1475,"key":"12106012001","units":1,"m":701,"f":774,"gk":31,"a0":129,"a1":864,"a2":444,"a75":283,"ag":[35,48,46,74,102,47,50,70,78,125,142,104,72,74,87,130,102,41,8,1,1],"nf":38},"geometry":{"type":"Polygon","coordinates":[[[140.03452,35.66453],[140.03399,35.66391],[140.03359,35.66415],[140.03323,35.66437],[140.03317,35.66442],[140.03254,35.66477],[140.03252,35.66478],[140.03213,35.66501],[140.03135,35.66547],[140.03141,35.66554],[140.03158,35.66573],[140.03161,35.66576],[140.03168,35.66585],[140.03189,35.66608],[140.03191,35.6661],[140.0322,35.66644],[140.03251,35.66678],[140.03252,35.66681],[140.03271,35.66702],[140.03282,35.66715],[140.03283,35.66716],[140.03298,35.66732],[140.03313,35.6675],[140.03386,35.66834],[140.03389,35.66837],[140.03399,35.66849],[140.03426,35.66879],[140.03482,35.66941],[140.03537,35.66907],[140.03592,35.66872],[140.03603,35.66865],[140.03648,35.6684],[140.03663,35.66832],[140.03663,35.66832],[140.0367,35.66828],[140.03674,35.66826],[140.03683,35.66821],[140.03721,35.66798],[140.03723,35.66796],[140.03739,35.66786],[140.03726,35.66772],[140.03686,35.66726],[140.03661,35.66697],[140.03636,35.66666],[140.03617,35.66645],[140.03574,35.66596],[140.03534,35.66549],[140.03509,35.66519],[140.03492,35.66497],[140.03452,35.66453]]]}},{"type":"Feature","properties":{"name":"幕張西二丁目","setai":679,"jinko":1441,"key":"12106012002","units":1,"m":630,"f":811,"gk":118,"a0":122,"a1":841,"a2":463,"a75":263,"ag":[25,34,63,88,78,48,42,47,72,150,146,97,73,89,111,120,90,42,10,1,0],"nf":15},"geometry":{"type":"Polygon","coordinates":[[[140.03748,35.66235],[140.03723,35.66203],[140.03722,35.66204],[140.037,35.66216],[140.03584,35.66281],[140.03495,35.66331],[140.03491,35.66334],[140.03399,35.66391],[140.03452,35.66453],[140.03492,35.66497],[140.03509,35.66519],[140.03534,35.66549],[140.03574,35.66596],[140.03617,35.66645],[140.03636,35.66666],[140.03661,35.66697],[140.03686,35.66726],[140.03726,35.66772],[140.03739,35.66786],[140.03739,35.66786],[140.03744,35.66784],[140.03754,35.66777],[140.0376,35.66773],[140.03761,35.66773],[140.03764,35.66771],[140.03765,35.66771],[140.03767,35.66769],[140.0378,35.66761],[140.03786,35.66757],[140.03787,35.66756],[140.03792,35.66753],[140.03835,35.66725],[140.03877,35.66698],[140.03917,35.66672],[140.03936,35.6666],[140.03959,35.66646],[140.03972,35.66637],[140.03974,35.66635],[140.03975,35.66635],[140.03977,35.66634],[140.03985,35.66628],[140.03988,35.66626],[140.03988,35.66626],[140.04003,35.66615],[140.04017,35.66605],[140.04026,35.66596],[140.04044,35.66582],[140.04059,35.66569],[140.04069,35.66561],[140.04069,35.66561],[140.04072,35.66558],[140.04076,35.66554],[140.04061,35.66551],[140.04001,35.66514],[140.03975,35.66495],[140.03947,35.66473],[140.03923,35.66449],[140.039,35.66421],[140.03853,35.66363],[140.03815,35.66317],[140.03748,35.66235]]]}},{"type":"Feature","properties":{"name":"幕張西三丁目","setai":739,"jinko":1521,"key":"12106012003","units":1,"m":693,"f":828,"gk":75,"a0":115,"a1":716,"a2":681,"a75":408,"ag":[31,32,52,57,39,28,39,62,94,152,111,84,50,93,180,211,128,61,7,1,0],"nf":9},"geometry":{"type":"Polygon","coordinates":[[[140.03945,35.66084],[140.0394,35.6608],[140.03937,35.66082],[140.03919,35.66092],[140.03883,35.66113],[140.03853,35.6613],[140.03849,35.66132],[140.03826,35.66145],[140.03723,35.66203],[140.03748,35.66235],[140.03815,35.66317],[140.03853,35.66363],[140.039,35.66421],[140.03923,35.66449],[140.03947,35.66473],[140.03975,35.66495],[140.04001,35.66514],[140.04061,35.66551],[140.04076,35.66554],[140.04078,35.66552],[140.04079,35.66552],[140.04079,35.66551],[140.04088,35.66543],[140.04088,35.66543],[140.04089,35.66542],[140.04089,35.66541],[140.04111,35.66521],[140.0413,35.66502],[140.04144,35.66487],[140.04176,35.66453],[140.0421,35.66414],[140.04227,35.66395],[140.04246,35.66376],[140.04255,35.66367],[140.04266,35.66357],[140.04287,35.66338],[140.0429,35.66335],[140.04282,35.66329],[140.04216,35.66281],[140.042,35.66269],[140.04143,35.66227],[140.04134,35.66221],[140.04057,35.66165],[140.03991,35.66118],[140.03945,35.66084]]]}},{"type":"Feature","properties":{"name":"幕張西四丁目","setai":554,"jinko":1712,"key":"12106012004","units":1,"m":831,"f":881,"gk":40,"a0":448,"a1":1175,"a2":84,"a75":29,"ag":[65,163,220,138,59,27,27,119,231,287,176,74,37,31,24,11,10,6,1,1,0],"nf":5},"geometry":{"type":"Polygon","coordinates":[[[140.04312,35.65961],[140.04244,35.65913],[140.04234,35.65919],[140.04087,35.65997],[140.0394,35.6608],[140.03945,35.66084],[140.03991,35.66118],[140.04057,35.66165],[140.04134,35.66221],[140.04143,35.66227],[140.042,35.66269],[140.04216,35.66281],[140.04282,35.66329],[140.0429,35.66335],[140.04291,35.66335],[140.04309,35.6632],[140.04331,35.66302],[140.04353,35.66286],[140.04375,35.66271],[140.04397,35.66256],[140.044,35.66254],[140.04422,35.6624],[140.04424,35.66239],[140.04424,35.66239],[140.04436,35.66232],[140.04446,35.66225],[140.04498,35.66193],[140.04519,35.66179],[140.04547,35.6616],[140.04557,35.66153],[140.04557,35.66153],[140.04552,35.6615],[140.0455,35.66148],[140.0455,35.66148],[140.04516,35.66123],[140.04513,35.6612],[140.04513,35.6612],[140.04511,35.66107],[140.04469,35.66077],[140.04433,35.66053],[140.04429,35.6605],[140.04407,35.66035],[140.04408,35.66029],[140.04387,35.66014],[140.04372,35.66004],[140.04312,35.65961]]]}},{"type":"Feature","properties":{"name":"幕張西五丁目","setai":252,"jinko":621,"key":"12106012005","units":1,"m":322,"f":299,"gk":7,"a0":85,"a1":380,"a2":144,"a75":56,"ag":[26,26,33,35,26,24,36,35,44,45,46,52,37,52,36,27,13,13,2,1,0],"nf":12},"geometry":{"type":"Polygon","coordinates":[[[140.03937,35.66082],[140.03911,35.66063],[140.0382,35.66065],[140.03796,35.66066],[140.03745,35.66067],[140.037,35.66069],[140.03699,35.66069],[140.03682,35.66069],[140.0366,35.6607],[140.03652,35.6607],[140.03635,35.66071],[140.03616,35.66072],[140.03608,35.66072],[140.03601,35.66073],[140.03526,35.66075],[140.03498,35.66076],[140.03489,35.66077],[140.03479,35.66078],[140.0343,35.66082],[140.03342,35.66089],[140.03349,35.66112],[140.03355,35.66129],[140.03359,35.6614],[140.03364,35.66152],[140.03371,35.66169],[140.03379,35.66182],[140.03386,35.66195],[140.0339,35.66203],[140.03399,35.66217],[140.0342,35.66244],[140.03491,35.66334],[140.03495,35.66331],[140.03584,35.66281],[140.037,35.66216],[140.03722,35.66204],[140.03723,35.66203],[140.03826,35.66145],[140.03849,35.66132],[140.03853,35.6613],[140.03883,35.66113],[140.03919,35.66092],[140.03937,35.66082]]]}},{"type":"Feature","properties":{"name":"幕張西六丁目","setai":432,"jinko":1131,"key":"12106012006","units":1,"m":573,"f":558,"gk":25,"a0":157,"a1":648,"a2":321,"a75":156,"ag":[60,53,44,68,46,34,57,70,86,102,82,56,47,63,102,74,55,11,15,1,0],"nf":5},"geometry":{"type":"Polygon","coordinates":[[[140.03325,35.6599],[140.03311,35.65915],[140.03157,35.65949],[140.03108,35.6596],[140.02933,35.65994],[140.02805,35.66029],[140.02703,35.66068],[140.02835,35.66214],[140.02838,35.66217],[140.02866,35.66246],[140.02891,35.66276],[140.02892,35.66277],[140.02916,35.66304],[140.02942,35.66332],[140.02967,35.6636],[140.02969,35.66362],[140.02999,35.66394],[140.0301,35.66408],[140.03015,35.66413],[140.03025,35.66423],[140.03052,35.66452],[140.03075,35.66478],[140.03077,35.66481],[140.03081,35.66485],[140.03101,35.6651],[140.03118,35.66529],[140.03119,35.6653],[140.03135,35.66547],[140.03213,35.66501],[140.03252,35.66478],[140.03254,35.66477],[140.03317,35.66442],[140.03323,35.66437],[140.03359,35.66415],[140.03399,35.66391],[140.03491,35.66334],[140.0342,35.66244],[140.03399,35.66217],[140.0339,35.66203],[140.03386,35.66195],[140.03379,35.66182],[140.03371,35.66169],[140.03364,35.66152],[140.03359,35.6614],[140.03355,35.66129],[140.03349,35.66112],[140.03342,35.66089],[140.03337,35.66066],[140.03334,35.66044],[140.03327,35.66017],[140.03325,35.6599]]]}},{"type":"Feature","properties":{"name":"真砂一丁目","setai":1248,"jinko":2390,"key":"12106013001","units":1,"m":1157,"f":1233,"gk":64,"a0":172,"a1":1201,"a2":953,"a75":492,"ag":[44,60,68,65,87,98,120,114,145,191,159,121,101,174,287,237,137,75,34,8,1],"nf":64},"geometry":{"type":"Polygon","coordinates":[[[140.06874,35.63081],[140.06852,35.63066],[140.06842,35.63072],[140.0683,35.63077],[140.0682,35.63082],[140.06801,35.63092],[140.06784,35.63102],[140.06772,35.63108],[140.06761,35.63113],[140.06751,35.63119],[140.06742,35.63125],[140.06724,35.63136],[140.06714,35.63142],[140.067,35.6315],[140.06675,35.63168],[140.0666,35.63177],[140.06627,35.63202],[140.0658,35.63234],[140.06465,35.63314],[140.06466,35.63315],[140.06495,35.63345],[140.06504,35.63352],[140.0657,35.63413],[140.0658,35.63422],[140.06592,35.63433],[140.0665,35.63487],[140.06665,35.635],[140.06666,35.63501],[140.06675,35.63509],[140.06707,35.63537],[140.0673,35.63558],[140.06794,35.63614],[140.06801,35.63621],[140.0681,35.63631],[140.06816,35.63636],[140.06879,35.63692],[140.06891,35.63704],[140.06899,35.6371],[140.06994,35.63796],[140.07002,35.63802],[140.0705,35.63847],[140.07055,35.6385],[140.07058,35.63854],[140.07074,35.63868],[140.07094,35.63885],[140.071,35.63879],[140.07192,35.63802],[140.07287,35.6372],[140.07347,35.63669],[140.07394,35.63629],[140.07479,35.63557],[140.07468,35.63547],[140.07438,35.63524],[140.07342,35.63449],[140.07305,35.63418],[140.07297,35.63411],[140.07277,35.63395],[140.07259,35.63382],[140.0725,35.63375],[140.07225,35.63356],[140.07207,35.63341],[140.07186,35.63325],[140.07161,35.63305],[140.07127,35.63281],[140.07088,35.63249],[140.07048,35.63218],[140.06996,35.63178],[140.06972,35.6316],[140.06958,35.63149],[140.06951,35.63143],[140.06914,35.63113],[140.06874,35.63081]]]}},{"type":"Feature","properties":{"name":"真砂二丁目","setai":2657,"jinko":5526,"key":"12106013002","units":1,"m":2570,"f":2956,"gk":167,"a0":391,"a1":2991,"a2":2069,"a75":1101,"ag":[92,141,158,235,248,191,189,244,335,470,412,353,314,404,564,466,397,169,56,12,1],"nf":75},"geometry":{"type":"Polygon","coordinates":[[[140.06816,35.63636],[140.0681,35.63631],[140.0669,35.63718],[140.06673,35.63731],[140.06641,35.63755],[140.06573,35.63807],[140.0651,35.63852],[140.0647,35.63883],[140.06439,35.63905],[140.06395,35.63937],[140.0638,35.63949],[140.06341,35.63979],[140.06339,35.6398],[140.06351,35.6399],[140.06374,35.64012],[140.06418,35.6405],[140.06459,35.64086],[140.06481,35.64105],[140.06506,35.64127],[140.06533,35.64153],[140.06558,35.64175],[140.06584,35.642],[140.06635,35.64244],[140.06694,35.64298],[140.06755,35.64353],[140.06756,35.64353],[140.06837,35.64423],[140.06855,35.64439],[140.06866,35.64447],[140.06878,35.64457],[140.06898,35.64472],[140.0691,35.64461],[140.07028,35.64357],[140.07088,35.64308],[140.07126,35.64277],[140.0713,35.64273],[140.0715,35.64256],[140.07169,35.64241],[140.07181,35.64232],[140.07193,35.64224],[140.07211,35.64212],[140.07235,35.64197],[140.07248,35.64189],[140.07265,35.64178],[140.07294,35.64163],[140.07339,35.64139],[140.07364,35.64126],[140.07341,35.64107],[140.0732,35.64088],[140.07312,35.6408],[140.07309,35.64078],[140.07298,35.64067],[140.0723,35.64005],[140.07227,35.64004],[140.07225,35.64002],[140.07184,35.63964],[140.07176,35.63957],[140.07165,35.63949],[140.07165,35.63948],[140.07153,35.63939],[140.07119,35.63909],[140.07115,35.63906],[140.07109,35.63899],[140.071,35.63891],[140.07094,35.63885],[140.07074,35.63868],[140.07058,35.63854],[140.07055,35.6385],[140.0705,35.63847],[140.07002,35.63802],[140.06994,35.63796],[140.06899,35.6371],[140.06891,35.63704],[140.06879,35.63692],[140.06816,35.63636]]]}},{"type":"Feature","properties":{"name":"真砂三丁目","setai":2303,"jinko":4871,"key":"12106013003","units":1,"m":2314,"f":2557,"gk":101,"a0":549,"a1":2567,"a2":1711,"a75":902,"ag":[180,214,155,150,155,152,222,263,346,375,316,304,284,350,459,404,312,139,39,8,0],"nf":44},"geometry":{"type":"Polygon","coordinates":[[[140.06495,35.63345],[140.06466,35.63315],[140.06425,35.63344],[140.06407,35.63356],[140.06352,35.63396],[140.06298,35.63434],[140.06296,35.63435],[140.06168,35.63527],[140.06109,35.63566],[140.06032,35.63624],[140.06012,35.63637],[140.0599,35.63652],[140.05979,35.63659],[140.06013,35.63688],[140.06049,35.63721],[140.06066,35.63735],[140.06086,35.63754],[140.06129,35.63792],[140.06134,35.63797],[140.06146,35.63808],[140.06218,35.63874],[140.06245,35.63896],[140.06276,35.63925],[140.06307,35.63951],[140.06339,35.6398],[140.06341,35.63979],[140.0638,35.63949],[140.06395,35.63937],[140.06439,35.63905],[140.0647,35.63883],[140.0651,35.63852],[140.06573,35.63807],[140.06641,35.63755],[140.06673,35.63731],[140.0669,35.63718],[140.0681,35.63631],[140.06801,35.63621],[140.06794,35.63614],[140.0673,35.63558],[140.06707,35.63537],[140.06675,35.63509],[140.06666,35.63501],[140.06665,35.635],[140.0665,35.63487],[140.06592,35.63433],[140.0658,35.63422],[140.0657,35.63413],[140.06504,35.63352],[140.06495,35.63345]]]}},{"type":"Feature","properties":{"name":"真砂四丁目","setai":2631,"jinko":5144,"key":"12106013004","units":1,"m":2465,"f":2679,"gk":205,"a0":651,"a1":3059,"a2":1383,"a75":610,"ag":[162,233,256,176,172,140,234,307,490,570,400,315,255,321,452,303,201,72,29,5,0],"nf":51},"geometry":{"type":"Polygon","coordinates":[[[140.06013,35.63688],[140.05979,35.63659],[140.05979,35.63659],[140.05908,35.63711],[140.05834,35.63763],[140.05833,35.63764],[140.0565,35.639],[140.05587,35.63944],[140.05458,35.64036],[140.05348,35.6412],[140.05458,35.64235],[140.05572,35.64349],[140.05598,35.64376],[140.05622,35.644],[140.05625,35.64403],[140.05647,35.64426],[140.05692,35.6447],[140.05755,35.64421],[140.05761,35.64416],[140.05844,35.64353],[140.05879,35.64326],[140.05883,35.64324],[140.05903,35.64309],[140.05925,35.6429],[140.05947,35.64274],[140.05978,35.64249],[140.05982,35.64246],[140.06041,35.64202],[140.06068,35.64182],[140.0607,35.64181],[140.06087,35.64168],[140.06095,35.64162],[140.06099,35.64159],[140.06104,35.64155],[140.06116,35.64146],[140.06128,35.64137],[140.06142,35.64127],[140.06146,35.64124],[140.06159,35.64114],[140.06177,35.641],[140.06195,35.64088],[140.06192,35.64086],[140.06339,35.6398],[140.06307,35.63951],[140.06276,35.63925],[140.06245,35.63896],[140.06218,35.63874],[140.06146,35.63808],[140.06134,35.63797],[140.06129,35.63792],[140.06086,35.63754],[140.06066,35.63735],[140.06049,35.63721],[140.06013,35.63688]]]}},{"type":"Feature","properties":{"name":"真砂五丁目","setai":2941,"jinko":6462,"key":"12106013005","units":1,"m":3036,"f":3426,"gk":235,"a0":720,"a1":3816,"a2":1877,"a75":971,"ag":[176,253,291,297,236,222,274,356,503,629,508,422,369,387,519,455,302,159,45,8,2],"nf":49},"geometry":{"type":"Polygon","coordinates":[[[140.06165,35.65016],[140.06186,35.64998],[140.06257,35.64939],[140.06277,35.64924],[140.06307,35.64899],[140.06333,35.64878],[140.06363,35.64852],[140.0641,35.64818],[140.06454,35.64791],[140.06479,35.64775],[140.06502,35.64761],[140.06507,35.64758],[140.06519,35.64751],[140.06558,35.64728],[140.06597,35.64705],[140.06615,35.64694],[140.06636,35.64679],[140.06659,35.64665],[140.06687,35.64646],[140.06708,35.6463],[140.06737,35.64607],[140.06749,35.64597],[140.06849,35.64513],[140.06886,35.64481],[140.06898,35.64472],[140.06878,35.64457],[140.06866,35.64447],[140.06855,35.64439],[140.06837,35.64423],[140.06756,35.64353],[140.06755,35.64353],[140.06694,35.64298],[140.06635,35.64244],[140.06584,35.642],[140.06558,35.64175],[140.06533,35.64153],[140.06506,35.64127],[140.06481,35.64105],[140.06459,35.64086],[140.06418,35.6405],[140.06374,35.64012],[140.06351,35.6399],[140.06339,35.6398],[140.06192,35.64086],[140.06195,35.64088],[140.06177,35.641],[140.06159,35.64114],[140.06146,35.64124],[140.06142,35.64127],[140.06128,35.64137],[140.06116,35.64146],[140.06104,35.64155],[140.06099,35.64159],[140.06095,35.64162],[140.06087,35.64168],[140.0607,35.64181],[140.06068,35.64182],[140.06041,35.64202],[140.05982,35.64246],[140.05978,35.64249],[140.05947,35.64274],[140.05925,35.6429],[140.05903,35.64309],[140.05883,35.64324],[140.05879,35.64326],[140.05844,35.64353],[140.05761,35.64416],[140.05755,35.64421],[140.05692,35.6447],[140.05901,35.64699],[140.05951,35.64813],[140.05973,35.64867],[140.05985,35.64898],[140.06051,35.65045],[140.06098,35.65006],[140.06116,35.65057],[140.06153,35.65027],[140.06165,35.65016]]]}},{"type":"Feature","properties":{"name":"美浜","setai":0,"jinko":0,"key":"121060140","units":1,"m":0,"f":0,"gk":0,"a0":0,"a1":0,"a2":0,"a75":0,"ag":[0,0,0,0,0,0,0,0,0,0,0,0,0,0,0,0,0,0,0,0,0]},"geometry":{"type":"Polygon","coordinates":[[[140.03548,35.64413],[140.03756,35.64249],[140.0382,35.64197],[140.0384,35.64178],[140.0386,35.64153],[140.03874,35.64135],[140.03897,35.64103],[140.03902,35.64093],[140.03925,35.64041],[140.03927,35.64034],[140.0393,35.64026],[140.03938,35.63999],[140.0394,35.6399],[140.03944,35.63974],[140.0395,35.6395],[140.03956,35.63918],[140.0396,35.63902],[140.0396,35.639],[140.03968,35.63866],[140.03969,35.6386],[140.0397,35.63856],[140.03975,35.63836],[140.03983,35.63797],[140.03987,35.63779],[140.03989,35.63769],[140.03992,35.63752],[140.03994,35.63745],[140.03995,35.63739],[140.04002,35.63708],[140.04002,35.63705],[140.04005,35.63695],[140.0401,35.63667],[140.04015,35.63657],[140.04034,35.63615],[140.04043,35.63596],[140.04068,35.63545],[140.04071,35.63539],[140.04121,35.63485],[140.04133,35.63474],[140.04174,35.63435],[140.04231,35.63386],[140.04328,35.63304],[140.04335,35.63299],[140.04423,35.63228],[140.04446,35.63209],[140.04441,35.63204],[140.04439,35.63202],[140.04386,35.63245],[140.04361,35.63219],[140.04306,35.63265],[140.04162,35.63154],[140.04159,35.63156],[140.04296,35.63263],[140.04198,35.63347],[140.0415,35.63387],[140.04124,35.6341],[140.04045,35.63478],[140.04044,35.63478],[140.04036,35.63482],[140.04022,35.63492],[140.0401,35.63503],[140.04007,35.63504],[140.04002,35.63505],[140.03998,35.63507],[140.0399,35.63511],[140.03986,35.63514],[140.03982,35.63518],[140.03976,35.63522],[140.0396,35.63532],[140.03938,35.63548],[140.03931,35.63552],[140.03919,35.63562],[140.03912,35.63565],[140.03906,35.63569],[140.03885,35.63584],[140.03876,35.63588],[140.03864,35.63596],[140.03859,35.63598],[140.03818,35.63616],[140.03813,35.63619],[140.03809,35.63623],[140.03784,35.63637],[140.03772,35.63642],[140.03764,35.63645],[140.03758,35.63644],[140.03753,35.63641],[140.03751,35.6364],[140.03748,35.6364],[140.03712,35.63614],[140.03622,35.63547],[140.03621,35.63546],[140.03621,35.63546],[140.0362,35.63546],[140.03619,35.63546],[140.03618,35.63546],[140.03617,35.63546],[140.03616,35.63546],[140.03616,35.63547],[140.03615,35.63547],[140.03615,35.63548],[140.03615,35.63549],[140.03614,35.63549],[140.03614,35.6355],[140.03615,35.63551],[140.03712,35.63623],[140.03742,35.63644],[140.03745,35.63649],[140.03744,35.63653],[140.03744,35.63662],[140.03744,35.63664],[140.03741,35.6367],[140.03734,35.6368],[140.03726,35.63693],[140.03717,35.63704],[140.03713,35.63707],[140.03709,35.63709],[140.03707,35.63711],[140.03704,35.63715],[140.037,35.63721],[140.03696,35.63728],[140.03691,35.63736],[140.03687,35.63742],[140.0368,35.6375],[140.03678,35.63751],[140.03673,35.63755],[140.0367,35.6376],[140.03665,35.63765],[140.03663,35.63767],[140.03659,35.6377],[140.03654,35.63773],[140.0365,35.63776],[140.03644,35.6378],[140.0364,35.63783],[140.03636,35.63787],[140.03631,35.63792],[140.03625,35.63798],[140.03624,35.63799],[140.03618,35.63804],[140.03612,35.63809],[140.03607,35.63814],[140.03603,35.63818],[140.03601,35.63819],[140.03596,35.63821],[140.0359,35.63823],[140.03585,35.63824],[140.03582,35.63825],[140.03581,35.63825],[140.0358,35.63826],[140.03572,35.63833],[140.0356,35.63844],[140.0355,35.63853],[140.03543,35.6386],[140.03536,35.63866],[140.03528,35.63871],[140.03522,35.63876],[140.03517,35.6388],[140.03515,35.63882],[140.03513,35.63883],[140.0351,35.63887],[140.03506,35.63894],[140.03503,35.639],[140.035,35.63902],[140.03499,35.63904],[140.03497,35.63905],[140.03495,35.63905],[140.03494,35.63905],[140.03493,35.63904],[140.03491,35.63903],[140.0349,35.63902],[140.03489,35.63902],[140.03487,35.63904],[140.03481,35.63908],[140.03473,35.63914],[140.03464,35.6392],[140.03455,35.63926],[140.03446,35.63932],[140.03438,35.63938],[140.03433,35.63942],[140.03429,35.63944],[140.03427,35.63946],[140.03426,35.63947],[140.03426,35.63948],[140.03427,35.63949],[140.03428,35.6395],[140.03429,35.6395],[140.03433,35.6395],[140.03438,35.63948],[140.03442,35.63947],[140.03444,35.63947],[140.03445,35.63947],[140.03446,35.63948],[140.03446,35.63948],[140.03444,35.6395],[140.0344,35.63953],[140.03434,35.63958],[140.03429,35.63962],[140.03426,35.63964],[140.03422,35.63967],[140.03412,35.63974],[140.034,35.63983],[140.03386,35.63991],[140.03375,35.63998],[140.03367,35.64003],[140.0336,35.64007],[140.03351,35.64013],[140.03343,35.64018],[140.03339,35.6402],[140.03337,35.64021],[140.03335,35.64024],[140.03333,35.64026],[140.03332,35.64027],[140.03331,35.64028],[140.03331,35.64029],[140.03333,35.6403],[140.03334,35.64031],[140.03336,35.64031],[140.03337,35.64032],[140.03338,35.64033],[140.03338,35.64034],[140.03338,35.64035],[140.03335,35.64038],[140.03328,35.64045],[140.03318,35.64052],[140.0331,35.64059],[140.03304,35.64063],[140.03299,35.64066],[140.03296,35.64068],[140.03293,35.64069],[140.0329,35.64071],[140.03283,35.64075],[140.03275,35.64081],[140.03264,35.64088],[140.03253,35.64095],[140.03243,35.641],[140.03235,35.64105],[140.03227,35.64109],[140.03221,35.64113],[140.03218,35.64115],[140.03218,35.64116],[140.03218,35.64118],[140.03219,35.6412],[140.03221,35.64122],[140.03223,35.64123],[140.03226,35.64124],[140.03228,35.64125],[140.0323,35.64125],[140.0323,35.64126],[140.03231,35.64127],[140.0323,35.6413],[140.03227,35.64133],[140.03223,35.64136],[140.03221,35.64138],[140.03216,35.6414],[140.03212,35.64142],[140.03209,35.64143],[140.03206,35.64143],[140.03202,35.64144],[140.03199,35.64144],[140.03196,35.64145],[140.03194,35.64146],[140.0319,35.6415],[140.03186,35.64154],[140.03184,35.64155],[140.03181,35.64156],[140.03178,35.64156],[140.03175,35.64157],[140.03172,35.64159],[140.03168,35.64161],[140.03165,35.64164],[140.03162,35.64166],[140.0316,35.64168],[140.0316,35.6417],[140.0316,35.64171],[140.03161,35.64173],[140.03163,35.64175],[140.03163,35.64176],[140.03164,35.64177],[140.03164,35.64178],[140.03163,35.64179],[140.0316,35.64181],[140.03154,35.64184],[140.03146,35.64187],[140.03138,35.6419],[140.03132,35.64193],[140.03127,35.64195],[140.03123,35.64198],[140.0312,35.642],[140.03119,35.64202],[140.03118,35.64205],[140.03118,35.64207],[140.03118,35.64209],[140.03119,35.6421],[140.03118,35.64212],[140.03115,35.64215],[140.03105,35.64225],[140.03095,35.64234],[140.03086,35.64242],[140.03077,35.6425],[140.03072,35.64255],[140.03064,35.64261],[140.0303,35.64286],[140.0302,35.64292],[140.02986,35.64314],[140.02979,35.64318],[140.02978,35.64319],[140.02959,35.64332],[140.02941,35.64341],[140.02928,35.64346],[140.02923,35.64351],[140.02913,35.6436],[140.02895,35.64375],[140.02886,35.64386],[140.02883,35.64392],[140.02881,35.64395],[140.0288,35.64397],[140.02877,35.64398],[140.02874,35.64401],[140.02871,35.64404],[140.02868,35.64407],[140.02867,35.64408],[140.02866,35.64409],[140.02865,35.64409],[140.02864,35.6441],[140.02722,35.64299],[140.02719,35.64301],[140.02886,35.64431],[140.02915,35.64454],[140.02918,35.64457],[140.02888,35.64482],[140.02886,35.64481],[140.02871,35.64467],[140.02872,35.64467],[140.02869,35.64464],[140.02868,35.64465],[140.02857,35.64456],[140.02858,35.64455],[140.02828,35.6443],[140.02822,35.64434],[140.02852,35.6446],[140.02855,35.64457],[140.02866,35.64467],[140.02865,35.64467],[140.02868,35.6447],[140.02869,35.64469],[140.02886,35.64484],[140.02843,35.6452],[140.02887,35.64562],[140.02916,35.6459],[140.02877,35.64622],[140.03072,35.64807],[140.03548,35.64413]]]}},{"type":"Feature","properties":{"name":"若葉一丁目","setai":0,"jinko":0,"key":"12106015001","units":1,"m":0,"f":0,"gk":0,"a0":0,"a1":0,"a2":0,"a75":0,"ag":[0,0,0,0,0,0,0,0,0,0,0,0,0,0,0,0,0,0,0,0,0]},"geometry":{"type":"Polygon","coordinates":[[[140.0424,35.65908],[140.04464,35.65782],[140.04503,35.65759],[140.04612,35.65697],[140.04804,35.65583],[140.04904,35.65523],[140.04898,35.65518],[140.04869,35.65497],[140.04836,35.65479],[140.0466,35.65389],[140.04572,35.65344],[140.04529,35.65322],[140.04418,35.65382],[140.04297,35.65455],[140.04183,35.65522],[140.04052,35.65599],[140.03959,35.65652],[140.04203,35.65891],[140.04227,35.65913],[140.04229,35.65915],[140.0424,35.65908]]]}},{"type":"Feature","properties":{"name":"若葉二丁目","setai":0,"jinko":0,"key":"12106015002","units":1,"m":0,"f":0,"gk":0,"a0":0,"a1":0,"a2":0,"a75":0,"ag":[0,0,0,0,0,0,0,0,0,0,0,0,0,0,0,0,0,0,0,0,0]},"geometry":{"type":"Polygon","coordinates":[[[140.05015,35.65457],[140.05041,35.65441],[140.05099,35.65405],[140.05149,35.65374],[140.05166,35.65363],[140.05252,35.6531],[140.05386,35.6523],[140.05414,35.65219],[140.0542,35.65216],[140.05436,35.65211],[140.05485,35.65182],[140.05566,35.65134],[140.0568,35.65065],[140.05748,35.65025],[140.05762,35.65064],[140.05789,35.65139],[140.05804,35.6518],[140.05814,35.65208],[140.05876,35.65162],[140.05886,35.65155],[140.06028,35.65045],[140.06034,35.65059],[140.06051,35.65045],[140.05985,35.64898],[140.05844,35.64919],[140.05719,35.64941],[140.05622,35.64957],[140.05514,35.64978],[140.05433,35.64994],[140.05346,35.65014],[140.05277,35.65033],[140.05139,35.65073],[140.04998,35.6512],[140.04929,35.65146],[140.04817,35.65188],[140.04725,35.65228],[140.04646,35.65264],[140.04572,35.653],[140.04529,35.65322],[140.04572,35.65344],[140.0466,35.65389],[140.04836,35.65479],[140.04869,35.65497],[140.04898,35.65518],[140.04904,35.65523],[140.05015,35.65457]]]}},{"type":"Feature","properties":{"name":"若葉三丁目","setai":512,"jinko":1404,"key":"12106015003","units":1,"m":705,"f":699,"gk":154,"a0":422,"a1":890,"a2":75,"a75":38,"ag":[222,157,43,33,18,60,186,239,158,77,68,34,17,18,19,15,9,14,0,0,0],"nf":17},"geometry":{"type":"Polygon","coordinates":[[[140.05458,35.64235],[140.05348,35.6412],[140.05267,35.64179],[140.05217,35.64214],[140.05213,35.64217],[140.0518,35.64239],[140.05137,35.64266],[140.05101,35.6429],[140.05096,35.64293],[140.05025,35.64335],[140.05007,35.64346],[140.04975,35.64365],[140.04962,35.64373],[140.04949,35.64381],[140.04903,35.64408],[140.04875,35.64425],[140.04861,35.64433],[140.04801,35.64469],[140.04561,35.64618],[140.04564,35.64648],[140.04559,35.64678],[140.04559,35.6472],[140.04567,35.64762],[140.04577,35.64791],[140.04586,35.64807],[140.04602,35.64835],[140.04631,35.64867],[140.04783,35.65006],[140.04898,35.65116],[140.04929,35.65146],[140.04998,35.6512],[140.05139,35.65073],[140.05277,35.65033],[140.05346,35.65014],[140.05433,35.64994],[140.05514,35.64978],[140.05622,35.64957],[140.05719,35.64941],[140.05844,35.64919],[140.05985,35.64898],[140.05973,35.64867],[140.05951,35.64813],[140.05901,35.64699],[140.05692,35.6447],[140.05647,35.64426],[140.05625,35.64403],[140.05622,35.644],[140.05598,35.64376],[140.05572,35.64349],[140.05458,35.64235]]]}}]}