{"type":"FeatureCollection","features":[{"type":"Feature","properties":{"name":"粉浜一丁目","setai":1271,"jinko":2640,"key":"27125001001","units":1},"geometry":{"type":"Polygon","coordinates":[[[135.49177,34.61891],[135.49164,34.61835],[135.49064,34.61882],[135.49064,34.6188],[135.49062,34.61881],[135.49019,34.61901],[135.48978,34.61915],[135.48939,34.61932],[135.48926,34.61938],[135.48902,34.6194],[135.48912,34.61971],[135.48913,34.61974],[135.48923,34.62007],[135.4893,34.62028],[135.48931,34.62031],[135.48935,34.62043],[135.48941,34.62061],[135.48943,34.62067],[135.48946,34.62077],[135.48952,34.62096],[135.48956,34.62108],[135.48961,34.62121],[135.48979,34.62172],[135.4898,34.62174],[135.4899,34.62206],[135.48997,34.62225],[135.49001,34.62238],[135.49019,34.62288],[135.49028,34.62311],[135.49033,34.62316],[135.49039,34.62326],[135.49071,34.62329],[135.4911,34.62331],[135.49122,34.62332],[135.49149,34.62334],[135.49153,34.62333],[135.492,34.62332],[135.49238,34.6233],[135.49295,34.62326],[135.49286,34.62289],[135.49283,34.62279],[135.49275,34.62251],[135.49268,34.62226],[135.49259,34.62195],[135.49247,34.62151],[135.49246,34.62147],[135.49243,34.62134],[135.49233,34.62102],[135.49227,34.62078],[135.49226,34.62073],[135.49221,34.62055],[135.49219,34.62045],[135.49212,34.6202],[135.49209,34.62006],[135.49206,34.61997],[135.49202,34.61984],[135.49197,34.61966],[135.49188,34.6193],[135.49177,34.61891]]]}},{"type":"Feature","properties":{"name":"粉浜二丁目","setai":696,"jinko":1367,"key":"27125001002","units":1},"geometry":{"type":"Polygon","coordinates":[[[135.49062,34.61881],[135.49064,34.6188],[135.49064,34.61882],[135.49164,34.61835],[135.49151,34.61811],[135.49131,34.61771],[135.49126,34.61755],[135.49142,34.61752],[135.49135,34.61724],[135.49125,34.61693],[135.49101,34.61601],[135.49088,34.61601],[135.49089,34.61643],[135.4908,34.61643],[135.49078,34.61643],[135.49077,34.61643],[135.48989,34.61646],[135.48973,34.61647],[135.48939,34.61651],[135.48911,34.61656],[135.48896,34.61659],[135.48866,34.61665],[135.48803,34.6167],[135.48803,34.61671],[135.48829,34.61726],[135.48832,34.61733],[135.48863,34.61826],[135.48874,34.61858],[135.48876,34.61864],[135.48902,34.61939],[135.48902,34.6194],[135.48926,34.61938],[135.48939,34.61932],[135.48978,34.61915],[135.49019,34.61901],[135.49062,34.61881]]]}},{"type":"Feature","properties":{"name":"粉浜三丁目","setai":840,"jinko":1777,"key":"27125001003","units":1},"geometry":{"type":"Polygon","coordinates":[[[135.49049,34.61411],[135.49042,34.61387],[135.49036,34.61389],[135.49025,34.61386],[135.48996,34.61372],[135.48981,34.61372],[135.48964,34.61372],[135.4895,34.61374],[135.48934,34.61378],[135.48916,34.61374],[135.48904,34.61365],[135.48894,34.61361],[135.48876,34.61361],[135.48866,34.61365],[135.4884,34.61383],[135.48836,34.61384],[135.48825,34.61387],[135.48804,34.61386],[135.48762,34.61383],[135.48728,34.61387],[135.48738,34.61428],[135.48747,34.61463],[135.48748,34.61466],[135.48754,34.6149],[135.48761,34.61517],[135.48771,34.61553],[135.48775,34.61568],[135.48781,34.61591],[135.48783,34.61602],[135.48794,34.6164],[135.48801,34.61666],[135.48803,34.6167],[135.48866,34.61665],[135.48896,34.61659],[135.48911,34.61656],[135.48939,34.61651],[135.48973,34.61647],[135.48989,34.61646],[135.49077,34.61643],[135.49078,34.61643],[135.4908,34.61643],[135.49089,34.61643],[135.49088,34.61601],[135.49101,34.61601],[135.491,34.61597],[135.49099,34.61593],[135.49095,34.6158],[135.4909,34.61559],[135.49065,34.61468],[135.49049,34.61411]]]}},{"type":"Feature","properties":{"name":"粉浜西一丁目","setai":908,"jinko":1847,"key":"27125002001","units":1},"geometry":{"type":"Polygon","coordinates":[[[135.49008,34.62313],[135.49013,34.6231],[135.49028,34.62311],[135.49019,34.62288],[135.49001,34.62238],[135.48997,34.62225],[135.4899,34.62206],[135.4898,34.62174],[135.48979,34.62172],[135.48961,34.62121],[135.48956,34.62108],[135.48952,34.62096],[135.48946,34.62077],[135.48943,34.62067],[135.48941,34.62061],[135.48935,34.62043],[135.48931,34.62031],[135.4893,34.62028],[135.48923,34.62007],[135.48913,34.61974],[135.48912,34.61971],[135.48807,34.61987],[135.48805,34.61987],[135.48728,34.61998],[135.48678,34.62006],[135.4862,34.62015],[135.48631,34.62044],[135.48635,34.62058],[135.48642,34.62085],[135.48644,34.62099],[135.48645,34.62099],[135.48653,34.62135],[135.48654,34.62149],[135.48659,34.62197],[135.48661,34.62219],[135.48664,34.62254],[135.48799,34.6228],[135.48803,34.6228],[135.48841,34.62287],[135.4885,34.62289],[135.48853,34.62289],[135.4889,34.62296],[135.48928,34.62303],[135.48952,34.62308],[135.4899,34.62315],[135.48996,34.62313],[135.49008,34.62313]]]}},{"type":"Feature","properties":{"name":"粉浜西二丁目","setai":702,"jinko":1612,"key":"27125002002","units":1},"geometry":{"type":"Polygon","coordinates":[[[135.48829,34.61726],[135.48803,34.61671],[135.48758,34.61677],[135.48726,34.61681],[135.48693,34.61691],[135.48654,34.61705],[135.48634,34.61713],[135.4861,34.61725],[135.48592,34.61734],[135.48565,34.61748],[135.48558,34.61752],[135.48519,34.61759],[135.4852,34.61764],[135.48525,34.618],[135.48527,34.61834],[135.48534,34.61891],[135.48539,34.61892],[135.48547,34.61907],[135.48553,34.61914],[135.48555,34.61917],[135.48561,34.61925],[135.48576,34.61948],[135.48591,34.6197],[135.48603,34.61989],[135.48608,34.61996],[135.4862,34.62015],[135.48678,34.62006],[135.48728,34.61998],[135.48805,34.61987],[135.48807,34.61987],[135.48912,34.61971],[135.48902,34.6194],[135.48902,34.61939],[135.48876,34.61864],[135.48874,34.61858],[135.48863,34.61826],[135.48832,34.61733],[135.48829,34.61726]]]}},{"type":"Feature","properties":{"name":"粉浜西三丁目","setai":1674,"jinko":2803,"key":"27125002003","units":1},"geometry":{"type":"Polygon","coordinates":[[[135.48738,34.61428],[135.48728,34.61387],[135.48713,34.6139],[135.48662,34.61394],[135.48644,34.61392],[135.48608,34.61389],[135.48607,34.6139],[135.48567,34.61393],[135.48554,34.61395],[135.48537,34.61398],[135.48509,34.61403],[135.48493,34.61407],[135.48451,34.61416],[135.48416,34.61425],[135.48427,34.61456],[135.48433,34.61481],[135.48438,34.61504],[135.48449,34.61534],[135.4845,34.61538],[135.48454,34.61554],[135.48459,34.61568],[135.48461,34.61575],[135.48468,34.61598],[135.48473,34.61622],[135.48477,34.61633],[135.48483,34.61647],[135.48494,34.61672],[135.48499,34.61684],[135.48505,34.617],[135.48512,34.61727],[135.48519,34.61759],[135.48558,34.61752],[135.48565,34.61748],[135.48592,34.61734],[135.4861,34.61725],[135.48634,34.61713],[135.48654,34.61705],[135.48693,34.61691],[135.48726,34.61681],[135.48758,34.61677],[135.48803,34.61671],[135.48803,34.6167],[135.48801,34.61666],[135.48794,34.6164],[135.48783,34.61602],[135.48781,34.61591],[135.48775,34.61568],[135.48771,34.61553],[135.48761,34.61517],[135.48754,34.6149],[135.48748,34.61466],[135.48747,34.61463],[135.48738,34.61428]]]}},{"type":"Feature","properties":{"name":"安立一丁目","setai":714,"jinko":1255,"key":"27125003001","units":1},"geometry":{"type":"Polygon","coordinates":[[[135.49061,34.60756],[135.49033,34.60646],[135.49028,34.60647],[135.49024,34.60648],[135.48962,34.60662],[135.48908,34.60674],[135.48904,34.60673],[135.48902,34.60673],[135.4886,34.6068],[135.48803,34.60691],[135.4883,34.60739],[135.48851,34.60779],[135.48881,34.60833],[135.48885,34.6084],[135.48898,34.60863],[135.48917,34.60898],[135.4893,34.60924],[135.48954,34.60975],[135.4896,34.60995],[135.48969,34.61019],[135.48981,34.61055],[135.49012,34.6104],[135.49034,34.6103],[135.49054,34.61023],[135.49068,34.61019],[135.4909,34.61015],[135.49094,34.61015],[135.49123,34.61013],[135.49127,34.61013],[135.49103,34.60924],[135.49101,34.60919],[135.4909,34.60873],[135.49074,34.60808],[135.49062,34.60762],[135.49057,34.60761],[135.49061,34.60756]]]}},{"type":"Feature","properties":{"name":"安立二丁目","setai":614,"jinko":1088,"key":"27125003002","units":1},"geometry":{"type":"Polygon","coordinates":[[[135.48968,34.60391],[135.48958,34.6035],[135.48944,34.60355],[135.4888,34.6037],[135.48819,34.60384],[135.48845,34.60449],[135.48857,34.60479],[135.48865,34.60499],[135.48863,34.60537],[135.48864,34.60539],[135.48869,34.60554],[135.48874,34.60563],[135.48875,34.60569],[135.48877,34.60574],[135.4888,34.60584],[135.48884,34.60597],[135.48889,34.60611],[135.48894,34.60631],[135.48906,34.60669],[135.48904,34.60673],[135.48908,34.60674],[135.48962,34.60662],[135.49024,34.60648],[135.49028,34.60647],[135.49033,34.60646],[135.49011,34.60561],[135.49008,34.60548],[135.49004,34.60531],[135.49003,34.60529],[135.48995,34.60496],[135.48987,34.60467],[135.48982,34.60444],[135.48976,34.60422],[135.48968,34.60391]]]}},{"type":"Feature","properties":{"name":"安立三丁目","setai":421,"jinko":727,"key":"27125003003","units":1},"geometry":{"type":"Polygon","coordinates":[[[135.48898,34.60113],[135.48887,34.60072],[135.48839,34.60079],[135.48832,34.60081],[135.48779,34.60095],[135.48779,34.60093],[135.48725,34.60104],[135.4872,34.60105],[135.48733,34.60144],[135.4875,34.60186],[135.48764,34.60221],[135.48766,34.60225],[135.48775,34.60254],[135.48785,34.60283],[135.48789,34.60296],[135.488,34.60325],[135.48804,34.60338],[135.48819,34.60384],[135.4888,34.6037],[135.48944,34.60355],[135.48958,34.6035],[135.48947,34.60308],[135.48944,34.60294],[135.48937,34.60268],[135.48926,34.60226],[135.48925,34.60223],[135.48919,34.60199],[135.48916,34.60184],[135.48908,34.60152],[135.48905,34.60144],[135.48901,34.60125],[135.48898,34.60113]]]}},{"type":"Feature","properties":{"name":"安立四丁目","setai":644,"jinko":1238,"key":"27125003004","units":1},"geometry":{"type":"Polygon","coordinates":[[[135.48725,34.60104],[135.48779,34.60093],[135.48779,34.60095],[135.48832,34.60081],[135.48839,34.60079],[135.48887,34.60072],[135.48887,34.60072],[135.48877,34.60034],[135.48875,34.60028],[135.48874,34.60023],[135.48872,34.60018],[135.48871,34.60012],[135.48871,34.60012],[135.48858,34.59974],[135.48857,34.59969],[135.48851,34.59955],[135.48843,34.59937],[135.48836,34.59918],[135.48817,34.59872],[135.48787,34.59797],[135.48767,34.59746],[135.48754,34.59711],[135.48715,34.59612],[135.4865,34.59626],[135.48578,34.5964],[135.48565,34.59642],[135.48539,34.59647],[135.48594,34.59799],[135.48575,34.59804],[135.48591,34.59833],[135.48599,34.59866],[135.48601,34.59865],[135.48607,34.59882],[135.48607,34.59883],[135.4863,34.59955],[135.48636,34.5996],[135.48658,34.59964],[135.48668,34.59985],[135.48669,34.59988],[135.48672,34.59994],[135.48677,34.60006],[135.48686,34.60024],[135.48698,34.60049],[135.48705,34.60063],[135.48725,34.60104]]]}},{"type":"Feature","properties":{"name":"浜口東一丁目","setai":18,"jinko":42,"key":"27125004001","units":1},"geometry":{"type":"Polygon","coordinates":[[[135.49042,34.61387],[135.49041,34.61382],[135.49037,34.61372],[135.49021,34.61318],[135.4901,34.61281],[135.49009,34.61273],[135.49006,34.61265],[135.48983,34.61173],[135.48958,34.61069],[135.48926,34.61073],[135.48903,34.61073],[135.4889,34.61072],[135.48865,34.61075],[135.48847,34.61083],[135.4882,34.61099],[135.48792,34.61123],[135.48768,34.6114],[135.48751,34.61143],[135.48722,34.6114],[135.48693,34.61134],[135.48669,34.61125],[135.4866,34.61121],[135.48707,34.61307],[135.48728,34.61382],[135.48728,34.61387],[135.48762,34.61383],[135.48804,34.61386],[135.48825,34.61387],[135.48836,34.61384],[135.4884,34.61383],[135.48866,34.61365],[135.48876,34.61361],[135.48894,34.61361],[135.48904,34.61365],[135.48916,34.61374],[135.48934,34.61378],[135.4895,34.61374],[135.48964,34.61372],[135.48981,34.61372],[135.48996,34.61372],[135.49025,34.61386],[135.49036,34.61389],[135.49042,34.61387]]]}},{"type":"Feature","properties":{"name":"浜口東二丁目","setai":610,"jinko":1334,"key":"27125004002","units":1},"geometry":{"type":"Polygon","coordinates":[[[135.48865,34.61075],[135.4889,34.61072],[135.48903,34.61073],[135.48926,34.61073],[135.48958,34.61069],[135.48981,34.61055],[135.48969,34.61019],[135.4896,34.60995],[135.48954,34.60975],[135.4893,34.60924],[135.48863,34.60923],[135.4879,34.60923],[135.48743,34.60923],[135.48713,34.60923],[135.48664,34.60924],[135.48634,34.60923],[135.48581,34.60923],[135.48594,34.60955],[135.48599,34.60968],[135.48615,34.61002],[135.48617,34.61008],[135.48652,34.61089],[135.48661,34.61109],[135.48662,34.61111],[135.48669,34.61125],[135.48693,34.61134],[135.48722,34.6114],[135.48751,34.61143],[135.48768,34.6114],[135.48792,34.61123],[135.4882,34.61099],[135.48847,34.61083],[135.48865,34.61075]]]}},{"type":"Feature","properties":{"name":"浜口東三丁目","setai":596,"jinko":1226,"key":"27125004003","units":1},"geometry":{"type":"Polygon","coordinates":[[[135.48743,34.60923],[135.4879,34.60923],[135.48863,34.60923],[135.4893,34.60924],[135.48917,34.60898],[135.48898,34.60863],[135.48885,34.6084],[135.48881,34.60833],[135.48851,34.60779],[135.4883,34.60739],[135.48751,34.60767],[135.48688,34.60789],[135.48677,34.60767],[135.48676,34.60763],[135.48675,34.60762],[135.48659,34.60725],[135.48651,34.60704],[135.48605,34.60719],[135.48566,34.60732],[135.48564,34.60733],[135.48537,34.60741],[135.48501,34.60752],[135.4851,34.60772],[135.48521,34.60794],[135.48526,34.60804],[135.4854,34.60834],[135.48551,34.60862],[135.48578,34.60919],[135.48581,34.60923],[135.48634,34.60923],[135.48664,34.60924],[135.48713,34.60923],[135.48743,34.60923]]]}},{"type":"Feature","properties":{"name":"浜口西一丁目","setai":850,"jinko":1797,"key":"27125005001","units":1},"geometry":{"type":"Polygon","coordinates":[[[135.48607,34.6139],[135.48608,34.61389],[135.48644,34.61392],[135.48662,34.61394],[135.48713,34.6139],[135.48728,34.61387],[135.48728,34.61382],[135.48707,34.61307],[135.4866,34.61121],[135.48654,34.61118],[135.48633,34.61105],[135.48618,34.611],[135.48604,34.61099],[135.48592,34.61101],[135.4856,34.61109],[135.48557,34.61111],[135.48551,34.61113],[135.48523,34.61128],[135.48502,34.61132],[135.48483,34.61138],[135.48451,34.61153],[135.48414,34.6117],[135.48397,34.61177],[135.48373,34.61185],[135.4837,34.61185],[135.48354,34.61191],[135.48336,34.61193],[135.48344,34.61222],[135.48352,34.61247],[135.48364,34.61276],[135.48362,34.61276],[135.48389,34.61337],[135.4839,34.61339],[135.4839,34.61341],[135.48399,34.61375],[135.48408,34.61403],[135.48415,34.61422],[135.48416,34.61425],[135.48451,34.61416],[135.48493,34.61407],[135.48509,34.61403],[135.48537,34.61398],[135.48554,34.61395],[135.48567,34.61393],[135.48607,34.6139]]]}},{"type":"Feature","properties":{"name":"浜口西二丁目","setai":773,"jinko":1522,"key":"27125005002","units":1},"geometry":{"type":"Polygon","coordinates":[[[135.48592,34.61101],[135.48604,34.61099],[135.48618,34.611],[135.48633,34.61105],[135.48654,34.61118],[135.4866,34.61121],[135.48669,34.61125],[135.48662,34.61111],[135.48661,34.61109],[135.48652,34.61089],[135.48617,34.61008],[135.48615,34.61002],[135.48599,34.60968],[135.48594,34.60955],[135.48581,34.60923],[135.48578,34.60919],[135.4855,34.6092],[135.48529,34.60918],[135.48516,34.60918],[135.48502,34.60918],[135.48493,34.60918],[135.48418,34.60915],[135.48368,34.60914],[135.48324,34.60912],[135.48326,34.6093],[135.48329,34.60985],[135.4833,34.61042],[135.48331,34.61099],[135.48332,34.61125],[135.48333,34.61151],[135.48334,34.61171],[135.48336,34.61188],[135.48336,34.61193],[135.48354,34.61191],[135.4837,34.61185],[135.48373,34.61185],[135.48397,34.61177],[135.48414,34.6117],[135.48451,34.61153],[135.48483,34.61138],[135.48502,34.61132],[135.48523,34.61128],[135.48551,34.61113],[135.48557,34.61111],[135.4856,34.61109],[135.48592,34.61101]]]}},{"type":"Feature","properties":{"name":"浜口西三丁目","setai":432,"jinko":831,"key":"27125005003","units":1},"geometry":{"type":"Polygon","coordinates":[[[135.48578,34.60919],[135.48551,34.60862],[135.4854,34.60834],[135.48526,34.60804],[135.48521,34.60794],[135.4851,34.60772],[135.48501,34.60752],[135.48479,34.60705],[135.48472,34.60689],[135.48462,34.60669],[135.48452,34.60648],[135.48452,34.60644],[135.48427,34.60592],[135.48388,34.60513],[135.4836,34.60453],[135.48352,34.60435],[135.48317,34.60354],[135.48298,34.60312],[135.48281,34.60273],[135.48255,34.60218],[135.48251,34.60209],[135.48241,34.60209],[135.4824,34.6021],[135.48242,34.60215],[135.48273,34.60321],[135.48263,34.60321],[135.48263,34.60324],[135.48268,34.60351],[135.48279,34.60404],[135.4829,34.60455],[135.48294,34.60484],[135.48294,34.60487],[135.48297,34.60511],[135.48298,34.60522],[135.483,34.60546],[135.483,34.60555],[135.48304,34.60594],[135.48305,34.60594],[135.4831,34.60638],[135.4831,34.60662],[135.48311,34.60677],[135.48314,34.6072],[135.48314,34.60725],[135.48316,34.6076],[135.48318,34.608],[135.48322,34.60851],[135.48324,34.60908],[135.48324,34.60912],[135.48368,34.60914],[135.48418,34.60915],[135.48493,34.60918],[135.48502,34.60918],[135.48516,34.60918],[135.48529,34.60918],[135.4855,34.6092],[135.48578,34.60919]]]}},{"type":"Feature","properties":{"name":"住之江一丁目","setai":303,"jinko":611,"key":"27125006001","units":1},"geometry":{"type":"Polygon","coordinates":[[[135.4886,34.6068],[135.48902,34.60673],[135.48904,34.60673],[135.48906,34.60669],[135.48894,34.60631],[135.48889,34.60611],[135.48884,34.60597],[135.4888,34.60584],[135.48877,34.60574],[135.48875,34.60569],[135.48874,34.60563],[135.48869,34.60554],[135.48864,34.60539],[135.48863,34.60537],[135.48865,34.60499],[135.48857,34.60479],[135.48845,34.60449],[135.48819,34.60384],[135.48743,34.60402],[135.48696,34.60415],[135.48674,34.60422],[135.48678,34.60433],[135.4871,34.60496],[135.48729,34.60536],[135.48752,34.60586],[135.48767,34.60619],[135.48784,34.60651],[135.48803,34.60691],[135.4886,34.6068]]]}},{"type":"Feature","properties":{"name":"住之江二丁目","setai":450,"jinko":783,"key":"27125006002","units":1},"geometry":{"type":"Polygon","coordinates":[[[135.48764,34.60221],[135.4875,34.60186],[135.48733,34.60144],[135.4872,34.60105],[135.48657,34.60118],[135.48656,34.60118],[135.48627,34.60124],[135.48588,34.60133],[135.4856,34.60139],[135.4856,34.6014],[135.48571,34.6017],[135.48553,34.60175],[135.48556,34.60182],[135.48574,34.60177],[135.48575,34.6018],[135.48577,34.60184],[135.48558,34.60189],[135.48561,34.60196],[135.48579,34.60191],[135.48582,34.60199],[135.48564,34.60204],[135.48567,34.60212],[135.48586,34.60207],[135.4859,34.60219],[135.48595,34.6023],[135.48599,34.60238],[135.48608,34.60262],[135.4861,34.60266],[135.48623,34.60303],[135.48637,34.60339],[135.48639,34.60345],[135.48645,34.60365],[135.48649,34.6037],[135.48652,34.60377],[135.48656,34.60385],[135.48674,34.60422],[135.48696,34.60415],[135.48743,34.60402],[135.48819,34.60384],[135.48804,34.60338],[135.488,34.60325],[135.48789,34.60296],[135.48785,34.60283],[135.48775,34.60254],[135.48766,34.60225],[135.48764,34.60221]]]}},{"type":"Feature","properties":{"name":"住之江三丁目","setai":465,"jinko":900,"key":"27125006003","units":1},"geometry":{"type":"Polygon","coordinates":[[[135.48607,34.59882],[135.48601,34.59865],[135.48599,34.59866],[135.48591,34.59833],[135.48575,34.59804],[135.48594,34.59799],[135.48539,34.59647],[135.48528,34.59649],[135.48506,34.59653],[135.48491,34.59657],[135.48394,34.59677],[135.48437,34.59802],[135.48439,34.59808],[135.48449,34.59834],[135.48451,34.59838],[135.48462,34.59868],[135.48463,34.59872],[135.48478,34.59911],[135.48479,34.59913],[135.48491,34.59948],[135.48505,34.59987],[135.48506,34.59989],[135.48513,34.60009],[135.48518,34.60024],[135.4852,34.6003],[135.48533,34.60062],[135.48536,34.60071],[135.48547,34.60101],[135.48548,34.60103],[135.48559,34.60136],[135.4856,34.60139],[135.48588,34.60133],[135.48627,34.60124],[135.48656,34.60118],[135.48657,34.60118],[135.4872,34.60105],[135.48725,34.60104],[135.48705,34.60063],[135.48698,34.60049],[135.48686,34.60024],[135.48677,34.60006],[135.48672,34.59994],[135.48669,34.59988],[135.48668,34.59985],[135.48658,34.59964],[135.48636,34.5996],[135.4863,34.59955],[135.48607,34.59883],[135.48607,34.59882]]]}},{"type":"Feature","properties":{"name":"西住之江一丁目","setai":802,"jinko":1521,"key":"27125007001","units":1},"geometry":{"type":"Polygon","coordinates":[[[135.4883,34.60739],[135.48803,34.60691],[135.48784,34.60651],[135.48767,34.60619],[135.48752,34.60586],[135.48729,34.60536],[135.4871,34.60496],[135.48678,34.60433],[135.48674,34.60422],[135.4861,34.60442],[135.48587,34.6045],[135.48544,34.60463],[135.48485,34.60482],[135.48451,34.60493],[135.48388,34.60513],[135.48427,34.60592],[135.48452,34.60644],[135.48452,34.60648],[135.48462,34.60669],[135.48472,34.60689],[135.48479,34.60705],[135.48501,34.60752],[135.48537,34.60741],[135.48564,34.60733],[135.48566,34.60732],[135.48605,34.60719],[135.48651,34.60704],[135.48659,34.60725],[135.48675,34.60762],[135.48676,34.60763],[135.48677,34.60767],[135.48688,34.60789],[135.48751,34.60767],[135.4883,34.60739]]]}},{"type":"Feature","properties":{"name":"西住之江二丁目","setai":658,"jinko":1340,"key":"27125007002","units":1},"geometry":{"type":"Polygon","coordinates":[[[135.4859,34.60219],[135.48586,34.60207],[135.48567,34.60212],[135.48564,34.60204],[135.48582,34.60199],[135.48579,34.60191],[135.48561,34.60196],[135.48558,34.60189],[135.48577,34.60184],[135.48575,34.6018],[135.48574,34.60177],[135.48556,34.60182],[135.48553,34.60175],[135.48571,34.6017],[135.4856,34.6014],[135.48415,34.60177],[135.48412,34.60178],[135.4835,34.60194],[135.48317,34.60202],[135.48255,34.60218],[135.48281,34.60273],[135.48298,34.60312],[135.48317,34.60354],[135.48352,34.60435],[135.4836,34.60453],[135.48388,34.60513],[135.48451,34.60493],[135.48485,34.60482],[135.48544,34.60463],[135.48587,34.6045],[135.4861,34.60442],[135.48674,34.60422],[135.48656,34.60385],[135.48652,34.60377],[135.48649,34.6037],[135.48645,34.60365],[135.48639,34.60345],[135.48637,34.60339],[135.48623,34.60303],[135.4861,34.60266],[135.48608,34.60262],[135.48599,34.60238],[135.48595,34.6023],[135.4859,34.60219]]]}},{"type":"Feature","properties":{"name":"西住之江三丁目","setai":636,"jinko":1206,"key":"27125007003","units":1},"geometry":{"type":"Polygon","coordinates":[[[135.48255,34.60218],[135.48317,34.60202],[135.4835,34.60194],[135.48412,34.60178],[135.48415,34.60177],[135.4856,34.6014],[135.4856,34.60139],[135.48559,34.60136],[135.48548,34.60103],[135.48547,34.60101],[135.48536,34.60071],[135.48533,34.60062],[135.4852,34.6003],[135.48518,34.60024],[135.48513,34.60009],[135.48506,34.59989],[135.48505,34.59987],[135.48491,34.59948],[135.48479,34.59913],[135.48355,34.59933],[135.48256,34.59949],[135.48221,34.59954],[135.48222,34.59958],[135.48197,34.59962],[135.48172,34.59967],[135.48108,34.59927],[135.48182,34.60085],[135.48188,34.60097],[135.48202,34.60127],[135.48241,34.60209],[135.48251,34.60209],[135.48255,34.60218]]]}},{"type":"Feature","properties":{"name":"西住之江四丁目","setai":257,"jinko":522,"key":"27125007004","units":1},"geometry":{"type":"Polygon","coordinates":[[[135.48437,34.59802],[135.48394,34.59677],[135.48359,34.59684],[135.48314,34.59697],[135.48299,34.597],[135.48254,34.59709],[135.48191,34.59723],[135.48184,34.59725],[135.48128,34.59741],[135.48099,34.59749],[135.48048,34.59768],[135.48036,34.59773],[135.48077,34.59861],[135.48108,34.59927],[135.48172,34.59967],[135.48197,34.59962],[135.48222,34.59958],[135.48221,34.59954],[135.48256,34.59949],[135.48355,34.59933],[135.48479,34.59913],[135.48478,34.59911],[135.48463,34.59872],[135.48462,34.59868],[135.48451,34.59838],[135.48449,34.59834],[135.48439,34.59808],[135.48437,34.59802]]]}},{"type":"Feature","properties":{"name":"御崎一丁目","setai":1189,"jinko":1920,"key":"27125008001","units":1},"geometry":{"type":"Polygon","coordinates":[[[135.48173,34.61309],[135.48216,34.61301],[135.48217,34.61303],[135.48266,34.61295],[135.48314,34.61288],[135.48362,34.61276],[135.48364,34.61276],[135.48352,34.61247],[135.48344,34.61222],[135.48336,34.61193],[135.48336,34.61188],[135.48334,34.61171],[135.48333,34.61151],[135.48332,34.61125],[135.48331,34.61099],[135.4833,34.61042],[135.48249,34.61053],[135.48196,34.61059],[135.48191,34.6106],[135.48165,34.61063],[135.48152,34.61065],[135.48068,34.61075],[135.48037,34.61079],[135.48051,34.61138],[135.48063,34.61189],[135.48067,34.61207],[135.48072,34.61227],[135.48082,34.61266],[135.48091,34.61305],[135.48095,34.61321],[135.48127,34.61316],[135.4814,34.61314],[135.48155,34.61312],[135.48173,34.61309]]]}},{"type":"Feature","properties":{"name":"御崎二丁目","setai":894,"jinko":1827,"key":"27125008002","units":1},"geometry":{"type":"Polygon","coordinates":[[[135.48051,34.61138],[135.48037,34.61079],[135.47963,34.61089],[135.47925,34.61095],[135.47923,34.61095],[135.47888,34.611],[135.47886,34.611],[135.47882,34.61101],[135.4786,34.61104],[135.47806,34.61112],[135.47801,34.61113],[135.47698,34.61128],[135.47714,34.61192],[135.4772,34.61218],[135.47727,34.61245],[135.47731,34.61263],[135.47736,34.61282],[135.47745,34.61326],[135.47749,34.61341],[135.47758,34.61376],[135.47826,34.61366],[135.47897,34.61354],[135.47944,34.61347],[135.47974,34.61342],[135.48095,34.61321],[135.48091,34.61305],[135.48082,34.61266],[135.48072,34.61227],[135.48067,34.61207],[135.48063,34.61189],[135.48051,34.61138]]]}},{"type":"Feature","properties":{"name":"御崎三丁目","setai":455,"jinko":886,"key":"27125008003","units":1},"geometry":{"type":"Polygon","coordinates":[[[135.48035,34.60898],[135.48007,34.60897],[135.48004,34.60897],[135.48013,34.60956],[135.48022,34.60996],[135.48028,34.61031],[135.48037,34.61079],[135.48068,34.61075],[135.48152,34.61065],[135.48165,34.61063],[135.48191,34.6106],[135.48196,34.61059],[135.48249,34.61053],[135.4833,34.61042],[135.48329,34.60985],[135.48326,34.6093],[135.48324,34.60912],[135.48324,34.60908],[135.48224,34.60905],[135.48222,34.60905],[135.48124,34.60901],[135.48122,34.60901],[135.48104,34.609],[135.48088,34.609],[135.48075,34.609],[135.48048,34.60899],[135.48035,34.60898]]]}},{"type":"Feature","properties":{"name":"御崎四丁目","setai":833,"jinko":1806,"key":"27125008004","units":1},"geometry":{"type":"Polygon","coordinates":[[[135.4764,34.60884],[135.47638,34.60884],[135.47648,34.6092],[135.47659,34.60968],[135.47664,34.60986],[135.47668,34.61002],[135.47677,34.61039],[135.47681,34.61056],[135.47686,34.61079],[135.47698,34.61128],[135.47801,34.61113],[135.47806,34.61112],[135.4786,34.61104],[135.47882,34.61101],[135.47886,34.611],[135.47888,34.611],[135.47923,34.61095],[135.47925,34.61095],[135.47963,34.61089],[135.48037,34.61079],[135.48028,34.61031],[135.48022,34.60996],[135.48013,34.60956],[135.48004,34.60897],[135.4797,34.60895],[135.47921,34.60893],[135.47892,34.60892],[135.47889,34.60892],[135.47861,34.60892],[135.4785,34.60891],[135.47822,34.6089],[135.47793,34.6089],[135.4777,34.60889],[135.47767,34.60889],[135.47693,34.60886],[135.47687,34.60886],[135.4764,34.60884]]]}},{"type":"Feature","properties":{"name":"御崎五丁目","setai":906,"jinko":1758,"key":"27125008005","units":1},"geometry":{"type":"Polygon","coordinates":[[[135.4831,34.60638],[135.48305,34.60594],[135.48304,34.60594],[135.48252,34.60598],[135.4824,34.60599],[135.48187,34.60603],[135.4808,34.60613],[135.48077,34.60614],[135.48076,34.60614],[135.47965,34.60624],[135.47963,34.60624],[135.47969,34.60665],[135.47974,34.60701],[135.47979,34.60735],[135.47979,34.60737],[135.47986,34.60769],[135.47992,34.60806],[135.47998,34.60839],[135.47999,34.60847],[135.48007,34.60897],[135.48035,34.60898],[135.48048,34.60899],[135.48075,34.609],[135.48088,34.609],[135.48104,34.609],[135.48122,34.60901],[135.48124,34.60901],[135.48222,34.60905],[135.48224,34.60905],[135.48324,34.60908],[135.48322,34.60851],[135.48318,34.608],[135.48316,34.6076],[135.48314,34.60725],[135.48314,34.6072],[135.48311,34.60677],[135.4831,34.60662],[135.4831,34.60638]]]}},{"type":"Feature","properties":{"name":"御崎六丁目","setai":1189,"jinko":2194,"key":"27125008006","units":1},"geometry":{"type":"Polygon","coordinates":[[[135.47969,34.60665],[135.47963,34.60624],[135.47849,34.60634],[135.47736,34.60643],[135.47733,34.60644],[135.4773,34.60645],[135.47607,34.60657],[135.47612,34.60692],[135.47617,34.60724],[135.47621,34.60753],[135.47626,34.6079],[135.47631,34.60824],[135.47631,34.60825],[135.47636,34.60858],[135.4764,34.60884],[135.47687,34.60886],[135.47693,34.60886],[135.47767,34.60889],[135.4777,34.60889],[135.47793,34.6089],[135.47822,34.6089],[135.4785,34.60891],[135.47861,34.60892],[135.47889,34.60892],[135.47892,34.60892],[135.47921,34.60893],[135.4797,34.60895],[135.48004,34.60897],[135.48007,34.60897],[135.47999,34.60847],[135.47998,34.60839],[135.47992,34.60806],[135.47986,34.60769],[135.47979,34.60737],[135.47979,34.60735],[135.47974,34.60701],[135.47969,34.60665]]]}},{"type":"Feature","properties":{"name":"御崎七丁目","setai":794,"jinko":1583,"key":"27125008007","units":1},"geometry":{"type":"Polygon","coordinates":[[[135.47965,34.60624],[135.48076,34.60614],[135.48077,34.60614],[135.4808,34.60613],[135.48187,34.60603],[135.4824,34.60599],[135.48252,34.60598],[135.48304,34.60594],[135.483,34.60555],[135.483,34.60546],[135.48298,34.60522],[135.48297,34.60511],[135.48294,34.60487],[135.48294,34.60484],[135.4829,34.60455],[135.48279,34.60404],[135.48268,34.60351],[135.48263,34.60324],[135.48263,34.60321],[135.48273,34.60321],[135.48242,34.60215],[135.48195,34.60227],[135.48121,34.60245],[135.48091,34.60252],[135.47913,34.60295],[135.4792,34.60338],[135.47923,34.60359],[135.47929,34.604],[135.47936,34.60442],[135.47944,34.60494],[135.47949,34.60528],[135.47957,34.60577],[135.47965,34.60624]]]}},{"type":"Feature","properties":{"name":"御崎八丁目","setai":336,"jinko":755,"key":"27125008008","units":1},"geometry":{"type":"Polygon","coordinates":[[[135.47944,34.60494],[135.47936,34.60442],[135.47821,34.60455],[135.47707,34.60468],[135.47671,34.60473],[135.47582,34.60483],[135.4759,34.60534],[135.47595,34.60569],[135.47601,34.60615],[135.47607,34.60657],[135.4773,34.60645],[135.47733,34.60644],[135.47736,34.60643],[135.47849,34.60634],[135.47963,34.60624],[135.47965,34.60624],[135.47957,34.60577],[135.47949,34.60528],[135.47944,34.60494]]]}},{"type":"Feature","properties":{"name":"北加賀屋一丁目","setai":1166,"jinko":2021,"key":"27125009001","units":1},"geometry":{"type":"Polygon","coordinates":[[[135.48063,34.62151],[135.47998,34.6214],[135.47986,34.62182],[135.4798,34.62203],[135.47981,34.62203],[135.47981,34.62252],[135.47974,34.62283],[135.4797,34.62297],[135.4796,34.62337],[135.47958,34.62348],[135.47956,34.62354],[135.47954,34.62363],[135.4795,34.62378],[135.47941,34.62417],[135.47901,34.62437],[135.47846,34.62465],[135.4793,34.6258],[135.47984,34.62554],[135.47985,34.62554],[135.48022,34.62536],[135.48037,34.62528],[135.48169,34.62456],[135.48173,34.62452],[135.48179,34.62445],[135.48188,34.62409],[135.48195,34.62382],[135.48205,34.62337],[135.48216,34.62291],[135.48226,34.6225],[135.48227,34.62244],[135.48236,34.62212],[135.48244,34.62183],[135.48242,34.62182],[135.48201,34.62175],[135.48166,34.62169],[135.48118,34.62161],[135.48063,34.62151]]]}},{"type":"Feature","properties":{"name":"北加賀屋二丁目","setai":478,"jinko":890,"key":"27125009002","units":1},"geometry":{"type":"Polygon","coordinates":[[[135.476,34.62073],[135.47597,34.62072],[135.4759,34.62078],[135.47616,34.62126],[135.47636,34.62162],[135.47647,34.62186],[135.4765,34.62192],[135.47651,34.62194],[135.47684,34.62239],[135.47685,34.62241],[135.47695,34.62255],[135.47708,34.62273],[135.47715,34.62282],[135.4772,34.62289],[135.47723,34.62294],[135.47729,34.62303],[135.47747,34.62326],[135.47791,34.62388],[135.47846,34.62465],[135.47901,34.62437],[135.47941,34.62417],[135.4795,34.62378],[135.47954,34.62363],[135.47956,34.62354],[135.47958,34.62348],[135.4796,34.62337],[135.4797,34.62297],[135.47974,34.62283],[135.47981,34.62252],[135.47981,34.62203],[135.4798,34.62203],[135.47986,34.62182],[135.47998,34.6214],[135.47952,34.62133],[135.47894,34.62124],[135.47894,34.62121],[135.47893,34.62121],[135.47758,34.62099],[135.476,34.62073]]]}},{"type":"Feature","properties":{"name":"北加賀屋三丁目","setai":159,"jinko":224,"key":"27125009003","units":1},"geometry":{"type":"Polygon","coordinates":[[[135.47729,34.62303],[135.47723,34.62294],[135.47655,34.62325],[135.47653,34.62326],[135.47649,34.62327],[135.4755,34.62412],[135.47475,34.62475],[135.47463,34.62486],[135.47448,34.62499],[135.47407,34.62533],[135.47468,34.62567],[135.47505,34.62587],[135.47532,34.62614],[135.4764,34.62725],[135.47737,34.62676],[135.47915,34.62588],[135.4793,34.6258],[135.47846,34.62465],[135.47791,34.62388],[135.47747,34.62326],[135.47729,34.62303]]]}},{"type":"Feature","properties":{"name":"北加賀屋四丁目","setai":0,"jinko":0,"key":"27125009004","units":1},"geometry":{"type":"Polygon","coordinates":[[[135.47447,34.62859],[135.47646,34.62731],[135.4764,34.62725],[135.47532,34.62614],[135.47505,34.62587],[135.47468,34.62567],[135.47407,34.62533],[135.47362,34.62511],[135.47322,34.62491],[135.47308,34.62484],[135.4719,34.62426],[135.47164,34.62414],[135.47148,34.62408],[135.47118,34.62402],[135.46937,34.62365],[135.469,34.62593],[135.46897,34.62607],[135.47045,34.62633],[135.47048,34.62636],[135.47117,34.62648],[135.4712,34.62652],[135.47176,34.62669],[135.47181,34.62664],[135.47196,34.62667],[135.47213,34.62652],[135.4725,34.62682],[135.4728,34.62681],[135.47296,34.627],[135.47291,34.62707],[135.47342,34.62749],[135.47351,34.62745],[135.47388,34.62784],[135.47387,34.62793],[135.47447,34.62859]]]}},{"type":"Feature","properties":{"name":"北加賀屋五丁目","setai":1215,"jinko":2706,"key":"27125009005","units":1},"geometry":{"type":"Polygon","coordinates":[[[135.47026,34.62052],[135.46983,34.62048],[135.4698,34.62124],[135.46974,34.62159],[135.46964,34.62217],[135.46953,34.62279],[135.46937,34.62365],[135.47118,34.62402],[135.47148,34.62408],[135.47164,34.62414],[135.4719,34.62426],[135.47308,34.62484],[135.47322,34.62491],[135.47362,34.62511],[135.47407,34.62533],[135.47448,34.62499],[135.47463,34.62486],[135.47475,34.62475],[135.4755,34.62412],[135.47649,34.62327],[135.47653,34.62326],[135.47655,34.62325],[135.47723,34.62294],[135.4772,34.62289],[135.47715,34.62282],[135.47708,34.62273],[135.47695,34.62255],[135.47685,34.62241],[135.47684,34.62239],[135.47651,34.62194],[135.4765,34.62192],[135.47647,34.62186],[135.47636,34.62162],[135.47616,34.62126],[135.4759,34.62078],[135.47584,34.62078],[135.47507,34.62074],[135.47499,34.62073],[135.47473,34.62072],[135.4744,34.62071],[135.47397,34.62069],[135.47356,34.62068],[135.47317,34.62066],[135.473,34.62065],[135.47226,34.62062],[135.47026,34.62052]]]}},{"type":"Feature","properties":{"name":"東加賀屋一丁目","setai":1515,"jinko":2976,"key":"27125010001","units":1},"geometry":{"type":"Polygon","coordinates":[[[135.48659,34.62197],[135.48654,34.62149],[135.48653,34.62135],[135.48645,34.62099],[135.48644,34.62099],[135.48642,34.62085],[135.48635,34.62058],[135.48631,34.62044],[135.4862,34.62015],[135.48608,34.61996],[135.48603,34.61989],[135.48591,34.6197],[135.48576,34.61948],[135.48561,34.61925],[135.48555,34.61917],[135.48553,34.61914],[135.48547,34.61907],[135.48539,34.61892],[135.48534,34.61891],[135.48527,34.61834],[135.48468,34.61843],[135.4847,34.61848],[135.48415,34.61857],[135.48364,34.61865],[135.48339,34.61869],[135.48307,34.61874],[135.48214,34.61889],[135.48225,34.61954],[135.48233,34.61993],[135.48238,34.62023],[135.48246,34.62062],[135.48253,34.62103],[135.48256,34.62129],[135.48256,34.6213],[135.48242,34.62182],[135.48244,34.62183],[135.48245,34.62177],[135.48379,34.62202],[135.48419,34.62209],[135.48483,34.6222],[135.48515,34.62226],[135.48599,34.62242],[135.4866,34.62253],[135.48664,34.62254],[135.48661,34.62219],[135.48659,34.62197]]]}},{"type":"Feature","properties":{"name":"東加賀屋二丁目","setai":625,"jinko":1223,"key":"27125010002","units":1},"geometry":{"type":"Polygon","coordinates":[[[135.48483,34.61647],[135.48477,34.61633],[135.48432,34.6164],[135.48429,34.61641],[135.48366,34.6165],[135.48329,34.61656],[135.48302,34.6166],[135.483,34.6166],[135.48178,34.61679],[135.48183,34.61715],[135.4819,34.61751],[135.48196,34.61787],[135.48202,34.6182],[135.48207,34.61853],[135.48214,34.61889],[135.48307,34.61874],[135.48339,34.61869],[135.48364,34.61865],[135.48415,34.61857],[135.4847,34.61848],[135.48468,34.61843],[135.48527,34.61834],[135.48525,34.618],[135.4852,34.61764],[135.48519,34.61759],[135.48512,34.61727],[135.48505,34.617],[135.48499,34.61684],[135.48494,34.61672],[135.48483,34.61647]]]}},{"type":"Feature","properties":{"name":"東加賀屋三丁目","setai":655,"jinko":1362,"key":"27125010003","units":1},"geometry":{"type":"Polygon","coordinates":[[[135.48416,34.61425],[135.48415,34.61422],[135.48411,34.61425],[135.48347,34.61438],[135.48283,34.61447],[135.48283,34.61448],[135.48254,34.61454],[135.4813,34.61476],[135.48137,34.61508],[135.48138,34.61511],[135.48148,34.6155],[135.48153,34.61578],[135.48162,34.61614],[135.48162,34.61616],[135.48166,34.61635],[135.48169,34.61646],[135.48178,34.61679],[135.483,34.6166],[135.48302,34.6166],[135.48329,34.61656],[135.48366,34.6165],[135.48429,34.61641],[135.48432,34.6164],[135.48477,34.61633],[135.48473,34.61622],[135.48468,34.61598],[135.48461,34.61575],[135.48459,34.61568],[135.48454,34.61554],[135.4845,34.61538],[135.48449,34.61534],[135.48438,34.61504],[135.48433,34.61481],[135.48427,34.61456],[135.48416,34.61425]]]}},{"type":"Feature","properties":{"name":"東加賀屋四丁目","setai":412,"jinko":755,"key":"27125010004","units":1},"geometry":{"type":"Polygon","coordinates":[[[135.48389,34.61337],[135.48362,34.61276],[135.48314,34.61288],[135.48266,34.61295],[135.48217,34.61303],[135.48216,34.61301],[135.48173,34.61309],[135.48155,34.61312],[135.4814,34.61314],[135.48127,34.61316],[135.48095,34.61321],[135.48094,34.61324],[135.48108,34.61386],[135.48118,34.61431],[135.48119,34.61435],[135.48119,34.61435],[135.48125,34.61454],[135.4813,34.61476],[135.48254,34.61454],[135.48283,34.61448],[135.48283,34.61447],[135.48347,34.61438],[135.48411,34.61425],[135.48415,34.61422],[135.48408,34.61403],[135.48399,34.61375],[135.4839,34.61341],[135.4839,34.61339],[135.48389,34.61337]]]}},{"type":"Feature","properties":{"name":"中加賀屋一丁目","setai":1108,"jinko":2240,"key":"27125011001","units":1},"geometry":{"type":"Polygon","coordinates":[[[135.48225,34.61954],[135.48214,34.61889],[135.48097,34.61907],[135.47982,34.61926],[135.47886,34.61941],[135.47892,34.61974],[135.47895,34.6199],[135.47898,34.62008],[135.47905,34.62045],[135.47907,34.62067],[135.47894,34.62121],[135.47894,34.62124],[135.47952,34.62133],[135.47998,34.6214],[135.48063,34.62151],[135.48118,34.62161],[135.48166,34.62169],[135.48201,34.62175],[135.48242,34.62182],[135.48256,34.6213],[135.48256,34.62129],[135.48253,34.62103],[135.48246,34.62062],[135.48238,34.62023],[135.48233,34.61993],[135.48225,34.61954]]]}},{"type":"Feature","properties":{"name":"中加賀屋二丁目","setai":729,"jinko":1287,"key":"27125011002","units":1},"geometry":{"type":"Polygon","coordinates":[[[135.48183,34.61715],[135.48178,34.61679],[135.4806,34.61696],[135.48058,34.61697],[135.47943,34.61715],[135.47849,34.6173],[135.47855,34.61769],[135.47862,34.61805],[135.47868,34.61841],[135.47874,34.61875],[135.4788,34.61908],[135.47886,34.61941],[135.47982,34.61926],[135.48097,34.61907],[135.48214,34.61889],[135.48207,34.61853],[135.48202,34.6182],[135.48196,34.61787],[135.4819,34.61751],[135.48183,34.61715]]]}},{"type":"Feature","properties":{"name":"中加賀屋三丁目","setai":1078,"jinko":1939,"key":"27125011003","units":1},"geometry":{"type":"Polygon","coordinates":[[[135.48137,34.61508],[135.4813,34.61476],[135.48011,34.61496],[135.47945,34.61507],[135.47892,34.61515],[135.47795,34.61532],[135.47805,34.61566],[135.47805,34.61568],[135.47813,34.616],[135.47822,34.61633],[135.47831,34.61668],[135.47835,34.61684],[135.47839,34.61699],[135.47849,34.6173],[135.47943,34.61715],[135.48058,34.61697],[135.4806,34.61696],[135.48178,34.61679],[135.48169,34.61646],[135.48166,34.61635],[135.48162,34.61616],[135.48162,34.61614],[135.48153,34.61578],[135.48148,34.6155],[135.48138,34.61511],[135.48137,34.61508]]]}},{"type":"Feature","properties":{"name":"中加賀屋四丁目","setai":312,"jinko":513,"key":"27125011004","units":1},"geometry":{"type":"Polygon","coordinates":[[[135.48118,34.61431],[135.48108,34.61386],[135.48094,34.61324],[135.48095,34.61321],[135.47974,34.61342],[135.47944,34.61347],[135.47897,34.61354],[135.47826,34.61366],[135.47758,34.61376],[135.47756,34.61376],[135.47694,34.61386],[135.47709,34.61451],[135.47749,34.61445],[135.47769,34.61442],[135.47871,34.61425],[135.47882,34.61474],[135.47892,34.61515],[135.47945,34.61507],[135.48011,34.61496],[135.4813,34.61476],[135.48125,34.61454],[135.48119,34.61435],[135.48119,34.61435],[135.48118,34.61431]]]}},{"type":"Feature","properties":{"name":"西加賀屋一丁目","setai":564,"jinko":1296,"key":"27125012001","units":1},"geometry":{"type":"Polygon","coordinates":[[[135.47894,34.62121],[135.47907,34.62067],[135.47905,34.62045],[135.47898,34.62008],[135.47895,34.6199],[135.47892,34.61974],[135.47886,34.61941],[135.47841,34.61948],[135.47795,34.61955],[135.47781,34.61956],[135.47778,34.61957],[135.47755,34.6196],[135.47737,34.61962],[135.47723,34.61964],[135.47707,34.61966],[135.47691,34.61968],[135.47673,34.61971],[135.47619,34.61978],[135.47616,34.61979],[135.47547,34.62001],[135.47555,34.62017],[135.47581,34.62071],[135.47584,34.62078],[135.4759,34.62078],[135.47597,34.62072],[135.476,34.62073],[135.47758,34.62099],[135.47893,34.62121],[135.47894,34.62121]]]}},{"type":"Feature","properties":{"name":"西加賀屋二丁目","setai":462,"jinko":900,"key":"27125012002","units":1},"geometry":{"type":"Polygon","coordinates":[[[135.47855,34.61769],[135.47849,34.6173],[135.47719,34.6175],[135.47715,34.61751],[135.47609,34.61767],[135.47605,34.61769],[135.4753,34.61782],[135.47526,34.61785],[135.47521,34.61786],[135.47456,34.61808],[135.47463,34.61826],[135.47466,34.61832],[135.47469,34.61838],[135.47472,34.61846],[135.47481,34.61866],[135.47493,34.6189],[135.47504,34.61913],[135.47505,34.61914],[135.4753,34.61967],[135.47536,34.61978],[135.47545,34.61996],[135.47547,34.62001],[135.47616,34.61979],[135.47619,34.61978],[135.47673,34.61971],[135.47691,34.61968],[135.47707,34.61966],[135.47723,34.61964],[135.47737,34.61962],[135.47755,34.6196],[135.47778,34.61957],[135.47781,34.61956],[135.47795,34.61955],[135.47841,34.61948],[135.47886,34.61941],[135.4788,34.61908],[135.47874,34.61875],[135.47868,34.61841],[135.47862,34.61805],[135.47855,34.61769]]]}},{"type":"Feature","properties":{"name":"西加賀屋三丁目","setai":1168,"jinko":2319,"key":"27125012003","units":1},"geometry":{"type":"Polygon","coordinates":[[[135.47805,34.61566],[135.47795,34.61532],[135.47727,34.61544],[135.4767,34.61554],[135.47562,34.61574],[135.47559,34.61574],[135.47543,34.61577],[135.47541,34.61577],[135.47433,34.61597],[135.47362,34.6161],[135.47355,34.61611],[135.47375,34.61651],[135.47384,34.61668],[135.47395,34.61689],[135.47407,34.61713],[135.47419,34.61738],[135.47429,34.61758],[135.47434,34.61767],[135.47441,34.61781],[135.47456,34.61808],[135.47521,34.61786],[135.47526,34.61785],[135.4753,34.61782],[135.47605,34.61769],[135.47609,34.61767],[135.47715,34.61751],[135.47719,34.6175],[135.47849,34.6173],[135.47839,34.61699],[135.47835,34.61684],[135.47831,34.61668],[135.47822,34.61633],[135.47813,34.616],[135.47805,34.61568],[135.47805,34.61566]]]}},{"type":"Feature","properties":{"name":"西加賀屋四丁目","setai":769,"jinko":1432,"key":"27125012004","units":1},"geometry":{"type":"Polygon","coordinates":[[[135.47882,34.61474],[135.47871,34.61425],[135.47769,34.61442],[135.47749,34.61445],[135.47709,34.61451],[135.47694,34.61386],[135.47663,34.6139],[135.47615,34.61396],[135.47614,34.61396],[135.4761,34.61397],[135.47577,34.614],[135.47562,34.61407],[135.47548,34.61412],[135.47523,34.61408],[135.47513,34.61407],[135.47418,34.61418],[135.4735,34.61425],[135.4735,34.61426],[135.47352,34.61472],[135.47353,34.61508],[135.47353,34.6151],[135.47359,34.61603],[135.47362,34.6161],[135.47433,34.61597],[135.47541,34.61577],[135.47543,34.61577],[135.47559,34.61574],[135.47562,34.61574],[135.4767,34.61554],[135.47727,34.61544],[135.47795,34.61532],[135.47892,34.61515],[135.47882,34.61474]]]}},{"type":"Feature","properties":{"name":"南加賀屋一丁目","setai":9,"jinko":24,"key":"27125013001","units":1},"geometry":{"type":"Polygon","coordinates":[[[135.47418,34.61418],[135.47513,34.61407],[135.47523,34.61408],[135.47548,34.61412],[135.47562,34.61407],[135.47577,34.614],[135.4761,34.61397],[135.47614,34.61396],[135.47615,34.61396],[135.47663,34.6139],[135.47694,34.61386],[135.47756,34.61376],[135.47758,34.61376],[135.47749,34.61341],[135.47745,34.61326],[135.47736,34.61282],[135.47731,34.61263],[135.47727,34.61245],[135.4772,34.61218],[135.47714,34.61192],[135.47698,34.61128],[135.47686,34.61079],[135.47681,34.61056],[135.47677,34.61039],[135.47668,34.61002],[135.47664,34.60986],[135.47659,34.60968],[135.47648,34.6092],[135.47638,34.60884],[135.4761,34.60883],[135.47609,34.60883],[135.4758,34.60883],[135.47577,34.60883],[135.47504,34.6089],[135.47443,34.60895],[135.47304,34.60909],[135.47316,34.61091],[135.47322,34.61199],[135.47329,34.61323],[135.47338,34.61426],[135.47337,34.61428],[135.4735,34.61426],[135.4735,34.61425],[135.47418,34.61418]]]}},{"type":"Feature","properties":{"name":"南加賀屋二丁目","setai":525,"jinko":1086,"key":"27125013002","units":1},"geometry":{"type":"Polygon","coordinates":[[[135.47504,34.6089],[135.47577,34.60883],[135.4758,34.60883],[135.47609,34.60883],[135.4761,34.60883],[135.47638,34.60884],[135.4764,34.60884],[135.47636,34.60858],[135.47631,34.60825],[135.47631,34.60824],[135.47626,34.6079],[135.47621,34.60753],[135.47617,34.60724],[135.47612,34.60692],[135.47607,34.60657],[135.476,34.60658],[135.47479,34.60667],[135.47476,34.60667],[135.4737,34.60677],[135.47291,34.60683],[135.47298,34.60786],[135.47304,34.6085],[135.47304,34.60904],[135.47304,34.60909],[135.47443,34.60895],[135.47504,34.6089]]]}},{"type":"Feature","properties":{"name":"南加賀屋三丁目","setai":331,"jinko":694,"key":"27125013003","units":1},"geometry":{"type":"Polygon","coordinates":[[[135.4759,34.60534],[135.47582,34.60483],[135.47537,34.60489],[135.47528,34.6049],[135.47503,34.60493],[135.47451,34.60498],[135.47451,34.60501],[135.47393,34.60509],[135.47362,34.60514],[135.47362,34.6046],[135.47362,34.60425],[135.47334,34.60432],[135.47333,34.60433],[135.47277,34.60446],[135.4728,34.60474],[135.47283,34.60545],[135.47283,34.6055],[135.47283,34.60553],[135.47283,34.60557],[135.47286,34.60604],[135.47289,34.60671],[135.47291,34.60683],[135.4737,34.60677],[135.47476,34.60667],[135.47479,34.60667],[135.476,34.60658],[135.47607,34.60657],[135.47601,34.60615],[135.47595,34.60569],[135.4759,34.60534]]]}},{"type":"Feature","properties":{"name":"南加賀屋四丁目","setai":1083,"jinko":2265,"key":"27125013004","units":1},"geometry":{"type":"Polygon","coordinates":[[[135.47582,34.60483],[135.47562,34.60382],[135.47562,34.60379],[135.47568,34.60378],[135.47568,34.60334],[135.47569,34.60269],[135.47569,34.60268],[135.4757,34.60206],[135.4757,34.60161],[135.4757,34.6016],[135.4757,34.60141],[135.47571,34.601],[135.47572,34.601],[135.47572,34.60063],[135.47632,34.60024],[135.47587,34.59949],[135.47552,34.59963],[135.47484,34.59993],[135.47456,34.60005],[135.47397,34.60029],[135.47381,34.60036],[135.4737,34.6004],[135.47287,34.60064],[135.47279,34.60067],[135.47249,34.60079],[135.47228,34.60085],[135.47197,34.60095],[135.47167,34.60106],[135.47212,34.60225],[135.47233,34.60279],[135.47233,34.6028],[135.47254,34.60332],[135.47255,34.60336],[135.47265,34.60374],[135.47267,34.60383],[135.47268,34.60391],[135.47274,34.60418],[135.47275,34.60423],[135.47276,34.6043],[135.47277,34.60446],[135.47333,34.60433],[135.47334,34.60432],[135.47362,34.60425],[135.47362,34.6046],[135.47362,34.60514],[135.47393,34.60509],[135.47451,34.60501],[135.47451,34.60498],[135.47503,34.60493],[135.47528,34.6049],[135.47537,34.60489],[135.47582,34.60483]]]}},{"type":"Feature","properties":{"name":"緑木一丁目","setai":553,"jinko":1101,"key":"27125014001","units":1},"geometry":{"type":"Polygon","coordinates":[[[135.47375,34.61651],[135.47355,34.61611],[135.47323,34.61615],[135.47289,34.6162],[135.47284,34.61621],[135.47108,34.61642],[135.47007,34.61654],[135.46928,34.61664],[135.46954,34.61853],[135.46959,34.61893],[135.46961,34.61902],[135.4697,34.61956],[135.46974,34.61979],[135.4698,34.62025],[135.46983,34.62048],[135.47026,34.62052],[135.47226,34.62062],[135.473,34.62065],[135.47317,34.62066],[135.47356,34.62068],[135.47397,34.62069],[135.4744,34.62071],[135.47473,34.62072],[135.47499,34.62073],[135.47507,34.62074],[135.47584,34.62078],[135.47581,34.62071],[135.47555,34.62017],[135.47547,34.62001],[135.47545,34.61996],[135.47536,34.61978],[135.4753,34.61967],[135.47505,34.61914],[135.47504,34.61913],[135.47493,34.6189],[135.47481,34.61866],[135.47472,34.61846],[135.47469,34.61838],[135.47466,34.61832],[135.47463,34.61826],[135.47456,34.61808],[135.47441,34.61781],[135.47434,34.61767],[135.47429,34.61758],[135.47419,34.61738],[135.47407,34.61713],[135.47395,34.61689],[135.47384,34.61668],[135.47375,34.61651]]]}},{"type":"Feature","properties":{"name":"緑木二丁目","setai":199,"jinko":350,"key":"27125014002","units":1},"geometry":{"type":"Polygon","coordinates":[[[135.47352,34.61472],[135.4735,34.61426],[135.47337,34.61428],[135.47277,34.61436],[135.46978,34.61472],[135.46993,34.61563],[135.47007,34.61654],[135.47108,34.61642],[135.47284,34.61621],[135.47289,34.6162],[135.47323,34.61615],[135.47355,34.61611],[135.47362,34.6161],[135.47359,34.61603],[135.47353,34.6151],[135.47353,34.61508],[135.47352,34.61472]]]}},{"type":"Feature","properties":{"name":"柴谷一丁目","setai":0,"jinko":0,"key":"27125015001","units":1},"geometry":{"type":"Polygon","coordinates":[[[135.469,34.62593],[135.46937,34.62365],[135.46953,34.62279],[135.46964,34.62217],[135.46974,34.62159],[135.4698,34.62124],[135.46983,34.62048],[135.46974,34.62048],[135.46936,34.62047],[135.46887,34.62045],[135.46879,34.62045],[135.46846,34.62044],[135.46826,34.62044],[135.46766,34.62043],[135.46755,34.62042],[135.46741,34.62042],[135.46237,34.62025],[135.46234,34.62025],[135.46234,34.62029],[135.46235,34.62117],[135.46262,34.62276],[135.46268,34.62312],[135.4627,34.62344],[135.46275,34.6238],[135.46283,34.6243],[135.46285,34.62467],[135.46288,34.62478],[135.46291,34.62479],[135.46332,34.6248],[135.46362,34.62487],[135.4637,34.62488],[135.46375,34.62483],[135.46379,34.62484],[135.46384,34.6248],[135.46379,34.62472],[135.46407,34.6248],[135.46404,34.62485],[135.46405,34.62492],[135.46409,34.62493],[135.4641,34.62499],[135.4642,34.62501],[135.46423,34.62511],[135.46775,34.62586],[135.46801,34.62579],[135.46814,34.62577],[135.46878,34.62589],[135.469,34.62593]]]}},{"type":"Feature","properties":{"name":"柴谷二丁目","setai":656,"jinko":1479,"key":"27125015002","units":1},"geometry":{"type":"Polygon","coordinates":[[[135.46983,34.62048],[135.4698,34.62025],[135.46974,34.61979],[135.4697,34.61956],[135.46961,34.61902],[135.46959,34.61893],[135.46954,34.61853],[135.46928,34.61664],[135.47007,34.61654],[135.46993,34.61563],[135.46978,34.61472],[135.46775,34.61495],[135.46713,34.61502],[135.46685,34.61506],[135.4617,34.61568],[135.46206,34.61819],[135.46234,34.62023],[135.46234,34.62025],[135.46237,34.62025],[135.46741,34.62042],[135.46755,34.62042],[135.46766,34.62043],[135.46826,34.62044],[135.46846,34.62044],[135.46879,34.62045],[135.46887,34.62045],[135.46936,34.62047],[135.46974,34.62048],[135.46983,34.62048]]]}},{"type":"Feature","properties":{"name":"泉一丁目","setai":155,"jinko":258,"key":"27125016001","units":1},"geometry":{"type":"Polygon","coordinates":[[[135.47316,34.61091],[135.47304,34.60909],[135.47304,34.60904],[135.47242,34.6091],[135.47236,34.60911],[135.47045,34.60934],[135.46805,34.60962],[135.4675,34.60968],[135.46726,34.6097],[135.46712,34.60973],[135.46634,34.60982],[135.46621,34.60984],[135.46619,34.60982],[135.46603,34.60983],[135.46625,34.61123],[135.46626,34.61135],[135.46642,34.61232],[135.46655,34.61318],[135.46685,34.61506],[135.46713,34.61502],[135.46775,34.61495],[135.46978,34.61472],[135.47277,34.61436],[135.47337,34.61428],[135.47338,34.61426],[135.47329,34.61323],[135.47322,34.61199],[135.47316,34.61091]]]}},{"type":"Feature","properties":{"name":"泉二丁目","setai":0,"jinko":0,"key":"27125016002","units":1},"geometry":{"type":"Polygon","coordinates":[[[135.4617,34.61568],[135.46685,34.61506],[135.46655,34.61318],[135.46642,34.61232],[135.46626,34.61135],[135.46625,34.61123],[135.46603,34.60983],[135.46519,34.60993],[135.46496,34.60996],[135.4642,34.61005],[135.46344,34.61014],[135.46271,34.61023],[135.46233,34.61027],[135.46195,34.61031],[135.46186,34.61032],[135.46071,34.61041],[135.46054,34.61042],[135.46054,34.61044],[135.46102,34.61369],[135.46109,34.61424],[135.46117,34.61481],[135.46129,34.6155],[135.46164,34.61545],[135.46167,34.61569],[135.4617,34.61568]]]}},{"type":"Feature","properties":{"name":"北島一丁目","setai":943,"jinko":1653,"key":"27125017001","units":1},"geometry":{"type":"Polygon","coordinates":[[[135.48195,34.60227],[135.48242,34.60215],[135.4824,34.6021],[135.48241,34.60209],[135.48202,34.60127],[135.48188,34.60097],[135.48182,34.60085],[135.48108,34.59927],[135.48077,34.59861],[135.48036,34.59773],[135.47977,34.59794],[135.47979,34.59961],[135.47979,34.59994],[135.4798,34.6002],[135.4798,34.6005],[135.4798,34.60051],[135.4798,34.60075],[135.47981,34.60107],[135.4798,34.60116],[135.47981,34.60152],[135.47981,34.60158],[135.47982,34.60171],[135.47983,34.60193],[135.47983,34.60216],[135.47974,34.60215],[135.47922,34.60215],[135.47893,34.60215],[135.47899,34.60239],[135.47913,34.60295],[135.48091,34.60252],[135.48121,34.60245],[135.48195,34.60227]]]}},{"type":"Feature","properties":{"name":"北島二丁目","setai":787,"jinko":1724,"key":"27125017002","units":1},"geometry":{"type":"Polygon","coordinates":[[[135.47644,34.60208],[135.4757,34.60206],[135.47569,34.60268],[135.47569,34.60269],[135.47568,34.60334],[135.47568,34.60378],[135.47562,34.60379],[135.47562,34.60382],[135.47582,34.60483],[135.47671,34.60473],[135.47707,34.60468],[135.47821,34.60455],[135.47936,34.60442],[135.47929,34.604],[135.47923,34.60359],[135.4792,34.60338],[135.47913,34.60295],[135.47899,34.60239],[135.47893,34.60215],[135.47877,34.60214],[135.47873,34.60213],[135.47805,34.60212],[135.47752,34.60211],[135.47708,34.6021],[135.47644,34.60208]]]}},{"type":"Feature","properties":{"name":"北島三丁目","setai":716,"jinko":1621,"key":"27125017003","units":1},"geometry":{"type":"Polygon","coordinates":[[[135.47979,34.59961],[135.47977,34.59794],[135.47915,34.59816],[135.47827,34.59849],[135.47775,34.5987],[135.47751,34.59881],[135.47711,34.59897],[135.47661,34.59917],[135.47646,34.59924],[135.47603,34.59942],[135.47587,34.59949],[135.47632,34.60024],[135.47572,34.60063],[135.47572,34.601],[135.47571,34.601],[135.4757,34.60141],[135.4757,34.6016],[135.4757,34.60161],[135.4757,34.60206],[135.47644,34.60208],[135.47708,34.6021],[135.47752,34.60211],[135.47805,34.60212],[135.47873,34.60213],[135.47877,34.60214],[135.47893,34.60215],[135.47922,34.60215],[135.47974,34.60215],[135.47983,34.60216],[135.47983,34.60193],[135.47982,34.60171],[135.47981,34.60158],[135.47981,34.60152],[135.4798,34.60116],[135.47981,34.60107],[135.4798,34.60075],[135.4798,34.60051],[135.4798,34.6005],[135.4798,34.6002],[135.47979,34.59994],[135.47979,34.59961]]]}},{"type":"Feature","properties":{"name":"新北島一丁目","setai":541,"jinko":1061,"key":"27125018001","units":1},"geometry":{"type":"Polygon","coordinates":[[[135.4728,34.60474],[135.47277,34.60446],[135.47193,34.60468],[135.47191,34.60468],[135.47152,34.60478],[135.47136,34.60481],[135.47116,34.60486],[135.47116,34.60486],[135.47106,34.60488],[135.47098,34.6049],[135.47081,34.60494],[135.4707,34.60497],[135.47069,34.60498],[135.47062,34.60499],[135.47053,34.60502],[135.47039,34.60505],[135.47033,34.60507],[135.46981,34.60521],[135.46992,34.60558],[135.47014,34.6063],[135.47013,34.60634],[135.47025,34.60741],[135.47034,34.60815],[135.47036,34.6084],[135.47043,34.60919],[135.47045,34.60934],[135.47236,34.60911],[135.47242,34.6091],[135.47304,34.60904],[135.47304,34.6085],[135.47298,34.60786],[135.47291,34.60683],[135.47289,34.60671],[135.47286,34.60604],[135.47283,34.60557],[135.47283,34.60553],[135.47283,34.6055],[135.47283,34.60545],[135.4728,34.60474]]]}},{"type":"Feature","properties":{"name":"新北島二丁目","setai":700,"jinko":1356,"key":"27125018002","units":1},"geometry":{"type":"Polygon","coordinates":[[[135.47212,34.60225],[135.47167,34.60106],[135.47154,34.60111],[135.47072,34.6014],[135.47049,34.60149],[135.47047,34.60149],[135.47019,34.60159],[135.46926,34.60193],[135.46895,34.60204],[135.46881,34.60209],[135.46937,34.60383],[135.46948,34.60417],[135.46948,34.60419],[135.46956,34.60442],[135.46963,34.60465],[135.46965,34.60471],[135.46981,34.60521],[135.47033,34.60507],[135.47039,34.60505],[135.47053,34.60502],[135.47062,34.60499],[135.47069,34.60498],[135.4707,34.60497],[135.47081,34.60494],[135.47098,34.6049],[135.47106,34.60488],[135.47116,34.60486],[135.47116,34.60486],[135.47136,34.60481],[135.47152,34.60478],[135.47191,34.60468],[135.47193,34.60468],[135.47277,34.60446],[135.47276,34.6043],[135.47275,34.60423],[135.47274,34.60418],[135.47268,34.60391],[135.47267,34.60383],[135.47265,34.60374],[135.47255,34.60336],[135.47254,34.60332],[135.47233,34.6028],[135.47233,34.60279],[135.47212,34.60225]]]}},{"type":"Feature","properties":{"name":"新北島三丁目","setai":1332,"jinko":3018,"key":"27125018003","units":1},"geometry":{"type":"Polygon","coordinates":[[[135.46992,34.60558],[135.46981,34.60521],[135.46938,34.60532],[135.46893,34.60542],[135.46887,34.60544],[135.46865,34.60549],[135.46845,34.60555],[135.46807,34.60564],[135.46801,34.60565],[135.46792,34.60567],[135.46773,34.60573],[135.46728,34.60585],[135.46724,34.60586],[135.46684,34.60598],[135.46678,34.60599],[135.46668,34.60602],[135.46639,34.60612],[135.46637,34.60613],[135.46613,34.60621],[135.46589,34.60628],[135.46582,34.60631],[135.46572,34.60634],[135.4657,34.60635],[135.46543,34.60643],[135.46505,34.60656],[135.46538,34.60733],[135.46538,34.60734],[135.46552,34.60767],[135.46566,34.60795],[135.46597,34.60861],[135.46597,34.60864],[135.46619,34.60982],[135.46621,34.60984],[135.46634,34.60982],[135.46712,34.60973],[135.46726,34.6097],[135.4675,34.60968],[135.46805,34.60962],[135.47045,34.60934],[135.47043,34.60919],[135.47036,34.6084],[135.47034,34.60815],[135.47025,34.60741],[135.47013,34.60634],[135.47014,34.6063],[135.46992,34.60558]]]}},{"type":"Feature","properties":{"name":"新北島四丁目","setai":1317,"jinko":2468,"key":"27125018004","units":1},"geometry":{"type":"Polygon","coordinates":[[[135.46937,34.60383],[135.46881,34.60209],[135.46816,34.60231],[135.46638,34.60281],[135.46622,34.60285],[135.46607,34.60289],[135.46366,34.60357],[135.46366,34.60361],[135.46378,34.60386],[135.46396,34.60424],[135.46466,34.60571],[135.46479,34.60598],[135.4648,34.60601],[135.46484,34.60611],[135.46491,34.60625],[135.46493,34.60629],[135.46505,34.60656],[135.46543,34.60643],[135.4657,34.60635],[135.46572,34.60634],[135.46582,34.60631],[135.46589,34.60628],[135.46613,34.60621],[135.46637,34.60613],[135.46639,34.60612],[135.46668,34.60602],[135.46678,34.60599],[135.46684,34.60598],[135.46724,34.60586],[135.46728,34.60585],[135.46773,34.60573],[135.46792,34.60567],[135.46801,34.60565],[135.46807,34.60564],[135.46845,34.60555],[135.46865,34.60549],[135.46887,34.60544],[135.46893,34.60542],[135.46938,34.60532],[135.46981,34.60521],[135.46965,34.60471],[135.46963,34.60465],[135.46956,34.60442],[135.46948,34.60419],[135.46948,34.60417],[135.46937,34.60383]]]}},{"type":"Feature","properties":{"name":"新北島五丁目","setai":439,"jinko":1040,"key":"27125018005","units":1},"geometry":{"type":"Polygon","coordinates":[[[135.46505,34.60656],[135.46501,34.60655],[135.4644,34.60674],[135.4639,34.6069],[135.46373,34.60696],[135.46256,34.60733],[135.46291,34.60811],[135.46291,34.60813],[135.46307,34.60852],[135.46327,34.60901],[135.46344,34.61014],[135.4642,34.61005],[135.46496,34.60996],[135.46519,34.60993],[135.46603,34.60983],[135.46619,34.60982],[135.46597,34.60864],[135.46597,34.60861],[135.46566,34.60795],[135.46552,34.60767],[135.46538,34.60734],[135.46538,34.60733],[135.46505,34.60656]]]}},{"type":"Feature","properties":{"name":"新北島六丁目","setai":194,"jinko":502,"key":"27125018006","units":1},"geometry":{"type":"Polygon","coordinates":[[[135.4644,34.60674],[135.46501,34.60655],[135.46505,34.60656],[135.46493,34.60629],[135.46491,34.60625],[135.46484,34.60611],[135.4648,34.60601],[135.46479,34.60598],[135.46466,34.60571],[135.46396,34.60424],[135.46378,34.60386],[135.46366,34.60361],[135.46366,34.60357],[135.46287,34.60377],[135.46229,34.60393],[135.46111,34.6043],[135.46216,34.60649],[135.46241,34.60701],[135.46251,34.60722],[135.46256,34.60733],[135.46373,34.60696],[135.4639,34.6069],[135.4644,34.60674]]]}},{"type":"Feature","properties":{"name":"新北島七丁目","setai":700,"jinko":1544,"key":"27125018007","units":1},"geometry":{"type":"Polygon","coordinates":[[[135.46291,34.60811],[135.46256,34.60733],[135.46161,34.60763],[135.4612,34.60776],[135.46072,34.60791],[135.46053,34.60797],[135.45912,34.60842],[135.45917,34.60853],[135.45925,34.60869],[135.45932,34.60884],[135.4595,34.6092],[135.4598,34.60983],[135.45984,34.61008],[135.4599,34.6105],[135.46054,34.61044],[135.46054,34.61042],[135.46071,34.61041],[135.46186,34.61032],[135.46195,34.61031],[135.46233,34.61027],[135.46271,34.61023],[135.46344,34.61014],[135.46327,34.60901],[135.46307,34.60852],[135.46291,34.60813],[135.46291,34.60811]]]}},{"type":"Feature","properties":{"name":"新北島八丁目","setai":278,"jinko":821,"key":"27125018008","units":1},"geometry":{"type":"Polygon","coordinates":[[[135.46216,34.60649],[135.46111,34.6043],[135.4605,34.6045],[135.46011,34.60463],[135.45968,34.60475],[135.45913,34.60492],[135.45767,34.60539],[135.45768,34.60544],[135.4577,34.60544],[135.45869,34.60751],[135.45871,34.60756],[135.45883,34.60781],[135.45911,34.60839],[135.45912,34.60842],[135.46053,34.60797],[135.46072,34.60791],[135.4612,34.60776],[135.46161,34.60763],[135.46256,34.60733],[135.46251,34.60722],[135.46241,34.60701],[135.46216,34.60649]]]}},{"type":"Feature","properties":{"name":"平林北一丁目","setai":2,"jinko":4,"key":"27125019001","units":1},"geometry":{"type":"Polygon","coordinates":[[[135.44847,34.62468],[135.44987,34.62418],[135.45001,34.62437],[135.45113,34.62409],[135.45121,34.62398],[135.45307,34.62355],[135.45335,34.62348],[135.45346,34.62339],[135.45388,34.6234],[135.45389,34.62361],[135.4547,34.62363],[135.45608,34.62359],[135.45609,34.62342],[135.4565,34.62343],[135.45693,34.62365],[135.45732,34.62373],[135.45843,34.62396],[135.45844,34.62402],[135.459,34.62415],[135.45909,34.6241],[135.4596,34.62421],[135.45964,34.6241],[135.46131,34.62443],[135.46138,34.62446],[135.46142,34.62443],[135.46143,34.62432],[135.46147,34.62431],[135.46154,34.62433],[135.46156,34.62449],[135.46177,34.62454],[135.46222,34.62465],[135.4624,34.6245],[135.46237,34.62446],[135.46218,34.62313],[135.46224,34.6231],[135.4622,34.62276],[135.4621,34.62199],[135.46205,34.62199],[135.46194,34.62108],[135.46182,34.62033],[135.46234,34.62029],[135.46234,34.62025],[135.46234,34.62023],[135.4618,34.62026],[135.46127,34.62031],[135.46121,34.62031],[135.45911,34.6205],[135.4578,34.6206],[135.45734,34.62065],[135.45597,34.62077],[135.45458,34.62092],[135.45443,34.62093],[135.45137,34.62149],[135.44942,34.62186],[135.44929,34.62187],[135.44809,34.62191],[135.44808,34.62183],[135.4476,34.62183],[135.44714,34.62181],[135.44714,34.62185],[135.44701,34.62184],[135.4466,34.62177],[135.44603,34.62159],[135.44481,34.6211],[135.44346,34.62054],[135.44238,34.62016],[135.44235,34.62033],[135.44273,34.62046],[135.44308,34.62061],[135.44347,34.62076],[135.44348,34.62077],[135.44543,34.62156],[135.44615,34.62184],[135.44663,34.62197],[135.4469,34.62201],[135.4472,34.62204],[135.44812,34.62207],[135.44814,34.6221],[135.44822,34.6227],[135.44847,34.62468]]]}},{"type":"Feature","properties":{"name":"平林北二丁目","setai":33,"jinko":51,"key":"27125019002","units":1},"geometry":{"type":"Polygon","coordinates":[[[135.4618,34.62026],[135.46151,34.61809],[135.46135,34.61699],[135.4611,34.6168],[135.46086,34.61607],[135.4607,34.61612],[135.46069,34.61585],[135.46061,34.61586],[135.46063,34.61617],[135.45838,34.61664],[135.45737,34.61685],[135.45535,34.61726],[135.45391,34.61756],[135.45119,34.61813],[135.45112,34.61828],[135.45115,34.61835],[135.45104,34.61839],[135.45101,34.61825],[135.45087,34.61818],[135.44771,34.61884],[135.44808,34.62183],[135.44809,34.62191],[135.44929,34.62187],[135.44942,34.62186],[135.45137,34.62149],[135.45443,34.62093],[135.45458,34.62092],[135.45597,34.62077],[135.45734,34.62065],[135.4578,34.6206],[135.45911,34.6205],[135.46121,34.62031],[135.46127,34.62031],[135.4618,34.62026]]]}},{"type":"Feature","properties":{"name":"平林南一丁目","setai":9,"jinko":12,"key":"27125020001","units":1},"geometry":{"type":"Polygon","coordinates":[[[135.45015,34.61749],[135.45026,34.61747],[135.45037,34.61753],[135.45222,34.61717],[135.45401,34.61686],[135.454,34.6168],[135.4543,34.61673],[135.45448,34.61669],[135.45458,34.61678],[135.45637,34.61643],[135.45737,34.61624],[135.45809,34.6161],[135.45824,34.61598],[135.45846,34.61594],[135.45868,34.6159],[135.45873,34.61599],[135.4606,34.61561],[135.46061,34.61586],[135.46069,34.61585],[135.46068,34.6156],[135.46129,34.6155],[135.46117,34.61481],[135.46109,34.61424],[135.46102,34.61369],[135.46054,34.61044],[135.4599,34.6105],[135.45984,34.61052],[135.45918,34.61057],[135.45884,34.6106],[135.45856,34.61063],[135.45836,34.61066],[135.45781,34.61072],[135.45767,34.61075],[135.45741,34.61077],[135.4572,34.61081],[135.45675,34.61091],[135.45629,34.61104],[135.45566,34.61125],[135.45362,34.61187],[135.45158,34.61249],[135.4495,34.61312],[135.44859,34.61338],[135.44759,34.61367],[135.44768,34.61432],[135.44711,34.61436],[135.44712,34.61478],[135.44714,34.61493],[135.44716,34.61504],[135.44753,34.61785],[135.44756,34.61805],[135.44819,34.61793],[135.44994,34.61761],[135.44998,34.61753],[135.45015,34.61749]]]}},{"type":"Feature","properties":{"name":"平林南二丁目","setai":1299,"jinko":2797,"key":"27125020002","units":1},"geometry":{"type":"Polygon","coordinates":[[[135.45869,34.60751],[135.4577,34.60544],[135.45768,34.60544],[135.45761,34.60543],[135.45744,34.60548],[135.45502,34.60615],[135.45409,34.60641],[135.45321,34.60665],[135.45096,34.6073],[135.44692,34.60835],[135.44653,34.60845],[135.44631,34.60846],[135.44632,34.60851],[135.44659,34.61064],[135.44664,34.61097],[135.44675,34.61173],[135.44682,34.61221],[135.44686,34.61245],[135.44687,34.6127],[135.44691,34.61295],[135.44696,34.61322],[135.44701,34.61352],[135.44704,34.61372],[135.44759,34.61367],[135.44859,34.61338],[135.4495,34.61312],[135.45158,34.61249],[135.45362,34.61187],[135.45566,34.61125],[135.45629,34.61104],[135.45675,34.61091],[135.4572,34.61081],[135.45741,34.61077],[135.45767,34.61075],[135.45781,34.61072],[135.45836,34.61066],[135.45856,34.61063],[135.45884,34.6106],[135.45918,34.61057],[135.45984,34.61052],[135.4599,34.6105],[135.45984,34.61008],[135.4598,34.60983],[135.4595,34.6092],[135.45932,34.60884],[135.45925,34.60869],[135.45917,34.60853],[135.45912,34.60842],[135.45911,34.60839],[135.45883,34.60781],[135.45871,34.60756],[135.45869,34.60751]]]}},{"type":"Feature","properties":{"name":"南港北一丁目","setai":1368,"jinko":3884,"key":"27125021001","units":1},"geometry":{"type":"Polygon","coordinates":[[[135.41646,34.64494],[135.41651,34.64492],[135.41651,34.64492],[135.41659,34.64488],[135.41659,34.64488],[135.41677,34.6448],[135.41695,34.64472],[135.41708,34.64464],[135.41737,34.64421],[135.41741,34.6441],[135.41746,34.64387],[135.41779,34.64403],[135.41778,34.64405],[135.41775,34.64404],[135.41767,34.64413],[135.41779,34.64419],[135.41786,34.64409],[135.41783,34.64408],[135.41785,34.64405],[135.41822,34.64425],[135.41845,34.64419],[135.42402,34.64259],[135.42464,34.6427],[135.42464,34.64208],[135.42396,34.64225],[135.42385,34.64187],[135.42382,34.64178],[135.42517,34.64092],[135.42593,34.64039],[135.42673,34.63983],[135.4272,34.63948],[135.42751,34.63825],[135.42781,34.63719],[135.42668,34.63702],[135.42611,34.63693],[135.42592,34.6369],[135.42581,34.63688],[135.42547,34.63683],[135.42478,34.63673],[135.42403,34.63661],[135.42357,34.63654],[135.42329,34.6365],[135.42323,34.63649],[135.42284,34.63644],[135.42215,34.63633],[135.42143,34.63621],[135.42034,34.63605],[135.41939,34.6359],[135.41892,34.63582],[135.41843,34.63574],[135.41787,34.63563],[135.41769,34.63555],[135.41736,34.63537],[135.41721,34.63527],[135.41695,34.63506],[135.41683,34.63495],[135.4167,34.63482],[135.4162,34.63521],[135.41581,34.63551],[135.41436,34.63684],[135.41179,34.63921],[135.41178,34.63922],[135.41121,34.63981],[135.41103,34.63992],[135.41082,34.64003],[135.41062,34.64022],[135.41033,34.6405],[135.40966,34.64184],[135.40943,34.64232],[135.40928,34.6425],[135.41326,34.64392],[135.41344,34.64398],[135.41632,34.6449],[135.41632,34.6449],[135.41644,34.64494],[135.41645,34.64494],[135.41646,34.64494]]]}},{"type":"Feature","properties":{"name":"南港北二丁目","setai":1,"jinko":139,"key":"27125021002","units":1},"geometry":{"type":"Polygon","coordinates":[[[135.41179,34.63921],[135.41436,34.63684],[135.41581,34.63551],[135.41474,34.63486],[135.41232,34.63706],[135.41154,34.63658],[135.41004,34.63545],[135.40858,34.6344],[135.40696,34.63589],[135.40487,34.63437],[135.4032,34.63597],[135.40301,34.63615],[135.40299,34.63847],[135.40236,34.63836],[135.40056,34.63802],[135.39977,34.63792],[135.39947,34.6379],[135.39894,34.63798],[135.39862,34.63813],[135.39843,34.63822],[135.39858,34.63849],[135.39851,34.63864],[135.40681,34.64161],[135.40756,34.64188],[135.40928,34.6425],[135.40943,34.64232],[135.40966,34.64184],[135.41033,34.6405],[135.41062,34.64022],[135.41082,34.64003],[135.41103,34.63992],[135.41121,34.63981],[135.41178,34.63922],[135.41179,34.63921]]]}},{"type":"Feature","properties":{"name":"南港北三丁目","setai":0,"jinko":0,"key":"27125021003","units":1},"geometry":{"type":"Polygon","coordinates":[[[135.40299,34.63847],[135.40301,34.63615],[135.4032,34.63597],[135.40487,34.63437],[135.40696,34.63589],[135.40858,34.6344],[135.4084,34.63427],[135.40654,34.63298],[135.40465,34.63154],[135.39848,34.63135],[135.39848,34.63231],[135.39843,34.63822],[135.39862,34.63813],[135.39894,34.63798],[135.39947,34.6379],[135.39977,34.63792],[135.40056,34.63802],[135.40236,34.63836],[135.40299,34.63847]]]}},{"type":"Feature","properties":{"name":"南港東一丁目","setai":1896,"jinko":2816,"key":"27125022001","units":1},"geometry":{"type":"Polygon","coordinates":[[[135.44753,34.61785],[135.44716,34.61504],[135.44714,34.61493],[135.44712,34.61478],[135.44711,34.61436],[135.44768,34.61432],[135.44759,34.61367],[135.44704,34.61372],[135.44701,34.61352],[135.44696,34.61322],[135.44691,34.61295],[135.44687,34.6127],[135.44686,34.61245],[135.44682,34.61221],[135.44675,34.61173],[135.44664,34.61097],[135.44569,34.61135],[135.44546,34.61144],[135.44512,34.61156],[135.44477,34.61168],[135.44438,34.61184],[135.44394,34.61199],[135.44386,34.61234],[135.44382,34.61253],[135.44377,34.61277],[135.4437,34.61302],[135.44363,34.61331],[135.44354,34.61366],[135.4434,34.61405],[135.44331,34.61453],[135.44322,34.61511],[135.44318,34.61542],[135.44309,34.61584],[135.44292,34.61686],[135.44302,34.61725],[135.44343,34.61693],[135.44651,34.61695],[135.44644,34.61805],[135.44753,34.61785]]]}},{"type":"Feature","properties":{"name":"南港東二丁目","setai":0,"jinko":0,"key":"27125022002","units":1},"geometry":{"type":"Polygon","coordinates":[[[135.4404,34.6154],[135.4411,34.61537],[135.44185,34.6154],[135.44206,34.6154],[135.44318,34.61542],[135.44322,34.61511],[135.44331,34.61453],[135.4434,34.61405],[135.44354,34.61366],[135.44363,34.61331],[135.4437,34.61302],[135.44377,34.61277],[135.44382,34.61253],[135.44386,34.61234],[135.44394,34.61199],[135.44326,34.61208],[135.44047,34.61204],[135.43876,34.61202],[135.43831,34.61212],[135.4381,34.61221],[135.43743,34.61256],[135.43729,34.61284],[135.4369,34.61383],[135.43625,34.61549],[135.43767,34.61544],[135.43984,34.61545],[135.4404,34.6154]]]}},{"type":"Feature","properties":{"name":"南港東三丁目","setai":6,"jinko":7,"key":"27125022003","units":1},"geometry":{"type":"Polygon","coordinates":[[[135.44238,34.62016],[135.44284,34.61809],[135.44348,34.61817],[135.44485,34.61834],[135.44644,34.61805],[135.44651,34.61695],[135.44343,34.61693],[135.44302,34.61725],[135.44292,34.61686],[135.44309,34.61584],[135.44318,34.61542],[135.44206,34.6154],[135.44185,34.6154],[135.4411,34.61537],[135.4404,34.6154],[135.43984,34.61545],[135.43767,34.61544],[135.43625,34.61549],[135.43559,34.61731],[135.43551,34.61752],[135.43661,34.61795],[135.43668,34.61798],[135.43771,34.61834],[135.43865,34.6187],[135.43922,34.61896],[135.44034,34.61932],[135.44051,34.61941],[135.44064,34.61948],[135.4411,34.61966],[135.44238,34.62016]]]}},{"type":"Feature","properties":{"name":"南港東四丁目","setai":12,"jinko":12,"key":"27125022004","units":1},"geometry":{"type":"Polygon","coordinates":[[[135.44132,34.62548],[135.44188,34.62267],[135.44235,34.62033],[135.44238,34.62016],[135.4411,34.61966],[135.44064,34.61948],[135.44051,34.61941],[135.44034,34.61932],[135.43922,34.61896],[135.43865,34.6187],[135.43771,34.61834],[135.43668,34.61798],[135.43661,34.61795],[135.43551,34.61752],[135.43458,34.61996],[135.43357,34.62244],[135.43348,34.62263],[135.43294,34.62381],[135.43336,34.62396],[135.43356,34.62356],[135.43411,34.62334],[135.4355,34.6239],[135.43764,34.62477],[135.43923,34.6254],[135.44119,34.62615],[135.44132,34.62548]]]}},{"type":"Feature","properties":{"name":"南港東五丁目","setai":0,"jinko":0,"key":"27125022005","units":1},"geometry":{"type":"Polygon","coordinates":[[[135.43835,34.62793],[135.4384,34.6278],[135.44034,34.62858],[135.44063,34.62824],[135.44061,34.62804],[135.44062,34.62779],[135.43883,34.62711],[135.43616,34.62609],[135.4336,34.62503],[135.43321,34.62434],[135.43327,34.62414],[135.43336,34.62396],[135.43294,34.62381],[135.43277,34.6242],[135.43232,34.62527],[135.43175,34.62724],[135.43545,34.62876],[135.43538,34.62916],[135.43781,34.63019],[135.43835,34.62793]]]}},{"type":"Feature","properties":{"name":"南港東六丁目","setai":0,"jinko":0,"key":"27125022006","units":1},"geometry":{"type":"Polygon","coordinates":[[[135.43825,34.64145],[135.43828,34.6411],[135.43919,34.64124],[135.43971,34.63862],[135.44014,34.63639],[135.44072,34.63369],[135.44118,34.63146],[135.44164,34.62921],[135.44192,34.62923],[135.44198,34.62881],[135.4416,34.62876],[135.44063,34.62824],[135.44034,34.62858],[135.4384,34.6278],[135.43835,34.62793],[135.43781,34.63019],[135.43771,34.631],[135.43757,34.63165],[135.4373,34.63326],[135.43695,34.63482],[135.43678,34.63588],[135.43636,34.63812],[135.43615,34.63868],[135.43353,34.63821],[135.4353,34.64098],[135.43561,34.641],[135.43825,34.64145]]]}},{"type":"Feature","properties":{"name":"南港東七丁目","setai":0,"jinko":0,"key":"27125022007","units":1},"geometry":{"type":"Polygon","coordinates":[[[135.43781,34.63019],[135.43538,34.62916],[135.43497,34.63124],[135.43426,34.63449],[135.43408,34.63523],[135.43398,34.63564],[135.43378,34.63659],[135.43357,34.63756],[135.43348,34.63803],[135.43353,34.63821],[135.43615,34.63868],[135.43636,34.63812],[135.43678,34.63588],[135.43695,34.63482],[135.4373,34.63326],[135.43757,34.63165],[135.43771,34.631],[135.43781,34.63019]]]}},{"type":"Feature","properties":{"name":"南港東八丁目","setai":5,"jinko":5,"key":"27125022008","units":1},"geometry":{"type":"Polygon","coordinates":[[[135.43545,34.62876],[135.43175,34.62724],[135.43158,34.62783],[135.431,34.6293],[135.42969,34.63258],[135.42964,34.63271],[135.42924,34.63367],[135.42842,34.63571],[135.42781,34.63719],[135.43006,34.63772],[135.43255,34.63806],[135.43353,34.63821],[135.43348,34.63803],[135.43357,34.63756],[135.43378,34.63659],[135.43398,34.63564],[135.43408,34.63523],[135.43426,34.63449],[135.43497,34.63124],[135.43538,34.62916],[135.43545,34.62876]]]}},{"type":"Feature","properties":{"name":"南港東九丁目","setai":0,"jinko":0,"key":"27125022009","units":1},"geometry":{"type":"Polygon","coordinates":[[[135.43827,34.64463],[135.43663,34.64226],[135.43741,34.64189],[135.43825,34.64145],[135.43561,34.641],[135.4353,34.64098],[135.43353,34.63821],[135.43255,34.63806],[135.43006,34.63772],[135.42781,34.63719],[135.42751,34.63825],[135.4272,34.63948],[135.42673,34.63983],[135.42593,34.64039],[135.42517,34.64092],[135.42382,34.64178],[135.42385,34.64187],[135.42396,34.64225],[135.42464,34.64208],[135.42464,34.6427],[135.42568,34.64289],[135.4279,34.64327],[135.42866,34.6434],[135.43042,34.64367],[135.43243,34.64402],[135.43264,34.64325],[135.4329,34.64329],[135.4329,34.6435],[135.43369,34.64351],[135.43385,34.64327],[135.43414,34.64318],[135.4345,34.64311],[135.43484,34.64299],[135.43528,34.64275],[135.43643,34.64233],[135.43798,34.64472],[135.43827,34.64463]]]}},{"type":"Feature","properties":{"name":"南港中一丁目","setai":0,"jinko":0,"key":"27125023001","units":1},"geometry":{"type":"Polygon","coordinates":[[[135.43232,34.62527],[135.43277,34.6242],[135.43294,34.62381],[135.43259,34.62369],[135.43243,34.62413],[135.43175,34.62438],[135.43134,34.62428],[135.42929,34.62374],[135.42711,34.62321],[135.42472,34.62259],[135.42204,34.62189],[135.42178,34.62257],[135.42089,34.62495],[135.42212,34.62525],[135.4223,34.62528],[135.4231,34.62549],[135.42375,34.62566],[135.42401,34.62575],[135.4243,34.62583],[135.42452,34.62589],[135.42473,34.62595],[135.42603,34.62632],[135.42668,34.6265],[135.42707,34.6266],[135.42749,34.62671],[135.42828,34.62692],[135.42854,34.627],[135.42898,34.62712],[135.42945,34.62723],[135.43007,34.62739],[135.43064,34.62757],[135.43158,34.62783],[135.43175,34.62724],[135.43232,34.62527]]]}},{"type":"Feature","properties":{"name":"南港中二丁目","setai":2104,"jinko":4179,"key":"27125023002","units":1},"geometry":{"type":"Polygon","coordinates":[[[135.42969,34.63258],[135.431,34.6293],[135.43158,34.62783],[135.43064,34.62757],[135.43007,34.62739],[135.42945,34.62723],[135.42898,34.62712],[135.42854,34.627],[135.42828,34.62692],[135.42749,34.62671],[135.42707,34.6266],[135.42668,34.6265],[135.42642,34.62726],[135.42627,34.62772],[135.4262,34.62786],[135.42621,34.62809],[135.42621,34.62826],[135.42619,34.62826],[135.42619,34.62838],[135.42619,34.6287],[135.4262,34.62907],[135.4262,34.62939],[135.4262,34.62947],[135.4262,34.62968],[135.42621,34.62997],[135.42621,34.63023],[135.42621,34.63031],[135.42621,34.63035],[135.42621,34.63047],[135.42622,34.63078],[135.42623,34.63167],[135.42636,34.63167],[135.42682,34.63169],[135.42749,34.63172],[135.42786,34.63188],[135.42825,34.63203],[135.4288,34.63225],[135.42969,34.63258]]]}},{"type":"Feature","properties":{"name":"南港中三丁目","setai":2497,"jinko":5299,"key":"27125023003","units":1},"geometry":{"type":"Polygon","coordinates":[[[135.42623,34.63167],[135.42622,34.63078],[135.42621,34.63047],[135.42621,34.63035],[135.42621,34.63031],[135.42621,34.63023],[135.42621,34.62997],[135.4262,34.62968],[135.4262,34.62947],[135.4262,34.62939],[135.4262,34.62907],[135.42619,34.6287],[135.42619,34.62838],[135.42619,34.62826],[135.42621,34.62826],[135.42621,34.62809],[135.4262,34.62786],[135.42627,34.62772],[135.42642,34.62726],[135.42668,34.6265],[135.42603,34.62632],[135.42473,34.62595],[135.42452,34.62589],[135.4243,34.62583],[135.42401,34.62575],[135.42375,34.62566],[135.4231,34.62549],[135.4223,34.62528],[135.4221,34.62581],[135.42183,34.62644],[135.4216,34.62697],[135.42128,34.62776],[135.42116,34.62811],[135.42085,34.62883],[135.42079,34.62898],[135.42054,34.62964],[135.42032,34.63019],[135.42024,34.63036],[135.41994,34.63111],[135.42098,34.6314],[135.42141,34.63153],[135.4218,34.63155],[135.42278,34.63155],[135.42438,34.63162],[135.4254,34.63163],[135.42623,34.63167]]]}},{"type":"Feature","properties":{"name":"南港中四丁目","setai":2623,"jinko":5125,"key":"27125023004","units":1},"geometry":{"type":"Polygon","coordinates":[[[135.42682,34.63169],[135.42636,34.63167],[135.42623,34.63167],[135.4254,34.63163],[135.42438,34.63162],[135.42278,34.63155],[135.42277,34.63199],[135.42275,34.63232],[135.42277,34.63261],[135.42278,34.63295],[135.42281,34.63338],[135.42283,34.63398],[135.42282,34.63463],[135.42281,34.63473],[135.42284,34.6353],[135.42281,34.63566],[135.42281,34.63603],[135.42284,34.63644],[135.42323,34.63649],[135.42329,34.6365],[135.42357,34.63654],[135.42403,34.63661],[135.42478,34.63673],[135.42547,34.63683],[135.42581,34.63688],[135.42592,34.6369],[135.42611,34.63693],[135.42668,34.63702],[135.42781,34.63719],[135.42842,34.63571],[135.42924,34.63367],[135.42964,34.63271],[135.42969,34.63258],[135.4288,34.63225],[135.42825,34.63203],[135.42786,34.63188],[135.42749,34.63172],[135.42682,34.63169]]]}},{"type":"Feature","properties":{"name":"南港中五丁目","setai":2254,"jinko":4875,"key":"27125023005","units":1},"geometry":{"type":"Polygon","coordinates":[[[135.42277,34.63199],[135.42278,34.63155],[135.4218,34.63155],[135.42141,34.63153],[135.42098,34.6314],[135.41994,34.63111],[135.41977,34.63154],[135.41963,34.63188],[135.41956,34.63205],[135.41934,34.63222],[135.41909,34.63245],[135.41899,34.63254],[135.41855,34.63299],[135.418,34.6335],[135.4178,34.63369],[135.4173,34.63422],[135.41704,34.63448],[135.41677,34.63475],[135.4167,34.63482],[135.41683,34.63495],[135.41695,34.63506],[135.41721,34.63527],[135.41736,34.63537],[135.41769,34.63555],[135.41787,34.63563],[135.41843,34.63574],[135.41892,34.63582],[135.41939,34.6359],[135.42034,34.63605],[135.42143,34.63621],[135.42215,34.63633],[135.42284,34.63644],[135.42281,34.63603],[135.42281,34.63566],[135.42284,34.6353],[135.42281,34.63473],[135.42282,34.63463],[135.42283,34.63398],[135.42281,34.63338],[135.42278,34.63295],[135.42277,34.63261],[135.42275,34.63232],[135.42277,34.63199]]]}},{"type":"Feature","properties":{"name":"南港中六丁目","setai":0,"jinko":0,"key":"27125023006","units":1},"geometry":{"type":"Polygon","coordinates":[[[135.42054,34.62964],[135.42079,34.62898],[135.41935,34.62898],[135.41616,34.62897],[135.41278,34.62896],[135.41212,34.62967],[135.41107,34.63066],[135.41186,34.63127],[135.41368,34.63252],[135.41511,34.63362],[135.41524,34.63371],[135.41677,34.63475],[135.41704,34.63448],[135.4173,34.63422],[135.4178,34.63369],[135.418,34.6335],[135.41855,34.63299],[135.41899,34.63254],[135.41909,34.63245],[135.41934,34.63222],[135.41956,34.63205],[135.41963,34.63188],[135.41977,34.63154],[135.41994,34.63111],[135.42024,34.63036],[135.42032,34.63019],[135.42054,34.62964]]]}},{"type":"Feature","properties":{"name":"南港中七丁目","setai":0,"jinko":0,"key":"27125023007","units":1},"geometry":{"type":"Polygon","coordinates":[[[135.42183,34.62644],[135.4221,34.62581],[135.4223,34.62528],[135.42212,34.62525],[135.42089,34.62495],[135.42053,34.62588],[135.4194,34.62588],[135.41611,34.62586],[135.41293,34.62585],[135.41283,34.6267],[135.41278,34.62896],[135.41616,34.62897],[135.41935,34.62898],[135.42079,34.62898],[135.42085,34.62883],[135.42116,34.62811],[135.42128,34.62776],[135.4216,34.62697],[135.42183,34.62644]]]}},{"type":"Feature","properties":{"name":"南港中八丁目","setai":0,"jinko":0,"key":"27125023008","units":1},"geometry":{"type":"Polygon","coordinates":[[[135.41283,34.6267],[135.41293,34.62585],[135.41028,34.62583],[135.409,34.62757],[135.4075,34.62946],[135.40953,34.63091],[135.41112,34.63207],[135.41279,34.6333],[135.41421,34.63437],[135.4144,34.63455],[135.41474,34.63486],[135.41581,34.63551],[135.4162,34.63521],[135.4167,34.63482],[135.41677,34.63475],[135.41524,34.63371],[135.41511,34.63362],[135.41368,34.63252],[135.41186,34.63127],[135.41107,34.63066],[135.41212,34.62967],[135.41278,34.62896],[135.41283,34.6267]]]}},{"type":"Feature","properties":{"name":"南港南一丁目","setai":0,"jinko":0,"key":"27125024001","units":1},"geometry":{"type":"Polygon","coordinates":[[[135.44326,34.61208],[135.44394,34.61199],[135.44438,34.61184],[135.44477,34.61168],[135.44512,34.61156],[135.44546,34.61144],[135.44569,34.61135],[135.44664,34.61097],[135.44659,34.61064],[135.43471,34.61066],[135.42331,34.61072],[135.42336,34.61136],[135.42334,34.61156],[135.42458,34.61152],[135.42638,34.61163],[135.42672,34.61165],[135.42802,34.61169],[135.42824,34.61169],[135.42935,34.61171],[135.42963,34.61171],[135.43087,34.6117],[135.43215,34.61171],[135.43304,34.61171],[135.43367,34.61184],[135.43408,34.61187],[135.43439,34.61193],[135.4347,34.6119],[135.43501,34.61202],[135.43571,34.61198],[135.43876,34.61202],[135.44047,34.61204],[135.44326,34.61208]]]}},{"type":"Feature","properties":{"name":"南港南二丁目","setai":0,"jinko":0,"key":"27125024002","units":1},"geometry":{"type":"Polygon","coordinates":[[[135.43357,34.62244],[135.43458,34.61996],[135.43551,34.61752],[135.43559,34.61731],[135.43625,34.61549],[135.4369,34.61383],[135.43729,34.61284],[135.43743,34.61256],[135.4381,34.61221],[135.43831,34.61212],[135.43876,34.61202],[135.43571,34.61198],[135.43501,34.61202],[135.4347,34.6119],[135.43439,34.61193],[135.43408,34.61187],[135.43367,34.61184],[135.43304,34.61171],[135.4329,34.61305],[135.43294,34.61385],[135.43293,34.61491],[135.43286,34.61494],[135.43197,34.61528],[135.43106,34.61563],[135.4301,34.61595],[135.43014,34.61661],[135.43015,34.61718],[135.43019,34.61766],[135.43159,34.61733],[135.43153,34.61852],[135.4305,34.61867],[135.43047,34.61889],[135.43151,34.61879],[135.43132,34.61961],[135.4302,34.61985],[135.43027,34.62008],[135.43128,34.61987],[135.43118,34.62102],[135.43015,34.62115],[135.43026,34.62155],[135.43112,34.62136],[135.43106,34.62174],[135.43249,34.62217],[135.43307,34.62224],[135.43295,34.62263],[135.43275,34.62325],[135.43259,34.62369],[135.43294,34.62381],[135.43348,34.62263],[135.43357,34.62244]]]}},{"type":"Feature","properties":{"name":"南港南三丁目","setai":1,"jinko":1,"key":"27125024003","units":1},"geometry":{"type":"Polygon","coordinates":[[[135.4329,34.61305],[135.43304,34.61171],[135.43215,34.61171],[135.43087,34.6117],[135.42963,34.61171],[135.42935,34.61171],[135.42824,34.61169],[135.42802,34.61169],[135.42672,34.61165],[135.42638,34.61163],[135.42458,34.61152],[135.42334,34.61156],[135.42336,34.61136],[135.42126,34.61137],[135.42126,34.61197],[135.42333,34.612],[135.42337,34.61407],[135.42338,34.61552],[135.42341,34.6167],[135.42341,34.61893],[135.42369,34.61913],[135.42468,34.61862],[135.42617,34.61791],[135.42635,34.61674],[135.42646,34.61561],[135.42666,34.61416],[135.42674,34.61312],[135.42801,34.6131],[135.42824,34.6131],[135.42931,34.61308],[135.42962,34.61307],[135.43086,34.61305],[135.43203,34.61306],[135.4329,34.61305]]]}},{"type":"Feature","properties":{"name":"南港南四丁目","setai":0,"jinko":0,"key":"27125024004","units":1},"geometry":{"type":"Polygon","coordinates":[[[135.4192,34.61137],[135.41916,34.61067],[135.41755,34.61079],[135.41701,34.61209],[135.41123,34.61208],[135.41122,34.61253],[135.41132,34.61253],[135.41132,34.61269],[135.41132,34.61355],[135.41122,34.61355],[135.41125,34.61452],[135.41127,34.61542],[135.41128,34.6155],[135.41732,34.6155],[135.41761,34.61456],[135.41822,34.61258],[135.41839,34.61202],[135.4185,34.61184],[135.4187,34.61165],[135.41889,34.61151],[135.4192,34.61137]]]}},{"type":"Feature","properties":{"name":"南港南五丁目","setai":0,"jinko":0,"key":"27125024005","units":1},"geometry":{"type":"Polygon","coordinates":[[[135.41474,34.6198],[135.41689,34.61945],[135.41695,34.61972],[135.41786,34.61963],[135.41835,34.61959],[135.41858,34.61886],[135.4204,34.61296],[135.41912,34.61269],[135.41914,34.61193],[135.42126,34.61197],[135.42126,34.61137],[135.4192,34.61137],[135.41889,34.61151],[135.4187,34.61165],[135.4185,34.61184],[135.41839,34.61202],[135.41822,34.61258],[135.41761,34.61456],[135.41732,34.6155],[135.41128,34.6155],[135.41193,34.61825],[135.41206,34.6188],[135.41228,34.61976],[135.41234,34.61976],[135.41418,34.61943],[135.41449,34.6194],[135.41474,34.6198]]]}},{"type":"Feature","properties":{"name":"南港南六丁目","setai":0,"jinko":0,"key":"27125024006","units":1},"geometry":{"type":"Polygon","coordinates":[[[135.41127,34.61542],[135.41125,34.61452],[135.41122,34.61355],[135.41132,34.61355],[135.41132,34.61269],[135.41132,34.61253],[135.41122,34.61253],[135.41123,34.61208],[135.40858,34.61208],[135.40603,34.61207],[135.4037,34.61207],[135.40341,34.61208],[135.40273,34.61213],[135.40172,34.61482],[135.40338,34.61478],[135.40338,34.61462],[135.40598,34.61462],[135.40863,34.61462],[135.40864,34.61462],[135.41127,34.61542]]]}},{"type":"Feature","properties":{"name":"南港南七丁目","setai":0,"jinko":0,"key":"27125024007","units":1},"geometry":{"type":"Polygon","coordinates":[[[135.41127,34.61542],[135.40864,34.61462],[135.40863,34.61462],[135.40598,34.61462],[135.40338,34.61462],[135.40338,34.61478],[135.40172,34.61482],[135.39992,34.6197],[135.39951,34.62078],[135.40199,34.62075],[135.40401,34.61981],[135.40814,34.61978],[135.41228,34.61976],[135.41206,34.6188],[135.41193,34.61825],[135.41128,34.6155],[135.41127,34.61542]]]}}]}