{"type":"FeatureCollection","features":[{"type":"Feature","properties":{"name":"土佐堀一丁目","setai":439,"jinko":516,"key":"27106001001","units":1},"geometry":{"type":"Polygon","coordinates":[[[135.49177,34.6886],[135.49135,34.68841],[135.49132,34.68846],[135.49106,34.68884],[135.491,34.68895],[135.49088,34.68912],[135.49084,34.68917],[135.49084,34.68918],[135.49059,34.68958],[135.49067,34.68963],[135.49129,34.68996],[135.49189,34.69029],[135.49224,34.69052],[135.49282,34.69101],[135.49291,34.69109],[135.49366,34.69174],[135.49381,34.69188],[135.49433,34.69231],[135.49458,34.69244],[135.49481,34.69252],[135.49505,34.69258],[135.49607,34.69269],[135.49652,34.69274],[135.49623,34.69249],[135.49612,34.6924],[135.49574,34.69207],[135.49507,34.69148],[135.4948,34.69125],[135.4947,34.69115],[135.49388,34.69043],[135.49368,34.69026],[135.49355,34.69015],[135.49284,34.68953],[135.49282,34.68951],[135.49268,34.68939],[135.49206,34.68885],[135.49182,34.68864],[135.49177,34.6886]]]}},{"type":"Feature","properties":{"name":"土佐堀二丁目","setai":349,"jinko":639,"key":"27106001002","units":1},"geometry":{"type":"Polygon","coordinates":[[[135.48907,34.68746],[135.48791,34.68695],[135.48754,34.68747],[135.48728,34.68781],[135.48735,34.68785],[135.4884,34.68841],[135.49059,34.68958],[135.49084,34.68918],[135.49084,34.68917],[135.49088,34.68912],[135.491,34.68895],[135.49106,34.68884],[135.49132,34.68846],[135.49031,34.68802],[135.48974,34.68776],[135.48907,34.68746]]]}},{"type":"Feature","properties":{"name":"土佐堀三丁目","setai":640,"jinko":951,"key":"27106001003","units":1},"geometry":{"type":"Polygon","coordinates":[[[135.48349,34.68456],[135.48319,34.68438],[135.48318,34.68445],[135.48301,34.68528],[135.48368,34.68572],[135.48443,34.68622],[135.48492,34.68654],[135.48598,34.6871],[135.48609,34.68716],[135.48679,34.68753],[135.48728,34.68781],[135.48754,34.68747],[135.48791,34.68695],[135.48737,34.6867],[135.48672,34.68637],[135.48648,34.68626],[135.48627,34.68616],[135.48621,34.68613],[135.48585,34.68597],[135.48515,34.68565],[135.48491,34.68553],[135.48445,34.68532],[135.48377,34.68489],[135.48378,34.6848],[135.4838,34.68468],[135.48382,34.68457],[135.48349,34.68456]]]}},{"type":"Feature","properties":{"name":"江戸堀一丁目","setai":1742,"jinko":2523,"key":"27106002001","units":1},"geometry":{"type":"Polygon","coordinates":[[[135.49341,34.68768],[135.4922,34.68713],[135.49218,34.68716],[135.49201,34.68741],[135.492,34.68742],[135.49199,34.68743],[135.49195,34.6875],[135.49179,34.68775],[135.49159,34.68806],[135.49158,34.68807],[135.4914,34.68833],[135.49135,34.68841],[135.49177,34.6886],[135.49182,34.68864],[135.49206,34.68885],[135.49268,34.68939],[135.49282,34.68951],[135.49284,34.68953],[135.49355,34.69015],[135.49368,34.69026],[135.49388,34.69043],[135.4947,34.69115],[135.4948,34.69125],[135.49507,34.69148],[135.49574,34.69207],[135.49612,34.6924],[135.49623,34.69249],[135.49652,34.69274],[135.49701,34.69278],[135.49741,34.69281],[135.49749,34.69171],[135.4975,34.69152],[135.49757,34.6908],[135.49757,34.69077],[135.49758,34.69073],[135.49767,34.68979],[135.49768,34.68973],[135.49774,34.68919],[135.49774,34.68914],[135.49777,34.68895],[135.49746,34.68887],[135.4967,34.68868],[135.49557,34.68839],[135.49498,34.68823],[135.49479,34.68818],[135.4937,34.68781],[135.49341,34.68768]]]}},{"type":"Feature","properties":{"name":"江戸堀二丁目","setai":1135,"jinko":1757,"key":"27106002002","units":1},"geometry":{"type":"Polygon","coordinates":[[[135.48991,34.68613],[135.48876,34.6856],[135.4886,34.68587],[135.48839,34.68623],[135.48823,34.68648],[135.48819,34.68655],[135.48791,34.68695],[135.48907,34.68746],[135.48974,34.68776],[135.49031,34.68802],[135.49132,34.68846],[135.49135,34.68841],[135.4914,34.68833],[135.49158,34.68807],[135.49159,34.68806],[135.49179,34.68775],[135.49195,34.6875],[135.49199,34.68743],[135.492,34.68742],[135.49201,34.68741],[135.49218,34.68716],[135.49114,34.68669],[135.49019,34.68625],[135.48991,34.68613]]]}},{"type":"Feature","properties":{"name":"江戸堀三丁目","setai":1846,"jinko":3276,"key":"27106002003","units":1},"geometry":{"type":"Polygon","coordinates":[[[135.4858,34.68431],[135.48537,34.68415],[135.48529,34.68428],[135.48521,34.68441],[135.48499,34.68473],[135.4849,34.68484],[135.48481,34.68495],[135.48478,34.68499],[135.48468,34.68509],[135.48457,34.6852],[135.48445,34.68532],[135.48491,34.68553],[135.48515,34.68565],[135.48585,34.68597],[135.48621,34.68613],[135.48627,34.68616],[135.48648,34.68626],[135.48672,34.68637],[135.48737,34.6867],[135.48791,34.68695],[135.48819,34.68655],[135.48823,34.68648],[135.48839,34.68623],[135.4886,34.68587],[135.48876,34.6856],[135.48758,34.68506],[135.48661,34.68463],[135.48604,34.68441],[135.48597,34.68438],[135.4858,34.68431]]]}},{"type":"Feature","properties":{"name":"京町堀一丁目","setai":872,"jinko":1171,"key":"27106003001","units":1},"geometry":{"type":"Polygon","coordinates":[[[135.49764,34.68708],[135.49683,34.68682],[135.49602,34.68656],[135.49587,34.68691],[135.49551,34.68681],[135.49551,34.68682],[135.49493,34.6866],[135.49448,34.6864],[135.49443,34.68638],[135.49422,34.68628],[135.49411,34.68623],[135.494,34.68618],[135.49373,34.68606],[135.49274,34.68562],[135.49263,34.68593],[135.49262,34.68594],[135.49251,34.68627],[135.49249,34.68632],[135.49242,34.68656],[135.49242,34.68657],[135.49232,34.68686],[135.49231,34.68689],[135.49225,34.68705],[135.4922,34.68713],[135.49341,34.68768],[135.4937,34.68781],[135.49479,34.68818],[135.49498,34.68823],[135.49557,34.68839],[135.4967,34.68868],[135.49746,34.68887],[135.49777,34.68895],[135.49781,34.68858],[135.49786,34.68815],[135.4979,34.68772],[135.4979,34.68764],[135.49794,34.68717],[135.49765,34.68708],[135.49764,34.68708]]]}},{"type":"Feature","properties":{"name":"京町堀二丁目","setai":1216,"jinko":1842,"key":"27106003002","units":1},"geometry":{"type":"Polygon","coordinates":[[[135.48927,34.68416],[135.48926,34.68415],[135.48934,34.68457],[135.48935,34.68462],[135.48922,34.68483],[135.48907,34.68507],[135.48892,34.68532],[135.48876,34.6856],[135.48991,34.68613],[135.49019,34.68625],[135.49114,34.68669],[135.49218,34.68716],[135.4922,34.68713],[135.49225,34.68705],[135.49231,34.68689],[135.49232,34.68686],[135.49242,34.68657],[135.49242,34.68656],[135.49249,34.68632],[135.49251,34.68627],[135.49262,34.68594],[135.49263,34.68593],[135.49274,34.68562],[135.49271,34.6856],[135.49202,34.6853],[135.49146,34.68507],[135.49076,34.68478],[135.49014,34.68452],[135.48998,34.68446],[135.48979,34.68438],[135.48974,34.68436],[135.48959,34.68429],[135.48927,34.68416]]]}},{"type":"Feature","properties":{"name":"京町堀三丁目","setai":678,"jinko":1059,"key":"27106003003","units":1},"geometry":{"type":"Polygon","coordinates":[[[135.48627,34.68333],[135.48579,34.68313],[135.48569,34.6834],[135.48563,34.68357],[135.48551,34.68386],[135.48545,34.68397],[135.48537,34.68415],[135.4858,34.68431],[135.48597,34.68438],[135.48604,34.68441],[135.48661,34.68463],[135.48758,34.68506],[135.48876,34.6856],[135.48892,34.68532],[135.48907,34.68507],[135.48922,34.68483],[135.48935,34.68462],[135.48934,34.68457],[135.4882,34.68412],[135.48719,34.68371],[135.48719,34.6837],[135.48649,34.68342],[135.48642,34.68339],[135.48635,34.68336],[135.48627,34.68333]]]}},{"type":"Feature","properties":{"name":"靭本町一丁目","setai":813,"jinko":1262,"key":"27106004001","units":1},"geometry":{"type":"Polygon","coordinates":[[[135.49797,34.68663],[135.49798,34.68611],[135.49799,34.68545],[135.498,34.68531],[135.498,34.68487],[135.49801,34.68429],[135.49799,34.68377],[135.49779,34.68378],[135.49695,34.68377],[135.49614,34.68374],[135.49608,34.68373],[135.49604,34.68373],[135.49526,34.68368],[135.49523,34.68368],[135.49517,34.68368],[135.49436,34.68363],[135.49433,34.68363],[135.49378,34.68356],[135.49342,34.68351],[135.49288,34.68342],[135.49285,34.68374],[135.49285,34.68378],[135.49283,34.68395],[135.49281,34.68424],[135.49271,34.6856],[135.49274,34.68562],[135.49373,34.68606],[135.494,34.68618],[135.49411,34.68623],[135.49422,34.68628],[135.49443,34.68638],[135.49448,34.6864],[135.49493,34.6866],[135.49551,34.68682],[135.49551,34.68681],[135.49587,34.68691],[135.49602,34.68656],[135.49683,34.68682],[135.49764,34.68708],[135.49765,34.68708],[135.49794,34.68717],[135.49795,34.68705],[135.49797,34.68663]]]}},{"type":"Feature","properties":{"name":"靭本町二丁目","setai":660,"jinko":818,"key":"27106004002","units":1},"geometry":{"type":"Polygon","coordinates":[[[135.48996,34.68267],[135.48898,34.68244],[135.48905,34.68285],[135.48908,34.68303],[135.4891,34.68315],[135.48914,34.68341],[135.4892,34.68375],[135.48927,34.68416],[135.48959,34.68429],[135.48974,34.68436],[135.48979,34.68438],[135.48998,34.68446],[135.49014,34.68452],[135.49076,34.68478],[135.49146,34.68507],[135.49202,34.6853],[135.49271,34.6856],[135.49281,34.68424],[135.49283,34.68395],[135.49285,34.68378],[135.49285,34.68374],[135.49288,34.68342],[135.49183,34.68313],[135.49123,34.68296],[135.49086,34.68286],[135.49082,34.68285],[135.49011,34.68271],[135.48996,34.68267]]]}},{"type":"Feature","properties":{"name":"靭本町三丁目","setai":1180,"jinko":1736,"key":"27106004003","units":1},"geometry":{"type":"Polygon","coordinates":[[[135.48934,34.68457],[135.48926,34.68415],[135.48927,34.68416],[135.4892,34.68375],[135.48914,34.68341],[135.4891,34.68315],[135.48908,34.68303],[135.48905,34.68285],[135.48898,34.68244],[135.48826,34.68237],[135.4876,34.68231],[135.48667,34.68223],[135.4861,34.68218],[135.48597,34.68259],[135.4859,34.68278],[135.48591,34.68278],[135.48589,34.68283],[135.48588,34.68287],[135.48586,34.68293],[135.48584,34.68299],[135.48579,34.68313],[135.48627,34.68333],[135.48635,34.68336],[135.48642,34.68339],[135.48649,34.68342],[135.48719,34.6837],[135.48719,34.68371],[135.4882,34.68412],[135.48934,34.68457]]]}},{"type":"Feature","properties":{"name":"西本町一丁目","setai":703,"jinko":1026,"key":"27106005001","units":1},"geometry":{"type":"Polygon","coordinates":[[[135.498,34.68369],[135.49801,34.68343],[135.49802,34.68285],[135.49803,34.68256],[135.49802,34.68221],[135.49801,34.682],[135.49773,34.68199],[135.49688,34.68192],[135.49602,34.68186],[135.49513,34.68181],[135.49416,34.68174],[135.49296,34.68165],[135.49291,34.68236],[135.49288,34.68273],[135.49288,34.68281],[135.49289,34.68309],[135.4929,34.68309],[135.49288,34.68342],[135.49342,34.68351],[135.49378,34.68356],[135.49433,34.68363],[135.49436,34.68363],[135.49517,34.68368],[135.49523,34.68368],[135.49526,34.68368],[135.49604,34.68373],[135.49608,34.68373],[135.49614,34.68374],[135.49695,34.68377],[135.49779,34.68378],[135.49799,34.68377],[135.498,34.68369]]]}},{"type":"Feature","properties":{"name":"西本町二丁目","setai":670,"jinko":1044,"key":"27106005002","units":1},"geometry":{"type":"Polygon","coordinates":[[[135.48971,34.68144],[135.48893,34.68138],[135.48895,34.68189],[135.48894,34.68192],[135.48893,34.68216],[135.48896,34.6824],[135.48898,34.68244],[135.48996,34.68267],[135.49011,34.68271],[135.49082,34.68285],[135.49086,34.68286],[135.49123,34.68296],[135.49183,34.68313],[135.49288,34.68342],[135.4929,34.68309],[135.49289,34.68309],[135.49288,34.68281],[135.49288,34.68273],[135.49291,34.68236],[135.49296,34.68165],[135.49233,34.6816],[135.49193,34.68158],[135.49185,34.68157],[135.49179,34.68157],[135.49143,34.68155],[135.49124,34.68154],[135.49045,34.68149],[135.49029,34.68148],[135.48971,34.68144]]]}},{"type":"Feature","properties":{"name":"西本町三丁目","setai":362,"jinko":544,"key":"27106005003","units":1},"geometry":{"type":"Polygon","coordinates":[[[135.48694,34.68125],[135.48629,34.68119],[135.48611,34.68185],[135.4862,34.68185],[135.4861,34.68218],[135.48667,34.68223],[135.4876,34.68231],[135.48826,34.68237],[135.48898,34.68244],[135.48896,34.6824],[135.48893,34.68216],[135.48894,34.68192],[135.48895,34.68189],[135.48893,34.68138],[135.48854,34.68135],[135.488,34.68131],[135.48758,34.68128],[135.48694,34.68125]]]}},{"type":"Feature","properties":{"name":"江之子島一丁目","setai":1618,"jinko":2939,"key":"27106006001","units":1},"geometry":{"type":"Polygon","coordinates":[[[135.48589,34.68283],[135.48591,34.68278],[135.4859,34.68278],[135.48597,34.68259],[135.4861,34.68218],[135.48588,34.68219],[135.48565,34.68218],[135.48545,34.68222],[135.48515,34.68238],[135.48515,34.68244],[135.48483,34.68263],[135.48453,34.68277],[135.48454,34.68275],[135.48381,34.68287],[135.48375,34.68288],[135.48369,34.6829],[135.48317,34.68297],[135.4832,34.6831],[135.48324,34.68335],[135.48325,34.68344],[135.48326,34.68371],[135.48323,34.68401],[135.4832,34.68427],[135.48319,34.68438],[135.48349,34.68456],[135.48382,34.68457],[135.4838,34.68468],[135.48378,34.6848],[135.48377,34.68489],[135.48445,34.68532],[135.48457,34.6852],[135.48468,34.68509],[135.48478,34.68499],[135.48481,34.68495],[135.4849,34.68484],[135.48499,34.68473],[135.48521,34.68441],[135.48529,34.68428],[135.48537,34.68415],[135.48545,34.68397],[135.48551,34.68386],[135.48563,34.68357],[135.48569,34.6834],[135.48579,34.68313],[135.48584,34.68299],[135.48586,34.68293],[135.48588,34.68287],[135.48589,34.68283]]]}},{"type":"Feature","properties":{"name":"江之子島二丁目","setai":878,"jinko":1927,"key":"27106006002","units":1},"geometry":{"type":"Polygon","coordinates":[[[135.48381,34.68287],[135.48454,34.68275],[135.48453,34.68277],[135.48483,34.68263],[135.48515,34.68244],[135.48515,34.68238],[135.48545,34.68222],[135.48565,34.68218],[135.48588,34.68219],[135.4861,34.68218],[135.4862,34.68185],[135.48611,34.68185],[135.48629,34.68119],[135.48581,34.68113],[135.48542,34.68107],[135.48491,34.681],[135.48454,34.68094],[135.48435,34.68091],[135.48415,34.68088],[135.48386,34.68084],[135.48325,34.68075],[135.48324,34.68075],[135.48321,34.68074],[135.4831,34.68072],[135.48268,34.6807],[135.4829,34.68166],[135.48301,34.68222],[135.48316,34.68294],[135.48317,34.68297],[135.48369,34.6829],[135.48375,34.68288],[135.48381,34.68287]]]}},{"type":"Feature","properties":{"name":"阿波座一丁目","setai":441,"jinko":558,"key":"27106007001","units":1},"geometry":{"type":"Polygon","coordinates":[[[135.49791,34.68101],[135.49792,34.68068],[135.49795,34.68068],[135.49794,34.68056],[135.49734,34.68051],[135.49732,34.68051],[135.4968,34.68046],[135.4968,34.68051],[135.49597,34.68043],[135.49509,34.68035],[135.49416,34.68027],[135.49305,34.68017],[135.49302,34.68064],[135.49301,34.681],[135.49296,34.68165],[135.49416,34.68174],[135.49513,34.68181],[135.49602,34.68186],[135.49688,34.68192],[135.49773,34.68199],[135.49801,34.682],[135.49799,34.68167],[135.49799,34.68144],[135.49792,34.68139],[135.49791,34.68101]]]}},{"type":"Feature","properties":{"name":"阿波座二丁目","setai":287,"jinko":333,"key":"27106007002","units":1},"geometry":{"type":"Polygon","coordinates":[[[135.49089,34.67997],[135.49063,34.67995],[135.49055,34.68061],[135.49045,34.68149],[135.49124,34.68154],[135.49143,34.68155],[135.49179,34.68157],[135.49185,34.68157],[135.49193,34.68158],[135.49233,34.6816],[135.49296,34.68165],[135.49301,34.681],[135.49302,34.68064],[135.49305,34.68017],[135.49258,34.68013],[135.49235,34.6801],[135.49231,34.6801],[135.49231,34.6801],[135.49089,34.67997]]]}},{"type":"Feature","properties":{"name":"立売堀一丁目","setai":1053,"jinko":1478,"key":"27106008001","units":1},"geometry":{"type":"Polygon","coordinates":[[[135.49794,34.68056],[135.49791,34.68003],[135.49791,34.67989],[135.49791,34.67984],[135.49789,34.67954],[135.49787,34.67922],[135.49716,34.67922],[135.49693,34.67919],[135.49586,34.67908],[135.49417,34.6789],[135.49396,34.67887],[135.49377,34.67885],[135.49315,34.67878],[135.49313,34.67913],[135.49313,34.67914],[135.49308,34.67944],[135.49306,34.67983],[135.49305,34.68017],[135.49416,34.68027],[135.49509,34.68035],[135.49597,34.68043],[135.4968,34.68051],[135.4968,34.68046],[135.49732,34.68051],[135.49734,34.68051],[135.49794,34.68056]]]}},{"type":"Feature","properties":{"name":"立売堀二丁目","setai":286,"jinko":391,"key":"27106008002","units":1},"geometry":{"type":"Polygon","coordinates":[[[135.4907,34.67849],[135.49063,34.67848],[135.49064,34.6788],[135.49064,34.67889],[135.49064,34.67889],[135.49065,34.67899],[135.49066,34.67925],[135.49066,34.67925],[135.49063,34.67995],[135.49089,34.67997],[135.49231,34.6801],[135.49231,34.6801],[135.49235,34.6801],[135.49258,34.68013],[135.49305,34.68017],[135.49306,34.67983],[135.49308,34.67944],[135.49313,34.67914],[135.49313,34.67913],[135.49315,34.67878],[135.49314,34.67878],[135.49267,34.67873],[135.4924,34.67871],[135.4924,34.6787],[135.49235,34.6787],[135.49172,34.67856],[135.49157,34.67855],[135.49103,34.67851],[135.491,34.67851],[135.4907,34.67849]]]}},{"type":"Feature","properties":{"name":"立売堀三丁目","setai":880,"jinko":1426,"key":"27106008003","units":1},"geometry":{"type":"Polygon","coordinates":[[[135.49066,34.67925],[135.49065,34.67899],[135.49064,34.67889],[135.49064,34.67889],[135.49064,34.6788],[135.49063,34.67848],[135.49062,34.67848],[135.49035,34.67846],[135.48968,34.67842],[135.48927,34.67838],[135.48877,34.67834],[135.48876,34.67834],[135.4888,34.67875],[135.48884,34.6791],[135.48879,34.6791],[135.48881,34.67939],[135.48882,34.67954],[135.48884,34.6798],[135.48886,34.68018],[135.48889,34.68052],[135.4889,34.68079],[135.48893,34.68138],[135.48971,34.68144],[135.49029,34.68148],[135.49045,34.68149],[135.49055,34.68061],[135.49063,34.67995],[135.49066,34.67925],[135.49066,34.67925]]]}},{"type":"Feature","properties":{"name":"立売堀四丁目","setai":1169,"jinko":1648,"key":"27106008004","units":1},"geometry":{"type":"Polygon","coordinates":[[[135.48881,34.67939],[135.48879,34.6791],[135.48884,34.6791],[135.4888,34.67875],[135.48876,34.67834],[135.48822,34.67829],[135.48789,34.67827],[135.48716,34.6782],[135.48715,34.67825],[135.48711,34.67859],[135.48706,34.67858],[135.48698,34.67885],[135.48683,34.67932],[135.48679,34.67947],[135.48673,34.6797],[135.4866,34.68013],[135.48649,34.68055],[135.48644,34.68071],[135.48639,34.68086],[135.48629,34.68119],[135.48694,34.68125],[135.48758,34.68128],[135.488,34.68131],[135.48854,34.68135],[135.48893,34.68138],[135.4889,34.68079],[135.48889,34.68052],[135.48886,34.68018],[135.48884,34.6798],[135.48882,34.67954],[135.48881,34.67939]]]}},{"type":"Feature","properties":{"name":"立売堀五丁目","setai":743,"jinko":1194,"key":"27106008005","units":1},"geometry":{"type":"Polygon","coordinates":[[[135.48683,34.67932],[135.48698,34.67885],[135.48706,34.67858],[135.48711,34.67859],[135.48715,34.67825],[135.48645,34.67819],[135.4864,34.67818],[135.48591,34.67814],[135.48586,34.67813],[135.48565,34.67811],[135.48536,34.67808],[135.48535,34.67808],[135.48516,34.67806],[135.48466,34.67801],[135.48451,34.67799],[135.48444,34.67799],[135.48441,34.67819],[135.48439,34.67827],[135.48436,34.67852],[135.48445,34.67919],[135.4845,34.67918],[135.48533,34.67977],[135.48538,34.67985],[135.48551,34.68026],[135.4856,34.68054],[135.48581,34.68113],[135.48629,34.68119],[135.48639,34.68086],[135.48644,34.68071],[135.48649,34.68055],[135.4866,34.68013],[135.48673,34.6797],[135.48679,34.67947],[135.48683,34.67932]]]}},{"type":"Feature","properties":{"name":"立売堀六丁目","setai":1312,"jinko":2150,"key":"27106008006","units":1},"geometry":{"type":"Polygon","coordinates":[[[135.48533,34.67977],[135.4845,34.67918],[135.48445,34.67919],[135.48436,34.67852],[135.48439,34.67827],[135.48441,34.67819],[135.48444,34.67799],[135.48374,34.67791],[135.48373,34.67791],[135.4837,34.67791],[135.48341,34.67788],[135.4834,34.67788],[135.4834,34.67788],[135.48326,34.678],[135.48312,34.67811],[135.48284,34.678],[135.48251,34.67801],[135.4824,34.67804],[135.48236,34.67847],[135.48234,34.67892],[135.48235,34.67912],[135.48235,34.67914],[135.48263,34.6805],[135.48268,34.6807],[135.4831,34.68072],[135.48321,34.68074],[135.48324,34.68075],[135.48325,34.68075],[135.48386,34.68084],[135.48415,34.68088],[135.48435,34.68091],[135.48454,34.68094],[135.48491,34.681],[135.48542,34.68107],[135.48581,34.68113],[135.4856,34.68054],[135.48551,34.68026],[135.48538,34.67985],[135.48533,34.67977]]]}},{"type":"Feature","properties":{"name":"新町一丁目","setai":2694,"jinko":4491,"key":"27106009001","units":1},"geometry":{"type":"Polygon","coordinates":[[[135.49767,34.67575],[135.49761,34.67501],[135.49689,34.67504],[135.4969,34.67505],[135.49606,34.6751],[135.49597,34.67511],[135.49542,34.67514],[135.49526,34.67515],[135.49444,34.6752],[135.49349,34.67525],[135.49339,34.67526],[135.49333,34.67602],[135.49332,34.67628],[135.49329,34.67668],[135.49328,34.67685],[135.49327,34.67697],[135.49326,34.67709],[135.49326,34.67709],[135.49323,34.67752],[135.4932,34.67799],[135.49319,34.67817],[135.49317,34.67835],[135.49316,34.67847],[135.49314,34.67878],[135.49315,34.67878],[135.49377,34.67885],[135.49396,34.67887],[135.49417,34.6789],[135.49586,34.67908],[135.49693,34.67919],[135.49716,34.67922],[135.49787,34.67922],[135.49785,34.67879],[135.49783,34.67828],[135.49781,34.67808],[135.49781,34.67802],[135.49779,34.67763],[135.49779,34.67759],[135.49774,34.67676],[135.49767,34.67575]]]}},{"type":"Feature","properties":{"name":"新町二丁目","setai":1198,"jinko":2308,"key":"27106009002","units":1},"geometry":{"type":"Polygon","coordinates":[[[135.49333,34.67602],[135.49339,34.67526],[135.49249,34.67529],[135.4919,34.67531],[135.49159,34.67532],[135.49149,34.67533],[135.49054,34.67536],[135.49049,34.67536],[135.49055,34.67616],[135.49058,34.67662],[135.49061,34.67703],[135.49061,34.67744],[135.49061,34.67789],[135.49062,34.67804],[135.49062,34.67805],[135.49062,34.67817],[135.49062,34.67848],[135.49063,34.67848],[135.4907,34.67849],[135.491,34.67851],[135.49103,34.67851],[135.49157,34.67855],[135.49172,34.67856],[135.49235,34.6787],[135.4924,34.6787],[135.4924,34.67871],[135.49267,34.67873],[135.49314,34.67878],[135.49316,34.67847],[135.49317,34.67835],[135.49319,34.67817],[135.4932,34.67799],[135.49323,34.67752],[135.49326,34.67709],[135.49326,34.67709],[135.49327,34.67697],[135.49328,34.67685],[135.49329,34.67668],[135.49332,34.67628],[135.49333,34.67602]]]}},{"type":"Feature","properties":{"name":"新町三丁目","setai":1735,"jinko":3316,"key":"27106009003","units":1},"geometry":{"type":"Polygon","coordinates":[[[135.49049,34.67536],[135.49049,34.67535],[135.48955,34.6754],[135.48955,34.6754],[135.48899,34.67542],[135.48853,34.67544],[135.48852,34.67544],[135.48725,34.6755],[135.48725,34.67551],[135.48737,34.67664],[135.48738,34.6767],[135.48734,34.67699],[135.48731,34.67717],[135.48728,34.67736],[135.48723,34.67772],[135.48723,34.67775],[135.48719,34.67798],[135.48719,34.67801],[135.48716,34.6782],[135.48789,34.67827],[135.48822,34.67829],[135.48876,34.67834],[135.48877,34.67834],[135.48927,34.67838],[135.48968,34.67842],[135.49035,34.67846],[135.49062,34.67848],[135.49062,34.67817],[135.49062,34.67805],[135.49062,34.67804],[135.49061,34.67789],[135.49061,34.67744],[135.49061,34.67703],[135.49058,34.67662],[135.49055,34.67616],[135.49049,34.67536]]]}},{"type":"Feature","properties":{"name":"新町四丁目","setai":1479,"jinko":2471,"key":"27106009004","units":1},"geometry":{"type":"Polygon","coordinates":[[[135.48719,34.67798],[135.48723,34.67775],[135.48723,34.67772],[135.48728,34.67736],[135.48731,34.67717],[135.48734,34.67699],[135.48738,34.6767],[135.48737,34.67664],[135.48725,34.67551],[135.48725,34.6755],[135.4867,34.67559],[135.48574,34.67568],[135.48549,34.6757],[135.48531,34.67572],[135.48461,34.67578],[135.48453,34.6758],[135.48448,34.67583],[135.48435,34.67587],[135.48388,34.67589],[135.4836,34.67589],[135.48337,34.6759],[135.48314,34.67591],[135.48277,34.67595],[135.48274,34.67596],[135.48228,34.67604],[135.48227,34.67604],[135.48252,34.6769],[135.48252,34.67692],[135.48284,34.678],[135.48312,34.67811],[135.48326,34.678],[135.4834,34.67788],[135.4834,34.67788],[135.48341,34.67788],[135.4837,34.67791],[135.48373,34.67791],[135.48374,34.67791],[135.48444,34.67799],[135.48451,34.67799],[135.48466,34.67801],[135.48516,34.67806],[135.48535,34.67808],[135.48536,34.67808],[135.48565,34.67811],[135.48586,34.67813],[135.48591,34.67814],[135.4864,34.67818],[135.48645,34.67819],[135.48715,34.67825],[135.48716,34.6782],[135.48719,34.67801],[135.48719,34.67798]]]}},{"type":"Feature","properties":{"name":"北堀江一丁目","setai":1366,"jinko":2115,"key":"27106010001","units":1},"geometry":{"type":"Polygon","coordinates":[[[135.49738,34.67287],[135.49734,34.67245],[135.49659,34.67248],[135.49576,34.6725],[135.49574,34.67251],[135.49524,34.67251],[135.49523,34.67251],[135.4943,34.67256],[135.49405,34.67257],[135.49387,34.67258],[135.49386,34.67258],[135.49287,34.67263],[135.49286,34.67263],[135.49297,34.67306],[135.49306,34.67343],[135.49306,34.67344],[135.49313,34.67371],[135.49314,34.67374],[135.49315,34.67377],[135.49315,34.6738],[135.49315,34.6738],[135.49316,34.67385],[135.49318,34.67393],[135.49319,34.67395],[135.49319,34.67396],[135.49325,34.67422],[135.49331,34.67444],[135.49344,34.67498],[135.49344,34.67499],[135.49349,34.67525],[135.49444,34.6752],[135.49526,34.67515],[135.49542,34.67514],[135.49597,34.67511],[135.49606,34.6751],[135.4969,34.67505],[135.49689,34.67504],[135.49761,34.67501],[135.49759,34.6748],[135.49747,34.6737],[135.49745,34.67353],[135.49745,34.67348],[135.49738,34.67287]]]}},{"type":"Feature","properties":{"name":"北堀江二丁目","setai":1342,"jinko":2068,"key":"27106010002","units":1},"geometry":{"type":"Polygon","coordinates":[[[135.49313,34.67371],[135.49306,34.67344],[135.49306,34.67343],[135.49297,34.67306],[135.49286,34.67263],[135.49232,34.67265],[135.49193,34.67267],[135.49189,34.67268],[135.4913,34.67272],[135.49032,34.67276],[135.49036,34.6732],[135.49039,34.67358],[135.49039,34.67358],[135.49043,34.67399],[135.49043,34.67402],[135.49046,34.67435],[135.49049,34.67472],[135.49052,34.67508],[135.49052,34.67509],[135.49054,34.67536],[135.49149,34.67533],[135.49159,34.67532],[135.4919,34.67531],[135.49249,34.67529],[135.49339,34.67526],[135.49349,34.67525],[135.49344,34.67499],[135.49344,34.67498],[135.49331,34.67444],[135.49325,34.67422],[135.49319,34.67396],[135.49319,34.67395],[135.49318,34.67393],[135.49316,34.67385],[135.49315,34.6738],[135.49315,34.6738],[135.49315,34.67377],[135.49314,34.67374],[135.49313,34.67371]]]}},{"type":"Feature","properties":{"name":"北堀江三丁目","setai":1367,"jinko":2315,"key":"27106010003","units":1},"geometry":{"type":"Polygon","coordinates":[[[135.48955,34.6754],[135.49049,34.67535],[135.49049,34.67536],[135.49054,34.67536],[135.49052,34.67509],[135.49052,34.67508],[135.49049,34.67472],[135.49046,34.67435],[135.49043,34.67402],[135.49043,34.67399],[135.49039,34.67358],[135.49039,34.67358],[135.49036,34.6732],[135.49032,34.67276],[135.49024,34.67277],[135.49006,34.67278],[135.4898,34.67279],[135.48939,34.6728],[135.48938,34.67281],[135.48839,34.67284],[135.48838,34.67284],[135.48756,34.67288],[135.48753,34.67288],[135.4874,34.67289],[135.48686,34.67292],[135.48692,34.67334],[135.48698,34.67375],[135.48703,34.6741],[135.48708,34.67446],[135.48715,34.67492],[135.48719,34.6752],[135.48719,34.67521],[135.48723,34.67546],[135.48725,34.6755],[135.48852,34.67544],[135.48853,34.67544],[135.48899,34.67542],[135.48955,34.6754],[135.48955,34.6754]]]}},{"type":"Feature","properties":{"name":"北堀江四丁目","setai":1889,"jinko":3393,"key":"27106010004","units":1},"geometry":{"type":"Polygon","coordinates":[[[135.48692,34.67334],[135.48686,34.67292],[135.4858,34.67297],[135.48579,34.67297],[135.48558,34.67299],[135.48555,34.67299],[135.48551,34.67299],[135.48487,34.67302],[135.48459,34.67303],[135.48447,34.67304],[135.48395,34.67307],[135.48347,34.67309],[135.48248,34.67314],[135.48148,34.67318],[135.48147,34.67318],[135.48102,34.6733],[135.48127,34.67394],[135.48143,34.67431],[135.48199,34.67536],[135.48214,34.67567],[135.48228,34.67604],[135.48274,34.67596],[135.48277,34.67595],[135.48314,34.67591],[135.48337,34.6759],[135.4836,34.67589],[135.48388,34.67589],[135.48435,34.67587],[135.48448,34.67583],[135.48453,34.6758],[135.48461,34.67578],[135.48531,34.67572],[135.48549,34.6757],[135.48574,34.67568],[135.4867,34.67559],[135.48725,34.6755],[135.48723,34.67546],[135.48719,34.67521],[135.48719,34.6752],[135.48715,34.67492],[135.48708,34.67446],[135.48703,34.6741],[135.48698,34.67375],[135.48692,34.67334]]]}},{"type":"Feature","properties":{"name":"南堀江一丁目","setai":2057,"jinko":3304,"key":"27106011001","units":1},"geometry":{"type":"Polygon","coordinates":[[[135.49702,34.66936],[135.49699,34.66901],[135.49646,34.66906],[135.49576,34.66914],[135.49478,34.66925],[135.49469,34.66926],[135.49351,34.6694],[135.49215,34.66954],[135.49208,34.66955],[135.49217,34.66987],[135.49217,34.66987],[135.49226,34.67025],[135.49229,34.67034],[135.49231,34.67042],[135.49237,34.67068],[135.49244,34.67093],[135.49247,34.67104],[135.4925,34.67116],[135.4925,34.67117],[135.49255,34.67136],[135.49261,34.67161],[135.4927,34.67194],[135.49278,34.67225],[135.49287,34.67263],[135.49386,34.67258],[135.49387,34.67258],[135.49405,34.67257],[135.4943,34.67256],[135.49523,34.67251],[135.49524,34.67251],[135.49574,34.67251],[135.49576,34.6725],[135.49659,34.67248],[135.49734,34.67245],[135.49729,34.67197],[135.49726,34.67173],[135.4972,34.67113],[135.49719,34.67106],[135.49715,34.67075],[135.49714,34.67064],[135.49713,34.67052],[135.49712,34.67041],[135.49711,34.67038],[135.4971,34.67027],[135.49706,34.66978],[135.49702,34.66936]]]}},{"type":"Feature","properties":{"name":"南堀江二丁目","setai":1592,"jinko":2594,"key":"27106011002","units":1},"geometry":{"type":"Polygon","coordinates":[[[135.49217,34.66987],[135.49208,34.66955],[135.49007,34.66971],[135.49012,34.67007],[135.49014,34.67033],[135.49017,34.67085],[135.49018,34.67089],[135.49021,34.67128],[135.49023,34.67166],[135.49026,34.67206],[135.4903,34.67242],[135.4903,34.67251],[135.4903,34.67253],[135.49032,34.67276],[135.4913,34.67272],[135.49189,34.67268],[135.49193,34.67267],[135.49232,34.67265],[135.49286,34.67263],[135.49287,34.67263],[135.49278,34.67225],[135.4927,34.67194],[135.49261,34.67161],[135.49255,34.67136],[135.4925,34.67117],[135.4925,34.67116],[135.49247,34.67104],[135.49244,34.67093],[135.49237,34.67068],[135.49231,34.67042],[135.49229,34.67034],[135.49226,34.67025],[135.49217,34.66987],[135.49217,34.66987]]]}},{"type":"Feature","properties":{"name":"南堀江三丁目","setai":1781,"jinko":3058,"key":"27106011003","units":1},"geometry":{"type":"Polygon","coordinates":[[[135.49012,34.67007],[135.49007,34.66971],[135.48826,34.66987],[135.48662,34.67002],[135.48659,34.67018],[135.48658,34.67034],[135.48658,34.67039],[135.48657,34.67056],[135.48664,34.67104],[135.48664,34.67106],[135.48665,34.67114],[135.48669,34.67143],[135.48669,34.67144],[135.48674,34.67181],[135.4868,34.67222],[135.4868,34.67223],[135.48683,34.67245],[135.48685,34.67258],[135.48681,34.67258],[135.48686,34.67292],[135.4874,34.67289],[135.48753,34.67288],[135.48756,34.67288],[135.48838,34.67284],[135.48839,34.67284],[135.48938,34.67281],[135.48939,34.6728],[135.4898,34.67279],[135.49006,34.67278],[135.49024,34.67277],[135.49032,34.67276],[135.4903,34.67253],[135.4903,34.67251],[135.4903,34.67242],[135.49026,34.67206],[135.49023,34.67166],[135.49021,34.67128],[135.49018,34.67089],[135.49017,34.67085],[135.49014,34.67033],[135.49012,34.67007]]]}},{"type":"Feature","properties":{"name":"南堀江四丁目","setai":4687,"jinko":8830,"key":"27106011004","units":1},"geometry":{"type":"Polygon","coordinates":[[[135.48659,34.67018],[135.48662,34.67002],[135.48655,34.67002],[135.48643,34.67001],[135.48589,34.66992],[135.48493,34.66976],[135.48369,34.66955],[135.48256,34.66935],[135.48203,34.66927],[135.48185,34.66922],[135.4816,34.66911],[135.48132,34.66891],[135.48106,34.66869],[135.48086,34.6685],[135.48063,34.66823],[135.4805,34.66803],[135.48022,34.66797],[135.47988,34.66937],[135.47982,34.66982],[135.47981,34.67009],[135.48001,34.67077],[135.48008,34.67099],[135.48042,34.67177],[135.48072,34.67246],[135.48102,34.6733],[135.48147,34.67318],[135.48148,34.67318],[135.48248,34.67314],[135.48347,34.67309],[135.48395,34.67307],[135.48447,34.67304],[135.48459,34.67303],[135.48487,34.67302],[135.48551,34.67299],[135.48555,34.67299],[135.48558,34.67299],[135.48579,34.67297],[135.4858,34.67297],[135.48686,34.67292],[135.48681,34.67258],[135.48685,34.67258],[135.48683,34.67245],[135.4868,34.67223],[135.4868,34.67222],[135.48674,34.67181],[135.48669,34.67144],[135.48669,34.67143],[135.48665,34.67114],[135.48664,34.67106],[135.48664,34.67104],[135.48657,34.67056],[135.48658,34.67039],[135.48658,34.67034],[135.48659,34.67018]]]}},{"type":"Feature","properties":{"name":"千代崎一丁目","setai":902,"jinko":1444,"key":"27106012001","units":1},"geometry":{"type":"Polygon","coordinates":[[[135.48228,34.67604],[135.48214,34.67567],[135.48199,34.67536],[135.48143,34.67431],[135.48127,34.67394],[135.48102,34.6733],[135.48034,34.67352],[135.47988,34.67366],[135.47959,34.67375],[135.47939,34.67382],[135.47912,34.6739],[135.47895,34.67396],[135.47874,34.67403],[135.47851,34.6741],[135.47835,34.67415],[135.47822,34.67419],[135.47819,34.6742],[135.47811,34.67422],[135.47795,34.67427],[135.47768,34.67436],[135.47768,34.67436],[135.47783,34.6745],[135.4779,34.67459],[135.47799,34.67469],[135.478,34.67471],[135.47804,34.67479],[135.4781,34.67487],[135.47825,34.67516],[135.47837,34.67541],[135.47842,34.6755],[135.47848,34.67563],[135.47857,34.67581],[135.47871,34.67609],[135.47901,34.67599],[135.47902,34.67598],[135.47971,34.67657],[135.47987,34.67673],[135.48029,34.67713],[135.48061,34.67743],[135.48061,34.67744],[135.48074,34.67758],[135.48096,34.67748],[135.48215,34.67696],[135.48252,34.6769],[135.48227,34.67604],[135.48228,34.67604]]]}},{"type":"Feature","properties":{"name":"千代崎二丁目","setai":1052,"jinko":1685,"key":"27106012002","units":1},"geometry":{"type":"Polygon","coordinates":[[[135.48008,34.67099],[135.48001,34.67077],[135.47937,34.67094],[135.47942,34.67109],[135.4795,34.67132],[135.47964,34.67173],[135.47955,34.67176],[135.4792,34.67185],[135.47899,34.67192],[135.47867,34.672],[135.47815,34.67207],[135.47775,34.67213],[135.47757,34.67215],[135.47757,34.67216],[135.47705,34.67237],[135.47705,34.67237],[135.4766,34.67255],[135.47658,34.67256],[135.47602,34.67279],[135.47624,34.673],[135.47636,34.67312],[135.47647,34.67326],[135.4769,34.67365],[135.47702,34.67376],[135.47719,34.67392],[135.47728,34.674],[135.47768,34.67436],[135.47795,34.67427],[135.47811,34.67422],[135.47819,34.6742],[135.47822,34.67419],[135.47835,34.67415],[135.47851,34.6741],[135.47874,34.67403],[135.47895,34.67396],[135.47912,34.6739],[135.47939,34.67382],[135.47959,34.67375],[135.47988,34.67366],[135.48034,34.67352],[135.48102,34.6733],[135.48072,34.67246],[135.48042,34.67177],[135.48008,34.67099]]]}},{"type":"Feature","properties":{"name":"千代崎三丁目","setai":108,"jinko":219,"key":"27106012003","units":1},"geometry":{"type":"Polygon","coordinates":[[[135.48001,34.67077],[135.47981,34.67009],[135.47982,34.66982],[135.47988,34.66937],[135.48022,34.66797],[135.4796,34.66784],[135.47952,34.66782],[135.47883,34.66768],[135.4784,34.66759],[135.47816,34.66755],[135.4762,34.66715],[135.47611,34.66713],[135.47586,34.66708],[135.47564,34.66704],[135.47496,34.6669],[135.47477,34.66686],[135.47456,34.66703],[135.47393,34.66754],[135.47431,34.66783],[135.47468,34.66811],[135.47471,34.66813],[135.47516,34.6685],[135.47493,34.66865],[135.47482,34.66877],[135.47473,34.66896],[135.47467,34.6692],[135.47465,34.66938],[135.47467,34.66955],[135.47476,34.66977],[135.47482,34.66983],[135.47495,34.66997],[135.47506,34.67006],[135.4752,34.67017],[135.47534,34.67026],[135.47533,34.6703],[135.47545,34.67036],[135.47568,34.67042],[135.47596,34.67046],[135.47609,34.67046],[135.47629,34.67043],[135.47666,34.67031],[135.47667,34.67032],[135.47683,34.6705],[135.47705,34.67081],[135.47727,34.67112],[135.4774,34.6714],[135.47744,34.67151],[135.47757,34.67215],[135.47775,34.67213],[135.47815,34.67207],[135.47867,34.672],[135.47899,34.67192],[135.4792,34.67185],[135.47955,34.67176],[135.47964,34.67173],[135.4795,34.67132],[135.47942,34.67109],[135.47937,34.67094],[135.48001,34.67077]]]}},{"type":"Feature","properties":{"name":"川口一丁目","setai":433,"jinko":663,"key":"27106013001","units":1},"geometry":{"type":"Polygon","coordinates":[[[135.48152,34.68024],[135.48058,34.68001],[135.48054,34.68004],[135.48075,34.68044],[135.48075,34.68045],[135.48085,34.68063],[135.48085,34.68064],[135.48086,34.68065],[135.4811,34.68111],[135.48163,34.68211],[135.48181,34.68252],[135.48182,34.68256],[135.48193,34.68282],[135.482,34.68298],[135.48207,34.68314],[135.4821,34.6832],[135.48248,34.684],[135.48262,34.68431],[135.48238,34.68491],[135.4825,34.68495],[135.48301,34.68528],[135.48318,34.68445],[135.48319,34.68438],[135.4832,34.68427],[135.48323,34.68401],[135.48326,34.68371],[135.48325,34.68344],[135.48324,34.68335],[135.4832,34.6831],[135.48317,34.68297],[135.48316,34.68294],[135.48301,34.68222],[135.4829,34.68166],[135.48268,34.6807],[135.48263,34.6805],[135.48238,34.68046],[135.4821,34.68038],[135.48194,34.68034],[135.48152,34.68024]]]}},{"type":"Feature","properties":{"name":"川口二丁目","setai":535,"jinko":851,"key":"27106013002","units":1},"geometry":{"type":"Polygon","coordinates":[[[135.48075,34.68044],[135.48054,34.68004],[135.48053,34.68005],[135.47991,34.6805],[135.47973,34.68063],[135.47966,34.68068],[135.47966,34.68068],[135.47931,34.681],[135.47902,34.68125],[135.479,34.68128],[135.47895,34.68137],[135.47878,34.68168],[135.47825,34.68266],[135.47937,34.68305],[135.47996,34.68332],[135.48019,34.68342],[135.48033,34.68363],[135.48085,34.68444],[135.48098,34.68464],[135.48238,34.68491],[135.48262,34.68431],[135.48248,34.684],[135.4821,34.6832],[135.48207,34.68314],[135.482,34.68298],[135.48193,34.68282],[135.48182,34.68256],[135.48181,34.68252],[135.48163,34.68211],[135.4811,34.68111],[135.48086,34.68065],[135.48085,34.68064],[135.48085,34.68063],[135.48075,34.68045],[135.48075,34.68044]]]}},{"type":"Feature","properties":{"name":"川口三丁目","setai":923,"jinko":1964,"key":"27106013003","units":1},"geometry":{"type":"Polygon","coordinates":[[[135.47785,34.67877],[135.47741,34.67843],[135.47728,34.67846],[135.47721,34.67885],[135.47715,34.67896],[135.47708,34.67907],[135.47683,34.67959],[135.47674,34.67977],[135.47656,34.68013],[135.47656,34.68014],[135.47651,34.68023],[135.4765,34.68024],[135.47645,34.68036],[135.4764,34.68044],[135.47629,34.68067],[135.47573,34.68179],[135.47608,34.68191],[135.47699,34.68223],[135.47825,34.68266],[135.47878,34.68168],[135.47895,34.68137],[135.479,34.68128],[135.47902,34.68125],[135.47931,34.681],[135.47966,34.68068],[135.47966,34.68068],[135.47973,34.68063],[135.47991,34.6805],[135.48053,34.68005],[135.48049,34.67999],[135.47965,34.67973],[135.47867,34.67943],[135.4786,34.67939],[135.47845,34.67926],[135.47839,34.67921],[135.47785,34.67877]]]}},{"type":"Feature","properties":{"name":"川口四丁目","setai":403,"jinko":750,"key":"27106013004","units":1},"geometry":{"type":"Polygon","coordinates":[[[135.47721,34.67885],[135.47728,34.67846],[135.47679,34.6786],[135.47642,34.6787],[135.47613,34.67878],[135.47607,34.67879],[135.47581,34.67886],[135.47554,34.67893],[135.47526,34.67901],[135.47503,34.67907],[135.47482,34.67913],[135.47473,34.67916],[135.47443,34.67923],[135.47405,34.67934],[135.47389,34.67938],[135.47339,34.67954],[135.47318,34.67961],[135.47306,34.67985],[135.47259,34.68002],[135.4725,34.68015],[135.47213,34.68067],[135.47249,34.68071],[135.47279,34.68078],[135.47359,34.68105],[135.47449,34.68136],[135.47537,34.68167],[135.47573,34.68179],[135.47629,34.68067],[135.4764,34.68044],[135.47645,34.68036],[135.4765,34.68024],[135.47651,34.68023],[135.47656,34.68014],[135.47656,34.68013],[135.47674,34.67977],[135.47683,34.67959],[135.47708,34.67907],[135.47715,34.67896],[135.47721,34.67885]]]}},{"type":"Feature","properties":{"name":"本田一丁目","setai":1588,"jinko":2803,"key":"27106014001","units":1},"geometry":{"type":"Polygon","coordinates":[[[135.48263,34.6805],[135.48235,34.67914],[135.48235,34.67912],[135.48234,34.67892],[135.48236,34.67847],[135.4824,34.67804],[135.48251,34.67801],[135.48284,34.678],[135.48252,34.67692],[135.48252,34.6769],[135.48215,34.67696],[135.48096,34.67748],[135.48074,34.67758],[135.48061,34.67744],[135.48061,34.67743],[135.48029,34.67713],[135.47987,34.67673],[135.47971,34.67657],[135.47902,34.67598],[135.47901,34.67599],[135.47871,34.67609],[135.4787,34.67609],[135.47892,34.67663],[135.47904,34.67695],[135.47906,34.677],[135.47941,34.67788],[135.4796,34.67836],[135.47969,34.67859],[135.47988,34.67892],[135.47989,34.67894],[135.47995,34.67904],[135.47996,34.67905],[135.48001,34.67915],[135.48001,34.67915],[135.48002,34.67915],[135.48006,34.67923],[135.48007,34.67924],[135.48013,34.67935],[135.48049,34.67999],[135.48053,34.68005],[135.48054,34.68004],[135.48058,34.68001],[135.48152,34.68024],[135.48194,34.68034],[135.4821,34.68038],[135.48238,34.68046],[135.48263,34.6805]]]}},{"type":"Feature","properties":{"name":"本田二丁目","setai":1404,"jinko":1912,"key":"27106014002","units":1},"geometry":{"type":"Polygon","coordinates":[[[135.47892,34.67663],[135.4787,34.67609],[135.47859,34.67613],[135.47838,34.67615],[135.47826,34.67616],[135.47806,34.67619],[135.47805,34.67619],[135.47772,34.67623],[135.47766,34.67623],[135.47725,34.67627],[135.47722,34.67628],[135.47714,34.67629],[135.47686,34.67637],[135.47676,34.67641],[135.47652,34.67648],[135.47585,34.6767],[135.47553,34.67674],[135.47534,34.67675],[135.47597,34.67727],[135.47611,34.67738],[135.47631,34.67753],[135.47654,34.67772],[135.4769,34.67801],[135.47707,34.67814],[135.47741,34.67843],[135.47785,34.67877],[135.47839,34.67921],[135.47845,34.67926],[135.4786,34.67939],[135.47867,34.67943],[135.47965,34.67973],[135.48049,34.67999],[135.48013,34.67935],[135.48007,34.67924],[135.48006,34.67923],[135.48002,34.67915],[135.48001,34.67915],[135.48001,34.67915],[135.47996,34.67905],[135.47995,34.67904],[135.47989,34.67894],[135.47988,34.67892],[135.47969,34.67859],[135.4796,34.67836],[135.47941,34.67788],[135.47906,34.677],[135.47904,34.67695],[135.47892,34.67663]]]}},{"type":"Feature","properties":{"name":"本田三丁目","setai":689,"jinko":1158,"key":"27106014003","units":1},"geometry":{"type":"Polygon","coordinates":[[[135.47597,34.67727],[135.47534,34.67675],[135.47501,34.67678],[135.47468,34.67693],[135.47456,34.67699],[135.47426,34.67714],[135.47403,34.67726],[135.47401,34.67727],[135.47375,34.6774],[135.47364,34.67746],[135.47379,34.6778],[135.47389,34.67801],[135.47389,34.67802],[135.47392,34.67807],[135.47408,34.67843],[135.47421,34.67876],[135.47443,34.67923],[135.47473,34.67916],[135.47482,34.67913],[135.47503,34.67907],[135.47526,34.67901],[135.47554,34.67893],[135.47581,34.67886],[135.47607,34.67879],[135.47613,34.67878],[135.47642,34.6787],[135.47679,34.6786],[135.47728,34.67846],[135.47741,34.67843],[135.47707,34.67814],[135.4769,34.67801],[135.47654,34.67772],[135.47631,34.67753],[135.47611,34.67738],[135.47597,34.67727]]]}},{"type":"Feature","properties":{"name":"本田四丁目","setai":1155,"jinko":1752,"key":"27106014004","units":1},"geometry":{"type":"Polygon","coordinates":[[[135.47379,34.6778],[135.47364,34.67746],[135.47361,34.67747],[135.47341,34.67757],[135.47307,34.67774],[135.47291,34.67782],[135.47261,34.67796],[135.47259,34.67797],[135.47237,34.67807],[135.47202,34.67823],[135.47157,34.67843],[135.47155,34.67844],[135.47139,34.67852],[135.47133,34.67855],[135.47093,34.67874],[135.47056,34.67893],[135.47029,34.67906],[135.47024,34.67913],[135.47024,34.67914],[135.4712,34.67944],[135.47207,34.67973],[135.47217,34.67973],[135.47268,34.67976],[135.47273,34.67975],[135.47318,34.67961],[135.47339,34.67954],[135.47389,34.67938],[135.47405,34.67934],[135.47443,34.67923],[135.47421,34.67876],[135.47408,34.67843],[135.47392,34.67807],[135.47389,34.67802],[135.47389,34.67801],[135.47379,34.6778]]]}},{"type":"Feature","properties":{"name":"九条一丁目","setai":1725,"jinko":2638,"key":"27106015001","units":1},"geometry":{"type":"Polygon","coordinates":[[[135.47624,34.673],[135.47602,34.67279],[135.47532,34.67305],[135.47447,34.67338],[135.47388,34.67361],[135.47379,34.67367],[135.4735,34.67387],[135.47315,34.67411],[135.47287,34.6743],[135.47256,34.67453],[135.47322,34.67492],[135.47323,34.67494],[135.47325,34.67497],[135.4739,34.67548],[135.47394,34.67551],[135.47421,34.67572],[135.47435,34.67583],[135.47468,34.67608],[135.47512,34.67642],[135.47516,34.67645],[135.47553,34.67674],[135.47585,34.6767],[135.47652,34.67648],[135.47676,34.67641],[135.47686,34.67637],[135.47714,34.67629],[135.47722,34.67628],[135.47725,34.67627],[135.47766,34.67623],[135.47772,34.67623],[135.47805,34.67619],[135.47806,34.67619],[135.47826,34.67616],[135.47838,34.67615],[135.47859,34.67613],[135.4787,34.67609],[135.47871,34.67609],[135.47857,34.67581],[135.47848,34.67563],[135.47842,34.6755],[135.47837,34.67541],[135.47825,34.67516],[135.4781,34.67487],[135.47804,34.67479],[135.478,34.67471],[135.47799,34.67469],[135.4779,34.67459],[135.47783,34.6745],[135.47768,34.67436],[135.47768,34.67436],[135.47728,34.674],[135.47719,34.67392],[135.47702,34.67376],[135.4769,34.67365],[135.47647,34.67326],[135.47636,34.67312],[135.47624,34.673]]]}},{"type":"Feature","properties":{"name":"九条二丁目","setai":1045,"jinko":1807,"key":"27106015002","units":1},"geometry":{"type":"Polygon","coordinates":[[[135.47256,34.67453],[135.47251,34.67449],[135.47189,34.67495],[135.47168,34.6751],[135.47132,34.67536],[135.4713,34.67538],[135.47097,34.67561],[135.47075,34.67577],[135.47099,34.67618],[135.47107,34.67633],[135.47109,34.67635],[135.47119,34.67652],[135.4712,34.67654],[135.47128,34.67667],[135.47125,34.67668],[135.47126,34.67677],[135.47127,34.67682],[135.47127,34.67682],[135.47127,34.67685],[135.47129,34.67695],[135.47129,34.67696],[135.47132,34.67712],[135.47133,34.67715],[135.47144,34.67773],[135.47144,34.67776],[135.47149,34.67799],[135.47151,34.67814],[135.47156,34.6784],[135.47157,34.67843],[135.47202,34.67823],[135.47237,34.67807],[135.47259,34.67797],[135.47261,34.67796],[135.47291,34.67782],[135.47307,34.67774],[135.47341,34.67757],[135.47361,34.67747],[135.47364,34.67746],[135.47375,34.6774],[135.47401,34.67727],[135.47403,34.67726],[135.47426,34.67714],[135.47456,34.67699],[135.47468,34.67693],[135.47501,34.67678],[135.47534,34.67675],[135.47553,34.67674],[135.47516,34.67645],[135.47512,34.67642],[135.47468,34.67608],[135.47435,34.67583],[135.47421,34.67572],[135.47394,34.67551],[135.4739,34.67548],[135.47325,34.67497],[135.47323,34.67494],[135.47322,34.67492],[135.47256,34.67453]]]}},{"type":"Feature","properties":{"name":"九条三丁目","setai":938,"jinko":1546,"key":"27106015003","units":1},"geometry":{"type":"Polygon","coordinates":[[[135.47099,34.67618],[135.47075,34.67577],[135.47026,34.67609],[135.47026,34.67609],[135.46963,34.6765],[135.46907,34.67697],[135.46903,34.67701],[135.46859,34.67737],[135.46854,34.67741],[135.46811,34.6778],[135.46767,34.67824],[135.46766,34.67827],[135.46846,34.67854],[135.46868,34.67861],[135.47021,34.67912],[135.47024,34.67913],[135.47029,34.67906],[135.47056,34.67893],[135.47093,34.67874],[135.47133,34.67855],[135.47139,34.67852],[135.47155,34.67844],[135.47157,34.67843],[135.47156,34.6784],[135.47151,34.67814],[135.47149,34.67799],[135.47144,34.67776],[135.47144,34.67773],[135.47133,34.67715],[135.47132,34.67712],[135.47129,34.67696],[135.47129,34.67695],[135.47127,34.67685],[135.47127,34.67682],[135.47127,34.67682],[135.47126,34.67677],[135.47125,34.67668],[135.47128,34.67667],[135.4712,34.67654],[135.47119,34.67652],[135.47109,34.67635],[135.47107,34.67633],[135.47099,34.67618]]]}},{"type":"Feature","properties":{"name":"九条南一丁目","setai":673,"jinko":1047,"key":"27106016001","units":1},"geometry":{"type":"Polygon","coordinates":[[[135.47683,34.6705],[135.47667,34.67032],[135.47666,34.67031],[135.47629,34.67043],[135.47609,34.67046],[135.47596,34.67046],[135.47568,34.67042],[135.47545,34.67036],[135.47533,34.6703],[135.47534,34.67026],[135.4752,34.67017],[135.47506,34.67006],[135.47495,34.66997],[135.47482,34.66983],[135.47476,34.66977],[135.47467,34.66955],[135.47465,34.66938],[135.47467,34.6692],[135.47473,34.66896],[135.47482,34.66877],[135.47493,34.66865],[135.47516,34.6685],[135.47471,34.66813],[135.47262,34.66971],[135.47263,34.66971],[135.47292,34.66998],[135.47355,34.67055],[135.47369,34.67068],[135.47422,34.67116],[135.47477,34.67165],[135.47528,34.67212],[135.47532,34.67216],[135.47537,34.67221],[135.47557,34.67239],[135.47567,34.67248],[135.47602,34.67279],[135.47658,34.67256],[135.4766,34.67255],[135.47705,34.67237],[135.47705,34.67237],[135.47757,34.67216],[135.47757,34.67215],[135.47744,34.67151],[135.4774,34.6714],[135.47727,34.67112],[135.47705,34.67081],[135.47683,34.6705]]]}},{"type":"Feature","properties":{"name":"九条南二丁目","setai":1823,"jinko":2999,"key":"27106016002","units":1},"geometry":{"type":"Polygon","coordinates":[[[135.47292,34.66998],[135.47263,34.66971],[135.47212,34.67011],[135.47183,34.67034],[135.47157,34.67054],[135.47123,34.6708],[135.47121,34.67082],[135.47089,34.67107],[135.47057,34.67132],[135.47,34.67176],[135.46974,34.67196],[135.46964,34.67204],[135.46944,34.67219],[135.46921,34.67237],[135.46942,34.67252],[135.46973,34.67271],[135.47001,34.67289],[135.47064,34.6733],[135.47065,34.67331],[135.47091,34.67348],[135.47099,34.67353],[135.47109,34.67359],[135.47141,34.67379],[135.47165,34.67394],[135.47177,34.67402],[135.47198,34.67417],[135.47202,34.67419],[135.47229,34.67436],[135.47235,34.6744],[135.47251,34.67449],[135.47256,34.67453],[135.47287,34.6743],[135.47315,34.67411],[135.4735,34.67387],[135.47379,34.67367],[135.47388,34.67361],[135.47447,34.67338],[135.47532,34.67305],[135.47602,34.67279],[135.47567,34.67248],[135.47557,34.67239],[135.47537,34.67221],[135.47532,34.67216],[135.47528,34.67212],[135.47477,34.67165],[135.47422,34.67116],[135.47369,34.67068],[135.47355,34.67055],[135.47292,34.66998]]]}},{"type":"Feature","properties":{"name":"九条南三丁目","setai":1253,"jinko":2162,"key":"27106016003","units":1},"geometry":{"type":"Polygon","coordinates":[[[135.46942,34.67252],[135.46921,34.67237],[135.46881,34.67265],[135.46837,34.673],[135.46797,34.67331],[135.46752,34.67367],[135.46718,34.67394],[135.46752,34.67453],[135.46756,34.6746],[135.46801,34.67528],[135.46831,34.67576],[135.46841,34.67594],[135.46874,34.67644],[135.46879,34.67653],[135.46907,34.67697],[135.46963,34.6765],[135.47026,34.67609],[135.47026,34.67609],[135.47075,34.67577],[135.47097,34.67561],[135.4713,34.67538],[135.47132,34.67536],[135.47168,34.6751],[135.47189,34.67495],[135.47251,34.67449],[135.47235,34.6744],[135.47229,34.67436],[135.47202,34.67419],[135.47198,34.67417],[135.47177,34.67402],[135.47165,34.67394],[135.47141,34.67379],[135.47109,34.67359],[135.47099,34.67353],[135.47091,34.67348],[135.47065,34.67331],[135.47064,34.6733],[135.47001,34.67289],[135.46973,34.67271],[135.46942,34.67252]]]}},{"type":"Feature","properties":{"name":"九条南四丁目","setai":1087,"jinko":2243,"key":"27106016004","units":1},"geometry":{"type":"Polygon","coordinates":[[[135.46752,34.67453],[135.46718,34.67394],[135.46664,34.67436],[135.46603,34.67485],[135.46512,34.67556],[135.46483,34.6758],[135.4643,34.67622],[135.46347,34.67686],[135.46353,34.6769],[135.4639,34.67702],[135.4646,34.67723],[135.46534,34.67747],[135.46537,34.67748],[135.46606,34.67771],[135.46623,34.67776],[135.46682,34.67796],[135.46731,34.67812],[135.46767,34.67824],[135.46811,34.6778],[135.46854,34.67741],[135.46859,34.67737],[135.46903,34.67701],[135.46907,34.67697],[135.46879,34.67653],[135.46874,34.67644],[135.46841,34.67594],[135.46831,34.67576],[135.46801,34.67528],[135.46756,34.6746],[135.46752,34.67453]]]}},{"type":"Feature","properties":{"name":"安治川一丁目","setai":105,"jinko":159,"key":"27106017001","units":1},"geometry":{"type":"Polygon","coordinates":[[[135.47213,34.68067],[135.4725,34.68015],[135.47259,34.68002],[135.47306,34.67985],[135.47318,34.67961],[135.47273,34.67975],[135.47268,34.67976],[135.47217,34.67973],[135.47207,34.67973],[135.4712,34.67944],[135.47024,34.67914],[135.47024,34.67913],[135.47021,34.67912],[135.46868,34.67861],[135.46846,34.67854],[135.46766,34.67827],[135.46717,34.67926],[135.4675,34.67936],[135.4682,34.67959],[135.46899,34.67986],[135.46994,34.68017],[135.4701,34.68023],[135.47119,34.6806],[135.47133,34.68065],[135.47139,34.68064],[135.47183,34.68063],[135.47213,34.68067]]]}},{"type":"Feature","properties":{"name":"安治川二丁目","setai":38,"jinko":70,"key":"27106017002","units":1},"geometry":{"type":"Polygon","coordinates":[[[135.46294,34.67657],[135.46269,34.67641],[135.46253,34.67656],[135.46228,34.67707],[135.46205,34.67757],[135.46246,34.67771],[135.46343,34.67803],[135.4649,34.67853],[135.46545,34.6787],[135.46566,34.67877],[135.46598,34.67887],[135.46672,34.67911],[135.46717,34.67926],[135.46766,34.67827],[135.46767,34.67824],[135.46731,34.67812],[135.46682,34.67796],[135.46623,34.67776],[135.46606,34.67771],[135.46537,34.67748],[135.46534,34.67747],[135.4646,34.67723],[135.4639,34.67702],[135.46353,34.6769],[135.46347,34.67686],[135.46294,34.67657]]]}},{"type":"Feature","properties":{"name":"境川一丁目","setai":626,"jinko":1171,"key":"27106018001","units":1},"geometry":{"type":"Polygon","coordinates":[[[135.47057,34.67132],[135.47089,34.67107],[135.47121,34.67082],[135.47123,34.6708],[135.47157,34.67054],[135.47183,34.67034],[135.47212,34.67011],[135.47263,34.66971],[135.47262,34.66971],[135.47471,34.66813],[135.47468,34.66811],[135.47431,34.66783],[135.47393,34.66754],[135.47289,34.66835],[135.47233,34.66877],[135.472,34.669],[135.47192,34.66906],[135.47116,34.66966],[135.47048,34.67019],[135.47033,34.67032],[135.46986,34.67069],[135.4696,34.6709],[135.46961,34.67091],[135.46926,34.67118],[135.46925,34.67117],[135.4689,34.67145],[135.4688,34.67153],[135.46851,34.67177],[135.46886,34.67208],[135.46921,34.67237],[135.46944,34.67219],[135.46964,34.67204],[135.46974,34.67196],[135.47,34.67176],[135.47057,34.67132]]]}},{"type":"Feature","properties":{"name":"境川二丁目","setai":210,"jinko":348,"key":"27106018002","units":1},"geometry":{"type":"Polygon","coordinates":[[[135.46886,34.67208],[135.46851,34.67177],[135.4684,34.67185],[135.46831,34.67192],[135.46555,34.67407],[135.46439,34.67495],[135.46416,34.67515],[135.46388,34.67537],[135.46318,34.67599],[135.46269,34.67641],[135.46294,34.67657],[135.46347,34.67686],[135.4643,34.67622],[135.46483,34.6758],[135.46512,34.67556],[135.46603,34.67485],[135.46664,34.67436],[135.46718,34.67394],[135.46752,34.67367],[135.46797,34.67331],[135.46837,34.673],[135.46881,34.67265],[135.46921,34.67237],[135.46886,34.67208]]]}}]}