{"type":"FeatureCollection","features":[{"type":"Feature","properties":{"name":"白子一丁目","setai":2520,"jinko":5579,"key":"11229001001","units":1},"geometry":{"type":"Polygon","coordinates":[[[139.62482,35.77314],[139.62493,35.77305],[139.62502,35.77305],[139.62506,35.77304],[139.62509,35.77303],[139.62512,35.77301],[139.62514,35.77299],[139.62519,35.77294],[139.62538,35.77276],[139.62528,35.77261],[139.62501,35.77233],[139.62475,35.77245],[139.62453,35.77215],[139.62434,35.77187],[139.62427,35.77142],[139.62423,35.77118],[139.62418,35.77097],[139.62414,35.77076],[139.6241,35.77058],[139.62405,35.77032],[139.62405,35.77031],[139.62397,35.77006],[139.62388,35.7698],[139.62379,35.76953],[139.6237,35.76927],[139.62362,35.76903],[139.62346,35.76859],[139.62344,35.76844],[139.62341,35.7683],[139.62338,35.76816],[139.62327,35.76752],[139.62324,35.76727],[139.62323,35.76718],[139.62322,35.76705],[139.6232,35.76687],[139.6232,35.76667],[139.62131,35.7667],[139.62058,35.76669],[139.6204,35.76669],[139.61975,35.76669],[139.61867,35.76667],[139.61801,35.76664],[139.61766,35.76659],[139.61769,35.76678],[139.6177,35.76695],[139.61766,35.76712],[139.61761,35.76723],[139.61758,35.76731],[139.61755,35.76741],[139.61753,35.76753],[139.61748,35.76772],[139.61737,35.76797],[139.6173,35.76811],[139.61726,35.76822],[139.61721,35.76831],[139.61711,35.76839],[139.617,35.7685],[139.61692,35.76859],[139.61694,35.76864],[139.61708,35.76921],[139.61678,35.76986],[139.61679,35.76991],[139.61682,35.77],[139.61688,35.77005],[139.61731,35.77016],[139.61738,35.77022],[139.61743,35.77021],[139.61755,35.77018],[139.61771,35.77015],[139.6178,35.77014],[139.61802,35.77015],[139.61811,35.77015],[139.61818,35.77014],[139.61826,35.77011],[139.61834,35.77005],[139.61839,35.77],[139.61848,35.7699],[139.61859,35.7698],[139.61862,35.76978],[139.61871,35.76979],[139.61894,35.76983],[139.61907,35.76987],[139.61916,35.7699],[139.61941,35.76996],[139.61948,35.76998],[139.61955,35.77],[139.61964,35.77004],[139.61983,35.77011],[139.62002,35.77016],[139.61992,35.77173],[139.61986,35.77253],[139.61986,35.77263],[139.62009,35.7727],[139.62017,35.77273],[139.62026,35.77278],[139.62031,35.77281],[139.62035,35.77285],[139.62039,35.77289],[139.62046,35.77295],[139.62051,35.77299],[139.62055,35.77302],[139.6206,35.77303],[139.62067,35.77303],[139.62075,35.77303],[139.62087,35.77304],[139.62091,35.77305],[139.62107,35.77308],[139.62114,35.7731],[139.62121,35.77313],[139.6213,35.77319],[139.62148,35.77331],[139.62151,35.77334],[139.62155,35.77339],[139.62163,35.77346],[139.62168,35.77351],[139.62175,35.77358],[139.62176,35.77358],[139.62182,35.77359],[139.62204,35.77365],[139.62208,35.77366],[139.62279,35.77386],[139.62331,35.77401],[139.6234,35.77405],[139.62342,35.77406],[139.62346,35.7741],[139.62351,35.77418],[139.62352,35.7742],[139.62359,35.77447],[139.62367,35.77474],[139.62376,35.77507],[139.62381,35.77521],[139.62387,35.77542],[139.62387,35.77554],[139.62379,35.77604],[139.62377,35.77615],[139.62432,35.77624],[139.62433,35.77604],[139.62434,35.77591],[139.62433,35.77583],[139.62433,35.77575],[139.62428,35.77568],[139.62424,35.77558],[139.62421,35.77551],[139.6242,35.77545],[139.6242,35.77537],[139.62423,35.77531],[139.62424,35.77526],[139.62426,35.77523],[139.62429,35.77518],[139.62428,35.77513],[139.62428,35.77509],[139.62427,35.77506],[139.62409,35.77454],[139.62408,35.77449],[139.62406,35.77443],[139.62404,35.77436],[139.62403,35.77427],[139.62401,35.77416],[139.624,35.77405],[139.62421,35.77399],[139.62427,35.7738],[139.62429,35.7737],[139.62428,35.77362],[139.62423,35.77339],[139.62426,35.77337],[139.62432,35.77334],[139.62451,35.77332],[139.62458,35.77328],[139.62482,35.77314]]]}},{"type":"Feature","properties":{"name":"白子二丁目","setai":3601,"jinko":7410,"key":"11229001002","units":1},"geometry":{"type":"Polygon","coordinates":[[[139.62359,35.77447],[139.62352,35.7742],[139.62351,35.77418],[139.62346,35.7741],[139.62342,35.77406],[139.6234,35.77405],[139.62331,35.77401],[139.62279,35.77386],[139.62208,35.77366],[139.62204,35.77365],[139.62182,35.77359],[139.62176,35.77358],[139.62175,35.77358],[139.62168,35.77351],[139.62163,35.77346],[139.62155,35.77339],[139.62151,35.77334],[139.62148,35.77331],[139.6213,35.77319],[139.62121,35.77313],[139.62114,35.7731],[139.62107,35.77308],[139.62091,35.77305],[139.62087,35.77304],[139.62075,35.77303],[139.62067,35.77303],[139.6206,35.77303],[139.62055,35.77302],[139.62051,35.77299],[139.62046,35.77295],[139.62039,35.77289],[139.62035,35.77285],[139.62031,35.77281],[139.62026,35.77278],[139.62017,35.77273],[139.62009,35.7727],[139.61986,35.77263],[139.61982,35.7732],[139.61981,35.77338],[139.61975,35.77411],[139.61975,35.77436],[139.61973,35.77436],[139.61971,35.7747],[139.61971,35.77472],[139.6197,35.77496],[139.6197,35.77497],[139.61965,35.77597],[139.61964,35.77606],[139.61954,35.77632],[139.61952,35.77691],[139.61947,35.77766],[139.61944,35.77827],[139.61944,35.77837],[139.61944,35.77841],[139.61939,35.77905],[139.61937,35.77948],[139.61936,35.77972],[139.61938,35.77994],[139.61945,35.78023],[139.61954,35.78046],[139.61965,35.78069],[139.61982,35.78091],[139.62026,35.78144],[139.62041,35.78161],[139.62043,35.78164],[139.62056,35.78178],[139.62073,35.78197],[139.6211,35.78236],[139.62117,35.78243],[139.6212,35.78246],[139.62199,35.78332],[139.62268,35.78404],[139.6228,35.78419],[139.6229,35.7843],[139.62343,35.784],[139.6238,35.78378],[139.62409,35.78359],[139.62465,35.78323],[139.6248,35.78312],[139.6249,35.78305],[139.62533,35.78276],[139.62593,35.78236],[139.62595,35.78235],[139.62597,35.78233],[139.62616,35.7822],[139.62597,35.782],[139.62588,35.78185],[139.62581,35.78171],[139.6258,35.78165],[139.62584,35.78158],[139.62587,35.78154],[139.62588,35.78151],[139.62587,35.78148],[139.62584,35.78145],[139.62566,35.78138],[139.62564,35.78136],[139.62562,35.78131],[139.62553,35.78116],[139.62538,35.78112],[139.62529,35.78109],[139.62518,35.78106],[139.62507,35.78105],[139.62497,35.78105],[139.62493,35.78103],[139.62491,35.78099],[139.62492,35.78094],[139.62495,35.78088],[139.62499,35.78082],[139.62505,35.78075],[139.62509,35.7807],[139.62509,35.78065],[139.62508,35.78062],[139.62489,35.78052],[139.62438,35.78025],[139.62437,35.78024],[139.62439,35.78022],[139.62441,35.78019],[139.62444,35.78012],[139.62447,35.78003],[139.62451,35.77993],[139.62453,35.77983],[139.62454,35.77968],[139.62454,35.77966],[139.62455,35.7796],[139.62457,35.77937],[139.6246,35.77913],[139.6246,35.77899],[139.6246,35.77888],[139.62458,35.77875],[139.62455,35.77862],[139.6245,35.77855],[139.62447,35.77848],[139.62444,35.77844],[139.6244,35.77836],[139.62437,35.77827],[139.62435,35.77815],[139.62436,35.77811],[139.62437,35.77801],[139.62441,35.7777],[139.62442,35.77769],[139.62443,35.77753],[139.62443,35.77742],[139.62442,35.77728],[139.62443,35.77708],[139.62444,35.77696],[139.62443,35.77683],[139.62441,35.77672],[139.62437,35.77659],[139.62434,35.77649],[139.62432,35.77628],[139.62432,35.77624],[139.62377,35.77615],[139.62379,35.77604],[139.62387,35.77554],[139.62387,35.77542],[139.62381,35.77521],[139.62376,35.77507],[139.62367,35.77474],[139.62359,35.77447]]]}},{"type":"Feature","properties":{"name":"白子三丁目","setai":3927,"jinko":8128,"key":"11229001003","units":1},"geometry":{"type":"Polygon","coordinates":[[[139.63613,35.79297],[139.63655,35.79293],[139.6367,35.79291],[139.63712,35.79286],[139.63738,35.79284],[139.63799,35.79277],[139.63882,35.79269],[139.63902,35.79268],[139.63902,35.79263],[139.63896,35.79258],[139.63888,35.79252],[139.6388,35.79248],[139.63872,35.79239],[139.63864,35.79232],[139.63854,35.79226],[139.63842,35.79221],[139.63826,35.79216],[139.63814,35.7921],[139.63811,35.79208],[139.63807,35.79201],[139.63806,35.79196],[139.63806,35.79187],[139.63806,35.7918],[139.63806,35.79177],[139.63804,35.79173],[139.63795,35.79167],[139.63775,35.79152],[139.63768,35.79145],[139.63764,35.79139],[139.63761,35.79132],[139.6376,35.79127],[139.63761,35.79122],[139.63762,35.7911],[139.63767,35.7909],[139.63766,35.79079],[139.6376,35.79075],[139.63748,35.79075],[139.63725,35.79082],[139.63721,35.7908],[139.6372,35.79071],[139.63717,35.79069],[139.63704,35.79072],[139.63698,35.79074],[139.6368,35.79077],[139.63666,35.79077],[139.63662,35.79076],[139.63655,35.79071],[139.63649,35.79067],[139.63632,35.7905],[139.63626,35.79047],[139.63619,35.79047],[139.63615,35.79048],[139.63611,35.7905],[139.63606,35.79053],[139.636,35.79059],[139.63593,35.79061],[139.63587,35.79063],[139.63578,35.79063],[139.63573,35.79063],[139.63566,35.79062],[139.63554,35.79058],[139.63541,35.79057],[139.63514,35.79077],[139.63509,35.79076],[139.63501,35.79073],[139.63489,35.79065],[139.63466,35.79058],[139.63462,35.79056],[139.63456,35.79052],[139.63449,35.79044],[139.63449,35.79027],[139.63411,35.79007],[139.63411,35.78999],[139.63411,35.78999],[139.6341,35.78997],[139.63401,35.78987],[139.63393,35.78984],[139.63379,35.78978],[139.63372,35.78975],[139.63371,35.78975],[139.63369,35.78972],[139.63371,35.78967],[139.63373,35.78961],[139.63375,35.78958],[139.63379,35.78953],[139.63382,35.7895],[139.63388,35.78942],[139.63384,35.78938],[139.6337,35.78933],[139.63365,35.78941],[139.63364,35.78943],[139.63359,35.78946],[139.63344,35.78969],[139.63337,35.78965],[139.63333,35.78963],[139.63308,35.78949],[139.63299,35.78963],[139.6328,35.78953],[139.63283,35.78949],[139.63276,35.78936],[139.63275,35.7893],[139.6325,35.78919],[139.63246,35.78917],[139.63228,35.78907],[139.63236,35.78898],[139.63241,35.78892],[139.63229,35.78884],[139.63238,35.78875],[139.63235,35.78873],[139.63226,35.78865],[139.63214,35.78871],[139.63189,35.78847],[139.63185,35.78844],[139.63197,35.78833],[139.63203,35.78826],[139.63209,35.7882],[139.63229,35.78783],[139.63229,35.78774],[139.63228,35.78766],[139.63231,35.78757],[139.63235,35.78749],[139.6324,35.78741],[139.63242,35.78732],[139.63241,35.78725],[139.63237,35.7872],[139.63217,35.78715],[139.63212,35.78729],[139.6321,35.78735],[139.63206,35.78741],[139.63169,35.78725],[139.6317,35.78702],[139.63182,35.78671],[139.63193,35.78648],[139.63176,35.78629],[139.63171,35.78618],[139.6315,35.78606],[139.63135,35.78616],[139.63132,35.78613],[139.63098,35.78597],[139.6308,35.78607],[139.63075,35.78603],[139.63069,35.78599],[139.63066,35.78598],[139.63059,35.78595],[139.63024,35.7856],[139.63042,35.78548],[139.63052,35.7854],[139.63045,35.78532],[139.6304,35.78524],[139.63019,35.78508],[139.62986,35.78525],[139.62974,35.78533],[139.62953,35.78534],[139.62915,35.78519],[139.62903,35.78526],[139.62896,35.78518],[139.62817,35.7844],[139.62799,35.78422],[139.62797,35.78418],[139.62803,35.78412],[139.62791,35.78392],[139.62788,35.7838],[139.62794,35.78376],[139.62787,35.78369],[139.62799,35.78361],[139.62791,35.78353],[139.62798,35.78349],[139.62795,35.78345],[139.6278,35.78356],[139.62777,35.78353],[139.62775,35.7834],[139.62773,35.78337],[139.62759,35.78323],[139.62736,35.783],[139.62761,35.78283],[139.62757,35.78279],[139.62744,35.78267],[139.62737,35.78264],[139.62726,35.78259],[139.62725,35.78259],[139.62715,35.78248],[139.62713,35.78247],[139.62707,35.78241],[139.62701,35.78235],[139.62695,35.78232],[139.62689,35.7823],[139.62684,35.78228],[139.62682,35.78228],[139.62639,35.78238],[139.62625,35.78228],[139.62616,35.7822],[139.62597,35.78233],[139.62595,35.78235],[139.62593,35.78236],[139.62533,35.78276],[139.6249,35.78305],[139.6248,35.78312],[139.62465,35.78323],[139.62409,35.78359],[139.6238,35.78378],[139.62343,35.784],[139.6229,35.7843],[139.62336,35.78477],[139.6237,35.78513],[139.62391,35.78535],[139.62416,35.78562],[139.62435,35.78582],[139.62469,35.78618],[139.62478,35.78628],[139.62517,35.78671],[139.62525,35.78679],[139.62543,35.787],[139.62571,35.7873],[139.62612,35.78774],[139.62618,35.7878],[139.62638,35.788],[139.6266,35.78821],[139.62695,35.78852],[139.62721,35.78874],[139.62753,35.789],[139.62785,35.78924],[139.6282,35.7895],[139.62831,35.78958],[139.62875,35.78992],[139.62882,35.78999],[139.62892,35.79006],[139.62896,35.79009],[139.62907,35.79018],[139.62924,35.79031],[139.62958,35.79057],[139.6297,35.79066],[139.63012,35.79098],[139.63069,35.79142],[139.63085,35.79153],[139.63091,35.7916],[139.63119,35.79181],[139.63152,35.79203],[139.63177,35.79217],[139.63228,35.79243],[139.63281,35.79264],[139.63301,35.7927],[139.63326,35.79278],[139.63343,35.79282],[139.63362,35.79286],[139.63385,35.79289],[139.63402,35.79292],[139.63412,35.79293],[139.6343,35.79295],[139.63435,35.79295],[139.63443,35.79295],[139.63447,35.79295],[139.63452,35.79297],[139.63465,35.79298],[139.63491,35.79299],[139.63522,35.79301],[139.63549,35.79301],[139.63584,35.79299],[139.63613,35.79297]]]}},{"type":"Feature","properties":{"name":"白子四丁目","setai":96,"jinko":218,"key":"11229001004","units":1},"geometry":{"type":"Polygon","coordinates":[[[139.64074,35.79566],[139.64074,35.7956],[139.64072,35.79557],[139.64052,35.79553],[139.64038,35.79563],[139.6402,35.79547],[139.6399,35.7955],[139.63981,35.79546],[139.63971,35.79551],[139.63968,35.79551],[139.63967,35.79551],[139.63964,35.79547],[139.63966,35.79543],[139.63988,35.79534],[139.63998,35.79529],[139.64017,35.79525],[139.64026,35.79523],[139.64015,35.79513],[139.64021,35.7949],[139.64009,35.79492],[139.64004,35.79473],[139.63991,35.79415],[139.63993,35.79397],[139.63985,35.79389],[139.63979,35.79385],[139.63961,35.79384],[139.63951,35.79383],[139.63948,35.79366],[139.63917,35.79372],[139.63913,35.79359],[139.63892,35.79314],[139.6392,35.79305],[139.63912,35.79286],[139.63888,35.79294],[139.63885,35.79295],[139.63883,35.79283],[139.63882,35.79269],[139.63799,35.79277],[139.63813,35.79292],[139.63845,35.79344],[139.63857,35.7937],[139.63871,35.79418],[139.63876,35.79436],[139.63876,35.79462],[139.63878,35.79494],[139.63881,35.79517],[139.63885,35.79529],[139.63913,35.79592],[139.63941,35.79676],[139.64031,35.79666],[139.64046,35.79652],[139.6405,35.79648],[139.64055,35.79641],[139.64059,35.79632],[139.64061,35.79626],[139.64069,35.79596],[139.64074,35.79574],[139.64074,35.79566]]]}},{"type":"Feature","properties":{"name":"南一丁目","setai":2699,"jinko":6655,"key":"11229002001","units":1},"geometry":{"type":"Polygon","coordinates":[[[139.61986,35.77263],[139.61986,35.77253],[139.61992,35.77173],[139.62002,35.77016],[139.61983,35.77011],[139.61964,35.77004],[139.61955,35.77],[139.61948,35.76998],[139.61941,35.76996],[139.61916,35.7699],[139.61907,35.76987],[139.61894,35.76983],[139.61871,35.76979],[139.61862,35.76978],[139.61859,35.7698],[139.61848,35.7699],[139.61839,35.77],[139.61834,35.77005],[139.61826,35.77011],[139.61818,35.77014],[139.61811,35.77015],[139.61802,35.77015],[139.6178,35.77014],[139.61771,35.77015],[139.61755,35.77018],[139.61743,35.77021],[139.61738,35.77022],[139.61722,35.77028],[139.61703,35.77035],[139.61686,35.77042],[139.61672,35.77047],[139.61653,35.77054],[139.61633,35.77061],[139.61617,35.77065],[139.616,35.77069],[139.61596,35.7707],[139.61572,35.77073],[139.61534,35.77075],[139.61478,35.77077],[139.61442,35.77078],[139.61301,35.77081],[139.61293,35.77082],[139.61287,35.77081],[139.61283,35.7708],[139.61278,35.77079],[139.61275,35.77079],[139.61271,35.77077],[139.61263,35.77075],[139.61253,35.7707],[139.61239,35.77065],[139.61229,35.77055],[139.61214,35.77039],[139.61139,35.76943],[139.61119,35.76952],[139.61126,35.76967],[139.61128,35.76978],[139.61129,35.76984],[139.61132,35.76988],[139.61135,35.76993],[139.61141,35.77],[139.61148,35.77006],[139.61148,35.77008],[139.61156,35.77019],[139.61155,35.77023],[139.61179,35.77048],[139.61188,35.77058],[139.61159,35.77064],[139.61127,35.77077],[139.61133,35.77083],[139.61105,35.77118],[139.61036,35.7709],[139.61029,35.77087],[139.61021,35.77083],[139.61013,35.77079],[139.61001,35.7707],[139.6098,35.77054],[139.6097,35.77047],[139.6094,35.77016],[139.60935,35.77011],[139.60917,35.7699],[139.60899,35.7696],[139.60886,35.7694],[139.6087,35.76913],[139.60868,35.76913],[139.60865,35.76913],[139.60859,35.76916],[139.60854,35.76919],[139.60851,35.76921],[139.6085,35.76922],[139.60848,35.76926],[139.60846,35.76927],[139.6082,35.76916],[139.60805,35.7691],[139.6079,35.76929],[139.60737,35.76917],[139.60731,35.76935],[139.60707,35.76929],[139.60679,35.76971],[139.60674,35.76979],[139.60667,35.77008],[139.60667,35.77011],[139.60668,35.77013],[139.60671,35.7702],[139.6067,35.77033],[139.60664,35.77054],[139.60663,35.7706],[139.60662,35.77068],[139.60662,35.77101],[139.60641,35.77133],[139.60637,35.7713],[139.60628,35.77125],[139.60594,35.77107],[139.60577,35.771],[139.60558,35.77093],[139.60517,35.77075],[139.60505,35.77069],[139.6043,35.77037],[139.60426,35.77035],[139.60407,35.77018],[139.60378,35.77058],[139.60368,35.77053],[139.60317,35.77116],[139.60257,35.7709],[139.60243,35.77084],[139.60195,35.77063],[139.60179,35.77054],[139.60132,35.77028],[139.60093,35.77007],[139.60075,35.76997],[139.60024,35.76954],[139.60021,35.76953],[139.60018,35.76954],[139.60015,35.76955],[139.60012,35.76954],[139.59982,35.76939],[139.59946,35.76924],[139.59906,35.7691],[139.59873,35.76901],[139.59863,35.76906],[139.5986,35.76916],[139.59839,35.76941],[139.59795,35.76992],[139.59839,35.7701],[139.59889,35.7703],[139.59866,35.77038],[139.59848,35.77045],[139.59838,35.7705],[139.59827,35.77055],[139.59817,35.77062],[139.59805,35.77071],[139.59779,35.77095],[139.59775,35.77099],[139.5977,35.77103],[139.59762,35.77109],[139.59736,35.77128],[139.59813,35.77206],[139.59815,35.77209],[139.59816,35.7721],[139.59844,35.77243],[139.59919,35.77285],[139.6002,35.77343],[139.60047,35.77338],[139.60159,35.77318],[139.60304,35.7729],[139.60362,35.77279],[139.60371,35.77277],[139.60379,35.77276],[139.60409,35.7727],[139.60423,35.77267],[139.60424,35.77267],[139.6044,35.77264],[139.6052,35.77253],[139.60526,35.77253],[139.60538,35.77253],[139.60608,35.77253],[139.60615,35.77253],[139.6068,35.77253],[139.60684,35.77253],[139.6075,35.77254],[139.60753,35.77254],[139.60838,35.77254],[139.60858,35.77255],[139.60947,35.77257],[139.60965,35.77257],[139.61043,35.77257],[139.6106,35.77259],[139.61086,35.77259],[139.61178,35.7726],[139.61311,35.77259],[139.61333,35.77263],[139.61391,35.77272],[139.61424,35.77279],[139.61441,35.77282],[139.61462,35.77286],[139.61465,35.77286],[139.61491,35.77291],[139.61529,35.77303],[139.61545,35.77309],[139.61593,35.77328],[139.61642,35.77345],[139.61654,35.7735],[139.61668,35.77355],[139.61689,35.77362],[139.61696,35.77364],[139.61776,35.77393],[139.61795,35.77397],[139.61885,35.77417],[139.61926,35.77426],[139.61927,35.77426],[139.61973,35.77436],[139.61975,35.77436],[139.61975,35.77411],[139.61981,35.77338],[139.61982,35.7732],[139.61986,35.77263]]]}},{"type":"Feature","properties":{"name":"南二丁目","setai":637,"jinko":986,"key":"11229002002","units":1},"geometry":{"type":"Polygon","coordinates":[[[139.61439,35.77857],[139.6149,35.77841],[139.61642,35.7781],[139.61639,35.77808],[139.61639,35.77808],[139.61626,35.77767],[139.61582,35.77633],[139.61558,35.77618],[139.61518,35.77593],[139.61469,35.77562],[139.6155,35.77478],[139.61567,35.7746],[139.61596,35.7743],[139.6162,35.77404],[139.61668,35.77355],[139.61654,35.7735],[139.61642,35.77345],[139.61593,35.77328],[139.61545,35.77309],[139.61529,35.77303],[139.61491,35.77291],[139.61465,35.77286],[139.61462,35.77286],[139.61441,35.77282],[139.61424,35.77279],[139.61391,35.77272],[139.61333,35.77263],[139.61311,35.77259],[139.61178,35.7726],[139.61086,35.77259],[139.6106,35.77259],[139.61043,35.77257],[139.60965,35.77257],[139.60947,35.77257],[139.60858,35.77255],[139.60838,35.77254],[139.60753,35.77254],[139.6075,35.77254],[139.60684,35.77253],[139.6068,35.77253],[139.60615,35.77253],[139.60608,35.77253],[139.60538,35.77253],[139.60526,35.77253],[139.6052,35.77253],[139.6044,35.77264],[139.60424,35.77267],[139.60423,35.77267],[139.60409,35.7727],[139.60379,35.77276],[139.60371,35.77277],[139.60362,35.77279],[139.60304,35.7729],[139.60159,35.77318],[139.60047,35.77338],[139.6002,35.77343],[139.60262,35.77546],[139.60356,35.77528],[139.60395,35.7752],[139.60432,35.77513],[139.60489,35.77568],[139.60536,35.77558],[139.60541,35.77557],[139.60591,35.77584],[139.60611,35.776],[139.60618,35.77611],[139.60631,35.77624],[139.60652,35.77639],[139.60691,35.77672],[139.60715,35.7769],[139.60723,35.77685],[139.60769,35.77645],[139.60828,35.77709],[139.60832,35.77715],[139.60844,35.7773],[139.60903,35.7771],[139.61203,35.77694],[139.61209,35.77868],[139.61276,35.77856],[139.61301,35.77852],[139.61324,35.77851],[139.6137,35.77877],[139.61439,35.77857]]]}},{"type":"Feature","properties":{"name":"中央一丁目","setai":365,"jinko":715,"key":"11229003001","units":1},"geometry":{"type":"Polygon","coordinates":[[[139.61543,35.78196],[139.61456,35.78086],[139.61408,35.7811],[139.61358,35.78136],[139.61269,35.78184],[139.61213,35.78209],[139.6117,35.7823],[139.61115,35.78262],[139.61081,35.78281],[139.61055,35.7829],[139.61031,35.78301],[139.61008,35.78308],[139.60998,35.78311],[139.61025,35.78351],[139.61043,35.78392],[139.61057,35.78402],[139.61079,35.78451],[139.6108,35.78452],[139.61087,35.78469],[139.61095,35.78486],[139.611,35.78497],[139.61119,35.78535],[139.61155,35.78591],[139.61173,35.78563],[139.61179,35.78552],[139.61189,35.78536],[139.61203,35.78515],[139.61221,35.78493],[139.61222,35.78493],[139.61222,35.78492],[139.61242,35.78469],[139.61267,35.78448],[139.61286,35.78435],[139.61306,35.7842],[139.61326,35.78406],[139.61342,35.78391],[139.61355,35.78363],[139.6136,35.78362],[139.61396,35.78356],[139.61437,35.78352],[139.61457,35.7835],[139.61493,35.78345],[139.61516,35.78343],[139.61523,35.78342],[139.61533,35.78341],[139.61557,35.78338],[139.6156,35.78338],[139.61597,35.78333],[139.61621,35.78329],[139.61632,35.78328],[139.61628,35.78321],[139.61625,35.78315],[139.61623,35.78312],[139.61618,35.78304],[139.61612,35.78295],[139.61588,35.78264],[139.61605,35.78255],[139.61559,35.7821],[139.61543,35.78196]]]}},{"type":"Feature","properties":{"name":"中央二丁目","setai":771,"jinko":1534,"key":"11229003002","units":1},"geometry":{"type":"Polygon","coordinates":[[[139.61944,35.77841],[139.61944,35.77837],[139.61871,35.7787],[139.61857,35.77876],[139.61854,35.77877],[139.6185,35.77879],[139.6185,35.77879],[139.61849,35.7788],[139.61836,35.77885],[139.61774,35.77917],[139.61724,35.77943],[139.6168,35.77967],[139.61646,35.77985],[139.61531,35.78045],[139.61456,35.78086],[139.61543,35.78196],[139.61559,35.7821],[139.61605,35.78255],[139.61588,35.78264],[139.61612,35.78295],[139.61618,35.78304],[139.61623,35.78312],[139.61625,35.78315],[139.61628,35.78321],[139.61632,35.78328],[139.61653,35.78323],[139.61673,35.78317],[139.61674,35.78317],[139.61695,35.78311],[139.61703,35.78308],[139.61717,35.78303],[139.61748,35.7829],[139.61753,35.78288],[139.61785,35.78274],[139.61797,35.78269],[139.6182,35.78259],[139.61832,35.78254],[139.61846,35.78248],[139.61872,35.78236],[139.61915,35.78217],[139.61964,35.78195],[139.61976,35.7819],[139.62041,35.78161],[139.62026,35.78144],[139.61982,35.78091],[139.61965,35.78069],[139.61954,35.78046],[139.61945,35.78023],[139.61938,35.77994],[139.61936,35.77972],[139.61937,35.77948],[139.61939,35.77905],[139.61944,35.77841]]]}},{"type":"Feature","properties":{"name":"新倉一丁目","setai":4236,"jinko":7414,"key":"11229004001","units":1},"geometry":{"type":"Polygon","coordinates":[[[139.61436,35.79696],[139.61463,35.79657],[139.61482,35.79663],[139.61508,35.79684],[139.61517,35.7968],[139.61524,35.79677],[139.61527,35.79672],[139.61529,35.79668],[139.61539,35.79657],[139.6155,35.79645],[139.6156,35.79635],[139.61569,35.79625],[139.61575,35.79619],[139.61607,35.79585],[139.61612,35.79572],[139.61617,35.79558],[139.61618,35.79554],[139.61622,35.79543],[139.61624,35.79536],[139.61627,35.79526],[139.61645,35.79468],[139.61647,35.79461],[139.61655,35.7944],[139.61658,35.79431],[139.61663,35.79418],[139.61665,35.79411],[139.61666,35.79407],[139.6167,35.79399],[139.61676,35.79387],[139.61688,35.79368],[139.617,35.79351],[139.61709,35.79337],[139.61718,35.79321],[139.61726,35.79309],[139.61732,35.793],[139.61736,35.79295],[139.6174,35.79292],[139.61746,35.79287],[139.61771,35.79268],[139.61778,35.7926],[139.61785,35.79253],[139.61796,35.79242],[139.61799,35.7924],[139.61805,35.79236],[139.61815,35.79232],[139.61822,35.7923],[139.61841,35.79226],[139.61856,35.79223],[139.61871,35.79219],[139.61881,35.79215],[139.6189,35.79211],[139.61894,35.79206],[139.61901,35.79194],[139.61904,35.79186],[139.61892,35.7918],[139.61883,35.79175],[139.61872,35.7917],[139.61861,35.79165],[139.61851,35.79159],[139.61843,35.79151],[139.61838,35.79145],[139.61835,35.7914],[139.61832,35.79134],[139.61829,35.79128],[139.61826,35.79121],[139.61822,35.79112],[139.61819,35.79109],[139.61814,35.79105],[139.61812,35.79103],[139.61803,35.79097],[139.61795,35.79091],[139.61789,35.79088],[139.61778,35.79083],[139.61769,35.79079],[139.61751,35.79071],[139.61738,35.79067],[139.61732,35.79065],[139.61728,35.79063],[139.61713,35.79047],[139.61713,35.79047],[139.61704,35.79037],[139.61703,35.79036],[139.61674,35.79009],[139.61654,35.78999],[139.61645,35.78995],[139.6162,35.78984],[139.6159,35.78971],[139.61586,35.78969],[139.61577,35.78964],[139.61573,35.78962],[139.61566,35.78959],[139.61551,35.78953],[139.61551,35.78953],[139.61548,35.78952],[139.61547,35.78951],[139.61528,35.78943],[139.6152,35.7894],[139.61508,35.78936],[139.61505,35.78935],[139.61505,35.78935],[139.6148,35.78928],[139.61461,35.78923],[139.61444,35.78919],[139.61429,35.78915],[139.61408,35.7891],[139.6139,35.78907],[139.61379,35.78905],[139.61364,35.78902],[139.61355,35.78897],[139.61347,35.78892],[139.61336,35.78883],[139.61329,35.78878],[139.61328,35.78872],[139.61314,35.78859],[139.61288,35.78834],[139.61282,35.78836],[139.61249,35.7885],[139.61169,35.78884],[139.61165,35.78886],[139.61082,35.78919],[139.61043,35.78937],[139.61034,35.78941],[139.61013,35.7895],[139.60933,35.78984],[139.60853,35.79017],[139.60852,35.79017],[139.60722,35.79072],[139.60705,35.79079],[139.60605,35.79124],[139.60583,35.79132],[139.60474,35.79173],[139.60401,35.79196],[139.60404,35.79202],[139.60403,35.7921],[139.60408,35.79221],[139.60411,35.7923],[139.60415,35.79236],[139.60418,35.79246],[139.60423,35.79257],[139.60425,35.79267],[139.6043,35.79275],[139.60435,35.7928],[139.60438,35.79283],[139.60456,35.7929],[139.60466,35.79293],[139.60479,35.79295],[139.60482,35.79295],[139.60488,35.79297],[139.60494,35.793],[139.60499,35.79307],[139.60497,35.79312],[139.60499,35.79317],[139.60505,35.79327],[139.6051,35.79334],[139.60514,35.79338],[139.60524,35.79343],[139.60532,35.79345],[139.60542,35.79343],[139.60547,35.79342],[139.60551,35.79342],[139.60557,35.79345],[139.60573,35.79348],[139.60588,35.79351],[139.60597,35.79352],[139.60605,35.7935],[139.60621,35.79346],[139.60635,35.79343],[139.60645,35.79342],[139.60656,35.79344],[139.60663,35.79345],[139.60673,35.79346],[139.60684,35.79344],[139.60699,35.79344],[139.60701,35.79336],[139.60705,35.79329],[139.60709,35.79324],[139.60715,35.79319],[139.60724,35.79317],[139.60732,35.79316],[139.60752,35.79315],[139.60762,35.79316],[139.60769,35.79316],[139.60779,35.79316],[139.60783,35.79316],[139.60796,35.79314],[139.60827,35.79316],[139.60836,35.79317],[139.60851,35.79318],[139.60863,35.79322],[139.60869,35.79327],[139.60875,35.79335],[139.60885,35.79343],[139.60897,35.79351],[139.60912,35.79362],[139.60916,35.79365],[139.60926,35.79371],[139.60942,35.79382],[139.60948,35.79388],[139.6095,35.79395],[139.60952,35.79408],[139.60953,35.79412],[139.60961,35.79421],[139.60972,35.7943],[139.60977,35.79434],[139.60982,35.79438],[139.60988,35.79446],[139.60993,35.79453],[139.60994,35.79455],[139.60997,35.79459],[139.61008,35.79467],[139.61015,35.79474],[139.61018,35.79478],[139.61019,35.79484],[139.61019,35.79499],[139.61018,35.79507],[139.61036,35.7952],[139.61063,35.79537],[139.61073,35.79543],[139.61081,35.79547],[139.61094,35.79552],[139.61111,35.79556],[139.61114,35.79558],[139.61127,35.79564],[139.61142,35.79572],[139.61159,35.79581],[139.61166,35.79585],[139.61167,35.79586],[139.61171,35.7959],[139.61182,35.79597],[139.61193,35.79601],[139.61203,35.79605],[139.61212,35.79605],[139.61225,35.79604],[139.61235,35.79605],[139.61244,35.79606],[139.61252,35.79609],[139.61275,35.79619],[139.61296,35.79629],[139.6131,35.79635],[139.61324,35.7964],[139.61343,35.79645],[139.61357,35.79648],[139.61368,35.79653],[139.61384,35.79661],[139.61404,35.79672],[139.61421,35.79682],[139.61435,35.79695],[139.61436,35.79696]]]}},{"type":"Feature","properties":{"name":"新倉二丁目","setai":2978,"jinko":6674,"key":"11229004002","units":1},"geometry":{"type":"Polygon","coordinates":[[[139.61579,35.80169],[139.61585,35.80168],[139.61601,35.80171],[139.61614,35.80173],[139.6165,35.80173],[139.6168,35.80172],[139.61685,35.8017],[139.61692,35.80166],[139.61696,35.80163],[139.61706,35.80157],[139.61716,35.8015],[139.61732,35.80135],[139.61746,35.80124],[139.61761,35.80108],[139.61762,35.80108],[139.61769,35.801],[139.61777,35.80087],[139.61781,35.8008],[139.61797,35.80063],[139.61817,35.80043],[139.61822,35.8004],[139.61833,35.80031],[139.619,35.79969],[139.6191,35.79962],[139.61912,35.79961],[139.61931,35.7995],[139.61942,35.79943],[139.61956,35.79931],[139.6197,35.79919],[139.61975,35.79915],[139.6199,35.79901],[139.61998,35.79895],[139.62012,35.79885],[139.62036,35.79871],[139.62055,35.79856],[139.62077,35.79842],[139.62098,35.79832],[139.62117,35.79823],[139.62137,35.79817],[139.62203,35.79795],[139.62243,35.79784],[139.62264,35.7978],[139.62298,35.79772],[139.62319,35.79766],[139.62324,35.79764],[139.62347,35.79757],[139.62384,35.79745],[139.62391,35.79743],[139.62385,35.79723],[139.62392,35.79719],[139.62406,35.7971],[139.62413,35.79708],[139.62431,35.79704],[139.62423,35.79662],[139.62423,35.79648],[139.62423,35.79639],[139.62428,35.79627],[139.62437,35.79622],[139.62444,35.79617],[139.62447,35.79614],[139.62452,35.7961],[139.62443,35.79609],[139.62435,35.79607],[139.62429,35.79604],[139.62418,35.79593],[139.62404,35.79578],[139.62396,35.7957],[139.62383,35.79558],[139.62368,35.79548],[139.62341,35.79524],[139.6233,35.79516],[139.62316,35.79506],[139.6231,35.79501],[139.62301,35.79496],[139.62284,35.79488],[139.62276,35.79482],[139.62264,35.79476],[139.62252,35.79468],[139.62245,35.79464],[139.62237,35.79458],[139.62214,35.7944],[139.62198,35.7943],[139.62186,35.7942],[139.62183,35.79418],[139.62177,35.79414],[139.62165,35.79405],[139.62154,35.79396],[139.62133,35.79378],[139.62123,35.79366],[139.62115,35.79357],[139.62105,35.79346],[139.62103,35.79344],[139.62096,35.79335],[139.62092,35.79331],[139.62079,35.79316],[139.62069,35.79297],[139.62055,35.79268],[139.62044,35.79244],[139.62038,35.79231],[139.62034,35.79227],[139.62027,35.79223],[139.62021,35.79221],[139.62005,35.79221],[139.61995,35.79223],[139.61978,35.79223],[139.61968,35.7922],[139.61957,35.79213],[139.61938,35.79203],[139.61933,35.792],[139.61922,35.79194],[139.61904,35.79186],[139.61901,35.79194],[139.61894,35.79206],[139.6189,35.79211],[139.61881,35.79215],[139.61871,35.79219],[139.61856,35.79223],[139.61841,35.79226],[139.61822,35.7923],[139.61815,35.79232],[139.61805,35.79236],[139.61799,35.7924],[139.61796,35.79242],[139.61785,35.79253],[139.61778,35.7926],[139.61771,35.79268],[139.61746,35.79287],[139.6174,35.79292],[139.61736,35.79295],[139.61732,35.793],[139.61726,35.79309],[139.61718,35.79321],[139.61709,35.79337],[139.617,35.79351],[139.61688,35.79368],[139.61676,35.79387],[139.6167,35.79399],[139.61666,35.79407],[139.61665,35.79411],[139.61663,35.79418],[139.61658,35.79431],[139.61655,35.7944],[139.61647,35.79461],[139.61645,35.79468],[139.61627,35.79526],[139.61624,35.79536],[139.61622,35.79543],[139.61618,35.79554],[139.61617,35.79558],[139.61612,35.79572],[139.61607,35.79585],[139.61575,35.79619],[139.61569,35.79625],[139.6156,35.79635],[139.6155,35.79645],[139.61539,35.79657],[139.61529,35.79668],[139.61527,35.79672],[139.61524,35.79677],[139.61517,35.7968],[139.61508,35.79684],[139.61482,35.79663],[139.61463,35.79657],[139.61436,35.79696],[139.61442,35.79702],[139.61449,35.79714],[139.6145,35.7972],[139.61449,35.79727],[139.61447,35.79735],[139.61445,35.79741],[139.61443,35.79747],[139.61439,35.79753],[139.61437,35.7976],[139.61432,35.79769],[139.61428,35.79775],[139.61425,35.7979],[139.61422,35.79802],[139.61418,35.79816],[139.61417,35.79817],[139.61413,35.79822],[139.61409,35.79826],[139.61404,35.7983],[139.61401,35.79832],[139.61399,35.79838],[139.61398,35.79844],[139.61397,35.79848],[139.61397,35.79857],[139.61397,35.79861],[139.61397,35.79864],[139.61398,35.79869],[139.614,35.79874],[139.61406,35.79878],[139.61415,35.79883],[139.61421,35.7989],[139.61425,35.79896],[139.61427,35.79901],[139.61428,35.79907],[139.61428,35.79913],[139.61428,35.79918],[139.61427,35.7992],[139.61426,35.79926],[139.61424,35.7993],[139.61422,35.79936],[139.61422,35.79938],[139.61422,35.7994],[139.61423,35.79946],[139.61424,35.7995],[139.61424,35.79953],[139.61425,35.79958],[139.61425,35.79964],[139.61422,35.7997],[139.61419,35.79975],[139.61413,35.79982],[139.61406,35.7999],[139.614,35.79998],[139.61395,35.80006],[139.61391,35.80012],[139.61389,35.80018],[139.61388,35.80023],[139.61387,35.80031],[139.61385,35.80039],[139.61382,35.80044],[139.61379,35.80048],[139.61376,35.80052],[139.61371,35.80058],[139.61369,35.80067],[139.61368,35.80076],[139.61367,35.80084],[139.61366,35.80091],[139.61368,35.801],[139.61373,35.80108],[139.61375,35.80114],[139.61379,35.80119],[139.61382,35.80124],[139.61385,35.80128],[139.61391,35.80136],[139.61396,35.80144],[139.61403,35.8015],[139.61404,35.80153],[139.61404,35.80156],[139.61403,35.80159],[139.61401,35.80161],[139.61395,35.80166],[139.6139,35.80175],[139.6139,35.80177],[139.61394,35.80182],[139.61396,35.80186],[139.61397,35.8019],[139.614,35.80197],[139.61401,35.80205],[139.61405,35.80213],[139.61409,35.8022],[139.6141,35.80226],[139.61423,35.80235],[139.61424,35.80237],[139.61427,35.80241],[139.61432,35.80252],[139.61434,35.80257],[139.61453,35.80249],[139.61483,35.80235],[139.61498,35.80229],[139.61505,35.80226],[139.6152,35.80218],[139.61524,35.80216],[139.6153,35.80212],[139.6154,35.80205],[139.6155,35.80197],[139.61567,35.80181],[139.61574,35.80175],[139.61579,35.80169]]]}},{"type":"Feature","properties":{"name":"新倉三丁目","setai":724,"jinko":1722,"key":"11229004003","units":1},"geometry":{"type":"Polygon","coordinates":[[[139.63003,35.79642],[139.63,35.79626],[139.62957,35.7963],[139.62953,35.79608],[139.62951,35.7959],[139.62943,35.79541],[139.62936,35.79498],[139.62896,35.79503],[139.62879,35.79504],[139.62872,35.79504],[139.62859,35.795],[139.62833,35.79491],[139.62828,35.79489],[139.62811,35.79472],[139.628,35.7946],[139.62776,35.79444],[139.62766,35.7944],[139.62759,35.79439],[139.62749,35.79437],[139.62741,35.79435],[139.62737,35.79434],[139.62734,35.79432],[139.62732,35.79427],[139.6273,35.79428],[139.62715,35.7943],[139.62712,35.7943],[139.62706,35.79428],[139.62682,35.79436],[139.62679,35.79437],[139.62647,35.79449],[139.62631,35.79439],[139.62621,35.7943],[139.62612,35.79421],[139.62605,35.79411],[139.62595,35.79396],[139.62588,35.79386],[139.62576,35.79391],[139.62566,35.79396],[139.62552,35.79399],[139.62533,35.79403],[139.62533,35.79401],[139.62528,35.7938],[139.62513,35.7938],[139.62496,35.79375],[139.62477,35.79367],[139.62442,35.79352],[139.62416,35.79343],[139.62399,35.79334],[139.62391,35.7933],[139.62369,35.79319],[139.62356,35.79314],[139.62343,35.79311],[139.62328,35.79307],[139.6231,35.79303],[139.62297,35.79316],[139.62292,35.79329],[139.62287,35.79333],[139.62275,35.79335],[139.62256,35.79334],[139.62228,35.79331],[139.62199,35.79324],[139.62189,35.79317],[139.62153,35.79288],[139.6214,35.7928],[139.62127,35.79272],[139.6211,35.79262],[139.62103,35.79266],[139.62087,35.79279],[139.62069,35.79297],[139.62079,35.79316],[139.62092,35.79331],[139.62096,35.79335],[139.62103,35.79344],[139.62105,35.79346],[139.62115,35.79357],[139.62123,35.79366],[139.62133,35.79378],[139.62154,35.79396],[139.62165,35.79405],[139.62177,35.79414],[139.62183,35.79418],[139.62186,35.7942],[139.62198,35.7943],[139.62214,35.7944],[139.62237,35.79458],[139.62245,35.79464],[139.62252,35.79468],[139.62264,35.79476],[139.62276,35.79482],[139.62284,35.79488],[139.62301,35.79496],[139.6231,35.79501],[139.62316,35.79506],[139.6233,35.79516],[139.62341,35.79524],[139.62368,35.79548],[139.62383,35.79558],[139.62396,35.7957],[139.62404,35.79578],[139.62418,35.79593],[139.62429,35.79604],[139.62435,35.79607],[139.62443,35.79609],[139.62452,35.7961],[139.62447,35.79614],[139.62444,35.79617],[139.62437,35.79622],[139.62428,35.79627],[139.62423,35.79639],[139.62423,35.79648],[139.62423,35.79662],[139.62431,35.79704],[139.62413,35.79708],[139.62406,35.7971],[139.62392,35.79719],[139.62385,35.79723],[139.62391,35.79743],[139.62384,35.79745],[139.62395,35.79768],[139.62396,35.79769],[139.6241,35.7979],[139.62424,35.7981],[139.62425,35.79812],[139.6244,35.79835],[139.62454,35.79857],[139.62469,35.7988],[139.62478,35.79895],[139.62481,35.799],[139.62498,35.79932],[139.62514,35.7997],[139.62517,35.79969],[139.62559,35.79948],[139.62593,35.7993],[139.62661,35.79893],[139.62684,35.79881],[139.62763,35.79838],[139.62782,35.79828],[139.62798,35.79819],[139.62838,35.79797],[139.62871,35.79794],[139.62958,35.79785],[139.62983,35.79782],[139.63021,35.79779],[139.63013,35.79717],[139.63003,35.79642]]]}},{"type":"Feature","properties":{"name":"新倉四丁目","setai":74,"jinko":150,"key":"11229004004","units":1},"geometry":{"type":"Polygon","coordinates":[[[139.6223,35.80141],[139.62258,35.80123],[139.6226,35.80127],[139.62271,35.8012],[139.62337,35.80072],[139.6239,35.80037],[139.62481,35.79988],[139.62487,35.79985],[139.62514,35.7997],[139.62498,35.79932],[139.62481,35.799],[139.62478,35.79895],[139.62469,35.7988],[139.62454,35.79857],[139.6244,35.79835],[139.62425,35.79812],[139.62424,35.7981],[139.6241,35.7979],[139.62396,35.79769],[139.62395,35.79768],[139.62384,35.79745],[139.62347,35.79757],[139.62324,35.79764],[139.62319,35.79766],[139.62298,35.79772],[139.62264,35.7978],[139.62243,35.79784],[139.62203,35.79795],[139.62137,35.79817],[139.62117,35.79823],[139.62098,35.79832],[139.62077,35.79842],[139.62055,35.79856],[139.62036,35.79871],[139.62012,35.79885],[139.61998,35.79895],[139.6199,35.79901],[139.61975,35.79915],[139.6197,35.79919],[139.61956,35.79931],[139.61942,35.79943],[139.61931,35.7995],[139.61912,35.79961],[139.6191,35.79962],[139.619,35.79969],[139.61833,35.80031],[139.61822,35.8004],[139.61851,35.80064],[139.61887,35.80104],[139.61895,35.80103],[139.61937,35.80142],[139.61983,35.80191],[139.61974,35.80195],[139.62016,35.80244],[139.62026,35.80256],[139.62039,35.80271],[139.62049,35.80265],[139.62097,35.80231],[139.6214,35.80202],[139.62172,35.8018],[139.62229,35.80142],[139.6223,35.80141]]]}},{"type":"Feature","properties":{"name":"新倉五丁目","setai":6,"jinko":7,"key":"11229004005","units":1},"geometry":{"type":"Polygon","coordinates":[[[139.61983,35.80191],[139.61937,35.80142],[139.61895,35.80103],[139.61887,35.80104],[139.61851,35.80064],[139.61822,35.8004],[139.61817,35.80043],[139.61797,35.80063],[139.61781,35.8008],[139.61777,35.80087],[139.61769,35.801],[139.61762,35.80108],[139.61761,35.80108],[139.61746,35.80124],[139.61732,35.80135],[139.61716,35.8015],[139.61706,35.80157],[139.61696,35.80163],[139.61692,35.80166],[139.61685,35.8017],[139.6168,35.80172],[139.6165,35.80173],[139.61614,35.80173],[139.61601,35.80171],[139.61585,35.80168],[139.61579,35.80169],[139.61574,35.80175],[139.61567,35.80181],[139.6155,35.80197],[139.6154,35.80205],[139.6153,35.80212],[139.61524,35.80216],[139.6152,35.80218],[139.61505,35.80226],[139.61498,35.80229],[139.61483,35.80235],[139.61453,35.80249],[139.61434,35.80257],[139.61435,35.8026],[139.61437,35.80268],[139.61437,35.80278],[139.61436,35.80295],[139.61436,35.80314],[139.61435,35.80333],[139.61438,35.80354],[139.6144,35.80361],[139.61444,35.80374],[139.61449,35.80385],[139.61453,35.80392],[139.61459,35.80398],[139.61468,35.80405],[139.61474,35.80424],[139.61477,35.80439],[139.61478,35.80454],[139.61477,35.80466],[139.61476,35.80476],[139.6147,35.80488],[139.61464,35.80498],[139.61459,35.80505],[139.61453,35.80514],[139.61449,35.80521],[139.61445,35.80528],[139.61445,35.80537],[139.61447,35.80545],[139.61447,35.80546],[139.61452,35.80556],[139.61462,35.80571],[139.61474,35.80584],[139.61492,35.80601],[139.61514,35.80616],[139.61518,35.80619],[139.61557,35.80593],[139.61778,35.80446],[139.61861,35.8039],[139.62034,35.80275],[139.62039,35.80271],[139.62026,35.80256],[139.62016,35.80244],[139.61974,35.80195],[139.61983,35.80191]]]}},{"type":"Feature","properties":{"name":"新倉六丁目","setai":0,"jinko":0,"key":"11229004006","units":1},"geometry":{"type":"Polygon","coordinates":[[[139.62131,35.80777],[139.62131,35.80772],[139.62157,35.80752],[139.62195,35.80754],[139.62221,35.80752],[139.62351,35.80691],[139.62398,35.80664],[139.62398,35.80664],[139.62205,35.80464],[139.62039,35.80271],[139.62034,35.80275],[139.61861,35.8039],[139.61778,35.80446],[139.61557,35.80593],[139.61518,35.80619],[139.61522,35.80622],[139.61538,35.80631],[139.61583,35.80658],[139.61631,35.80687],[139.61632,35.80688],[139.61642,35.80694],[139.61643,35.80695],[139.61646,35.80697],[139.61653,35.80701],[139.61656,35.80708],[139.61657,35.8072],[139.61659,35.8073],[139.61661,35.80737],[139.61667,35.80743],[139.61676,35.80748],[139.61679,35.80752],[139.61683,35.80762],[139.61722,35.80742],[139.6173,35.80751],[139.61745,35.80777],[139.61755,35.80802],[139.61766,35.80842],[139.61777,35.80882],[139.61783,35.80906],[139.61786,35.80917],[139.6179,35.80933],[139.61798,35.80941],[139.61806,35.80945],[139.61811,35.80945],[139.61812,35.80945],[139.6183,35.80948],[139.6185,35.80949],[139.61851,35.80949],[139.6187,35.80949],[139.61887,35.80947],[139.61921,35.8093],[139.62015,35.80872],[139.62082,35.80817],[139.62094,35.80806],[139.62113,35.80791],[139.62131,35.80777],[139.62131,35.80777]]]}},{"type":"Feature","properties":{"name":"新倉七丁目","setai":13,"jinko":21,"key":"11229004007","units":1},"geometry":{"type":"Polygon","coordinates":[[[139.62595,35.80129],[139.62572,35.80085],[139.62514,35.7997],[139.62487,35.79985],[139.62481,35.79988],[139.6239,35.80037],[139.62337,35.80072],[139.62271,35.8012],[139.6226,35.80127],[139.62258,35.80123],[139.6223,35.80141],[139.62229,35.80142],[139.62172,35.8018],[139.6214,35.80202],[139.62097,35.80231],[139.62049,35.80265],[139.62039,35.80271],[139.62205,35.80464],[139.62398,35.80664],[139.62446,35.80637],[139.62446,35.80637],[139.62463,35.80627],[139.62828,35.80409],[139.62755,35.80351],[139.62704,35.80286],[139.62634,35.80186],[139.62595,35.80129]]]}},{"type":"Feature","properties":{"name":"新倉八丁目","setai":7,"jinko":180,"key":"11229004008","units":1},"geometry":{"type":"Polygon","coordinates":[[[139.63028,35.79827],[139.63021,35.79779],[139.62983,35.79782],[139.62958,35.79785],[139.62871,35.79794],[139.62838,35.79797],[139.62798,35.79819],[139.62782,35.79828],[139.62763,35.79838],[139.62684,35.79881],[139.62661,35.79893],[139.62593,35.7993],[139.62559,35.79948],[139.62517,35.79969],[139.62514,35.7997],[139.62572,35.80085],[139.62595,35.80129],[139.62634,35.80186],[139.62704,35.80286],[139.62755,35.80351],[139.62828,35.80409],[139.62888,35.80373],[139.63138,35.80239],[139.63176,35.80218],[139.63179,35.80217],[139.63252,35.80179],[139.63248,35.80162],[139.63226,35.80135],[139.63205,35.8011],[139.632,35.80103],[139.63201,35.80098],[139.63201,35.80093],[139.63199,35.80088],[139.63193,35.80083],[139.63185,35.80076],[139.63174,35.80064],[139.63171,35.80056],[139.63162,35.80033],[139.63149,35.80022],[139.63137,35.8001],[139.6313,35.79997],[139.63127,35.79985],[139.63124,35.79975],[139.63122,35.79966],[139.63113,35.79952],[139.63103,35.79937],[139.63096,35.79928],[139.63093,35.79919],[139.6309,35.79902],[139.63086,35.79893],[139.63074,35.79876],[139.63068,35.79865],[139.63058,35.79847],[139.63052,35.79841],[139.6304,35.79833],[139.63028,35.79827]]]}},{"type":"Feature","properties":{"name":"本町","setai":4281,"jinko":8566,"key":"112290050","units":1},"geometry":{"type":"Polygon","coordinates":[[[139.61328,35.788],[139.61283,35.78738],[139.6128,35.78735],[139.61198,35.7877],[139.61175,35.78733],[139.61119,35.7865],[139.61135,35.78624],[139.6114,35.78616],[139.6114,35.78615],[139.61151,35.78597],[139.61155,35.78591],[139.61119,35.78535],[139.611,35.78497],[139.61095,35.78486],[139.61087,35.78469],[139.6108,35.78452],[139.61079,35.78451],[139.61057,35.78402],[139.61043,35.78392],[139.61025,35.78351],[139.60998,35.78311],[139.60956,35.78322],[139.60912,35.78331],[139.60865,35.78339],[139.60831,35.78346],[139.60737,35.78363],[139.60619,35.78384],[139.606,35.78388],[139.60582,35.78391],[139.60579,35.78392],[139.60507,35.78405],[139.60444,35.78416],[139.6043,35.78418],[139.60372,35.78428],[139.60316,35.78439],[139.60297,35.78444],[139.60287,35.78447],[139.60207,35.78478],[139.60138,35.78505],[139.60142,35.78511],[139.60147,35.78518],[139.60153,35.78517],[139.6017,35.78544],[139.60177,35.78546],[139.60184,35.78549],[139.6019,35.78555],[139.60196,35.78569],[139.60196,35.78569],[139.60207,35.78591],[139.60208,35.78596],[139.60209,35.78601],[139.60209,35.78609],[139.60202,35.78612],[139.60193,35.78615],[139.6019,35.7862],[139.60162,35.78628],[139.60157,35.78656],[139.60155,35.78672],[139.60144,35.7867],[139.60114,35.78663],[139.60108,35.78662],[139.60103,35.78662],[139.60097,35.78663],[139.6009,35.78666],[139.60075,35.78672],[139.60065,35.78675],[139.60065,35.78677],[139.6007,35.78717],[139.60073,35.78731],[139.60075,35.7875],[139.6008,35.78775],[139.60084,35.78776],[139.60095,35.78779],[139.60102,35.7878],[139.60109,35.7878],[139.60119,35.7878],[139.60129,35.78782],[139.60147,35.78786],[139.60129,35.78824],[139.60137,35.78828],[139.60141,35.7883],[139.60145,35.78831],[139.60155,35.78835],[139.60193,35.78847],[139.60197,35.78848],[139.60225,35.78856],[139.6023,35.78861],[139.6023,35.78862],[139.60236,35.78869],[139.60241,35.7888],[139.6025,35.78902],[139.60258,35.78916],[139.60266,35.7893],[139.60272,35.78937],[139.60277,35.78939],[139.60278,35.78939],[139.60285,35.78943],[139.60292,35.78946],[139.60295,35.78949],[139.60299,35.78952],[139.60335,35.78985],[139.60338,35.7899],[139.60339,35.78997],[139.60337,35.79006],[139.60335,35.79016],[139.60335,35.79021],[139.60336,35.79024],[139.60349,35.79042],[139.60358,35.79052],[139.60363,35.79059],[139.6037,35.79071],[139.60377,35.79087],[139.60386,35.79103],[139.60394,35.79115],[139.60401,35.79127],[139.60405,35.79132],[139.60406,35.79137],[139.60404,35.79147],[139.604,35.79159],[139.60396,35.79171],[139.60395,35.79179],[139.60401,35.79196],[139.60474,35.79173],[139.60583,35.79132],[139.60605,35.79124],[139.60705,35.79079],[139.60722,35.79072],[139.60852,35.79017],[139.60853,35.79017],[139.60933,35.78984],[139.61013,35.7895],[139.61034,35.78941],[139.61043,35.78937],[139.61082,35.78919],[139.61165,35.78886],[139.61169,35.78884],[139.61249,35.7885],[139.61282,35.78836],[139.61269,35.78823],[139.6131,35.78807],[139.61328,35.788]]]}},{"type":"Feature","properties":{"name":"諏訪","setai":281,"jinko":352,"key":"112290060","units":1},"geometry":{"type":"Polygon","coordinates":[[[139.61947,35.77766],[139.61952,35.77691],[139.61954,35.77632],[139.61964,35.77606],[139.61965,35.77597],[139.6197,35.77497],[139.6197,35.77496],[139.61971,35.77472],[139.61971,35.7747],[139.61973,35.77436],[139.61927,35.77426],[139.61926,35.77426],[139.61885,35.77417],[139.61795,35.77397],[139.61794,35.7742],[139.61794,35.77431],[139.61793,35.77443],[139.61792,35.77458],[139.61789,35.77494],[139.61788,35.77514],[139.61787,35.77519],[139.61786,35.77522],[139.61783,35.77528],[139.61779,35.77543],[139.61766,35.77585],[139.61747,35.77643],[139.61736,35.77677],[139.61722,35.77721],[139.61673,35.7769],[139.61582,35.77634],[139.61582,35.77633],[139.61626,35.77767],[139.61639,35.77808],[139.61639,35.77808],[139.61642,35.7781],[139.61648,35.77812],[139.61788,35.77859],[139.61845,35.77867],[139.61846,35.77868],[139.61848,35.77874],[139.6185,35.77879],[139.6185,35.77879],[139.61854,35.77877],[139.61857,35.77876],[139.61871,35.7787],[139.61944,35.77837],[139.61944,35.77827],[139.61947,35.77766]]]}},{"type":"Feature","properties":{"name":"広沢","setai":1444,"jinko":3996,"key":"112290070","units":1},"geometry":{"type":"Polygon","coordinates":[[[139.61269,35.78184],[139.61358,35.78136],[139.61408,35.7811],[139.61456,35.78086],[139.61531,35.78045],[139.61646,35.77985],[139.6168,35.77967],[139.61724,35.77943],[139.61774,35.77917],[139.61836,35.77885],[139.61849,35.7788],[139.6185,35.77879],[139.61848,35.77874],[139.61846,35.77868],[139.61845,35.77867],[139.61788,35.77859],[139.61648,35.77812],[139.61642,35.7781],[139.6149,35.77841],[139.61439,35.77857],[139.6137,35.77877],[139.61324,35.77851],[139.61301,35.77852],[139.61276,35.77856],[139.61209,35.77868],[139.61203,35.77694],[139.60903,35.7771],[139.60844,35.7773],[139.60862,35.77751],[139.60876,35.77766],[139.60883,35.77774],[139.60907,35.77804],[139.60908,35.77806],[139.60916,35.77844],[139.6092,35.77868],[139.60927,35.77902],[139.60934,35.77939],[139.60942,35.77978],[139.60946,35.77999],[139.60978,35.78154],[139.60927,35.7816],[139.60892,35.78164],[139.60883,35.78165],[139.60781,35.78176],[139.60779,35.78165],[139.60759,35.78167],[139.60754,35.78138],[139.60749,35.78111],[139.60744,35.78084],[139.6074,35.78057],[139.60739,35.78054],[139.60652,35.78065],[139.60589,35.78073],[139.60522,35.78082],[139.60517,35.78057],[139.60512,35.78029],[139.60512,35.78027],[139.60506,35.77999],[139.60501,35.7797],[139.60498,35.77959],[139.60496,35.7794],[139.60497,35.77923],[139.60499,35.77915],[139.60504,35.77903],[139.60513,35.77885],[139.60536,35.77858],[139.60595,35.77801],[139.60649,35.77751],[139.60715,35.7769],[139.60691,35.77672],[139.60652,35.77639],[139.60631,35.77624],[139.60618,35.77611],[139.60611,35.776],[139.60591,35.77584],[139.60541,35.77557],[139.60536,35.77558],[139.60489,35.77568],[139.60432,35.77513],[139.60395,35.7752],[139.60356,35.77528],[139.60262,35.77546],[139.60031,35.77591],[139.59709,35.77653],[139.59678,35.7766],[139.59688,35.777],[139.59694,35.77729],[139.59699,35.77757],[139.59699,35.77764],[139.59706,35.77819],[139.59706,35.77858],[139.59716,35.77861],[139.5973,35.77866],[139.59739,35.7787],[139.59744,35.7788],[139.59747,35.77886],[139.5975,35.77893],[139.59755,35.77903],[139.59761,35.77915],[139.5977,35.77933],[139.59781,35.77968],[139.59805,35.78091],[139.59812,35.78125],[139.59816,35.78156],[139.59816,35.78157],[139.59816,35.78173],[139.59816,35.78185],[139.59814,35.78192],[139.59844,35.78322],[139.59941,35.78341],[139.59971,35.78346],[139.5999,35.7835],[139.60017,35.78356],[139.60023,35.78362],[139.60078,35.78419],[139.60095,35.78439],[139.6011,35.78461],[139.60138,35.78505],[139.60207,35.78478],[139.60287,35.78447],[139.60297,35.78444],[139.60316,35.78439],[139.60372,35.78428],[139.6043,35.78418],[139.60444,35.78416],[139.60507,35.78405],[139.60579,35.78392],[139.60582,35.78391],[139.606,35.78388],[139.60619,35.78384],[139.60737,35.78363],[139.60831,35.78346],[139.60865,35.78339],[139.60912,35.78331],[139.60956,35.78322],[139.60998,35.78311],[139.61008,35.78308],[139.61031,35.78301],[139.61055,35.7829],[139.61081,35.78281],[139.61115,35.78262],[139.6117,35.7823],[139.61213,35.78209],[139.61269,35.78184]]]}},{"type":"Feature","properties":{"name":"西大和団地","setai":1288,"jinko":2252,"key":"112290080","units":1},"geometry":{"type":"Polygon","coordinates":[[[139.60781,35.78176],[139.60883,35.78165],[139.60892,35.78164],[139.60927,35.7816],[139.60978,35.78154],[139.60946,35.77999],[139.60942,35.77978],[139.60934,35.77939],[139.60927,35.77902],[139.6092,35.77868],[139.60916,35.77844],[139.60908,35.77806],[139.60907,35.77804],[139.60883,35.77774],[139.60876,35.77766],[139.60862,35.77751],[139.60844,35.7773],[139.60832,35.77715],[139.60828,35.77709],[139.60769,35.77645],[139.60723,35.77685],[139.60715,35.7769],[139.60649,35.77751],[139.60595,35.77801],[139.60536,35.77858],[139.60513,35.77885],[139.60504,35.77903],[139.60499,35.77915],[139.60497,35.77923],[139.60496,35.7794],[139.60498,35.77959],[139.60501,35.7797],[139.60506,35.77999],[139.60512,35.78027],[139.60512,35.78029],[139.60517,35.78057],[139.60522,35.78082],[139.60589,35.78073],[139.60652,35.78065],[139.60739,35.78054],[139.6074,35.78057],[139.60744,35.78084],[139.60749,35.78111],[139.60754,35.78138],[139.60759,35.78167],[139.60779,35.78165],[139.60781,35.78176]]]}},{"type":"Feature","properties":{"name":"諏訪原団地","setai":483,"jinko":971,"key":"112290090","units":1},"geometry":{"type":"Polygon","coordinates":[[[139.61689,35.77362],[139.61668,35.77355],[139.6162,35.77404],[139.61596,35.7743],[139.61567,35.7746],[139.6155,35.77478],[139.61469,35.77562],[139.61518,35.77593],[139.61558,35.77618],[139.61582,35.77633],[139.61582,35.77634],[139.61673,35.7769],[139.61722,35.77721],[139.61736,35.77677],[139.61747,35.77643],[139.61766,35.77585],[139.61779,35.77543],[139.61783,35.77528],[139.61786,35.77522],[139.61787,35.77519],[139.61788,35.77514],[139.61789,35.77494],[139.61792,35.77458],[139.61793,35.77443],[139.61794,35.77431],[139.61794,35.7742],[139.61795,35.77397],[139.61776,35.77393],[139.61696,35.77364],[139.61689,35.77362]]]}},{"type":"Feature","properties":{"name":"大字下新倉","setai":1,"jinko":1,"key":"112290100","units":1},"geometry":{"type":"Polygon","coordinates":[[[139.64736,35.79745],[139.64669,35.79763],[139.64587,35.79793],[139.64552,35.79806],[139.64541,35.7981],[139.64529,35.79812],[139.64517,35.79813],[139.64505,35.79813],[139.64457,35.7981],[139.64431,35.79809],[139.64404,35.79806],[139.64385,35.79805],[139.64353,35.79803],[139.64298,35.79802],[139.64283,35.79775],[139.64273,35.79764],[139.6427,35.79755],[139.64209,35.79739],[139.64207,35.7974],[139.64213,35.7975],[139.64201,35.79754],[139.64195,35.79745],[139.64187,35.79748],[139.64189,35.79805],[139.64143,35.79825],[139.64115,35.79833],[139.64088,35.79792],[139.64084,35.79788],[139.64081,35.79787],[139.64077,35.79786],[139.64074,35.79785],[139.64072,35.79785],[139.64069,35.79786],[139.64066,35.79788],[139.64061,35.79793],[139.64055,35.798],[139.64048,35.79806],[139.64042,35.79811],[139.64041,35.79811],[139.64037,35.79815],[139.64035,35.79816],[139.6393,35.79858],[139.63899,35.79871],[139.63775,35.79927],[139.63663,35.79981],[139.6355,35.80033],[139.63439,35.80088],[139.63389,35.80111],[139.63252,35.80179],[139.63254,35.80186],[139.63244,35.80214],[139.6323,35.80257],[139.63214,35.80311],[139.63198,35.80359],[139.63203,35.80371],[139.63228,35.8042],[139.63255,35.80474],[139.63266,35.80487],[139.63285,35.80509],[139.63307,35.80507],[139.63439,35.80497],[139.6346,35.80496],[139.63475,35.80498],[139.63482,35.805],[139.63488,35.80505],[139.63494,35.80511],[139.63504,35.80531],[139.63512,35.80556],[139.63516,35.80585],[139.6352,35.8065],[139.63521,35.80707],[139.63516,35.80824],[139.63512,35.80851],[139.63504,35.80874],[139.63485,35.80925],[139.63474,35.80962],[139.63463,35.80998],[139.63455,35.81027],[139.63452,35.81045],[139.63451,35.81059],[139.63451,35.81073],[139.6345,35.81093],[139.63446,35.81145],[139.63449,35.81203],[139.63453,35.81226],[139.63458,35.81237],[139.6346,35.81242],[139.63469,35.81253],[139.6348,35.81262],[139.63492,35.81269],[139.63504,35.81276],[139.63533,35.8129],[139.63549,35.81297],[139.63555,35.81299],[139.63565,35.81303],[139.63598,35.81312],[139.63622,35.81308],[139.63646,35.81286],[139.63666,35.81264],[139.63701,35.81221],[139.63735,35.81191],[139.63749,35.81191],[139.63778,35.81184],[139.638,35.81173],[139.63826,35.81134],[139.63844,35.81105],[139.63852,35.81096],[139.63859,35.8108],[139.63868,35.81064],[139.63868,35.81063],[139.63883,35.8102],[139.63887,35.81001],[139.6389,35.80984],[139.6389,35.80966],[139.63889,35.80953],[139.63887,35.80935],[139.63882,35.80918],[139.6388,35.80912],[139.63876,35.80894],[139.63881,35.80884],[139.63892,35.80813],[139.63893,35.80788],[139.63895,35.80773],[139.639,35.80761],[139.6391,35.80744],[139.6392,35.80731],[139.63946,35.80703],[139.63952,35.80692],[139.63962,35.80658],[139.63966,35.80638],[139.63972,35.80602],[139.6399,35.80523],[139.63992,35.80517],[139.64015,35.80481],[139.64035,35.80446],[139.64036,35.80439],[139.64031,35.80396],[139.64032,35.80385],[139.64036,35.8036],[139.64039,35.80348],[139.64042,35.80328],[139.64043,35.80321],[139.64046,35.8031],[139.6405,35.80303],[139.64054,35.80295],[139.64058,35.80287],[139.64062,35.80282],[139.64067,35.80276],[139.64073,35.80272],[139.64081,35.80269],[139.64117,35.80256],[139.64164,35.80241],[139.64213,35.80228],[139.64348,35.80195],[139.64373,35.80188],[139.64387,35.80184],[139.64398,35.80179],[139.64411,35.80172],[139.64422,35.80165],[139.64435,35.80154],[139.64448,35.80142],[139.6446,35.80125],[139.64472,35.80107],[139.64496,35.80073],[139.64531,35.80025],[139.64635,35.79884],[139.64736,35.79745]]]}},{"type":"Feature","properties":{"name":"大字新倉","setai":3,"jinko":3,"key":"112290110","units":1},"geometry":{"type":"Polygon","coordinates":[[[139.63285,35.80509],[139.63266,35.80487],[139.63255,35.80474],[139.63228,35.8042],[139.63203,35.80371],[139.63198,35.80359],[139.63214,35.80311],[139.6323,35.80257],[139.63244,35.80214],[139.63254,35.80186],[139.63252,35.80179],[139.63179,35.80217],[139.63176,35.80218],[139.63138,35.80239],[139.62888,35.80373],[139.62828,35.80409],[139.62463,35.80627],[139.62446,35.80637],[139.62446,35.80637],[139.62398,35.80664],[139.62398,35.80664],[139.62351,35.80691],[139.62221,35.80752],[139.62195,35.80754],[139.62157,35.80752],[139.62131,35.80772],[139.62131,35.80777],[139.62144,35.80772],[139.62156,35.8077],[139.6218,35.80769],[139.62194,35.80775],[139.62211,35.8079],[139.62223,35.80806],[139.62232,35.80827],[139.6223,35.80854],[139.6222,35.80865],[139.6223,35.80877],[139.62287,35.80926],[139.62331,35.80964],[139.62373,35.80933],[139.62381,35.80931],[139.62391,35.80931],[139.62401,35.80935],[139.6242,35.80944],[139.62477,35.80978],[139.62479,35.8098],[139.62502,35.81014],[139.62515,35.81033],[139.62556,35.81052],[139.62577,35.81061],[139.62589,35.81065],[139.62613,35.81072],[139.62635,35.81075],[139.62658,35.81077],[139.62675,35.81077],[139.62734,35.81068],[139.62762,35.81073],[139.62782,35.81079],[139.62807,35.81093],[139.62835,35.811],[139.6285,35.811],[139.62861,35.81099],[139.62871,35.81095],[139.62886,35.81078],[139.62901,35.81055],[139.62909,35.81041],[139.62909,35.81033],[139.62912,35.80979],[139.62912,35.80968],[139.62901,35.80932],[139.62883,35.80892],[139.62877,35.80868],[139.62868,35.80852],[139.62845,35.80823],[139.62833,35.80815],[139.62824,35.80803],[139.62816,35.80783],[139.62815,35.80774],[139.62817,35.80768],[139.62827,35.80761],[139.62875,35.80733],[139.62882,35.80725],[139.62885,35.80712],[139.62881,35.807],[139.62875,35.80688],[139.62873,35.80676],[139.62875,35.80595],[139.62954,35.8056],[139.63017,35.8054],[139.63066,35.80529],[139.63081,35.80526],[139.63092,35.80524],[139.63156,35.80517],[139.63263,35.8051],[139.63285,35.80509]]]}},{"type":"Feature","properties":{"name":"丸山台一丁目","setai":662,"jinko":1100,"key":"11229014001","units":1},"geometry":{"type":"Polygon","coordinates":[[[139.61477,35.78741],[139.61466,35.78718],[139.61453,35.78688],[139.61441,35.78665],[139.61417,35.78632],[139.61412,35.78624],[139.61366,35.78564],[139.61327,35.78509],[139.61319,35.78497],[139.61305,35.78485],[139.61267,35.78448],[139.61242,35.78469],[139.61222,35.78492],[139.61222,35.78493],[139.61221,35.78493],[139.61203,35.78515],[139.61189,35.78536],[139.61179,35.78552],[139.61173,35.78563],[139.61155,35.78591],[139.61151,35.78597],[139.6114,35.78615],[139.6114,35.78616],[139.61135,35.78624],[139.61119,35.7865],[139.61175,35.78733],[139.61198,35.7877],[139.6128,35.78735],[139.61283,35.78738],[139.61328,35.788],[139.61328,35.788],[139.61363,35.78786],[139.61426,35.7876],[139.61457,35.78749],[139.61477,35.78741]]]}},{"type":"Feature","properties":{"name":"丸山台二丁目","setai":2061,"jinko":3851,"key":"11229014002","units":1},"geometry":{"type":"Polygon","coordinates":[[[139.61838,35.78316],[139.61797,35.78269],[139.61785,35.78274],[139.61753,35.78288],[139.61748,35.7829],[139.61717,35.78303],[139.61703,35.78308],[139.61695,35.78311],[139.61674,35.78317],[139.61673,35.78317],[139.61653,35.78323],[139.61632,35.78328],[139.61621,35.78329],[139.61597,35.78333],[139.6156,35.78338],[139.61557,35.78338],[139.61533,35.78341],[139.61523,35.78342],[139.61516,35.78343],[139.61493,35.78345],[139.61457,35.7835],[139.61437,35.78352],[139.61396,35.78356],[139.6136,35.78362],[139.61355,35.78363],[139.61342,35.78391],[139.61326,35.78406],[139.61306,35.7842],[139.61286,35.78435],[139.61267,35.78448],[139.61305,35.78485],[139.61319,35.78497],[139.61327,35.78509],[139.61366,35.78564],[139.61412,35.78624],[139.61417,35.78632],[139.61441,35.78665],[139.61453,35.78688],[139.61466,35.78718],[139.61477,35.78741],[139.61543,35.78717],[139.61584,35.78702],[139.61631,35.78685],[139.61716,35.78654],[139.61728,35.78649],[139.61735,35.78646],[139.61765,35.78634],[139.61788,35.78624],[139.61793,35.78622],[139.61832,35.78607],[139.61847,35.78601],[139.61867,35.78593],[139.61869,35.78593],[139.61904,35.78579],[139.61918,35.78573],[139.6198,35.78548],[139.61997,35.78541],[139.62005,35.78537],[139.61991,35.78504],[139.61982,35.78489],[139.61976,35.7848],[139.61964,35.78464],[139.61935,35.78429],[139.61908,35.78397],[139.61872,35.78355],[139.61838,35.78316]]]}},{"type":"Feature","properties":{"name":"丸山台三丁目","setai":791,"jinko":2154,"key":"11229014003","units":1},"geometry":{"type":"Polygon","coordinates":[[[139.62043,35.78164],[139.62041,35.78161],[139.61976,35.7819],[139.61964,35.78195],[139.61915,35.78217],[139.61872,35.78236],[139.61846,35.78248],[139.61832,35.78254],[139.6182,35.78259],[139.61797,35.78269],[139.61838,35.78316],[139.61872,35.78355],[139.61908,35.78397],[139.61935,35.78429],[139.61964,35.78464],[139.61976,35.7848],[139.61982,35.78489],[139.61991,35.78504],[139.62005,35.78537],[139.62016,35.78533],[139.62018,35.78532],[139.62072,35.7851],[139.62096,35.78504],[139.62143,35.78485],[139.62175,35.78473],[139.62229,35.78446],[139.62242,35.78439],[139.6228,35.78419],[139.62268,35.78404],[139.62199,35.78332],[139.6212,35.78246],[139.62117,35.78243],[139.6211,35.78236],[139.62073,35.78197],[139.62056,35.78178],[139.62043,35.78164]]]}},{"type":"Feature","properties":{"name":"下新倉一丁目","setai":642,"jinko":863,"key":"11229015001","units":1},"geometry":{"type":"Polygon","coordinates":[[[139.61715,35.78844],[139.61695,35.78826],[139.61647,35.78788],[139.61663,35.78769],[139.6167,35.78762],[139.61671,35.7876],[139.61682,35.78747],[139.61701,35.78729],[139.61679,35.78714],[139.61662,35.78705],[139.61631,35.78685],[139.61584,35.78702],[139.61543,35.78717],[139.61477,35.78741],[139.61457,35.78749],[139.61426,35.7876],[139.61363,35.78786],[139.61328,35.788],[139.61328,35.788],[139.6131,35.78807],[139.61269,35.78823],[139.61282,35.78836],[139.61288,35.78834],[139.61314,35.78859],[139.61328,35.78872],[139.61329,35.78878],[139.61336,35.78883],[139.61347,35.78892],[139.61355,35.78897],[139.61364,35.78902],[139.61379,35.78905],[139.6139,35.78907],[139.61408,35.7891],[139.61429,35.78915],[139.61444,35.78919],[139.61461,35.78923],[139.6148,35.78928],[139.61505,35.78935],[139.61505,35.78935],[139.61508,35.78936],[139.6152,35.7894],[139.61528,35.78943],[139.61547,35.78951],[139.61548,35.78952],[139.61551,35.78953],[139.61551,35.78953],[139.61566,35.78959],[139.61573,35.78962],[139.61577,35.78964],[139.61586,35.78969],[139.6159,35.78971],[139.6162,35.78984],[139.61645,35.78995],[139.61654,35.78999],[139.61674,35.79009],[139.61703,35.79036],[139.61708,35.79031],[139.61721,35.79018],[139.61736,35.79004],[139.61736,35.79003],[139.61749,35.78993],[139.61757,35.78988],[139.61762,35.78985],[139.61773,35.78981],[139.61783,35.78977],[139.6179,35.78974],[139.61795,35.78972],[139.61802,35.78967],[139.61805,35.78965],[139.61808,35.78962],[139.61809,35.78962],[139.61809,35.78961],[139.6181,35.7896],[139.61814,35.78957],[139.61817,35.78953],[139.61823,35.78947],[139.6183,35.78939],[139.6183,35.78939],[139.6183,35.78938],[139.61824,35.78934],[139.61817,35.78928],[139.61805,35.78918],[139.61804,35.78916],[139.61797,35.7891],[139.61784,35.78896],[139.6178,35.78893],[139.61768,35.78881],[139.61761,35.78875],[139.61753,35.7887],[139.61751,35.78868],[139.61731,35.78855],[139.61715,35.78844]]]}},{"type":"Feature","properties":{"name":"下新倉二丁目","setai":1759,"jinko":3886,"key":"11229015002","units":1},"geometry":{"type":"Polygon","coordinates":[[[139.6201,35.79072],[139.62016,35.79071],[139.62022,35.79072],[139.62028,35.79073],[139.62042,35.79084],[139.62056,35.79094],[139.62058,35.79093],[139.62062,35.79092],[139.62066,35.79093],[139.62069,35.79094],[139.62072,35.79096],[139.62099,35.79074],[139.62113,35.79063],[139.62119,35.79057],[139.62135,35.79042],[139.62152,35.79019],[139.62156,35.79016],[139.62157,35.79015],[139.62162,35.79011],[139.62195,35.78985],[139.622,35.78981],[139.62216,35.78969],[139.62222,35.7896],[139.62251,35.78892],[139.62261,35.78868],[139.62269,35.7884],[139.6227,35.78833],[139.6227,35.78831],[139.62272,35.78819],[139.62273,35.78767],[139.62273,35.78744],[139.62271,35.7873],[139.6227,35.78724],[139.62268,35.78702],[139.62265,35.78685],[139.62263,35.78675],[139.62257,35.78649],[139.62254,35.7864],[139.62252,35.78635],[139.62247,35.78628],[139.62241,35.7862],[139.62236,35.78614],[139.62235,35.78613],[139.62214,35.7859],[139.62208,35.78584],[139.62197,35.78573],[139.62179,35.78551],[139.62163,35.78525],[139.6216,35.7852],[139.62159,35.78517],[139.62151,35.78503],[139.62143,35.78485],[139.62096,35.78504],[139.62072,35.7851],[139.62018,35.78532],[139.62016,35.78533],[139.62005,35.78537],[139.61997,35.78541],[139.6198,35.78548],[139.61918,35.78573],[139.61904,35.78579],[139.61869,35.78593],[139.61867,35.78593],[139.61847,35.78601],[139.61832,35.78607],[139.61793,35.78622],[139.61788,35.78624],[139.61765,35.78634],[139.61735,35.78646],[139.61728,35.78649],[139.61716,35.78654],[139.61631,35.78685],[139.61662,35.78705],[139.61679,35.78714],[139.61701,35.78729],[139.61682,35.78747],[139.61671,35.7876],[139.6167,35.78762],[139.61663,35.78769],[139.61647,35.78788],[139.61695,35.78826],[139.61715,35.78844],[139.61731,35.78855],[139.61751,35.78868],[139.61753,35.7887],[139.61761,35.78875],[139.61768,35.78881],[139.6178,35.78893],[139.61784,35.78896],[139.61797,35.7891],[139.61804,35.78916],[139.61805,35.78918],[139.61817,35.78928],[139.61824,35.78934],[139.6183,35.78938],[139.6183,35.78939],[139.6183,35.78939],[139.61823,35.78947],[139.61817,35.78953],[139.61814,35.78957],[139.6181,35.7896],[139.61809,35.78961],[139.61809,35.78962],[139.61808,35.78962],[139.61805,35.78965],[139.61802,35.78967],[139.61795,35.78972],[139.6179,35.78974],[139.61783,35.78977],[139.61773,35.78981],[139.61762,35.78985],[139.61757,35.78988],[139.61749,35.78993],[139.61736,35.79003],[139.61736,35.79004],[139.61721,35.79018],[139.61708,35.79031],[139.61703,35.79036],[139.61704,35.79037],[139.61713,35.79047],[139.61713,35.79047],[139.61728,35.79063],[139.61732,35.79065],[139.61738,35.79067],[139.61751,35.79071],[139.61769,35.79079],[139.61778,35.79083],[139.61789,35.79088],[139.61795,35.79091],[139.61803,35.79097],[139.61812,35.79103],[139.61814,35.79105],[139.61819,35.79109],[139.61822,35.79112],[139.61826,35.79121],[139.61829,35.79128],[139.61832,35.79134],[139.61835,35.7914],[139.61838,35.79145],[139.61843,35.79151],[139.61851,35.79159],[139.61861,35.79165],[139.61872,35.7917],[139.61883,35.79175],[139.61892,35.7918],[139.61904,35.79186],[139.61907,35.79171],[139.61911,35.79158],[139.61925,35.79133],[139.61933,35.79127],[139.61946,35.79119],[139.61969,35.79106],[139.61995,35.79085],[139.62,35.7908],[139.62005,35.79075],[139.6201,35.79072]]]}},{"type":"Feature","properties":{"name":"下新倉三丁目","setai":1297,"jinko":2959,"key":"11229015003","units":1},"geometry":{"type":"Polygon","coordinates":[[[139.62123,35.79254],[139.62237,35.79211],[139.62289,35.79194],[139.62294,35.79184],[139.62296,35.79177],[139.62296,35.79171],[139.62298,35.79157],[139.62299,35.79149],[139.62364,35.79148],[139.62373,35.79147],[139.62377,35.79147],[139.62387,35.79145],[139.62395,35.79143],[139.62405,35.79139],[139.62438,35.79111],[139.62467,35.79088],[139.62471,35.79085],[139.62475,35.79083],[139.62488,35.79073],[139.62493,35.7907],[139.62496,35.79068],[139.62514,35.79057],[139.62519,35.79054],[139.6254,35.79043],[139.62565,35.79025],[139.62599,35.79001],[139.62631,35.79005],[139.62645,35.79004],[139.62677,35.79],[139.62704,35.78994],[139.62715,35.78991],[139.62718,35.78987],[139.62723,35.78984],[139.6273,35.78982],[139.6278,35.78969],[139.62799,35.78964],[139.6282,35.7895],[139.62785,35.78924],[139.62753,35.789],[139.62721,35.78874],[139.62695,35.78852],[139.6266,35.78821],[139.62638,35.788],[139.62618,35.7878],[139.62612,35.78774],[139.62571,35.7873],[139.62543,35.787],[139.62525,35.78679],[139.62517,35.78671],[139.62478,35.78628],[139.62469,35.78618],[139.62435,35.78582],[139.62416,35.78562],[139.62391,35.78535],[139.6237,35.78513],[139.62336,35.78477],[139.6229,35.7843],[139.6228,35.78419],[139.62242,35.78439],[139.62229,35.78446],[139.62175,35.78473],[139.62143,35.78485],[139.62151,35.78503],[139.62159,35.78517],[139.6216,35.7852],[139.62163,35.78525],[139.62179,35.78551],[139.62197,35.78573],[139.62208,35.78584],[139.62214,35.7859],[139.62235,35.78613],[139.62236,35.78614],[139.62241,35.7862],[139.62247,35.78628],[139.62252,35.78635],[139.62254,35.7864],[139.62257,35.78649],[139.62263,35.78675],[139.62265,35.78685],[139.62268,35.78702],[139.6227,35.78724],[139.62271,35.7873],[139.62273,35.78744],[139.62273,35.78767],[139.62272,35.78819],[139.6227,35.78831],[139.6227,35.78833],[139.62269,35.7884],[139.62261,35.78868],[139.62251,35.78892],[139.62222,35.7896],[139.62216,35.78969],[139.622,35.78981],[139.62195,35.78985],[139.62162,35.79011],[139.62157,35.79015],[139.62156,35.79016],[139.62152,35.79019],[139.62135,35.79042],[139.62119,35.79057],[139.62113,35.79063],[139.62099,35.79074],[139.62072,35.79096],[139.62069,35.79094],[139.62066,35.79093],[139.62062,35.79092],[139.62058,35.79093],[139.62056,35.79094],[139.62042,35.79084],[139.62028,35.79073],[139.62022,35.79072],[139.62016,35.79071],[139.6201,35.79072],[139.62005,35.79075],[139.62,35.7908],[139.61995,35.79085],[139.61969,35.79106],[139.61946,35.79119],[139.61933,35.79127],[139.61925,35.79133],[139.61911,35.79158],[139.61907,35.79171],[139.61904,35.79186],[139.61922,35.79194],[139.61933,35.792],[139.61938,35.79203],[139.61957,35.79213],[139.61968,35.7922],[139.61978,35.79223],[139.61995,35.79223],[139.62005,35.79221],[139.62021,35.79221],[139.62027,35.79223],[139.62034,35.79227],[139.62038,35.79231],[139.62044,35.79244],[139.62055,35.79268],[139.62069,35.79297],[139.62087,35.79279],[139.62103,35.79266],[139.6211,35.79262],[139.62123,35.79254]]]}},{"type":"Feature","properties":{"name":"下新倉四丁目","setai":1442,"jinko":3755,"key":"11229015004","units":1},"geometry":{"type":"Polygon","coordinates":[[[139.62761,35.79415],[139.6289,35.79383],[139.62985,35.79358],[139.63007,35.79354],[139.63019,35.79353],[139.63035,35.79353],[139.6304,35.79353],[139.63054,35.79355],[139.63109,35.79365],[139.63119,35.79367],[139.63147,35.79371],[139.63169,35.79372],[139.63186,35.79373],[139.63199,35.79373],[139.63213,35.79372],[139.63228,35.79371],[139.63234,35.7937],[139.63275,35.79363],[139.6328,35.79362],[139.63296,35.79358],[139.63298,35.79358],[139.63306,35.79356],[139.63316,35.79352],[139.63323,35.79349],[139.63334,35.79341],[139.63354,35.79329],[139.63377,35.79313],[139.63396,35.79298],[139.63398,35.79295],[139.63402,35.79292],[139.63385,35.79289],[139.63362,35.79286],[139.63343,35.79282],[139.63326,35.79278],[139.63301,35.7927],[139.63281,35.79264],[139.63228,35.79243],[139.63177,35.79217],[139.63152,35.79203],[139.63119,35.79181],[139.63091,35.7916],[139.63085,35.79153],[139.63069,35.79142],[139.63012,35.79098],[139.6297,35.79066],[139.62958,35.79057],[139.62924,35.79031],[139.62907,35.79018],[139.62896,35.79009],[139.62892,35.79006],[139.62882,35.78999],[139.62875,35.78992],[139.62831,35.78958],[139.6282,35.7895],[139.62799,35.78964],[139.6278,35.78969],[139.6273,35.78982],[139.62723,35.78984],[139.62718,35.78987],[139.62715,35.78991],[139.62704,35.78994],[139.62677,35.79],[139.62645,35.79004],[139.62631,35.79005],[139.62599,35.79001],[139.62565,35.79025],[139.6254,35.79043],[139.62519,35.79054],[139.62514,35.79057],[139.62496,35.79068],[139.62493,35.7907],[139.62488,35.79073],[139.62475,35.79083],[139.62471,35.79085],[139.62467,35.79088],[139.62438,35.79111],[139.62405,35.79139],[139.62395,35.79143],[139.62387,35.79145],[139.62377,35.79147],[139.62373,35.79147],[139.62364,35.79148],[139.62299,35.79149],[139.62298,35.79157],[139.62296,35.79171],[139.62296,35.79177],[139.62294,35.79184],[139.62289,35.79194],[139.62237,35.79211],[139.62123,35.79254],[139.6211,35.79262],[139.62127,35.79272],[139.6214,35.7928],[139.62153,35.79288],[139.62189,35.79317],[139.62199,35.79324],[139.62228,35.79331],[139.62256,35.79334],[139.62275,35.79335],[139.62287,35.79333],[139.62292,35.79329],[139.62297,35.79316],[139.6231,35.79303],[139.62328,35.79307],[139.62343,35.79311],[139.62356,35.79314],[139.62369,35.79319],[139.62391,35.7933],[139.62399,35.79334],[139.62416,35.79343],[139.62442,35.79352],[139.62477,35.79367],[139.62496,35.79375],[139.62513,35.7938],[139.62528,35.7938],[139.62533,35.79401],[139.62533,35.79403],[139.62552,35.79399],[139.62566,35.79396],[139.62576,35.79391],[139.62588,35.79386],[139.62595,35.79396],[139.62605,35.79411],[139.62612,35.79421],[139.62621,35.7943],[139.62631,35.79439],[139.62647,35.79449],[139.62679,35.79437],[139.62682,35.79436],[139.62706,35.79428],[139.6273,35.79423],[139.62761,35.79415]]]}},{"type":"Feature","properties":{"name":"下新倉五丁目","setai":790,"jinko":1869,"key":"11229015005","units":1},"geometry":{"type":"Polygon","coordinates":[[[139.63941,35.79676],[139.63913,35.79592],[139.63885,35.79529],[139.63881,35.79517],[139.63878,35.79494],[139.63876,35.79462],[139.63876,35.79436],[139.63871,35.79418],[139.63857,35.7937],[139.63845,35.79344],[139.63813,35.79292],[139.63799,35.79277],[139.63738,35.79284],[139.63712,35.79286],[139.6367,35.79291],[139.63655,35.79293],[139.63613,35.79297],[139.63584,35.79299],[139.63549,35.79301],[139.63522,35.79301],[139.63491,35.79299],[139.63465,35.79298],[139.63452,35.79297],[139.63447,35.79295],[139.63443,35.79295],[139.63435,35.79295],[139.6343,35.79295],[139.63412,35.79293],[139.63402,35.79292],[139.63398,35.79295],[139.63396,35.79298],[139.63377,35.79313],[139.63354,35.79329],[139.63334,35.79341],[139.63323,35.79349],[139.63316,35.79352],[139.63306,35.79356],[139.63298,35.79358],[139.63296,35.79358],[139.6328,35.79362],[139.63275,35.79363],[139.63234,35.7937],[139.63228,35.79371],[139.63213,35.79372],[139.63199,35.79373],[139.63186,35.79373],[139.63169,35.79372],[139.63147,35.79371],[139.63119,35.79367],[139.63109,35.79365],[139.63054,35.79355],[139.6304,35.79353],[139.63035,35.79353],[139.63019,35.79353],[139.63007,35.79354],[139.62985,35.79358],[139.6289,35.79383],[139.62761,35.79415],[139.6273,35.79423],[139.62706,35.79428],[139.62712,35.7943],[139.62715,35.7943],[139.6273,35.79428],[139.62732,35.79427],[139.62734,35.79432],[139.62737,35.79434],[139.62741,35.79435],[139.62749,35.79437],[139.62759,35.79439],[139.62766,35.7944],[139.62776,35.79444],[139.628,35.7946],[139.62811,35.79472],[139.62828,35.79489],[139.62833,35.79491],[139.62859,35.795],[139.62872,35.79504],[139.62879,35.79504],[139.62896,35.79503],[139.62936,35.79498],[139.62943,35.79541],[139.62951,35.7959],[139.62953,35.79608],[139.62957,35.7963],[139.63,35.79626],[139.63003,35.79642],[139.63013,35.79717],[139.63021,35.79779],[139.63075,35.79774],[139.63144,35.79766],[139.63263,35.79753],[139.6338,35.79739],[139.63403,35.79737],[139.63496,35.79726],[139.63617,35.79713],[139.63732,35.797],[139.63736,35.79699],[139.63856,35.79686],[139.63941,35.79676]]]}},{"type":"Feature","properties":{"name":"下新倉六丁目","setai":10,"jinko":18,"key":"11229015006","units":1},"geometry":{"type":"Polygon","coordinates":[[[139.6393,35.79858],[139.64035,35.79816],[139.64034,35.79816],[139.64032,35.79816],[139.64028,35.79815],[139.64025,35.79814],[139.64023,35.79813],[139.64022,35.79812],[139.64021,35.7981],[139.64021,35.79808],[139.64022,35.79803],[139.64024,35.79796],[139.64028,35.79787],[139.64034,35.79774],[139.64042,35.79758],[139.64051,35.79741],[139.64055,35.79735],[139.64059,35.79729],[139.6406,35.79728],[139.64065,35.79724],[139.64066,35.79724],[139.64062,35.79719],[139.64057,35.79704],[139.64057,35.797],[139.64054,35.7969],[139.64028,35.7968],[139.64025,35.79675],[139.64026,35.79671],[139.64031,35.79666],[139.63941,35.79676],[139.63856,35.79686],[139.63736,35.79699],[139.63732,35.797],[139.63617,35.79713],[139.63496,35.79726],[139.63403,35.79737],[139.6338,35.79739],[139.63263,35.79753],[139.63144,35.79766],[139.63075,35.79774],[139.63021,35.79779],[139.63028,35.79827],[139.6304,35.79833],[139.63052,35.79841],[139.63058,35.79847],[139.63068,35.79865],[139.63074,35.79876],[139.63086,35.79893],[139.6309,35.79902],[139.63093,35.79919],[139.63096,35.79928],[139.63103,35.79937],[139.63113,35.79952],[139.63122,35.79966],[139.63124,35.79975],[139.63127,35.79985],[139.6313,35.79997],[139.63137,35.8001],[139.63149,35.80022],[139.63162,35.80033],[139.63171,35.80056],[139.63174,35.80064],[139.63185,35.80076],[139.63193,35.80083],[139.63199,35.80088],[139.63201,35.80093],[139.63201,35.80098],[139.632,35.80103],[139.63205,35.8011],[139.63226,35.80135],[139.63248,35.80162],[139.63252,35.80179],[139.63389,35.80111],[139.63439,35.80088],[139.6355,35.80033],[139.63663,35.79981],[139.63775,35.79927],[139.63899,35.79871],[139.6393,35.79858]]]}}]}