{"type":"FeatureCollection","features":[{"type":"Feature","properties":{"name":"大成町","setai":2701,"jinko":6215,"key":"111020010","units":1},"geometry":{"type":"Polygon","coordinates":[[[139.61578,35.92907],[139.61577,35.92895],[139.6159,35.92898],[139.61645,35.92732],[139.61656,35.92703],[139.6168,35.92632],[139.61723,35.92513],[139.61758,35.92416],[139.61774,35.92372],[139.61793,35.9232],[139.61814,35.92264],[139.61835,35.92208],[139.61775,35.92189],[139.61695,35.92167],[139.61651,35.92156],[139.61594,35.92141],[139.61563,35.92133],[139.61546,35.92128],[139.6151,35.92118],[139.61507,35.92097],[139.61501,35.92045],[139.61492,35.91978],[139.61401,35.9197],[139.61337,35.91964],[139.6125,35.91956],[139.61198,35.91951],[139.61153,35.91951],[139.61153,35.91957],[139.61154,35.92019],[139.61155,35.92042],[139.61155,35.92143],[139.6117,35.92188],[139.61188,35.92242],[139.61212,35.92326],[139.61223,35.92357],[139.61231,35.92383],[139.61245,35.92435],[139.61244,35.92506],[139.61244,35.92507],[139.61241,35.92582],[139.6124,35.92587],[139.61216,35.92691],[139.61203,35.92742],[139.61195,35.92773],[139.61194,35.9278],[139.61185,35.9282],[139.61173,35.92863],[139.61171,35.92873],[139.61168,35.92914],[139.61163,35.92961],[139.6116,35.92987],[139.6116,35.92996],[139.61157,35.93015],[139.61156,35.93034],[139.61152,35.93095],[139.61124,35.93241],[139.61106,35.93332],[139.61091,35.93355],[139.61108,35.93362],[139.61144,35.93376],[139.61202,35.93401],[139.61217,35.93409],[139.61258,35.93358],[139.61263,35.93352],[139.61391,35.93195],[139.61398,35.93184],[139.61424,35.93153],[139.61464,35.93105],[139.61526,35.93021],[139.61532,35.93013],[139.6154,35.93003],[139.61543,35.92998],[139.6155,35.92987],[139.61552,35.92985],[139.61553,35.92982],[139.61571,35.92955],[139.61575,35.92942],[139.6158,35.92928],[139.61578,35.92907]]]}},{"type":"Feature","properties":{"name":"東大成町一丁目","setai":2456,"jinko":4613,"key":"11102002001","units":1},"geometry":{"type":"Polygon","coordinates":[[[139.62047,35.917],[139.62028,35.91691],[139.62009,35.91742],[139.61973,35.91844],[139.61954,35.91891],[139.61921,35.91981],[139.6192,35.91984],[139.61902,35.9203],[139.61878,35.92092],[139.61853,35.92159],[139.61842,35.92189],[139.61835,35.92208],[139.61814,35.92264],[139.61793,35.9232],[139.61818,35.92327],[139.61852,35.92336],[139.61878,35.92343],[139.61984,35.92374],[139.62042,35.9239],[139.62095,35.92405],[139.62193,35.92434],[139.6225,35.92452],[139.62272,35.92387],[139.62286,35.92342],[139.62291,35.92329],[139.62296,35.92314],[139.6231,35.92293],[139.62312,35.92288],[139.62328,35.92265],[139.62346,35.92242],[139.62364,35.92219],[139.62369,35.92211],[139.62382,35.92192],[139.62407,35.92153],[139.62428,35.92122],[139.62455,35.92079],[139.62481,35.92041],[139.62504,35.92003],[139.62511,35.91991],[139.62536,35.91952],[139.62537,35.91925],[139.62521,35.91869],[139.62493,35.91857],[139.6244,35.91835],[139.62381,35.91812],[139.6237,35.91809],[139.62296,35.91786],[139.6224,35.91766],[139.62207,35.91756],[139.6216,35.91741],[139.62109,35.91724],[139.62054,35.91704],[139.62047,35.917]]]}},{"type":"Feature","properties":{"name":"東大成町二丁目","setai":2542,"jinko":5724,"key":"11102002002","units":1},"geometry":{"type":"Polygon","coordinates":[[[139.61995,35.92945],[139.6205,35.92883],[139.62066,35.92859],[139.6208,35.92833],[139.62097,35.92803],[139.62106,35.92776],[139.6211,35.92755],[139.62122,35.92759],[139.6215,35.92722],[139.62164,35.92704],[139.62174,35.92688],[139.6218,35.92671],[139.6219,35.92646],[139.62209,35.92581],[139.62212,35.92573],[139.6222,35.92549],[139.6225,35.92452],[139.62193,35.92434],[139.62095,35.92405],[139.62042,35.9239],[139.61984,35.92374],[139.61878,35.92343],[139.61852,35.92336],[139.61818,35.92327],[139.61793,35.9232],[139.61774,35.92372],[139.61758,35.92416],[139.61723,35.92513],[139.6168,35.92632],[139.61656,35.92703],[139.61645,35.92732],[139.6159,35.92898],[139.61577,35.92895],[139.61578,35.92907],[139.6158,35.92928],[139.61575,35.92942],[139.61571,35.92955],[139.61553,35.92982],[139.61552,35.92985],[139.6155,35.92987],[139.61543,35.92998],[139.6154,35.93003],[139.61532,35.93013],[139.61526,35.93021],[139.61464,35.93105],[139.61424,35.93153],[139.61398,35.93184],[139.61391,35.93195],[139.61263,35.93352],[139.61258,35.93358],[139.61217,35.93409],[139.61239,35.93419],[139.61282,35.93438],[139.61298,35.93445],[139.61376,35.9348],[139.61389,35.93487],[139.61407,35.93495],[139.6146,35.93515],[139.61494,35.93534],[139.61525,35.93547],[139.6154,35.93554],[139.61565,35.9352],[139.61584,35.93487],[139.61594,35.93471],[139.61606,35.93449],[139.61614,35.93432],[139.61624,35.93409],[139.61627,35.93404],[139.61643,35.93371],[139.61655,35.93354],[139.61675,35.93318],[139.61751,35.93223],[139.61756,35.93217],[139.61842,35.93119],[139.61882,35.93072],[139.61893,35.93056],[139.61925,35.9302],[139.61933,35.93011],[139.61935,35.93008],[139.61944,35.92997],[139.61954,35.92991],[139.61981,35.92961],[139.61988,35.92953],[139.61995,35.92945]]]}},{"type":"Feature","properties":{"name":"日進町一丁目","setai":4176,"jinko":10220,"key":"11102003001","units":1},"geometry":{"type":"Polygon","coordinates":[[[139.60519,35.91573],[139.6052,35.91513],[139.60518,35.91493],[139.60491,35.91505],[139.60492,35.91474],[139.60496,35.91474],[139.60497,35.91444],[139.60453,35.91444],[139.60387,35.91442],[139.60334,35.9144],[139.60349,35.91528],[139.6031,35.91538],[139.60291,35.91527],[139.60287,35.9152],[139.6028,35.91511],[139.60269,35.91503],[139.60263,35.91498],[139.60261,35.91496],[139.60259,35.91494],[139.60216,35.9151],[139.60208,35.91498],[139.60196,35.91483],[139.60186,35.91474],[139.60173,35.91463],[139.60154,35.91461],[139.6013,35.91455],[139.60099,35.91446],[139.60098,35.91446],[139.60081,35.91442],[139.60063,35.9144],[139.60049,35.9144],[139.60033,35.9144],[139.60012,35.9144],[139.5998,35.9144],[139.59965,35.91441],[139.59964,35.91441],[139.59952,35.91444],[139.59924,35.91454],[139.59919,35.91455],[139.59909,35.9146],[139.59867,35.91477],[139.59862,35.91478],[139.59848,35.91485],[139.59817,35.91492],[139.59814,35.91501],[139.59813,35.91501],[139.59813,35.91503],[139.59768,35.9151],[139.59767,35.91509],[139.5974,35.91498],[139.59727,35.91493],[139.59717,35.91489],[139.59714,35.91487],[139.59708,35.91485],[139.59702,35.91493],[139.59682,35.91532],[139.59654,35.91581],[139.59629,35.9163],[139.59626,35.91635],[139.59594,35.91693],[139.59588,35.91705],[139.5958,35.9172],[139.59574,35.91729],[139.5957,35.91736],[139.5956,35.91749],[139.59553,35.91759],[139.5955,35.91764],[139.59548,35.91767],[139.59545,35.9177],[139.59543,35.91774],[139.59539,35.91782],[139.59536,35.91787],[139.59532,35.91796],[139.59529,35.91803],[139.59524,35.91815],[139.5952,35.91826],[139.59516,35.91839],[139.59512,35.91848],[139.59511,35.91853],[139.5951,35.91857],[139.59507,35.91871],[139.59506,35.91881],[139.59504,35.9189],[139.59504,35.91896],[139.59502,35.91903],[139.59498,35.91915],[139.59495,35.91923],[139.59493,35.91932],[139.59492,35.91935],[139.59491,35.9194],[139.59487,35.91955],[139.59487,35.91987],[139.59476,35.92076],[139.59477,35.92083],[139.59478,35.92093],[139.59479,35.9211],[139.5948,35.92118],[139.59481,35.92125],[139.59483,35.92142],[139.59483,35.92142],[139.59483,35.92142],[139.59483,35.92143],[139.59484,35.92143],[139.59489,35.92162],[139.5949,35.92164],[139.59491,35.92168],[139.59493,35.92174],[139.59494,35.92176],[139.59496,35.92183],[139.59496,35.92184],[139.59499,35.92192],[139.59502,35.92198],[139.59505,35.92204],[139.5951,35.92216],[139.59512,35.92221],[139.59513,35.92224],[139.59524,35.92249],[139.59532,35.92266],[139.59534,35.9227],[139.59539,35.9228],[139.59541,35.92284],[139.59548,35.92295],[139.59552,35.92303],[139.59553,35.92305],[139.59558,35.92313],[139.59559,35.92313],[139.5956,35.92315],[139.59564,35.92323],[139.59575,35.92337],[139.59585,35.9235],[139.59596,35.92363],[139.59607,35.92377],[139.59621,35.92393],[139.59623,35.92397],[139.59624,35.92398],[139.59625,35.92399],[139.59632,35.92409],[139.59649,35.92429],[139.59705,35.92499],[139.59717,35.92513],[139.5974,35.92542],[139.59753,35.92559],[139.59771,35.92579],[139.59785,35.92598],[139.59807,35.9263],[139.59839,35.92685],[139.59865,35.92685],[139.59884,35.92685],[139.59941,35.92686],[139.59996,35.92687],[139.60061,35.92688],[139.60083,35.92688],[139.60123,35.92689],[139.60174,35.9269],[139.60199,35.9269],[139.60198,35.92726],[139.6027,35.92728],[139.60323,35.92729],[139.60357,35.9273],[139.60387,35.92694],[139.60393,35.92665],[139.604,35.92647],[139.60413,35.92646],[139.60433,35.92644],[139.60558,35.92635],[139.60554,35.926],[139.60556,35.9256],[139.60557,35.92534],[139.60558,35.92496],[139.60557,35.92482],[139.60548,35.92427],[139.60547,35.92424],[139.60537,35.92353],[139.60534,35.92308],[139.60531,35.92235],[139.6053,35.92196],[139.60524,35.9219],[139.60521,35.92187],[139.60518,35.92147],[139.60519,35.92131],[139.60519,35.9209],[139.60519,35.92062],[139.60518,35.92034],[139.60518,35.92009],[139.60518,35.92002],[139.60516,35.9197],[139.60515,35.9194],[139.60515,35.91916],[139.60515,35.91909],[139.60514,35.91846],[139.60516,35.91781],[139.60518,35.91695],[139.60518,35.9164],[139.60519,35.91573]]]}},{"type":"Feature","properties":{"name":"日進町二丁目","setai":7200,"jinko":15803,"key":"11102003002","units":2},"geometry":{"type":"MultiPolygon","coordinates":[[[[139.61203,35.92742],[139.61216,35.92691],[139.6124,35.92587],[139.61241,35.92582],[139.61244,35.92507],[139.61244,35.92506],[139.61245,35.92435],[139.61187,35.92428],[139.60997,35.92427],[139.60941,35.92427],[139.60874,35.92426],[139.60837,35.92426],[139.60839,35.92345],[139.60732,35.92343],[139.60732,35.92314],[139.60653,35.92313],[139.60534,35.92308],[139.60537,35.92353],[139.60547,35.92424],[139.60548,35.92427],[139.60557,35.92482],[139.60558,35.92496],[139.60557,35.92534],[139.60556,35.9256],[139.60554,35.926],[139.60558,35.92635],[139.60433,35.92644],[139.60413,35.92646],[139.604,35.92647],[139.60393,35.92665],[139.60387,35.92694],[139.60357,35.9273],[139.60323,35.92729],[139.6027,35.92728],[139.60198,35.92726],[139.60199,35.9269],[139.60174,35.9269],[139.60123,35.92689],[139.60083,35.92688],[139.60061,35.92688],[139.59996,35.92687],[139.59941,35.92686],[139.59884,35.92685],[139.59865,35.92685],[139.59839,35.92685],[139.59854,35.92723],[139.59861,35.92744],[139.59862,35.92748],[139.59862,35.92748],[139.5987,35.92774],[139.59875,35.92793],[139.5988,35.92816],[139.59889,35.92853],[139.59888,35.92899],[139.59923,35.92911],[139.60021,35.92946],[139.6012,35.92982],[139.60141,35.92988],[139.6017,35.92999],[139.60272,35.93035],[139.60275,35.93036],[139.60412,35.93085],[139.60574,35.93143],[139.60727,35.93196],[139.60815,35.93226],[139.60894,35.93244],[139.60925,35.93249],[139.6097,35.93254],[139.61008,35.93255],[139.61043,35.93254],[139.61072,35.93251],[139.61106,35.93246],[139.61124,35.93241],[139.61152,35.93095],[139.61156,35.93034],[139.61157,35.93015],[139.6116,35.92996],[139.6116,35.92987],[139.61163,35.92961],[139.61168,35.92914],[139.61171,35.92873],[139.61173,35.92863],[139.61185,35.9282],[139.61194,35.9278],[139.61195,35.92773],[139.61203,35.92742]]],[[[139.61055,35.93618],[139.6089,35.93552],[139.60899,35.93532],[139.60907,35.93512],[139.60911,35.93501],[139.60928,35.93479],[139.60933,35.93473],[139.6094,35.93463],[139.60966,35.93426],[139.60973,35.9341],[139.60974,35.93408],[139.60978,35.93394],[139.60982,35.93375],[139.60984,35.9337],[139.61011,35.9329],[139.61043,35.93254],[139.61008,35.93255],[139.6097,35.93254],[139.60925,35.93249],[139.60894,35.93244],[139.60815,35.93226],[139.60727,35.93196],[139.60574,35.93143],[139.60412,35.93085],[139.60275,35.93036],[139.60272,35.93035],[139.6017,35.92999],[139.60141,35.92988],[139.6012,35.92982],[139.60021,35.92946],[139.59923,35.92911],[139.59888,35.92899],[139.59894,35.92921],[139.59897,35.92934],[139.599,35.92945],[139.59901,35.92957],[139.59908,35.92988],[139.59915,35.93037],[139.59919,35.93056],[139.59919,35.93086],[139.5992,35.93103],[139.5992,35.93117],[139.59919,35.93132],[139.59915,35.93145],[139.59911,35.93158],[139.59907,35.93167],[139.59898,35.93184],[139.59872,35.93237],[139.59855,35.93265],[139.59826,35.93319],[139.59818,35.93334],[139.59811,35.93348],[139.59762,35.93447],[139.59844,35.9347],[139.59904,35.93487],[139.59907,35.93479],[139.59911,35.93471],[139.59923,35.93437],[139.5994,35.9338],[139.59967,35.93384],[139.59998,35.93388],[139.60005,35.93388],[139.60061,35.93394],[139.60071,35.93396],[139.60104,35.934],[139.60113,35.93373],[139.60119,35.93352],[139.60126,35.93335],[139.60126,35.93334],[139.60131,35.93312],[139.60167,35.93317],[139.60237,35.93295],[139.60296,35.93278],[139.60291,35.93287],[139.60285,35.93301],[139.60285,35.93306],[139.60285,35.93311],[139.60283,35.93333],[139.60278,35.93392],[139.60269,35.93478],[139.60265,35.93516],[139.60265,35.93524],[139.60264,35.93533],[139.60257,35.93589],[139.60353,35.93604],[139.60441,35.93617],[139.60509,35.93621],[139.60533,35.93622],[139.60619,35.93627],[139.60623,35.93574],[139.60711,35.93576],[139.60696,35.93632],[139.6075,35.93638],[139.60797,35.93646],[139.60845,35.93656],[139.6087,35.93663],[139.60893,35.93671],[139.60919,35.93696],[139.60928,35.93704],[139.6095,35.93724],[139.60957,35.93729],[139.61004,35.93749],[139.61016,35.93709],[139.61018,35.93703],[139.61027,35.93676],[139.61037,35.93654],[139.6105,35.93626],[139.61055,35.93618]]]]}},{"type":"Feature","properties":{"name":"日進町三丁目","setai":2720,"jinko":5627,"key":"11102003003","units":1},"geometry":{"type":"Polygon","coordinates":[[[139.60631,35.94223],[139.6064,35.94193],[139.60664,35.94199],[139.60691,35.94205],[139.60688,35.94192],[139.60687,35.94182],[139.60686,35.94168],[139.60689,35.94159],[139.60694,35.94149],[139.607,35.94141],[139.60712,35.94132],[139.60728,35.94109],[139.60739,35.94095],[139.60762,35.94055],[139.60771,35.94029],[139.60779,35.94009],[139.60787,35.93991],[139.60794,35.93973],[139.60795,35.93968],[139.60796,35.93964],[139.60802,35.93949],[139.60811,35.93936],[139.60819,35.93931],[139.6083,35.93923],[139.60837,35.93911],[139.60839,35.93907],[139.60841,35.93903],[139.6085,35.93896],[139.60855,35.93885],[139.60857,35.9387],[139.60856,35.93847],[139.6086,35.93828],[139.60863,35.93805],[139.60865,35.93785],[139.60872,35.93756],[139.60874,35.93753],[139.60875,35.93751],[139.6088,35.93738],[139.60864,35.93728],[139.60864,35.93709],[139.60863,35.93694],[139.60864,35.93683],[139.6087,35.93663],[139.60845,35.93656],[139.60797,35.93646],[139.6075,35.93638],[139.60696,35.93632],[139.60711,35.93576],[139.60623,35.93574],[139.60619,35.93627],[139.60533,35.93622],[139.60509,35.93621],[139.60441,35.93617],[139.60353,35.93604],[139.60257,35.93589],[139.60264,35.93533],[139.60265,35.93524],[139.60265,35.93516],[139.60269,35.93478],[139.60278,35.93392],[139.60283,35.93333],[139.60285,35.93311],[139.60285,35.93306],[139.60285,35.93301],[139.60291,35.93287],[139.60296,35.93278],[139.60237,35.93295],[139.60167,35.93317],[139.60131,35.93312],[139.60126,35.93334],[139.60126,35.93335],[139.60119,35.93352],[139.60113,35.93373],[139.60104,35.934],[139.60071,35.93396],[139.60061,35.93394],[139.60005,35.93388],[139.59998,35.93388],[139.59967,35.93384],[139.5994,35.9338],[139.59923,35.93437],[139.59911,35.93471],[139.59907,35.93479],[139.59904,35.93487],[139.59844,35.9347],[139.59762,35.93447],[139.59758,35.93454],[139.59752,35.93468],[139.59741,35.93493],[139.5974,35.93524],[139.59744,35.93569],[139.59756,35.9362],[139.59761,35.93638],[139.59762,35.9364],[139.59773,35.93671],[139.59774,35.93676],[139.59779,35.937],[139.59781,35.93713],[139.5978,35.93728],[139.59776,35.93749],[139.59774,35.93762],[139.59767,35.93792],[139.59766,35.93809],[139.59769,35.93833],[139.59776,35.93851],[139.59786,35.93867],[139.59832,35.9393],[139.59847,35.93951],[139.59905,35.9403],[139.59952,35.9409],[139.59969,35.94085],[139.60044,35.94102],[139.60073,35.94108],[139.6014,35.94123],[139.6015,35.94082],[139.60175,35.94078],[139.60203,35.94069],[139.60279,35.94092],[139.60284,35.94071],[139.60385,35.94091],[139.60453,35.9411],[139.60459,35.94091],[139.6046,35.94091],[139.60461,35.94087],[139.60471,35.9409],[139.60483,35.94092],[139.60483,35.94092],[139.6048,35.94099],[139.60476,35.94108],[139.60473,35.94119],[139.60488,35.94125],[139.60511,35.94136],[139.60514,35.94139],[139.60506,35.94159],[139.60557,35.94172],[139.60598,35.94213],[139.60605,35.94216],[139.60631,35.94223]]]}},{"type":"Feature","properties":{"name":"櫛引町","setai":2073,"jinko":5037,"key":"111020040","units":1},"geometry":{"type":"Polygon","coordinates":[[[139.60584,35.91579],[139.60519,35.91573],[139.60518,35.9164],[139.60518,35.91695],[139.60516,35.91781],[139.60514,35.91846],[139.60515,35.91909],[139.60515,35.91916],[139.60515,35.9194],[139.60516,35.9197],[139.60518,35.92002],[139.60518,35.92009],[139.60518,35.92034],[139.60519,35.92062],[139.60519,35.9209],[139.60519,35.92131],[139.60518,35.92147],[139.60521,35.92187],[139.60524,35.9219],[139.6053,35.92196],[139.60531,35.92235],[139.60534,35.92308],[139.60653,35.92313],[139.60732,35.92314],[139.60732,35.92343],[139.60839,35.92345],[139.60837,35.92426],[139.60874,35.92426],[139.60941,35.92427],[139.60997,35.92427],[139.61187,35.92428],[139.61245,35.92435],[139.61231,35.92383],[139.61223,35.92357],[139.61212,35.92326],[139.61188,35.92242],[139.6117,35.92188],[139.61155,35.92143],[139.61155,35.92042],[139.61154,35.92019],[139.61153,35.91957],[139.61153,35.91951],[139.6115,35.91859],[139.61152,35.91753],[139.61154,35.91629],[139.61077,35.91621],[139.61005,35.91616],[139.60946,35.9161],[139.60902,35.91606],[139.60851,35.91601],[139.60766,35.91594],[139.60707,35.9159],[139.60643,35.91584],[139.60584,35.91579]]]}},{"type":"Feature","properties":{"name":"宮原町一丁目","setai":4405,"jinko":10882,"key":"11102005001","units":1},"geometry":{"type":"Polygon","coordinates":[[[139.62443,35.93802],[139.62473,35.93744],[139.62479,35.93733],[139.62505,35.9368],[139.62531,35.93626],[139.62546,35.93589],[139.62551,35.93569],[139.62555,35.93547],[139.62564,35.93525],[139.62579,35.93496],[139.62594,35.93464],[139.62609,35.93434],[139.62623,35.93404],[139.62636,35.93375],[139.62659,35.93329],[139.62663,35.9332],[139.62672,35.93299],[139.62687,35.93269],[139.62618,35.93248],[139.62576,35.93235],[139.62534,35.93222],[139.62411,35.93185],[139.62406,35.93183],[139.62327,35.93159],[139.62151,35.931],[139.6205,35.93066],[139.61997,35.93044],[139.61971,35.93029],[139.61963,35.93025],[139.61935,35.93008],[139.61933,35.93011],[139.61925,35.9302],[139.61893,35.93056],[139.61882,35.93072],[139.61842,35.93119],[139.61756,35.93217],[139.61751,35.93223],[139.61675,35.93318],[139.61655,35.93354],[139.61643,35.93371],[139.61627,35.93404],[139.61624,35.93409],[139.61614,35.93432],[139.61606,35.93449],[139.61594,35.93471],[139.61584,35.93487],[139.61565,35.9352],[139.6154,35.93554],[139.61536,35.93557],[139.61522,35.93576],[139.61511,35.9359],[139.61499,35.93607],[139.61487,35.93619],[139.61484,35.93623],[139.61466,35.93643],[139.61451,35.93663],[139.61435,35.93679],[139.61462,35.93689],[139.61481,35.93699],[139.61508,35.9371],[139.61537,35.93727],[139.6156,35.9374],[139.6158,35.93751],[139.61604,35.93763],[139.61632,35.93778],[139.61667,35.93795],[139.61674,35.93786],[139.61679,35.93774],[139.61682,35.93765],[139.61683,35.93754],[139.6168,35.93726],[139.61687,35.93722],[139.61712,35.93733],[139.61735,35.93739],[139.61756,35.93748],[139.6177,35.93749],[139.61783,35.93751],[139.61801,35.93753],[139.61816,35.93753],[139.61843,35.93754],[139.61862,35.93752],[139.61868,35.93752],[139.61887,35.93752],[139.61908,35.93754],[139.61929,35.93758],[139.61992,35.93771],[139.61933,35.93887],[139.61905,35.93951],[139.61879,35.93999],[139.61874,35.94007],[139.61869,35.94016],[139.61846,35.94056],[139.61897,35.94071],[139.61956,35.94085],[139.62007,35.94096],[139.62055,35.94108],[139.62057,35.94108],[139.62096,35.94119],[139.62149,35.94134],[139.62225,35.9416],[139.62232,35.94149],[139.62282,35.94066],[139.62312,35.94018],[139.62317,35.94011],[139.62339,35.93978],[139.6235,35.93965],[139.62359,35.93952],[139.62376,35.93928],[139.62394,35.93903],[139.62409,35.93872],[139.62419,35.93852],[139.62435,35.9382],[139.62443,35.93802]]]}},{"type":"Feature","properties":{"name":"宮原町二丁目","setai":3074,"jinko":6420,"key":"11102005002","units":1},"geometry":{"type":"Polygon","coordinates":[[[139.61938,35.94603],[139.61959,35.94571],[139.61971,35.94551],[139.61986,35.94526],[139.62004,35.94499],[139.62018,35.9448],[139.62045,35.94436],[139.62062,35.9441],[139.62084,35.94378],[139.62105,35.94345],[139.6212,35.9432],[139.62138,35.94295],[139.62148,35.94276],[139.62159,35.94258],[139.62174,35.94238],[139.6219,35.94212],[139.62206,35.94189],[139.6222,35.94166],[139.62225,35.9416],[139.62149,35.94134],[139.62096,35.94119],[139.62057,35.94108],[139.62055,35.94108],[139.62007,35.94096],[139.61956,35.94085],[139.61897,35.94071],[139.61846,35.94056],[139.61869,35.94016],[139.61874,35.94007],[139.61879,35.93999],[139.61905,35.93951],[139.61933,35.93887],[139.61992,35.93771],[139.61929,35.93758],[139.61908,35.93754],[139.61887,35.93752],[139.61868,35.93752],[139.61862,35.93752],[139.61843,35.93754],[139.61816,35.93753],[139.61801,35.93753],[139.61783,35.93751],[139.6177,35.93749],[139.61756,35.93748],[139.61735,35.93739],[139.61712,35.93733],[139.61687,35.93722],[139.6168,35.93726],[139.61683,35.93754],[139.61682,35.93765],[139.61679,35.93774],[139.61674,35.93786],[139.61667,35.93795],[139.61632,35.93778],[139.61604,35.93763],[139.6158,35.93751],[139.6156,35.9374],[139.61537,35.93727],[139.61508,35.9371],[139.61481,35.93699],[139.61462,35.93689],[139.61435,35.93679],[139.61432,35.93683],[139.61401,35.93717],[139.6138,35.93742],[139.61371,35.93749],[139.61333,35.93789],[139.6131,35.93813],[139.61288,35.93841],[139.6128,35.9385],[139.61255,35.9389],[139.6124,35.93915],[139.6122,35.9395],[139.61207,35.93973],[139.612,35.93982],[139.61183,35.94006],[139.61169,35.94025],[139.61151,35.94054],[139.61142,35.94069],[139.61097,35.94167],[139.6108,35.942],[139.61063,35.9423],[139.61054,35.94245],[139.61086,35.94268],[139.61097,35.94277],[139.6111,35.94286],[139.61131,35.94293],[139.61137,35.94292],[139.61225,35.94318],[139.61231,35.9432],[139.61248,35.94323],[139.61276,35.9433],[139.61299,35.94339],[139.61295,35.94357],[139.6136,35.94378],[139.61384,35.94384],[139.61402,35.94389],[139.61472,35.94409],[139.61529,35.94425],[139.61522,35.94435],[139.6155,35.94473],[139.61559,35.94491],[139.61551,35.94496],[139.61548,35.94536],[139.61562,35.94533],[139.61575,35.94529],[139.61609,35.94539],[139.61614,35.94552],[139.61638,35.94569],[139.61657,35.94589],[139.61684,35.94582],[139.61703,35.94604],[139.61717,35.94616],[139.61743,35.94633],[139.61765,35.94644],[139.61801,35.94659],[139.61824,35.94668],[139.61881,35.94694],[139.61894,35.94675],[139.61905,35.94657],[139.61919,35.94633],[139.61928,35.94618],[139.61938,35.94603]]]}},{"type":"Feature","properties":{"name":"宮原町三丁目","setai":3372,"jinko":7444,"key":"11102005003","units":1},"geometry":{"type":"Polygon","coordinates":[[[139.60927,35.94207],[139.60954,35.94154],[139.6108,35.942],[139.61097,35.94167],[139.61142,35.94069],[139.61151,35.94054],[139.61169,35.94025],[139.61183,35.94006],[139.612,35.93982],[139.61207,35.93973],[139.6122,35.9395],[139.6124,35.93915],[139.61255,35.9389],[139.6128,35.9385],[139.61288,35.93841],[139.6131,35.93813],[139.61333,35.93789],[139.61371,35.93749],[139.6138,35.93742],[139.61401,35.93717],[139.61432,35.93683],[139.61435,35.93679],[139.61451,35.93663],[139.61466,35.93643],[139.61484,35.93623],[139.61487,35.93619],[139.61499,35.93607],[139.61511,35.9359],[139.61522,35.93576],[139.61536,35.93557],[139.6154,35.93554],[139.61525,35.93547],[139.61494,35.93534],[139.6146,35.93515],[139.61407,35.93495],[139.61389,35.93487],[139.61376,35.9348],[139.61298,35.93445],[139.61282,35.93438],[139.61239,35.93419],[139.61217,35.93409],[139.61202,35.93401],[139.61144,35.93376],[139.61108,35.93362],[139.61091,35.93355],[139.61106,35.93332],[139.61124,35.93241],[139.61106,35.93246],[139.61072,35.93251],[139.61043,35.93254],[139.61011,35.9329],[139.60984,35.9337],[139.60982,35.93375],[139.60978,35.93394],[139.60974,35.93408],[139.60973,35.9341],[139.60966,35.93426],[139.6094,35.93463],[139.60933,35.93473],[139.60928,35.93479],[139.60911,35.93501],[139.60907,35.93512],[139.60899,35.93532],[139.6089,35.93552],[139.61055,35.93618],[139.6105,35.93626],[139.61037,35.93654],[139.61027,35.93676],[139.61018,35.93703],[139.61016,35.93709],[139.61004,35.93749],[139.60957,35.93729],[139.6095,35.93724],[139.60928,35.93704],[139.60919,35.93696],[139.60893,35.93671],[139.6087,35.93663],[139.60864,35.93683],[139.60863,35.93694],[139.60864,35.93709],[139.60864,35.93728],[139.6088,35.93738],[139.60875,35.93751],[139.60874,35.93753],[139.60872,35.93756],[139.60865,35.93785],[139.60863,35.93805],[139.6086,35.93828],[139.60856,35.93847],[139.60857,35.9387],[139.60855,35.93885],[139.6085,35.93896],[139.60841,35.93903],[139.60839,35.93907],[139.60837,35.93911],[139.6083,35.93923],[139.60819,35.93931],[139.60811,35.93936],[139.60802,35.93949],[139.60796,35.93964],[139.60795,35.93968],[139.60794,35.93973],[139.60787,35.93991],[139.60779,35.94009],[139.60771,35.94029],[139.60762,35.94055],[139.60739,35.94095],[139.60728,35.94109],[139.60712,35.94132],[139.607,35.94141],[139.60694,35.94149],[139.60689,35.94159],[139.60686,35.94168],[139.60687,35.94182],[139.60688,35.94192],[139.60691,35.94205],[139.60694,35.94213],[139.60698,35.94234],[139.60699,35.94246],[139.60701,35.94258],[139.60703,35.94269],[139.60711,35.94282],[139.6072,35.94289],[139.60734,35.94293],[139.60762,35.94302],[139.60773,35.94306],[139.60783,35.94313],[139.60788,35.9432],[139.60795,35.94334],[139.60798,35.94343],[139.60866,35.94345],[139.60885,35.94347],[139.60896,35.9432],[139.60911,35.94278],[139.6092,35.94241],[139.60927,35.94207]]]}},{"type":"Feature","properties":{"name":"宮原町四丁目","setai":2941,"jinko":6244,"key":"11102005004","units":1},"geometry":{"type":"Polygon","coordinates":[[[139.60749,35.95267],[139.60773,35.95232],[139.60795,35.95206],[139.60823,35.95214],[139.60837,35.95219],[139.60901,35.95075],[139.60921,35.95034],[139.60946,35.95041],[139.60954,35.95036],[139.60996,35.95053],[139.61011,35.95033],[139.61032,35.95006],[139.61047,35.94989],[139.6103,35.94982],[139.61038,35.94971],[139.61045,35.94966],[139.61045,35.94966],[139.61048,35.94958],[139.6105,35.94949],[139.61053,35.94936],[139.61061,35.949],[139.61073,35.94873],[139.61086,35.94854],[139.61094,35.94842],[139.61096,35.94842],[139.61096,35.94842],[139.61104,35.94843],[139.61123,35.94811],[139.61134,35.948],[139.61153,35.94777],[139.61175,35.94768],[139.61209,35.94754],[139.61228,35.94746],[139.61231,35.94741],[139.61235,35.94743],[139.61262,35.94731],[139.61278,35.94743],[139.61302,35.9476],[139.61339,35.94726],[139.61388,35.9474],[139.61401,35.94725],[139.61446,35.94682],[139.61464,35.94669],[139.6149,35.94656],[139.6151,35.94651],[139.6153,35.94649],[139.61564,35.94642],[139.61595,35.94633],[139.61626,35.94625],[139.61668,35.94615],[139.61703,35.94604],[139.61684,35.94582],[139.61657,35.94589],[139.61638,35.94569],[139.61614,35.94552],[139.61609,35.94539],[139.61575,35.94529],[139.61562,35.94533],[139.61548,35.94536],[139.61551,35.94496],[139.61559,35.94491],[139.6155,35.94473],[139.61522,35.94435],[139.61529,35.94425],[139.61472,35.94409],[139.61402,35.94389],[139.61384,35.94384],[139.6136,35.94378],[139.61295,35.94357],[139.61299,35.94339],[139.61276,35.9433],[139.61248,35.94323],[139.61231,35.9432],[139.61225,35.94318],[139.61137,35.94292],[139.61131,35.94293],[139.6111,35.94286],[139.61097,35.94277],[139.61086,35.94268],[139.61054,35.94245],[139.61063,35.9423],[139.6108,35.942],[139.60954,35.94154],[139.60927,35.94207],[139.6092,35.94241],[139.60911,35.94278],[139.60896,35.9432],[139.60885,35.94347],[139.60866,35.94345],[139.60798,35.94343],[139.60807,35.94369],[139.60813,35.94383],[139.60816,35.94407],[139.60789,35.94462],[139.6078,35.94476],[139.60767,35.94488],[139.6075,35.94502],[139.60704,35.9453],[139.60687,35.94543],[139.60672,35.94551],[139.60647,35.94567],[139.60635,35.94575],[139.60612,35.9459],[139.60599,35.94599],[139.60591,35.94607],[139.60582,35.94617],[139.60568,35.94637],[139.60554,35.94665],[139.60549,35.94679],[139.60539,35.94695],[139.6053,35.94708],[139.60513,35.9473],[139.60502,35.94744],[139.60476,35.94773],[139.60455,35.94791],[139.60431,35.94815],[139.60411,35.94833],[139.60397,35.94843],[139.60387,35.9485],[139.60377,35.94853],[139.60368,35.94862],[139.60351,35.94873],[139.60332,35.94886],[139.60298,35.94908],[139.60277,35.94928],[139.60266,35.94933],[139.60254,35.94945],[139.60238,35.94958],[139.60214,35.94975],[139.60198,35.94992],[139.60189,35.94997],[139.60179,35.95004],[139.60169,35.95009],[139.60155,35.95016],[139.60148,35.95024],[139.60136,35.95037],[139.60128,35.95048],[139.60122,35.95056],[139.60104,35.9507],[139.60095,35.95077],[139.60081,35.95095],[139.60107,35.95105],[139.60144,35.95117],[139.60209,35.95139],[139.6026,35.95159],[139.60343,35.95187],[139.60311,35.95233],[139.6036,35.95251],[139.60387,35.95261],[139.60393,35.9525],[139.6053,35.95298],[139.60567,35.9531],[139.60566,35.95314],[139.60699,35.9536],[139.60721,35.95328],[139.6074,35.9529],[139.60749,35.95267]]]}},{"type":"Feature","properties":{"name":"吉野町一丁目","setai":3158,"jinko":7075,"key":"11102006001","units":1},"geometry":{"type":"Polygon","coordinates":[[[139.62107,35.95776],[139.62078,35.9562],[139.62075,35.95601],[139.62044,35.95435],[139.62028,35.95346],[139.62019,35.953],[139.61983,35.95107],[139.61968,35.95045],[139.61967,35.95036],[139.61944,35.94915],[139.6194,35.94897],[139.61934,35.94862],[139.61936,35.9486],[139.61971,35.94826],[139.6204,35.94858],[139.62052,35.94839],[139.62077,35.94799],[139.62078,35.94799],[139.62096,35.94801],[139.62109,35.94805],[139.62113,35.94806],[139.62138,35.94779],[139.62167,35.94787],[139.62176,35.94771],[139.62181,35.94772],[139.62188,35.94755],[139.62186,35.94754],[139.62186,35.94754],[139.62175,35.94751],[139.62178,35.94742],[139.62203,35.94748],[139.62211,35.94729],[139.62215,35.94712],[139.62214,35.94699],[139.62214,35.94695],[139.62212,35.94674],[139.62207,35.94646],[139.62197,35.94609],[139.62193,35.94592],[139.62156,35.9463],[139.62125,35.94663],[139.62116,35.94658],[139.62103,35.94664],[139.62089,35.94663],[139.62054,35.9466],[139.62043,35.94658],[139.61995,35.94635],[139.61994,35.94634],[139.6199,35.94632],[139.61968,35.9463],[139.61948,35.94634],[139.61919,35.94633],[139.61905,35.94657],[139.61894,35.94675],[139.61881,35.94694],[139.61824,35.94668],[139.61801,35.94659],[139.61765,35.94644],[139.61743,35.94633],[139.61717,35.94616],[139.61703,35.94604],[139.61668,35.94615],[139.61626,35.94625],[139.61595,35.94633],[139.61564,35.94642],[139.6153,35.94649],[139.6151,35.94651],[139.6149,35.94656],[139.61464,35.94669],[139.61446,35.94682],[139.61401,35.94725],[139.61388,35.9474],[139.61339,35.94726],[139.61302,35.9476],[139.61278,35.94743],[139.61262,35.94731],[139.61235,35.94743],[139.61231,35.94741],[139.61228,35.94746],[139.61209,35.94754],[139.61175,35.94768],[139.61153,35.94777],[139.61134,35.948],[139.61123,35.94811],[139.61104,35.94843],[139.61096,35.94842],[139.61096,35.94842],[139.61094,35.94842],[139.61086,35.94854],[139.61073,35.94873],[139.61061,35.949],[139.61053,35.94936],[139.6105,35.94949],[139.61048,35.94958],[139.61045,35.94966],[139.61045,35.94966],[139.61038,35.94971],[139.6103,35.94982],[139.61047,35.94989],[139.61032,35.95006],[139.61011,35.95033],[139.60996,35.95053],[139.60954,35.95036],[139.60946,35.95041],[139.60921,35.95034],[139.60901,35.95075],[139.60837,35.95219],[139.60823,35.95214],[139.60795,35.95206],[139.60773,35.95232],[139.60749,35.95267],[139.6074,35.9529],[139.60721,35.95328],[139.60699,35.9536],[139.60689,35.95373],[139.6066,35.95415],[139.60632,35.95457],[139.60622,35.95469],[139.60606,35.95497],[139.60597,35.95518],[139.60589,35.95544],[139.60574,35.95575],[139.60539,35.95642],[139.60511,35.9569],[139.60642,35.95735],[139.60647,35.95736],[139.60779,35.95784],[139.60779,35.95763],[139.60844,35.95765],[139.60912,35.95774],[139.60969,35.95791],[139.60997,35.95723],[139.61011,35.95686],[139.61107,35.95718],[139.61186,35.95743],[139.61221,35.95756],[139.61365,35.95805],[139.61414,35.95822],[139.61562,35.95873],[139.61706,35.95919],[139.6192,35.95988],[139.61984,35.96016],[139.62078,35.95862],[139.62113,35.95812],[139.62107,35.95776]]]}},{"type":"Feature","properties":{"name":"吉野町二丁目","setai":1732,"jinko":4242,"key":"11102006002","units":1},"geometry":{"type":"Polygon","coordinates":[[[139.61589,35.9661],[139.61553,35.96566],[139.61763,35.96505],[139.61802,35.96491],[139.61835,35.96478],[139.61837,35.96477],[139.61852,35.96467],[139.61871,35.96455],[139.61881,35.96447],[139.61882,35.96446],[139.61895,35.96433],[139.61914,35.96406],[139.6194,35.96362],[139.61963,35.96322],[139.61979,35.96295],[139.62041,35.96194],[139.61975,35.96169],[139.62052,35.9604],[139.62103,35.9606],[139.62121,35.96067],[139.62128,35.96055],[139.62175,35.95975],[139.62191,35.95951],[139.62236,35.95876],[139.62267,35.95821],[139.62262,35.95811],[139.62261,35.95807],[139.62244,35.95803],[139.62169,35.95788],[139.62168,35.95788],[139.62107,35.95776],[139.62113,35.95812],[139.62078,35.95862],[139.61984,35.96016],[139.6192,35.95988],[139.61706,35.95919],[139.61562,35.95873],[139.61414,35.95822],[139.61365,35.95805],[139.61221,35.95756],[139.61186,35.95743],[139.61107,35.95718],[139.61011,35.95686],[139.60997,35.95723],[139.60969,35.95791],[139.60912,35.95774],[139.60844,35.95765],[139.60779,35.95763],[139.60779,35.95784],[139.60647,35.95736],[139.60642,35.95735],[139.60511,35.9569],[139.60539,35.95642],[139.60574,35.95575],[139.60589,35.95544],[139.60597,35.95518],[139.60606,35.95497],[139.60622,35.95469],[139.60632,35.95457],[139.6066,35.95415],[139.60689,35.95373],[139.60699,35.9536],[139.60566,35.95314],[139.60567,35.9531],[139.6053,35.95298],[139.60393,35.9525],[139.60387,35.95261],[139.6036,35.95251],[139.60311,35.95233],[139.60278,35.95286],[139.60261,35.95313],[139.60237,35.9535],[139.60188,35.9544],[139.60114,35.95419],[139.60063,35.9554],[139.6003,35.95618],[139.6003,35.95619],[139.60022,35.95638],[139.59961,35.95771],[139.59998,35.95782],[139.60013,35.95786],[139.6007,35.95801],[139.60042,35.95876],[139.6001,35.95959],[139.60064,35.9598],[139.60183,35.96033],[139.60322,35.96095],[139.60476,35.96167],[139.60488,35.96172],[139.60578,35.96211],[139.60595,35.96218],[139.60665,35.96247],[139.60685,35.96253],[139.6076,35.9629],[139.60772,35.96297],[139.60775,35.96299],[139.60802,35.9631],[139.60821,35.96319],[139.60838,35.96326],[139.60859,35.96335],[139.60929,35.96361],[139.60931,35.96363],[139.6096,35.96382],[139.60985,35.96393],[139.61028,35.9641],[139.61057,35.96424],[139.61059,35.96425],[139.611,35.96443],[139.61114,35.96451],[139.61128,35.96459],[139.61169,35.96482],[139.61191,35.96496],[139.61218,35.96511],[139.61297,35.96562],[139.61382,35.9662],[139.61383,35.96621],[139.61415,35.96606],[139.61465,35.96591],[139.6148,35.96609],[139.61497,35.96599],[139.61528,35.96628],[139.61549,35.96628],[139.61589,35.9661]]]}},{"type":"Feature","properties":{"name":"別所町","setai":2398,"jinko":6221,"key":"111020070","units":1},"geometry":{"type":"Polygon","coordinates":[[[139.58848,35.96192],[139.58878,35.96145],[139.58924,35.96164],[139.58927,35.96165],[139.58938,35.96149],[139.5893,35.96139],[139.58929,35.96127],[139.58931,35.96123],[139.58998,35.96143],[139.59033,35.96155],[139.59044,35.96121],[139.59086,35.9613],[139.59092,35.96113],[139.59127,35.96117],[139.59167,35.96124],[139.5916,35.9616],[139.59204,35.9615],[139.59205,35.96157],[139.59207,35.96167],[139.59205,35.96167],[139.59203,35.96168],[139.59204,35.96173],[139.59208,35.96187],[139.59268,35.96177],[139.59289,35.96174],[139.5929,35.96173],[139.59371,35.96161],[139.5939,35.96158],[139.59394,35.9616],[139.59416,35.9617],[139.59418,35.96171],[139.59425,35.96161],[139.59434,35.96164],[139.59434,35.96164],[139.59434,35.96164],[139.59435,35.96163],[139.59438,35.96158],[139.59459,35.96167],[139.5947,35.96151],[139.59487,35.96149],[139.59509,35.96158],[139.59525,35.96137],[139.59548,35.96133],[139.59546,35.96138],[139.59565,35.96147],[139.59577,35.96128],[139.59609,35.96123],[139.59599,35.96137],[139.59626,35.96148],[139.59633,35.96139],[139.5964,35.96142],[139.5969,35.96138],[139.59723,35.96135],[139.59742,35.96134],[139.59803,35.96128],[139.59803,35.96135],[139.59815,35.96134],[139.59818,35.96134],[139.5982,35.96129],[139.59831,35.96128],[139.5983,35.96133],[139.59833,35.96133],[139.59852,35.96131],[139.59854,35.96128],[139.5986,35.96131],[139.5987,35.9613],[139.59876,35.96124],[139.59896,35.96104],[139.59902,35.96099],[139.59914,35.96098],[139.59957,35.96044],[139.59983,35.9601],[139.59991,35.96014],[139.59991,35.96014],[139.6001,35.95959],[139.60042,35.95876],[139.6007,35.95801],[139.60013,35.95786],[139.59998,35.95782],[139.59961,35.95771],[139.60022,35.95638],[139.6003,35.95619],[139.6003,35.95618],[139.60063,35.9554],[139.60114,35.95419],[139.60188,35.9544],[139.60237,35.9535],[139.60261,35.95313],[139.60278,35.95286],[139.60311,35.95233],[139.60343,35.95187],[139.6026,35.95159],[139.60209,35.95139],[139.60144,35.95117],[139.60107,35.95105],[139.60081,35.95095],[139.60078,35.95094],[139.60002,35.9517],[139.59982,35.95182],[139.59966,35.9519],[139.59926,35.95212],[139.5991,35.95223],[139.59896,35.95243],[139.59883,35.95266],[139.59868,35.95296],[139.59848,35.95336],[139.5983,35.95369],[139.598,35.95391],[139.59759,35.95422],[139.59748,35.95419],[139.59737,35.95419],[139.59684,35.95418],[139.59636,35.95418],[139.59595,35.95419],[139.59559,35.95419],[139.59527,35.95412],[139.59496,35.95407],[139.59452,35.95392],[139.59427,35.95379],[139.59304,35.95321],[139.59276,35.95365],[139.5924,35.95424],[139.59213,35.95472],[139.59208,35.95478],[139.59179,35.95526],[139.59223,35.95545],[139.59193,35.95591],[139.59228,35.95606],[139.59198,35.95654],[139.59235,35.95671],[139.59206,35.95713],[139.59151,35.95688],[139.59121,35.95731],[139.59063,35.95706],[139.59025,35.95757],[139.59002,35.95788],[139.59001,35.95791],[139.58998,35.95794],[139.58954,35.95858],[139.58938,35.95886],[139.589,35.95927],[139.58865,35.95958],[139.58844,35.95981],[139.58817,35.96012],[139.58803,35.96034],[139.58782,35.96075],[139.58782,35.96076],[139.58779,35.96081],[139.58776,35.96089],[139.5877,35.96103],[139.58781,35.96107],[139.58786,35.96109],[139.5882,35.96124],[139.5879,35.96168],[139.58848,35.96192]]]}},{"type":"Feature","properties":{"name":"奈良町","setai":4210,"jinko":9465,"key":"111020080","units":1},"geometry":{"type":"Polygon","coordinates":[[[139.59759,35.95422],[139.598,35.95391],[139.5983,35.95369],[139.59848,35.95336],[139.59868,35.95296],[139.59883,35.95266],[139.59896,35.95243],[139.5991,35.95223],[139.59926,35.95212],[139.59966,35.9519],[139.59982,35.95182],[139.60002,35.9517],[139.60078,35.95094],[139.60081,35.95095],[139.60095,35.95077],[139.60104,35.9507],[139.60122,35.95056],[139.60128,35.95048],[139.60136,35.95037],[139.60148,35.95024],[139.60155,35.95016],[139.60169,35.95009],[139.60179,35.95004],[139.60189,35.94997],[139.60198,35.94992],[139.60214,35.94975],[139.60238,35.94958],[139.60254,35.94945],[139.60266,35.94933],[139.60277,35.94928],[139.60298,35.94908],[139.60332,35.94886],[139.60351,35.94873],[139.60368,35.94862],[139.60377,35.94853],[139.60387,35.9485],[139.60397,35.94843],[139.60411,35.94833],[139.60431,35.94815],[139.60455,35.94791],[139.60476,35.94773],[139.60502,35.94744],[139.60513,35.9473],[139.6053,35.94708],[139.60539,35.94695],[139.60549,35.94679],[139.60554,35.94665],[139.60568,35.94637],[139.60582,35.94617],[139.60591,35.94607],[139.60599,35.94599],[139.60612,35.9459],[139.60635,35.94575],[139.60647,35.94567],[139.60672,35.94551],[139.60687,35.94543],[139.60704,35.9453],[139.6075,35.94502],[139.60767,35.94488],[139.6078,35.94476],[139.60789,35.94462],[139.60816,35.94407],[139.60813,35.94383],[139.60807,35.94369],[139.60798,35.94343],[139.60795,35.94334],[139.60788,35.9432],[139.60783,35.94313],[139.60773,35.94306],[139.60762,35.94302],[139.60734,35.94293],[139.6072,35.94289],[139.60711,35.94282],[139.60703,35.94269],[139.60701,35.94258],[139.60699,35.94246],[139.60698,35.94234],[139.60694,35.94213],[139.60691,35.94205],[139.60664,35.94199],[139.6064,35.94193],[139.60631,35.94223],[139.60605,35.94216],[139.60598,35.94213],[139.60557,35.94172],[139.60506,35.94159],[139.60514,35.94139],[139.60511,35.94136],[139.60488,35.94125],[139.60473,35.94119],[139.60476,35.94108],[139.6048,35.94099],[139.60483,35.94092],[139.60483,35.94092],[139.60471,35.9409],[139.60461,35.94087],[139.6046,35.94091],[139.60459,35.94091],[139.60453,35.9411],[139.60385,35.94091],[139.60284,35.94071],[139.60279,35.94092],[139.60203,35.94069],[139.60175,35.94078],[139.6015,35.94082],[139.6014,35.94123],[139.60073,35.94108],[139.60044,35.94102],[139.59969,35.94085],[139.59952,35.9409],[139.59962,35.94121],[139.59966,35.94156],[139.59962,35.94215],[139.59956,35.94272],[139.59951,35.94314],[139.59943,35.94364],[139.5994,35.94379],[139.59937,35.94396],[139.59934,35.94406],[139.59926,35.94425],[139.59917,35.94439],[139.59894,35.94461],[139.59874,35.94481],[139.5986,35.94494],[139.59832,35.94521],[139.59805,35.94549],[139.59782,35.94578],[139.59766,35.94606],[139.5976,35.94623],[139.59755,35.94639],[139.59739,35.9469],[139.59729,35.94725],[139.59717,35.94763],[139.59707,35.94791],[139.59698,35.94804],[139.59694,35.9481],[139.59667,35.9486],[139.59644,35.94888],[139.59621,35.94913],[139.59594,35.9494],[139.59508,35.9503],[139.59482,35.95059],[139.59477,35.95064],[139.59468,35.95076],[139.59462,35.95084],[139.59441,35.95112],[139.59407,35.95153],[139.5937,35.95208],[139.59346,35.95247],[139.59336,35.95264],[139.59304,35.95321],[139.59427,35.95379],[139.59452,35.95392],[139.59496,35.95407],[139.59527,35.95412],[139.59559,35.95419],[139.59595,35.95419],[139.59636,35.95418],[139.59684,35.95418],[139.59737,35.95419],[139.59748,35.95419],[139.59759,35.95422]]]}},{"type":"Feature","properties":{"name":"植竹町一丁目","setai":2383,"jinko":5227,"key":"11102009001","units":1},"geometry":{"type":"Polygon","coordinates":[[[139.62603,35.9276],[139.62643,35.92665],[139.62659,35.9262],[139.62665,35.92607],[139.62683,35.9257],[139.6271,35.92509],[139.62725,35.92473],[139.62741,35.92432],[139.62764,35.92374],[139.62773,35.92355],[139.62704,35.92229],[139.62697,35.92215],[139.62674,35.92166],[139.62671,35.92161],[139.62666,35.9215],[139.62655,35.92128],[139.62655,35.92127],[139.62639,35.92098],[139.62628,35.9207],[139.62603,35.92017],[139.62603,35.92015],[139.62579,35.91955],[139.62574,35.91943],[139.62567,35.91928],[139.62537,35.91925],[139.62536,35.91952],[139.62511,35.91991],[139.62504,35.92003],[139.62481,35.92041],[139.62455,35.92079],[139.62428,35.92122],[139.62407,35.92153],[139.62382,35.92192],[139.62369,35.92211],[139.62364,35.92219],[139.62346,35.92242],[139.62328,35.92265],[139.62312,35.92288],[139.6231,35.92293],[139.62296,35.92314],[139.62291,35.92329],[139.62286,35.92342],[139.62272,35.92387],[139.6225,35.92452],[139.6222,35.92549],[139.62212,35.92573],[139.62209,35.92581],[139.6219,35.92646],[139.6218,35.92671],[139.62174,35.92688],[139.62164,35.92704],[139.6215,35.92722],[139.62122,35.92759],[139.6211,35.92755],[139.62106,35.92776],[139.62097,35.92803],[139.6208,35.92833],[139.62066,35.92859],[139.6205,35.92883],[139.61995,35.92945],[139.61988,35.92953],[139.61981,35.92961],[139.61954,35.92991],[139.61944,35.92997],[139.61935,35.93008],[139.61963,35.93025],[139.61971,35.93029],[139.61997,35.93044],[139.6205,35.93066],[139.62151,35.931],[139.62327,35.93159],[139.62406,35.93183],[139.62455,35.93082],[139.62468,35.93055],[139.6249,35.93007],[139.62552,35.9288],[139.62555,35.92872],[139.62603,35.9276]]]}},{"type":"Feature","properties":{"name":"植竹町二丁目","setai":715,"jinko":1526,"key":"11102009002","units":1},"geometry":{"type":"Polygon","coordinates":[[[139.62611,35.92892],[139.62555,35.92872],[139.62552,35.9288],[139.6249,35.93007],[139.62468,35.93055],[139.62455,35.93082],[139.62406,35.93183],[139.62411,35.93185],[139.62534,35.93222],[139.62576,35.93235],[139.62618,35.93248],[139.62687,35.93269],[139.62709,35.93276],[139.62775,35.93298],[139.62846,35.93322],[139.62853,35.93325],[139.62872,35.93332],[139.62886,35.93337],[139.62887,35.93316],[139.62886,35.93303],[139.62887,35.93293],[139.62888,35.93279],[139.62894,35.9326],[139.62899,35.93252],[139.62906,35.93228],[139.62912,35.93206],[139.62913,35.93204],[139.62912,35.93186],[139.6291,35.93175],[139.62906,35.93159],[139.62902,35.9314],[139.62903,35.93138],[139.62905,35.93104],[139.62906,35.93089],[139.62909,35.93084],[139.62913,35.9305],[139.62904,35.93023],[139.62896,35.93004],[139.62896,35.92998],[139.62882,35.92983],[139.62867,35.92968],[139.6286,35.92963],[139.62804,35.92948],[139.62758,35.92935],[139.62724,35.92924],[139.6267,35.92908],[139.62611,35.92892]]]}},{"type":"Feature","properties":{"name":"盆栽町","setai":1740,"jinko":3744,"key":"111020100","units":1},"geometry":{"type":"Polygon","coordinates":[[[139.62877,35.9294],[139.62883,35.92927],[139.62918,35.92936],[139.62942,35.92942],[139.63016,35.92946],[139.63037,35.92945],[139.63053,35.92942],[139.63077,35.92936],[139.63086,35.92932],[139.63099,35.92927],[139.63114,35.92919],[139.63125,35.92913],[139.63138,35.92906],[139.63149,35.92896],[139.63165,35.92882],[139.63179,35.92868],[139.6319,35.92854],[139.63203,35.92842],[139.63215,35.92833],[139.63237,35.92826],[139.63295,35.92811],[139.63329,35.92798],[139.63351,35.92788],[139.63373,35.9277],[139.63365,35.92755],[139.63361,35.92746],[139.63391,35.92724],[139.63397,35.92713],[139.63422,35.9267],[139.6341,35.92665],[139.63403,35.9266],[139.63413,35.92634],[139.6342,35.92617],[139.6343,35.92591],[139.63441,35.92563],[139.63453,35.92529],[139.6346,35.92502],[139.63465,35.92488],[139.63452,35.92487],[139.63441,35.92486],[139.63429,35.92484],[139.63407,35.92481],[139.63409,35.9247],[139.63425,35.92426],[139.63414,35.92424],[139.63407,35.92423],[139.63394,35.92421],[139.63388,35.9242],[139.63325,35.92411],[139.63309,35.92409],[139.63309,35.92409],[139.63307,35.92408],[139.63302,35.92407],[139.63286,35.92403],[139.63274,35.924],[139.63235,35.92389],[139.63232,35.92388],[139.63189,35.92378],[139.63175,35.92375],[139.63173,35.92374],[139.63169,35.92373],[139.63117,35.92352],[139.63065,35.92332],[139.63063,35.92331],[139.6305,35.92328],[139.6305,35.92328],[139.62985,35.92311],[139.62971,35.92307],[139.62953,35.92302],[139.6292,35.92291],[139.62891,35.92278],[139.62843,35.92256],[139.62818,35.92244],[139.62784,35.92237],[139.62783,35.92237],[139.62787,35.92227],[139.62789,35.9222],[139.62779,35.92213],[139.62772,35.92215],[139.62766,35.92213],[139.62769,35.92206],[139.62734,35.92181],[139.6272,35.92171],[139.62711,35.92163],[139.62699,35.92171],[139.62691,35.92169],[139.62685,35.92167],[139.62674,35.92166],[139.62697,35.92215],[139.62704,35.92229],[139.62773,35.92355],[139.62764,35.92374],[139.62741,35.92432],[139.62725,35.92473],[139.6271,35.92509],[139.62683,35.9257],[139.62665,35.92607],[139.62659,35.9262],[139.62643,35.92665],[139.62603,35.9276],[139.62555,35.92872],[139.62611,35.92892],[139.6267,35.92908],[139.62724,35.92924],[139.62758,35.92935],[139.62804,35.92948],[139.6286,35.92963],[139.62867,35.92968],[139.62873,35.92962],[139.62877,35.9294]]]}},{"type":"Feature","properties":{"name":"土呂町","setai":317,"jinko":600,"key":"11102011000","units":1},"geometry":{"type":"MultiPolygon","coordinates":[[[[139.63885,35.92721],[139.63886,35.9271],[139.63887,35.92698],[139.63886,35.92689],[139.63886,35.92687],[139.63884,35.92679],[139.63882,35.92672],[139.63872,35.92638],[139.63865,35.92621],[139.63856,35.9261],[139.63832,35.92592],[139.63823,35.92584],[139.63602,35.92484],[139.63576,35.92472],[139.63503,35.92443],[139.63492,35.92439],[139.63467,35.92434],[139.63454,35.92431],[139.63425,35.92426],[139.63409,35.9247],[139.63407,35.92481],[139.63429,35.92484],[139.63441,35.92486],[139.63452,35.92487],[139.63465,35.92488],[139.6346,35.92502],[139.63453,35.92529],[139.63441,35.92563],[139.6343,35.92591],[139.6342,35.92617],[139.63413,35.92634],[139.63403,35.9266],[139.6341,35.92665],[139.63422,35.9267],[139.63434,35.92669],[139.63463,35.9268],[139.6348,35.92677],[139.635,35.92676],[139.635,35.92685],[139.63498,35.92713],[139.6356,35.9271],[139.63591,35.92711],[139.63622,35.92716],[139.63653,35.92726],[139.63681,35.92744],[139.63699,35.92759],[139.63725,35.92781],[139.63747,35.92802],[139.63763,35.92812],[139.63768,35.92815],[139.63815,35.92816],[139.63852,35.92814],[139.63865,35.9278],[139.63871,35.92762],[139.63885,35.92721]]],[[[139.62762,35.93536],[139.62783,35.93491],[139.62788,35.93492],[139.62808,35.93448],[139.62824,35.93408],[139.62849,35.93332],[139.62853,35.93325],[139.62846,35.93322],[139.62775,35.93298],[139.62709,35.93276],[139.62687,35.93269],[139.62672,35.93299],[139.62663,35.9332],[139.62659,35.93329],[139.62636,35.93375],[139.62623,35.93404],[139.62609,35.93434],[139.62594,35.93464],[139.62579,35.93496],[139.62564,35.93525],[139.62644,35.9355],[139.62657,35.93554],[139.62694,35.93565],[139.62737,35.93579],[139.62741,35.9358],[139.62756,35.93549],[139.62762,35.93536]]]]}},{"type":"Feature","properties":{"name":"土呂町一丁目","setai":2999,"jinko":6164,"key":"11102011001","units":1},"geometry":{"type":"Polygon","coordinates":[[[139.63525,35.93765],[139.6352,35.93759],[139.63503,35.93725],[139.63496,35.9371],[139.63481,35.93679],[139.63474,35.93667],[139.63459,35.93643],[139.63428,35.93583],[139.6339,35.93514],[139.63374,35.93483],[139.63363,35.93461],[139.63336,35.9341],[139.63334,35.93406],[139.63292,35.9332],[139.63234,35.932],[139.63202,35.93141],[139.6315,35.93048],[139.63139,35.93028],[139.63086,35.92932],[139.63077,35.92936],[139.63053,35.92942],[139.63037,35.92945],[139.63016,35.92946],[139.62942,35.92942],[139.62918,35.92936],[139.62883,35.92927],[139.62877,35.9294],[139.62873,35.92962],[139.62867,35.92968],[139.62882,35.92983],[139.62896,35.92998],[139.62896,35.93004],[139.62904,35.93023],[139.62913,35.9305],[139.62909,35.93084],[139.62906,35.93089],[139.62905,35.93104],[139.62903,35.93138],[139.62902,35.9314],[139.62906,35.93159],[139.6291,35.93175],[139.62912,35.93186],[139.62913,35.93204],[139.62912,35.93206],[139.62906,35.93228],[139.62899,35.93252],[139.62894,35.9326],[139.62888,35.93279],[139.62887,35.93293],[139.62886,35.93303],[139.62887,35.93316],[139.62886,35.93337],[139.62872,35.93332],[139.62853,35.93325],[139.62849,35.93332],[139.62824,35.93408],[139.62808,35.93448],[139.62788,35.93492],[139.62783,35.93491],[139.62762,35.93536],[139.62756,35.93549],[139.62741,35.9358],[139.62775,35.93592],[139.62755,35.93629],[139.62789,35.9364],[139.62818,35.93651],[139.62874,35.93671],[139.62864,35.93688],[139.62846,35.93716],[139.62875,35.93743],[139.62903,35.93771],[139.62938,35.93798],[139.62963,35.93762],[139.62985,35.9373],[139.6301,35.93741],[139.63049,35.93759],[139.63083,35.93777],[139.63138,35.93807],[139.63149,35.93788],[139.63162,35.93762],[139.63284,35.93823],[139.63347,35.93855],[139.63379,35.93867],[139.63399,35.93878],[139.63431,35.93895],[139.635,35.93923],[139.63601,35.93909],[139.6359,35.93889],[139.63571,35.93856],[139.63548,35.9381],[139.63535,35.93787],[139.63525,35.93765]]]}},{"type":"Feature","properties":{"name":"土呂町二丁目","setai":2761,"jinko":5502,"key":"11102011002","units":1},"geometry":{"type":"Polygon","coordinates":[[[139.63741,35.93561],[139.63754,35.93545],[139.638,35.93554],[139.63806,35.93539],[139.63814,35.93516],[139.63823,35.93486],[139.63824,35.93462],[139.6382,35.93438],[139.63812,35.9342],[139.63797,35.93399],[139.63793,35.93395],[139.6378,35.93391],[139.63761,35.93387],[139.63741,35.9336],[139.63735,35.93346],[139.63731,35.93333],[139.6372,35.93316],[139.63726,35.93296],[139.63727,35.9329],[139.6373,35.93282],[139.63736,35.93262],[139.6375,35.93233],[139.63756,35.93218],[139.63763,35.93201],[139.63769,35.93186],[139.63776,35.93171],[139.63783,35.93152],[139.63786,35.93133],[139.63788,35.9312],[139.63792,35.93108],[139.63797,35.93099],[139.63809,35.93089],[139.63824,35.9308],[139.63839,35.93076],[139.63853,35.93072],[139.63863,35.93069],[139.63873,35.93063],[139.63877,35.93054],[139.63875,35.93034],[139.63855,35.93004],[139.63838,35.92985],[139.63826,35.92968],[139.63817,35.92953],[139.6381,35.92938],[139.63813,35.92926],[139.63834,35.92865],[139.63852,35.92814],[139.63815,35.92816],[139.63768,35.92815],[139.63763,35.92812],[139.63747,35.92802],[139.63725,35.92781],[139.63699,35.92759],[139.63681,35.92744],[139.63653,35.92726],[139.63622,35.92716],[139.63591,35.92711],[139.6356,35.9271],[139.63498,35.92713],[139.635,35.92685],[139.635,35.92676],[139.6348,35.92677],[139.63463,35.9268],[139.63434,35.92669],[139.63422,35.9267],[139.63397,35.92713],[139.63391,35.92724],[139.63361,35.92746],[139.63365,35.92755],[139.63373,35.9277],[139.63351,35.92788],[139.63329,35.92798],[139.63295,35.92811],[139.63237,35.92826],[139.63215,35.92833],[139.63203,35.92842],[139.6319,35.92854],[139.63179,35.92868],[139.63165,35.92882],[139.63149,35.92896],[139.63138,35.92906],[139.63125,35.92913],[139.63114,35.92919],[139.63099,35.92927],[139.63086,35.92932],[139.63139,35.93028],[139.6315,35.93048],[139.63202,35.93141],[139.63234,35.932],[139.63292,35.9332],[139.63334,35.93406],[139.63336,35.9341],[139.63363,35.93461],[139.63374,35.93483],[139.6339,35.93514],[139.63428,35.93583],[139.63459,35.93643],[139.63474,35.93667],[139.63481,35.93679],[139.63496,35.9371],[139.63503,35.93725],[139.6352,35.93759],[139.63525,35.93765],[139.63535,35.93787],[139.63548,35.9381],[139.63571,35.93856],[139.6359,35.93889],[139.63601,35.93909],[139.63606,35.93919],[139.63628,35.93909],[139.63639,35.93897],[139.63645,35.93888],[139.63661,35.93861],[139.63679,35.93836],[139.63697,35.93814],[139.63712,35.93797],[139.63722,35.93785],[139.63738,35.93763],[139.63747,35.93737],[139.6375,35.93727],[139.6375,35.93697],[139.63748,35.93679],[139.63742,35.93654],[139.63734,35.93618],[139.63729,35.93589],[139.63733,35.93575],[139.63736,35.93568],[139.63741,35.93561]]]}},{"type":"Feature","properties":{"name":"今羽町","setai":1718,"jinko":3992,"key":"111020130","units":1},"geometry":{"type":"Polygon","coordinates":[[[139.62261,35.95807],[139.62265,35.95753],[139.623,35.95765],[139.62356,35.95662],[139.62386,35.95608],[139.62397,35.9559],[139.6249,35.95422],[139.62531,35.95346],[139.62556,35.953],[139.62582,35.95249],[139.62632,35.95159],[139.62662,35.95102],[139.62677,35.95074],[139.62678,35.95072],[139.62699,35.95039],[139.62715,35.95016],[139.62737,35.95],[139.62773,35.94979],[139.62817,35.94956],[139.62878,35.94925],[139.62941,35.94894],[139.62906,35.94893],[139.62863,35.94892],[139.62836,35.94885],[139.62803,35.94874],[139.62616,35.94807],[139.62576,35.94792],[139.62542,35.94781],[139.62521,35.94773],[139.62479,35.94758],[139.62441,35.94745],[139.62409,35.94739],[139.62379,35.94736],[139.62289,35.94732],[139.62242,35.94731],[139.62211,35.94729],[139.62203,35.94748],[139.62178,35.94742],[139.62175,35.94751],[139.62186,35.94754],[139.62186,35.94754],[139.62188,35.94755],[139.62181,35.94772],[139.62176,35.94771],[139.62167,35.94787],[139.62138,35.94779],[139.62113,35.94806],[139.62109,35.94805],[139.62096,35.94801],[139.62078,35.94799],[139.62077,35.94799],[139.62052,35.94839],[139.6204,35.94858],[139.61971,35.94826],[139.61936,35.9486],[139.61934,35.94862],[139.6194,35.94897],[139.61944,35.94915],[139.61967,35.95036],[139.61968,35.95045],[139.61983,35.95107],[139.62019,35.953],[139.62028,35.95346],[139.62044,35.95435],[139.62075,35.95601],[139.62078,35.9562],[139.62107,35.95776],[139.62168,35.95788],[139.62169,35.95788],[139.62244,35.95803],[139.62261,35.95807]]]}},{"type":"Feature","properties":{"name":"本郷町","setai":4772,"jinko":11255,"key":"111020140","units":1},"geometry":{"type":"Polygon","coordinates":[[[139.63273,35.94619],[139.63299,35.94585],[139.63312,35.94567],[139.63322,35.94554],[139.63397,35.94456],[139.63423,35.94432],[139.63463,35.94402],[139.63475,35.94396],[139.63494,35.94372],[139.6351,35.94353],[139.63529,35.94329],[139.63563,35.94291],[139.63615,35.94234],[139.63632,35.94214],[139.63654,35.94191],[139.63665,35.94176],[139.63679,35.94158],[139.63684,35.94149],[139.63696,35.94126],[139.63704,35.94117],[139.63632,35.93972],[139.63606,35.93919],[139.63601,35.93909],[139.635,35.93923],[139.63431,35.93895],[139.63399,35.93878],[139.63379,35.93867],[139.63347,35.93855],[139.63284,35.93823],[139.63162,35.93762],[139.63149,35.93788],[139.63138,35.93807],[139.63083,35.93777],[139.63049,35.93759],[139.6301,35.93741],[139.62985,35.9373],[139.62963,35.93762],[139.62938,35.93798],[139.62903,35.93771],[139.62875,35.93743],[139.62846,35.93716],[139.62864,35.93688],[139.62874,35.93671],[139.62818,35.93651],[139.62789,35.9364],[139.62755,35.93629],[139.62775,35.93592],[139.62741,35.9358],[139.62737,35.93579],[139.62694,35.93565],[139.62657,35.93554],[139.62644,35.9355],[139.62564,35.93525],[139.62555,35.93547],[139.62551,35.93569],[139.62546,35.93589],[139.62531,35.93626],[139.62505,35.9368],[139.62479,35.93733],[139.62473,35.93744],[139.62443,35.93802],[139.62435,35.9382],[139.62419,35.93852],[139.62409,35.93872],[139.62394,35.93903],[139.62376,35.93928],[139.62359,35.93952],[139.6235,35.93965],[139.62339,35.93978],[139.62317,35.94011],[139.62312,35.94018],[139.62282,35.94066],[139.62232,35.94149],[139.62225,35.9416],[139.6222,35.94166],[139.62206,35.94189],[139.6219,35.94212],[139.62174,35.94238],[139.62159,35.94258],[139.62148,35.94276],[139.62138,35.94295],[139.6212,35.9432],[139.62105,35.94345],[139.62084,35.94378],[139.62062,35.9441],[139.62045,35.94436],[139.62018,35.9448],[139.62004,35.94499],[139.61986,35.94526],[139.61971,35.94551],[139.61959,35.94571],[139.61938,35.94603],[139.61928,35.94618],[139.61919,35.94633],[139.61948,35.94634],[139.61968,35.9463],[139.6199,35.94632],[139.61994,35.94634],[139.61995,35.94635],[139.62043,35.94658],[139.62054,35.9466],[139.62089,35.94663],[139.62103,35.94664],[139.62116,35.94658],[139.62125,35.94663],[139.62156,35.9463],[139.62193,35.94592],[139.62197,35.94609],[139.62207,35.94646],[139.62212,35.94674],[139.62214,35.94695],[139.62214,35.94699],[139.62215,35.94712],[139.62211,35.94729],[139.62242,35.94731],[139.62289,35.94732],[139.62379,35.94736],[139.62409,35.94739],[139.62441,35.94745],[139.62479,35.94758],[139.62521,35.94773],[139.62542,35.94781],[139.62576,35.94792],[139.62616,35.94807],[139.62803,35.94874],[139.62836,35.94885],[139.62863,35.94892],[139.62906,35.94893],[139.62941,35.94894],[139.62965,35.94895],[139.62997,35.94894],[139.63077,35.94845],[139.63109,35.94822],[139.63135,35.94793],[139.63171,35.94751],[139.632,35.94717],[139.63226,35.94681],[139.6325,35.94649],[139.63273,35.94619]]]}},{"type":"Feature","properties":{"name":"見沼一丁目","setai":0,"jinko":0,"key":"11102015001","units":1},"geometry":{"type":"Polygon","coordinates":[[[139.6419,35.92699],[139.64197,35.92671],[139.64206,35.92652],[139.64222,35.92648],[139.64245,35.9264],[139.64275,35.92632],[139.64284,35.92626],[139.64285,35.92609],[139.64281,35.92595],[139.64279,35.92565],[139.64279,35.92552],[139.64291,35.92535],[139.64286,35.92527],[139.64289,35.92493],[139.64315,35.92483],[139.64315,35.92483],[139.64343,35.92472],[139.64349,35.92469],[139.6435,35.92464],[139.6435,35.92463],[139.64349,35.92463],[139.64324,35.92464],[139.64291,35.92465],[139.64267,35.92462],[139.6424,35.92457],[139.64199,35.92436],[139.64165,35.92414],[139.64124,35.92388],[139.64068,35.9235],[139.63906,35.92242],[139.63871,35.92223],[139.63831,35.92266],[139.63809,35.92287],[139.63802,35.92296],[139.63796,35.92308],[139.63796,35.92309],[139.6379,35.92351],[139.63788,35.92369],[139.63786,35.92384],[139.6378,35.92442],[139.63779,35.92481],[139.6378,35.92523],[139.63784,35.92539],[139.63797,35.92563],[139.63986,35.92648],[139.64051,35.92677],[139.64139,35.92715],[139.64192,35.9274],[139.6419,35.92708],[139.6419,35.92699]]]}},{"type":"Feature","properties":{"name":"見沼二丁目","setai":0,"jinko":0,"key":"11102015002","units":1},"geometry":{"type":"Polygon","coordinates":[[[139.64246,35.93565],[139.64258,35.93547],[139.64256,35.9353],[139.6425,35.93511],[139.64241,35.93495],[139.64239,35.93487],[139.64246,35.9347],[139.6425,35.93464],[139.64256,35.93456],[139.64265,35.93438],[139.64272,35.93421],[139.64274,35.93412],[139.64269,35.93404],[139.64261,35.93391],[139.64253,35.93379],[139.64249,35.93368],[139.64247,35.93359],[139.64246,35.93349],[139.64245,35.93339],[139.64247,35.93326],[139.64249,35.93304],[139.64243,35.93288],[139.64236,35.93271],[139.64232,35.93259],[139.64233,35.93248],[139.64237,35.93227],[139.64236,35.93216],[139.64239,35.93202],[139.64237,35.93173],[139.64236,35.93165],[139.64212,35.93112],[139.64205,35.93091],[139.64205,35.93081],[139.64207,35.93071],[139.64209,35.93059],[139.64211,35.93039],[139.64211,35.93013],[139.64207,35.93003],[139.64201,35.92989],[139.64191,35.92968],[139.64188,35.92959],[139.64192,35.92947],[139.64208,35.92909],[139.64213,35.9289],[139.64216,35.92878],[139.64224,35.92847],[139.6423,35.92827],[139.64232,35.92812],[139.6423,35.92799],[139.64224,35.92788],[139.64212,35.92775],[139.64202,35.92767],[139.64191,35.92756],[139.64192,35.9274],[139.64139,35.92715],[139.64051,35.92677],[139.63986,35.92648],[139.63797,35.92563],[139.63823,35.92584],[139.63832,35.92592],[139.63856,35.9261],[139.63865,35.92621],[139.63872,35.92638],[139.63882,35.92672],[139.63884,35.92679],[139.63886,35.92687],[139.63886,35.92689],[139.63887,35.92698],[139.63886,35.9271],[139.63885,35.92721],[139.63871,35.92762],[139.63865,35.9278],[139.63852,35.92814],[139.63834,35.92865],[139.63813,35.92926],[139.6381,35.92938],[139.63817,35.92953],[139.63826,35.92968],[139.63838,35.92985],[139.63855,35.93004],[139.63875,35.93034],[139.63877,35.93054],[139.63873,35.93063],[139.63863,35.93069],[139.63853,35.93072],[139.63839,35.93076],[139.63824,35.9308],[139.63809,35.93089],[139.63797,35.93099],[139.63792,35.93108],[139.63788,35.9312],[139.63786,35.93133],[139.63783,35.93152],[139.63776,35.93171],[139.63769,35.93186],[139.63763,35.93201],[139.63756,35.93218],[139.6375,35.93233],[139.63736,35.93262],[139.6373,35.93282],[139.63727,35.9329],[139.63726,35.93296],[139.6372,35.93316],[139.63731,35.93333],[139.63735,35.93346],[139.63741,35.9336],[139.63761,35.93387],[139.6378,35.93391],[139.63793,35.93395],[139.63797,35.93399],[139.63812,35.9342],[139.6382,35.93438],[139.63824,35.93462],[139.63823,35.93486],[139.63814,35.93516],[139.63806,35.93539],[139.638,35.93554],[139.63977,35.93589],[139.64227,35.93642],[139.64217,35.93625],[139.64212,35.93615],[139.64212,35.93605],[139.64216,35.93596],[139.64234,35.93575],[139.64246,35.93565]]]}},{"type":"Feature","properties":{"name":"見沼三丁目","setai":0,"jinko":0,"key":"11102015003","units":1},"geometry":{"type":"Polygon","coordinates":[[[139.63852,35.94138],[139.639,35.94112],[139.63931,35.94096],[139.63957,35.94083],[139.64018,35.94055],[139.64052,35.94037],[139.64088,35.94021],[139.64083,35.94014],[139.64116,35.94005],[139.64148,35.93991],[139.64182,35.93973],[139.64215,35.93955],[139.6423,35.93947],[139.64251,35.93924],[139.64257,35.93907],[139.64261,35.93894],[139.64261,35.93867],[139.64262,35.93861],[139.64262,35.93846],[139.64262,35.93839],[139.64262,35.93812],[139.64259,35.93792],[139.64248,35.93775],[139.64238,35.93764],[139.64225,35.93748],[139.64222,35.9374],[139.64225,35.93725],[139.64229,35.93699],[139.64228,35.93666],[139.64227,35.93642],[139.63977,35.93589],[139.638,35.93554],[139.63754,35.93545],[139.63741,35.93561],[139.63736,35.93568],[139.63733,35.93575],[139.63729,35.93589],[139.63734,35.93618],[139.63742,35.93654],[139.63748,35.93679],[139.6375,35.93697],[139.6375,35.93727],[139.63747,35.93737],[139.63738,35.93763],[139.63722,35.93785],[139.63712,35.93797],[139.63697,35.93814],[139.63679,35.93836],[139.63661,35.93861],[139.63645,35.93888],[139.63639,35.93897],[139.63628,35.93909],[139.63606,35.93919],[139.63632,35.93972],[139.63704,35.94117],[139.63713,35.94137],[139.63724,35.94161],[139.63752,35.94218],[139.63762,35.94235],[139.63776,35.94225],[139.63789,35.94202],[139.63798,35.94185],[139.63812,35.94166],[139.63832,35.94151],[139.63852,35.94138]]]}}]}