{"type":"FeatureCollection","features":[{"type":"Feature","properties":{"name":"山王一丁目","setai":953,"jinko":1305,"key":"27122001001","units":1,"m":749,"f":556,"gk":87,"a0":44,"a1":741,"a2":437,"a75":218,"ag":[13,11,20,22,78,96,76,61,49,76,101,85,97,89,130,93,65,49,6,5,0],"nf":83},"geometry":{"type":"Polygon","coordinates":[[[135.50633,34.6487],[135.50692,34.64856],[135.50692,34.64857],[135.50705,34.64854],[135.50705,34.64854],[135.50706,34.64853],[135.50744,34.64843],[135.50771,34.64838],[135.50791,34.64835],[135.50794,34.64834],[135.508,34.64832],[135.50847,34.64819],[135.50849,34.64818],[135.50849,34.64808],[135.50849,34.64808],[135.50849,34.64801],[135.50849,34.648],[135.50849,34.64793],[135.50849,34.64786],[135.50849,34.64786],[135.50849,34.64782],[135.50868,34.64777],[135.50847,34.64723],[135.50825,34.64708],[135.50823,34.64708],[135.50823,34.64708],[135.50818,34.64708],[135.50816,34.64708],[135.50807,34.64684],[135.50796,34.64655],[135.50795,34.64654],[135.5082,34.64648],[135.50814,34.64634],[135.50813,34.64632],[135.50796,34.64575],[135.50776,34.6458],[135.50774,34.64573],[135.50748,34.64582],[135.50739,34.64585],[135.5072,34.64591],[135.50702,34.64597],[135.50673,34.64605],[135.50653,34.64612],[135.50645,34.64614],[135.50612,34.64624],[135.50584,34.64632],[135.50565,34.64636],[135.50542,34.6464],[135.5052,34.64644],[135.50457,34.64654],[135.5046,34.6466],[135.50462,34.64666],[135.50469,34.64681],[135.50478,34.64701],[135.50498,34.64736],[135.50499,34.64738],[135.50513,34.64765],[135.50527,34.64792],[135.50537,34.64809],[135.50542,34.6482],[135.50558,34.64859],[135.50568,34.64886],[135.50578,34.64884],[135.50625,34.64872],[135.50633,34.6487]]]}},{"type":"Feature","properties":{"name":"山王二丁目","setai":1087,"jinko":1379,"key":"27122001002","units":1,"m":920,"f":459,"gk":54,"a0":38,"a1":632,"a2":581,"a75":301,"ag":[10,13,15,31,74,76,46,38,50,74,85,79,79,113,167,149,82,52,16,1,1],"nf":128},"geometry":{"type":"Polygon","coordinates":[[[135.50748,34.64582],[135.50774,34.64573],[135.50776,34.6458],[135.50796,34.64575],[135.50796,34.64574],[135.50789,34.64575],[135.50786,34.64575],[135.50775,34.64541],[135.50772,34.64535],[135.50773,34.64526],[135.50774,34.64523],[135.50771,34.64514],[135.5077,34.64514],[135.5077,34.64511],[135.50767,34.64503],[135.50765,34.64499],[135.50764,34.64497],[135.50757,34.64488],[135.50756,34.64488],[135.50749,34.6448],[135.50745,34.64473],[135.5074,34.64465],[135.50737,34.64457],[135.50732,34.64444],[135.50732,34.64442],[135.50731,34.64435],[135.50728,34.64433],[135.50713,34.64422],[135.50704,34.6442],[135.50656,34.64426],[135.50628,34.64432],[135.50569,34.64446],[135.50539,34.64457],[135.50518,34.64464],[135.50489,34.64474],[135.50486,34.64469],[135.50466,34.64475],[135.50468,34.64481],[135.50451,34.64487],[135.50428,34.64496],[135.50376,34.64515],[135.50378,34.64517],[135.50407,34.64553],[135.50408,34.64555],[135.50418,34.64567],[135.50426,34.64585],[135.50444,34.64627],[135.50447,34.64635],[135.50457,34.64654],[135.5052,34.64644],[135.50542,34.6464],[135.50565,34.64636],[135.50584,34.64632],[135.50612,34.64624],[135.50645,34.64614],[135.50653,34.64612],[135.50673,34.64605],[135.50702,34.64597],[135.5072,34.64591],[135.50739,34.64585],[135.50748,34.64582]]]}},{"type":"Feature","properties":{"name":"山王三丁目","setai":1034,"jinko":1186,"key":"27122001003","units":1,"m":919,"f":267,"gk":65,"a0":17,"a1":532,"a2":621,"a75":270,"ag":[0,6,11,11,44,28,27,30,45,61,79,92,115,163,188,139,77,41,11,2,0],"nf":16},"geometry":{"type":"Polygon","coordinates":[[[135.50376,34.64515],[135.50428,34.64496],[135.50451,34.64487],[135.50468,34.64481],[135.50466,34.64475],[135.50486,34.64469],[135.50489,34.64474],[135.50518,34.64464],[135.50539,34.64457],[135.50569,34.64446],[135.50628,34.64432],[135.50656,34.64426],[135.50704,34.6442],[135.50699,34.64419],[135.50698,34.64411],[135.50697,34.64398],[135.50696,34.64393],[135.50696,34.64378],[135.50695,34.64371],[135.50697,34.64356],[135.50688,34.64337],[135.50679,34.64322],[135.50667,34.64305],[135.50659,34.64294],[135.50639,34.64259],[135.50638,34.64256],[135.50633,34.64239],[135.50628,34.64217],[135.50624,34.64204],[135.50609,34.64205],[135.50535,34.64214],[135.50504,34.64217],[135.50437,34.64226],[135.50414,34.64229],[135.50342,34.64237],[135.50326,34.64239],[135.50244,34.64248],[135.50257,34.64289],[135.50269,34.64316],[135.50281,34.64332],[135.50294,34.64356],[135.50305,34.64374],[135.50318,34.64403],[135.50333,34.64436],[135.50335,34.64445],[135.50339,34.64458],[135.50351,34.64477],[135.50362,34.64497],[135.50363,34.64497],[135.50376,34.64515]]]}},{"type":"Feature","properties":{"name":"太子一丁目","setai":1380,"jinko":1582,"key":"27122002001","units":1,"m":1342,"f":240,"gk":65,"a0":13,"a1":525,"a2":614,"a75":279,"ag":[3,3,7,5,15,34,27,23,43,69,86,106,117,147,188,125,93,49,12,0,0],"nf":430},"geometry":{"type":"Polygon","coordinates":[[[135.50447,34.64635],[135.50444,34.64627],[135.50417,34.6463],[135.50402,34.64631],[135.50371,34.64633],[135.50344,34.64641],[135.50294,34.64657],[135.50298,34.64677],[135.503,34.64688],[135.50261,34.64693],[135.50262,34.64701],[135.50265,34.64715],[135.50265,34.64716],[135.50266,34.64721],[135.50269,34.64737],[135.50272,34.64753],[135.5028,34.64786],[135.50286,34.64809],[135.50286,34.64809],[135.50291,34.64826],[135.50293,34.64835],[135.50302,34.6486],[135.50303,34.64863],[135.50308,34.64878],[135.50311,34.64889],[135.5032,34.64915],[135.5033,34.64943],[135.5036,34.64934],[135.50367,34.64933],[135.50383,34.6493],[135.50401,34.64927],[135.50424,34.64922],[135.5043,34.64921],[135.50453,34.64915],[135.5049,34.64906],[135.50518,34.64899],[135.50526,34.64896],[135.50568,34.64886],[135.50558,34.64859],[135.50542,34.6482],[135.50537,34.64809],[135.50527,34.64792],[135.50513,34.64765],[135.50499,34.64738],[135.50498,34.64736],[135.50478,34.64701],[135.50469,34.64681],[135.50462,34.64666],[135.5046,34.6466],[135.50457,34.64654],[135.50447,34.64635]]]}},{"type":"Feature","properties":{"name":"太子二丁目","setai":333,"jinko":368,"key":"27122002002","units":1,"m":317,"f":51,"gk":15,"a0":0,"a1":101,"a2":239,"a75":114,"ag":[0,0,0,1,3,3,4,5,2,14,14,23,32,53,72,53,36,24,1,0,0],"nf":28},"geometry":{"type":"Polygon","coordinates":[[[135.50376,34.64515],[135.50363,34.64497],[135.50362,34.64497],[135.50331,34.64507],[135.50308,34.64515],[135.50301,34.64517],[135.50266,34.64528],[135.50251,34.64531],[135.50245,34.64531],[135.50229,34.64533],[135.50234,34.64559],[135.50239,34.64576],[135.50244,34.64604],[135.50251,34.64642],[135.50253,34.64653],[135.50257,34.64679],[135.50259,34.64688],[135.50261,34.64693],[135.503,34.64688],[135.50298,34.64677],[135.50294,34.64657],[135.50344,34.64641],[135.50371,34.64633],[135.50402,34.64631],[135.50417,34.6463],[135.50444,34.64627],[135.50426,34.64585],[135.50418,34.64567],[135.50408,34.64555],[135.50407,34.64553],[135.50378,34.64517],[135.50376,34.64515]]]}},{"type":"Feature","properties":{"name":"萩之茶屋一丁目","setai":3780,"jinko":4317,"key":"27122003001","units":1,"m":3968,"f":349,"gk":62,"a0":2,"a1":1222,"a2":1908,"a75":813,"ag":[0,1,1,4,17,30,25,71,99,168,243,250,315,512,583,392,245,124,38,14,0],"nf":1185},"geometry":{"type":"Polygon","coordinates":[[[135.50266,34.64721],[135.50265,34.64716],[135.50265,34.64715],[135.50262,34.64701],[135.50261,34.64693],[135.50259,34.64688],[135.50233,34.64692],[135.50179,34.64692],[135.50183,34.64717],[135.50143,34.64719],[135.50139,34.6472],[135.50137,34.6472],[135.50127,34.6472],[135.50124,34.6472],[135.50114,34.6472],[135.5011,34.64721],[135.50098,34.64721],[135.50086,34.64721],[135.5007,34.64722],[135.50049,34.64723],[135.50043,34.64723],[135.50035,34.64724],[135.50016,34.64724],[135.4996,34.64727],[135.49924,34.64728],[135.49935,34.64771],[135.49942,34.64797],[135.49942,34.64798],[135.49978,34.64933],[135.49997,34.64992],[135.50005,34.65025],[135.50038,34.65017],[135.50139,34.64991],[135.50175,34.64982],[135.50189,34.64979],[135.50204,34.64975],[135.50264,34.6496],[135.50269,34.64958],[135.50324,34.64945],[135.5033,34.64943],[135.5032,34.64915],[135.50311,34.64889],[135.50308,34.64878],[135.50303,34.64863],[135.50302,34.6486],[135.50293,34.64835],[135.50291,34.64826],[135.50286,34.64809],[135.50286,34.64809],[135.5028,34.64786],[135.50272,34.64753],[135.50269,34.64737],[135.50266,34.64721]]]}},{"type":"Feature","properties":{"name":"萩之茶屋二丁目","setai":3570,"jinko":3654,"key":"27122003002","units":1,"m":3519,"f":135,"gk":108,"a0":1,"a1":1139,"a2":1224,"a75":449,"ag":[1,0,0,11,47,39,43,53,89,131,224,227,275,361,414,235,145,57,11,0,1],"nf":1290},"geometry":{"type":"Polygon","coordinates":[[[135.50114,34.6472],[135.50124,34.6472],[135.50127,34.6472],[135.50137,34.6472],[135.50139,34.6472],[135.50143,34.64719],[135.50183,34.64717],[135.50179,34.64692],[135.50233,34.64692],[135.50259,34.64688],[135.50257,34.64679],[135.50253,34.64653],[135.50251,34.64642],[135.50244,34.64604],[135.50239,34.64576],[135.50234,34.64559],[135.50229,34.64533],[135.50156,34.64539],[135.50155,34.6454],[135.5004,34.64549],[135.50037,34.64549],[135.49924,34.64559],[135.49921,34.64559],[135.49887,34.64562],[135.49883,34.64565],[135.49889,34.64587],[135.49895,34.64608],[135.49899,34.64627],[135.49905,34.64651],[135.49914,34.64689],[135.49924,34.64728],[135.4996,34.64727],[135.50016,34.64724],[135.50035,34.64724],[135.50043,34.64723],[135.50049,34.64723],[135.5007,34.64722],[135.50086,34.64721],[135.50098,34.64721],[135.5011,34.64721],[135.50114,34.6472]]]}},{"type":"Feature","properties":{"name":"萩之茶屋三丁目","setai":1095,"jinko":1172,"key":"27122003003","units":1,"m":1027,"f":145,"gk":16,"a0":12,"a1":265,"a2":598,"a75":301,"ag":[4,3,5,3,4,13,9,8,18,32,58,58,62,114,183,140,101,46,12,2,0],"nf":297},"geometry":{"type":"Polygon","coordinates":[[[135.49945,34.64336],[135.49915,34.64305],[135.49851,34.64318],[135.49824,34.64323],[135.49822,34.6432],[135.4984,34.64389],[135.49847,34.64415],[135.49861,34.64468],[135.4987,34.64507],[135.49875,34.64524],[135.49887,34.64562],[135.49921,34.64559],[135.49924,34.64559],[135.50037,34.64549],[135.5004,34.64549],[135.50155,34.6454],[135.50156,34.64539],[135.50229,34.64533],[135.50245,34.64531],[135.50251,34.64531],[135.50229,34.64518],[135.50177,34.64487],[135.50137,34.64463],[135.50071,34.64424],[135.50034,34.64403],[135.50033,34.64402],[135.50026,34.64398],[135.49997,34.64378],[135.49972,34.64359],[135.49945,34.64336]]]}},{"type":"Feature","properties":{"name":"花園北一丁目","setai":1693,"jinko":2063,"key":"27122004001","units":1,"m":1532,"f":531,"gk":362,"a0":18,"a1":957,"a2":714,"a75":316,"ag":[5,4,9,13,197,151,74,51,58,81,95,117,120,173,225,163,79,50,21,3,0],"nf":374},"geometry":{"type":"Polygon","coordinates":[[[135.49924,34.64728],[135.49917,34.64725],[135.49877,34.64727],[135.49849,34.64729],[135.4983,34.64731],[135.49768,34.64735],[135.49711,34.64739],[135.49721,34.64788],[135.49721,34.64792],[135.49729,34.64837],[135.49734,34.64867],[135.49737,34.64878],[135.49739,34.64891],[135.49743,34.64912],[135.49745,34.64928],[135.49746,34.64939],[135.49753,34.64999],[135.4976,34.65044],[135.49761,34.65066],[135.49759,34.65084],[135.49881,34.65055],[135.49918,34.65046],[135.49937,34.65041],[135.49942,34.6504],[135.49997,34.65027],[135.50005,34.65025],[135.49997,34.64992],[135.49978,34.64933],[135.49942,34.64798],[135.49942,34.64797],[135.49935,34.64771],[135.49924,34.64728]]]}},{"type":"Feature","properties":{"name":"花園北二丁目","setai":2102,"jinko":2642,"key":"27122004002","units":1,"m":1779,"f":863,"gk":371,"a0":49,"a1":1340,"a2":1010,"a75":501,"ag":[18,14,17,30,268,187,81,85,83,123,150,149,184,215,294,220,157,91,30,3,0],"nf":243},"geometry":{"type":"Polygon","coordinates":[[[135.49877,34.64727],[135.49917,34.64725],[135.49924,34.64728],[135.49914,34.64689],[135.49905,34.64651],[135.49899,34.64627],[135.49895,34.64608],[135.49889,34.64587],[135.49883,34.64565],[135.49887,34.64562],[135.49875,34.64524],[135.4987,34.64507],[135.49861,34.64468],[135.49847,34.64415],[135.4984,34.64389],[135.49822,34.6432],[135.49786,34.64327],[135.4973,34.64337],[135.49641,34.64353],[135.49642,34.64359],[135.49648,34.64396],[135.49655,34.64434],[135.49668,34.6451],[135.49673,34.64534],[135.49673,34.64541],[135.49677,34.64558],[135.49682,34.64584],[135.49687,34.64612],[135.49689,34.64625],[135.49691,34.64625],[135.49699,34.64665],[135.49701,34.64681],[135.49704,34.64696],[135.49706,34.64712],[135.49711,34.64739],[135.49768,34.64735],[135.4983,34.64731],[135.49849,34.64729],[135.49877,34.64727]]]}},{"type":"Feature","properties":{"name":"花園南一丁目","setai":619,"jinko":940,"key":"27122005001","units":1,"m":501,"f":439,"gk":67,"a0":28,"a1":437,"a2":395,"a75":217,"ag":[8,9,11,28,42,44,29,32,40,58,51,55,58,81,97,85,72,44,11,4,1],"nf":80},"geometry":{"type":"Polygon","coordinates":[[[135.49786,34.64327],[135.49822,34.6432],[135.49824,34.64323],[135.49817,34.643],[135.4979,34.64195],[135.4979,34.64195],[135.49776,34.64145],[135.49769,34.64124],[135.49761,34.64094],[135.4976,34.64089],[135.4976,34.64088],[135.49733,34.64025],[135.49718,34.63989],[135.49714,34.63989],[135.49712,34.63989],[135.49698,34.63989],[135.49696,34.63989],[135.49683,34.63989],[135.49631,34.6399],[135.4963,34.6399],[135.49629,34.6399],[135.49546,34.63991],[135.49562,34.6404],[135.49562,34.64044],[135.49563,34.64046],[135.49575,34.64092],[135.49575,34.64094],[135.49589,34.64143],[135.49587,34.64143],[135.49602,34.64197],[135.49616,34.64246],[135.49624,34.64271],[135.49632,34.64301],[135.49637,34.64326],[135.49637,34.64328],[135.49641,34.64353],[135.4973,34.64337],[135.49786,34.64327]]]}},{"type":"Feature","properties":{"name":"花園南二丁目","setai":689,"jinko":1223,"key":"27122005002","units":1,"m":577,"f":646,"gk":88,"a0":88,"a1":668,"a2":459,"a75":275,"ag":[26,26,36,28,63,62,55,60,74,84,90,95,57,88,96,85,72,57,53,7,1],"nf":8},"geometry":{"type":"Polygon","coordinates":[[[135.49683,34.63989],[135.49696,34.63989],[135.49698,34.63989],[135.49712,34.63989],[135.49714,34.63989],[135.49718,34.63989],[135.49719,34.63989],[135.49731,34.63984],[135.49757,34.63973],[135.49758,34.63971],[135.49758,34.63955],[135.49739,34.63877],[135.49728,34.6384],[135.49721,34.63811],[135.49719,34.63805],[135.49709,34.63762],[135.49707,34.63747],[135.49634,34.63766],[135.49624,34.63768],[135.49553,34.63786],[135.49486,34.63788],[135.49496,34.63821],[135.49497,34.63823],[135.49502,34.63836],[135.49502,34.63838],[135.49516,34.63884],[135.49516,34.63888],[135.49517,34.6389],[135.49525,34.63919],[135.49531,34.6394],[135.49532,34.63942],[135.49546,34.63991],[135.49629,34.6399],[135.4963,34.6399],[135.49631,34.6399],[135.49683,34.63989]]]}},{"type":"Feature","properties":{"name":"天下茶屋北一丁目","setai":226,"jinko":438,"key":"27122006001","units":1,"m":354,"f":84,"gk":17,"a0":6,"a1":203,"a2":229,"a75":88,"ag":[3,1,2,2,10,1,6,9,16,23,25,57,54,62,79,47,26,11,4,0,0]},"geometry":{"type":"Polygon","coordinates":[[[135.50257,34.64289],[135.50244,34.64248],[135.50221,34.6425],[135.50218,34.64258],[135.50206,34.6426],[135.50193,34.64263],[135.50182,34.64254],[135.50164,34.64259],[135.50172,34.64294],[135.50184,34.6434],[135.5019,34.64366],[135.50193,34.64378],[135.50196,34.64384],[135.50202,34.64402],[135.50203,34.64405],[135.50209,34.64427],[135.50209,34.64428],[135.50216,34.64462],[135.50216,34.64463],[135.50217,34.64466],[135.50217,34.64468],[135.50222,34.64488],[135.50222,34.64488],[135.50229,34.64518],[135.50251,34.64531],[135.50266,34.64528],[135.50301,34.64517],[135.50308,34.64515],[135.50331,34.64507],[135.50362,34.64497],[135.50351,34.64477],[135.50339,34.64458],[135.50335,34.64445],[135.50333,34.64436],[135.50318,34.64403],[135.50305,34.64374],[135.50294,34.64356],[135.50281,34.64332],[135.50269,34.64316],[135.50257,34.64289]]]}},{"type":"Feature","properties":{"name":"天下茶屋北二丁目","setai":461,"jinko":694,"key":"27122006002","units":1,"m":454,"f":240,"gk":21,"a0":6,"a1":185,"a2":451,"a75":287,"ag":[1,2,3,6,9,19,6,8,14,24,22,40,37,71,93,66,87,82,40,8,4],"nf":52},"geometry":{"type":"Polygon","coordinates":[[[135.50172,34.64294],[135.50164,34.64259],[135.50153,34.6426],[135.5007,34.64276],[135.50017,34.64286],[135.50016,34.64287],[135.49915,34.64305],[135.49945,34.64336],[135.49972,34.64359],[135.49997,34.64378],[135.50026,34.64398],[135.50033,34.64402],[135.50034,34.64403],[135.50071,34.64424],[135.50137,34.64463],[135.50177,34.64487],[135.50229,34.64518],[135.50222,34.64488],[135.50222,34.64488],[135.50217,34.64468],[135.50217,34.64466],[135.50216,34.64463],[135.50216,34.64462],[135.50209,34.64428],[135.50209,34.64427],[135.50203,34.64405],[135.50202,34.64402],[135.50196,34.64384],[135.50193,34.64378],[135.5019,34.64366],[135.50184,34.6434],[135.50172,34.64294]]]}},{"type":"Feature","properties":{"name":"天下茶屋東一丁目","setai":702,"jinko":1296,"key":"27122007001","units":1,"m":658,"f":638,"gk":52,"a0":86,"a1":611,"a2":565,"a75":338,"ag":[15,30,41,35,58,49,53,56,52,76,88,84,60,96,131,128,107,78,25,0,0],"nf":34},"geometry":{"type":"Polygon","coordinates":[[[135.50218,34.64258],[135.50221,34.6425],[135.50244,34.64248],[135.50326,34.64239],[135.50342,34.64237],[135.50414,34.64229],[135.50437,34.64226],[135.50504,34.64217],[135.50535,34.64214],[135.50609,34.64205],[135.50624,34.64204],[135.50623,34.642],[135.50622,34.64195],[135.5062,34.64191],[135.50605,34.64161],[135.50584,34.64117],[135.50575,34.64097],[135.5057,34.64086],[135.50564,34.64076],[135.50552,34.64052],[135.5054,34.64028],[135.50532,34.64012],[135.5053,34.64005],[135.50496,34.64016],[135.50468,34.64027],[135.50424,34.64041],[135.50399,34.6405],[135.50363,34.64061],[135.503,34.6408],[135.50293,34.64082],[135.50275,34.64088],[135.50242,34.64097],[135.5019,34.64113],[135.50144,34.64129],[135.50137,34.64108],[135.50136,34.64097],[135.50117,34.64099],[135.50119,34.6411],[135.50124,34.64136],[135.50128,34.64149],[135.50128,34.6415],[135.50135,34.64179],[135.50141,34.64201],[135.50141,34.64203],[135.50147,34.64231],[135.50153,34.6426],[135.50164,34.64259],[135.50182,34.64254],[135.50193,34.64263],[135.50206,34.6426],[135.50218,34.64258]]]}},{"type":"Feature","properties":{"name":"天下茶屋東二丁目","setai":904,"jinko":1554,"key":"27122007002","units":1,"m":868,"f":686,"gk":75,"a0":156,"a1":812,"a2":506,"a75":279,"ag":[49,57,50,58,82,73,91,75,69,101,87,89,87,96,131,107,87,56,24,5,0],"nf":80},"geometry":{"type":"Polygon","coordinates":[[[135.5019,34.64113],[135.50242,34.64097],[135.50275,34.64088],[135.50293,34.64082],[135.503,34.6408],[135.50363,34.64061],[135.50399,34.6405],[135.50424,34.64041],[135.50468,34.64027],[135.50496,34.64016],[135.5053,34.64005],[135.50515,34.63984],[135.5051,34.63976],[135.50509,34.63974],[135.50502,34.63956],[135.50494,34.6394],[135.50493,34.63938],[135.50484,34.63922],[135.50476,34.63908],[135.50471,34.63899],[135.50463,34.63885],[135.50453,34.63865],[135.50444,34.63847],[135.50444,34.63846],[135.50439,34.63835],[135.50432,34.63825],[135.50428,34.63818],[135.50422,34.63807],[135.50418,34.63803],[135.50398,34.63812],[135.50392,34.638],[135.50351,34.63812],[135.50352,34.63819],[135.50302,34.63835],[135.50268,34.63846],[135.50268,34.63845],[135.50216,34.63861],[135.50192,34.63868],[135.50181,34.63872],[135.50146,34.63882],[135.50106,34.63894],[135.5011,34.63911],[135.50076,34.63917],[135.50086,34.63966],[135.5009,34.63966],[135.50091,34.63968],[135.50098,34.64002],[135.50095,34.64002],[135.501,34.64028],[135.50105,34.64046],[135.50108,34.6406],[135.50108,34.64063],[135.5011,34.64069],[135.50115,34.64091],[135.50116,34.64097],[135.50116,34.64098],[135.50117,34.64099],[135.50136,34.64097],[135.50137,34.64108],[135.50144,34.64129],[135.5019,34.64113]]]}},{"type":"Feature","properties":{"name":"天下茶屋一丁目","setai":1427,"jinko":2558,"key":"27122008001","units":1,"m":1483,"f":1075,"gk":106,"a0":104,"a1":1348,"a2":1066,"a75":515,"ag":[29,39,36,56,80,103,107,107,109,166,203,210,207,269,282,237,148,84,39,7,0],"nf":40},"geometry":{"type":"Polygon","coordinates":[[[135.50091,34.63968],[135.5009,34.63966],[135.50086,34.63966],[135.50076,34.63917],[135.49989,34.63928],[135.49988,34.63924],[135.49945,34.63929],[135.49873,34.63938],[135.49863,34.63939],[135.49837,34.63942],[135.49811,34.63945],[135.49795,34.63949],[135.49758,34.63955],[135.49758,34.63971],[135.49757,34.63973],[135.49731,34.63984],[135.49719,34.63989],[135.49718,34.63989],[135.49733,34.64025],[135.4976,34.64088],[135.4976,34.64089],[135.49761,34.64094],[135.49769,34.64124],[135.49776,34.64145],[135.4979,34.64195],[135.4979,34.64195],[135.49817,34.643],[135.49824,34.64323],[135.49851,34.64318],[135.49915,34.64305],[135.50016,34.64287],[135.50017,34.64286],[135.5007,34.64276],[135.50153,34.6426],[135.50147,34.64231],[135.50141,34.64203],[135.50141,34.64201],[135.50135,34.64179],[135.50128,34.6415],[135.50128,34.64149],[135.50124,34.64136],[135.50119,34.6411],[135.50117,34.64099],[135.50116,34.64098],[135.50116,34.64097],[135.50115,34.64091],[135.5011,34.64069],[135.50108,34.64063],[135.50108,34.6406],[135.50105,34.64046],[135.501,34.64028],[135.50095,34.64002],[135.50098,34.64002],[135.50091,34.63968]]]}},{"type":"Feature","properties":{"name":"天下茶屋二丁目","setai":1033,"jinko":1607,"key":"27122008002","units":1,"m":822,"f":785,"gk":106,"a0":57,"a1":836,"a2":650,"a75":340,"ag":[22,16,19,33,94,104,81,67,80,98,98,95,86,131,179,115,122,70,27,3,3],"nf":64},"geometry":{"type":"Polygon","coordinates":[[[135.49945,34.63929],[135.49988,34.63924],[135.49989,34.63928],[135.50076,34.63917],[135.5007,34.63886],[135.50064,34.63855],[135.5006,34.63837],[135.50053,34.63805],[135.50052,34.63796],[135.50026,34.63673],[135.49968,34.6369],[135.49922,34.63702],[135.49922,34.63701],[135.49857,34.63708],[135.49813,34.63714],[135.49765,34.63719],[135.49734,34.63723],[135.49722,34.63745],[135.49709,34.63762],[135.49719,34.63805],[135.49721,34.63811],[135.49728,34.6384],[135.49739,34.63877],[135.49758,34.63955],[135.49795,34.63949],[135.49811,34.63945],[135.49837,34.63942],[135.49863,34.63939],[135.49873,34.63938],[135.49945,34.63929]]]}},{"type":"Feature","properties":{"name":"天下茶屋三丁目","setai":1471,"jinko":2044,"key":"27122008003","units":1,"m":1151,"f":893,"gk":126,"a0":90,"a1":1193,"a2":704,"a75":379,"ag":[24,24,42,42,144,120,106,96,131,184,138,130,102,131,194,163,101,86,25,4,0],"nf":57},"geometry":{"type":"Polygon","coordinates":[[[135.49857,34.63708],[135.49922,34.63701],[135.49922,34.63702],[135.49968,34.6369],[135.50026,34.63673],[135.50021,34.63653],[135.50015,34.63627],[135.5001,34.63602],[135.49995,34.63541],[135.4999,34.63518],[135.49989,34.63509],[135.49988,34.63499],[135.49981,34.6347],[135.49976,34.63446],[135.4991,34.63435],[135.4989,34.63432],[135.49839,34.63423],[135.49816,34.63417],[135.49806,34.63406],[135.49757,34.63393],[135.49752,34.63393],[135.49663,34.63401],[135.49641,34.63405],[135.49602,34.63407],[135.49604,34.63413],[135.49616,34.63455],[135.49631,34.63502],[135.49669,34.6363],[135.49685,34.63673],[135.49695,34.6368],[135.49706,34.63725],[135.49707,34.63747],[135.49709,34.63762],[135.49722,34.63745],[135.49734,34.63723],[135.49765,34.63719],[135.49813,34.63714],[135.49857,34.63708]]]}},{"type":"Feature","properties":{"name":"聖天下一丁目","setai":749,"jinko":1369,"key":"27122009001","units":1,"m":694,"f":675,"gk":35,"a0":95,"a1":746,"a2":485,"a75":263,"ag":[29,32,34,53,64,61,53,54,71,111,91,101,87,110,112,116,91,47,6,2,1],"nf":43},"geometry":{"type":"Polygon","coordinates":[[[135.50216,34.63861],[135.50268,34.63845],[135.50268,34.63846],[135.50302,34.63835],[135.50352,34.63819],[135.50351,34.63812],[135.50392,34.638],[135.50384,34.63786],[135.50382,34.63786],[135.50365,34.63754],[135.50354,34.63727],[135.50349,34.63729],[135.50318,34.63662],[135.50307,34.63637],[135.50306,34.63633],[135.50303,34.6363],[135.50295,34.63627],[135.50292,34.63626],[135.50282,34.63612],[135.50272,34.63599],[135.50264,34.6359],[135.50254,34.63596],[135.50236,34.63601],[135.50227,34.63604],[135.50218,34.63613],[135.50223,34.63622],[135.50204,34.63631],[135.5018,34.63641],[135.50165,34.63646],[135.50164,34.63646],[135.50142,34.63651],[135.50115,34.63654],[135.50085,34.63659],[135.50077,34.63661],[135.50068,34.63663],[135.50048,34.63668],[135.50046,34.63669],[135.50026,34.63673],[135.50052,34.63796],[135.50053,34.63805],[135.5006,34.63837],[135.50064,34.63855],[135.5007,34.63886],[135.50076,34.63917],[135.5011,34.63911],[135.50106,34.63894],[135.50146,34.63882],[135.50181,34.63872],[135.50192,34.63868],[135.50216,34.63861]]]}},{"type":"Feature","properties":{"name":"聖天下二丁目","setai":438,"jinko":820,"key":"27122009002","units":1,"m":401,"f":419,"gk":23,"a0":70,"a1":427,"a2":308,"a75":171,"ag":[25,19,26,22,40,44,46,47,40,53,49,47,39,46,91,44,53,45,23,4,2],"nf":15},"geometry":{"type":"Polygon","coordinates":[[[135.50244,34.63549],[135.50244,34.63547],[135.50244,34.63547],[135.50238,34.63547],[135.50236,34.6353],[135.50238,34.6351],[135.50243,34.63505],[135.50239,34.63484],[135.50185,34.63483],[135.50145,34.63481],[135.50141,34.6348],[135.50091,34.63471],[135.50087,34.6347],[135.50066,34.63466],[135.50015,34.63454],[135.49976,34.63446],[135.49981,34.6347],[135.49988,34.63499],[135.49989,34.63509],[135.4999,34.63518],[135.49995,34.63541],[135.5001,34.63602],[135.50015,34.63627],[135.50021,34.63653],[135.50026,34.63673],[135.50046,34.63669],[135.50048,34.63668],[135.50068,34.63663],[135.50077,34.63661],[135.50085,34.63659],[135.50115,34.63654],[135.50142,34.63651],[135.50164,34.63646],[135.50165,34.63646],[135.5018,34.63641],[135.50204,34.63631],[135.50223,34.63622],[135.50218,34.63613],[135.50227,34.63604],[135.50236,34.63601],[135.50254,34.63596],[135.50264,34.6359],[135.50263,34.63588],[135.50262,34.63582],[135.50254,34.63566],[135.50244,34.63549]]]}},{"type":"Feature","properties":{"name":"天神ノ森一丁目","setai":595,"jinko":1152,"key":"27122010001","units":1,"m":566,"f":586,"gk":68,"a0":106,"a1":592,"a2":406,"a75":226,"ag":[28,34,44,45,61,61,43,58,70,56,71,56,71,87,93,78,69,47,27,5,0],"nf":48},"geometry":{"type":"Polygon","coordinates":[[[135.50235,34.63479],[135.50207,34.63478],[135.50207,34.63478],[135.50207,34.63478],[135.50188,34.63475],[135.50185,34.63474],[135.50185,34.63474],[135.50185,34.63474],[135.50184,34.63473],[135.50183,34.6347],[135.5018,34.63463],[135.50178,34.6346],[135.50177,34.63456],[135.50174,34.63451],[135.50173,34.63448],[135.50172,34.63446],[135.50173,34.63446],[135.50174,34.63446],[135.50175,34.63445],[135.50177,34.63445],[135.50178,34.63445],[135.50179,34.63444],[135.50181,34.63444],[135.50182,34.63443],[135.50185,34.63442],[135.50186,34.63442],[135.50188,34.63442],[135.50188,34.63442],[135.50189,34.63441],[135.50187,34.63437],[135.50186,34.63436],[135.50179,34.6342],[135.50154,34.63364],[135.5014,34.63328],[135.50114,34.63262],[135.50103,34.63266],[135.50098,34.63268],[135.50096,34.63264],[135.50091,34.63252],[135.50087,34.63251],[135.50087,34.63249],[135.50082,34.6324],[135.5008,34.63234],[135.50079,34.63229],[135.50079,34.63227],[135.50078,34.63225],[135.50077,34.63218],[135.50057,34.63187],[135.50048,34.6317],[135.50041,34.63117],[135.50043,34.63113],[135.50045,34.63112],[135.50039,34.63088],[135.50039,34.63061],[135.50039,34.63059],[135.50028,34.6303],[135.50026,34.6303],[135.50023,34.63014],[135.50023,34.63014],[135.50006,34.63034],[135.4998,34.63036],[135.49965,34.63039],[135.49943,34.63043],[135.49904,34.63053],[135.49874,34.6306],[135.4989,34.63092],[135.49898,34.63112],[135.4991,34.6315],[135.49925,34.63221],[135.49928,34.63231],[135.49931,34.63244],[135.49938,34.63275],[135.49945,34.63309],[135.49945,34.6331],[135.49946,34.63313],[135.49955,34.63347],[135.4996,34.6337],[135.49962,34.63382],[135.49972,34.63424],[135.49976,34.63444],[135.49976,34.63446],[135.50015,34.63454],[135.50066,34.63466],[135.50087,34.6347],[135.50091,34.63471],[135.50141,34.6348],[135.50145,34.63481],[135.50185,34.63483],[135.50239,34.63484],[135.50238,34.63479],[135.50235,34.63479]]]}},{"type":"Feature","properties":{"name":"天神ノ森二丁目","setai":327,"jinko":740,"key":"27122010002","units":1,"m":343,"f":397,"gk":33,"a0":97,"a1":448,"a2":170,"a75":92,"ag":[25,44,28,38,38,48,42,39,54,58,45,52,34,41,37,31,30,21,8,2,0],"nf":25},"geometry":{"type":"Polygon","coordinates":[[[135.49863,34.6288],[135.4985,34.62864],[135.49849,34.62863],[135.49824,34.62874],[135.49812,34.62853],[135.49811,34.62852],[135.49814,34.62847],[135.49816,34.62845],[135.49794,34.62805],[135.4981,34.62799],[135.4981,34.62799],[135.49809,34.62798],[135.49819,34.62794],[135.49818,34.62792],[135.49834,34.62786],[135.4983,34.62784],[135.49803,34.6277],[135.49787,34.62778],[135.49786,34.62777],[135.49783,34.62773],[135.49761,34.62741],[135.49766,34.62735],[135.49767,34.62727],[135.49767,34.62727],[135.49766,34.62727],[135.49766,34.62727],[135.49765,34.62728],[135.49764,34.62728],[135.49764,34.62728],[135.49763,34.62728],[135.49762,34.62728],[135.49761,34.62728],[135.49761,34.62728],[135.4976,34.62728],[135.4976,34.62728],[135.49759,34.62728],[135.49759,34.62728],[135.49759,34.62728],[135.49758,34.62728],[135.49758,34.62728],[135.49758,34.62728],[135.49758,34.62728],[135.49757,34.62729],[135.49757,34.62729],[135.49756,34.62729],[135.49743,34.6273],[135.49743,34.62723],[135.49743,34.62721],[135.49731,34.62721],[135.49729,34.6272],[135.49719,34.62737],[135.49706,34.62756],[135.4967,34.62808],[135.49682,34.62824],[135.49707,34.62852],[135.49724,34.62873],[135.49748,34.629],[135.49752,34.62905],[135.49776,34.62933],[135.49794,34.62954],[135.49829,34.62995],[135.49854,34.63027],[135.49854,34.63028],[135.49868,34.63048],[135.49874,34.6306],[135.49904,34.63053],[135.49943,34.63043],[135.49965,34.63039],[135.49958,34.63021],[135.49961,34.6302],[135.49934,34.62986],[135.49925,34.62973],[135.49902,34.62936],[135.499,34.62933],[135.49878,34.62899],[135.49869,34.62887],[135.49863,34.6288]]]}},{"type":"Feature","properties":{"name":"岸里一丁目","setai":311,"jinko":522,"key":"27122011001","units":1,"m":233,"f":289,"gk":21,"a0":51,"a1":318,"a2":134,"a75":62,"ag":[5,20,26,27,15,20,24,23,39,52,46,41,31,36,36,29,21,11,1,0,0],"nf":19},"geometry":{"type":"Polygon","coordinates":[[[135.49616,34.63455],[135.49604,34.63413],[135.49584,34.63415],[135.49485,34.63424],[135.49453,34.63428],[135.49405,34.63432],[135.49381,34.63434],[135.49407,34.63527],[135.49409,34.63531],[135.4941,34.63532],[135.49434,34.6362],[135.49452,34.63685],[135.49466,34.63732],[135.49471,34.63732],[135.49486,34.63788],[135.49553,34.63786],[135.49624,34.63768],[135.49634,34.63766],[135.49707,34.63747],[135.49706,34.63725],[135.49695,34.6368],[135.49685,34.63673],[135.49669,34.6363],[135.49631,34.63502],[135.49616,34.63455]]]}},{"type":"Feature","properties":{"name":"岸里二丁目","setai":959,"jinko":1331,"key":"27122011002","units":1,"m":738,"f":593,"gk":77,"a0":67,"a1":626,"a2":494,"a75":247,"ag":[22,18,27,14,73,65,36,50,73,90,83,63,79,116,131,103,61,50,24,9,0],"nf":144},"geometry":{"type":"Polygon","coordinates":[[[135.49604,34.63413],[135.49602,34.63407],[135.49601,34.63407],[135.49587,34.63351],[135.49578,34.6332],[135.49571,34.63309],[135.49569,34.63298],[135.4956,34.63264],[135.49556,34.63246],[135.49554,34.63241],[135.49542,34.63192],[135.49536,34.63172],[135.49536,34.63172],[135.49532,34.63149],[135.49532,34.63149],[135.49529,34.6314],[135.49524,34.63119],[135.49522,34.63093],[135.49521,34.63059],[135.49521,34.63049],[135.49515,34.63051],[135.49507,34.6302],[135.49488,34.63049],[135.49481,34.63059],[135.4946,34.63088],[135.49436,34.63123],[135.49424,34.63139],[135.49409,34.63161],[135.49388,34.63189],[135.49374,34.63208],[135.49351,34.63241],[135.49339,34.63258],[135.49329,34.63273],[135.49353,34.63347],[135.49366,34.63382],[135.49381,34.63434],[135.49405,34.63432],[135.49453,34.63428],[135.49485,34.63424],[135.49584,34.63415],[135.49604,34.63413]]]}},{"type":"Feature","properties":{"name":"岸里三丁目","setai":869,"jinko":1570,"key":"27122011003","units":1,"m":819,"f":751,"gk":58,"a0":145,"a1":880,"a2":507,"a75":263,"ag":[44,56,45,48,65,77,72,80,91,119,124,109,95,103,141,88,83,57,26,7,2],"nf":38},"geometry":{"type":"Polygon","coordinates":[[[135.49371,34.62918],[135.49346,34.62916],[135.49284,34.62911],[135.49285,34.62918],[135.49202,34.62914],[135.49216,34.62954],[135.49223,34.62971],[135.49223,34.62972],[135.49224,34.62974],[135.49228,34.62987],[135.4923,34.62991],[135.49238,34.63013],[135.49257,34.63062],[135.49268,34.63095],[135.49275,34.63113],[135.49282,34.63134],[135.49303,34.63195],[135.49323,34.63255],[135.49325,34.63262],[135.49329,34.63273],[135.49339,34.63258],[135.49351,34.63241],[135.49374,34.63208],[135.49388,34.63189],[135.49409,34.63161],[135.49424,34.63139],[135.49436,34.63123],[135.4946,34.63088],[135.49481,34.63059],[135.49488,34.63049],[135.49507,34.6302],[135.49497,34.62974],[135.49494,34.62965],[135.49486,34.62937],[135.4948,34.62924],[135.4941,34.6292],[135.49371,34.62918]]]}},{"type":"Feature","properties":{"name":"岸里東一丁目","setai":1823,"jinko":2570,"key":"27122012001","units":1,"m":1421,"f":1149,"gk":203,"a0":151,"a1":1511,"a2":799,"a75":375,"ag":[53,46,52,65,156,182,169,132,123,202,175,150,157,202,222,161,140,51,20,3,0],"nf":109},"geometry":{"type":"Polygon","coordinates":[[[135.49972,34.63424],[135.49962,34.63382],[135.4996,34.6337],[135.49955,34.63347],[135.49946,34.63313],[135.49945,34.6331],[135.49945,34.63309],[135.49938,34.63275],[135.49931,34.63244],[135.49928,34.63231],[135.49925,34.63221],[135.4991,34.6315],[135.49898,34.63112],[135.4989,34.63092],[135.49874,34.6306],[135.49833,34.63067],[135.49801,34.63072],[135.49789,34.63075],[135.49742,34.63083],[135.49743,34.63087],[135.49715,34.63092],[135.49711,34.63092],[135.49705,34.63093],[135.49679,34.63098],[135.49644,34.63109],[135.49625,34.63114],[135.49576,34.63129],[135.49538,34.6314],[135.49529,34.6314],[135.49532,34.63149],[135.49532,34.63149],[135.49536,34.63172],[135.49536,34.63172],[135.49542,34.63192],[135.49554,34.63241],[135.49556,34.63246],[135.4956,34.63264],[135.49569,34.63298],[135.49571,34.63309],[135.49578,34.6332],[135.49587,34.63351],[135.49601,34.63407],[135.49602,34.63407],[135.49641,34.63405],[135.49663,34.63401],[135.49752,34.63393],[135.49757,34.63393],[135.49806,34.63406],[135.49816,34.63417],[135.49839,34.63423],[135.4989,34.63432],[135.4991,34.63435],[135.49976,34.63446],[135.49976,34.63444],[135.49972,34.63424]]]}},{"type":"Feature","properties":{"name":"岸里東二丁目","setai":666,"jinko":1161,"key":"27122012002","units":1,"m":578,"f":583,"gk":27,"a0":82,"a1":649,"a2":397,"a75":223,"ag":[32,26,24,40,55,60,54,65,66,85,89,73,62,69,105,83,78,50,9,3,0],"nf":33},"geometry":{"type":"Polygon","coordinates":[[[135.49748,34.629],[135.49724,34.62873],[135.49707,34.62852],[135.49682,34.62824],[135.4967,34.62808],[135.49656,34.62828],[135.49651,34.62836],[135.49643,34.6285],[135.49619,34.62889],[135.49604,34.62883],[135.49592,34.62902],[135.49575,34.62927],[135.49556,34.62957],[135.49523,34.63019],[135.49521,34.63032],[135.49521,34.63049],[135.49521,34.63059],[135.49522,34.63093],[135.49524,34.63119],[135.49529,34.6314],[135.49538,34.6314],[135.49576,34.63129],[135.49625,34.63114],[135.49644,34.63109],[135.49679,34.63098],[135.49705,34.63093],[135.49711,34.63092],[135.49715,34.63092],[135.49743,34.63087],[135.49742,34.63083],[135.49789,34.63075],[135.49801,34.63072],[135.49833,34.63067],[135.49874,34.6306],[135.49868,34.63048],[135.49854,34.63028],[135.49854,34.63027],[135.49829,34.62995],[135.49794,34.62954],[135.49776,34.62933],[135.49752,34.62905],[135.49748,34.629]]]}},{"type":"Feature","properties":{"name":"玉出東一丁目","setai":712,"jinko":1227,"key":"27122013001","units":1,"m":655,"f":572,"gk":52,"a0":78,"a1":730,"a2":384,"a75":196,"ag":[11,24,43,52,65,68,46,62,85,93,96,93,70,92,96,74,59,37,20,6,0],"nf":35},"geometry":{"type":"Polygon","coordinates":[[[135.49592,34.62902],[135.49604,34.62883],[135.49619,34.62889],[135.49643,34.6285],[135.49651,34.62836],[135.49656,34.62828],[135.4967,34.62808],[135.49706,34.62756],[135.49719,34.62737],[135.49729,34.6272],[135.49723,34.62717],[135.49722,34.62714],[135.49717,34.62701],[135.49715,34.62702],[135.49706,34.62704],[135.49706,34.62704],[135.49704,34.62699],[135.4969,34.62672],[135.497,34.62668],[135.49683,34.62648],[135.49672,34.62653],[135.49669,34.62649],[135.49644,34.62615],[135.49582,34.62628],[135.4959,34.62649],[135.49532,34.62647],[135.49516,34.62647],[135.49515,34.62647],[135.49509,34.62646],[135.49502,34.62646],[135.49501,34.62646],[135.49496,34.62646],[135.49452,34.62645],[135.49423,34.62645],[135.4938,34.62645],[135.49387,34.62671],[135.49392,34.62688],[135.49393,34.62693],[135.49403,34.62725],[135.49406,34.62734],[135.49412,34.62749],[135.49416,34.62763],[135.49419,34.62775],[135.4942,34.62783],[135.4944,34.62783],[135.49443,34.62795],[135.49449,34.62818],[135.49461,34.62856],[135.49466,34.6288],[135.49468,34.62888],[135.49468,34.6289],[135.49477,34.62919],[135.4948,34.62924],[135.49486,34.62937],[135.49494,34.62965],[135.49497,34.62974],[135.49507,34.6302],[135.49515,34.63051],[135.49521,34.63049],[135.49521,34.63032],[135.49523,34.63019],[135.49556,34.62957],[135.49575,34.62927],[135.49592,34.62902]]]}},{"type":"Feature","properties":{"name":"玉出東二丁目","setai":941,"jinko":1640,"key":"27122013002","units":1,"m":832,"f":808,"gk":44,"a0":130,"a1":994,"a2":470,"a75":241,"ag":[51,42,37,63,78,75,89,95,98,126,132,132,106,96,133,92,75,53,20,1,0],"nf":46},"geometry":{"type":"Polygon","coordinates":[[[135.4959,34.62649],[135.49582,34.62628],[135.49644,34.62615],[135.49635,34.62577],[135.49633,34.62575],[135.49629,34.62557],[135.49625,34.6254],[135.49622,34.62527],[135.49618,34.62509],[135.49618,34.62498],[135.49608,34.62494],[135.49595,34.62454],[135.49588,34.62428],[135.49585,34.62417],[135.49578,34.62388],[135.49573,34.62366],[135.49569,34.62354],[135.49566,34.62336],[135.49564,34.62322],[135.49562,34.62308],[135.49555,34.62308],[135.49546,34.62308],[135.49517,34.62309],[135.49476,34.62312],[135.49454,34.62313],[135.49446,34.62312],[135.49447,34.62315],[135.49371,34.62321],[135.49332,34.62324],[135.49314,34.62325],[135.49299,34.62326],[135.49317,34.624],[135.49326,34.62436],[135.49347,34.62508],[135.49347,34.62509],[135.49355,34.62543],[135.4936,34.62568],[135.49361,34.6257],[135.4938,34.62645],[135.4938,34.62645],[135.49423,34.62645],[135.49452,34.62645],[135.49496,34.62646],[135.49501,34.62646],[135.49502,34.62646],[135.49509,34.62646],[135.49515,34.62647],[135.49516,34.62647],[135.49532,34.62647],[135.4959,34.62649]]]}},{"type":"Feature","properties":{"name":"玉出中一丁目","setai":922,"jinko":1641,"key":"27122014001","units":1,"m":805,"f":836,"gk":88,"a0":165,"a1":958,"a2":459,"a75":250,"ag":[69,46,50,58,101,97,103,86,102,125,106,85,95,102,107,102,68,54,19,6,1],"nf":59},"geometry":{"type":"Polygon","coordinates":[[[135.49477,34.62919],[135.49468,34.6289],[135.49468,34.62888],[135.49466,34.6288],[135.49461,34.62856],[135.49449,34.62818],[135.49443,34.62795],[135.4944,34.62783],[135.4942,34.62783],[135.49419,34.62775],[135.49416,34.62763],[135.49412,34.62749],[135.49406,34.62734],[135.49403,34.62725],[135.49393,34.62693],[135.49392,34.62688],[135.49387,34.62671],[135.4938,34.62645],[135.4938,34.62645],[135.49362,34.62644],[135.49328,34.62641],[135.49297,34.62639],[135.49228,34.62635],[135.49224,34.62635],[135.49187,34.62632],[135.49146,34.6263],[135.49105,34.62627],[135.49114,34.62664],[135.49127,34.62714],[135.49128,34.62718],[135.49129,34.6272],[135.49134,34.62733],[135.49141,34.62751],[135.49152,34.62777],[135.49152,34.62777],[135.49164,34.62812],[135.49164,34.62813],[135.49175,34.62839],[135.49184,34.62866],[135.49189,34.62881],[135.49202,34.62914],[135.49285,34.62918],[135.49284,34.62911],[135.49346,34.62916],[135.49371,34.62918],[135.4941,34.6292],[135.4948,34.62924],[135.49477,34.62919]]]}},{"type":"Feature","properties":{"name":"玉出中二丁目","setai":939,"jinko":1481,"key":"27122014002","units":1,"m":725,"f":756,"gk":64,"a0":119,"a1":817,"a2":449,"a75":234,"ag":[43,42,34,40,83,70,75,82,87,130,87,96,67,92,123,115,61,40,16,2,0],"nf":96},"geometry":{"type":"Polygon","coordinates":[[[135.49317,34.624],[135.49299,34.62326],[135.49295,34.62326],[135.49238,34.6233],[135.492,34.62332],[135.49153,34.62333],[135.49149,34.62334],[135.49122,34.62332],[135.4911,34.62331],[135.49071,34.62329],[135.49039,34.62326],[135.49033,34.62316],[135.49042,34.6236],[135.49051,34.62389],[135.49051,34.62397],[135.49058,34.62432],[135.49074,34.62497],[135.49074,34.62498],[135.49084,34.62537],[135.4909,34.6256],[135.49094,34.62581],[135.49105,34.62627],[135.49105,34.62627],[135.49146,34.6263],[135.49187,34.62632],[135.49224,34.62635],[135.49228,34.62635],[135.49297,34.62639],[135.49328,34.62641],[135.49362,34.62644],[135.4938,34.62645],[135.49361,34.6257],[135.4936,34.62568],[135.49355,34.62543],[135.49347,34.62509],[135.49347,34.62508],[135.49326,34.62436],[135.49317,34.624]]]}},{"type":"Feature","properties":{"name":"玉出西一丁目","setai":1138,"jinko":1720,"key":"27122015001","units":1,"m":944,"f":776,"gk":100,"a0":123,"a1":1003,"a2":502,"a75":222,"ag":[52,27,44,51,82,105,83,79,99,141,127,128,108,131,149,88,70,44,18,1,1],"nf":92},"geometry":{"type":"Polygon","coordinates":[[[135.49175,34.62839],[135.49164,34.62813],[135.49164,34.62812],[135.49152,34.62777],[135.49152,34.62777],[135.49141,34.62751],[135.49134,34.62733],[135.49129,34.6272],[135.49128,34.62718],[135.49127,34.62714],[135.49114,34.62664],[135.49105,34.62627],[135.49105,34.62627],[135.49086,34.62625],[135.49077,34.62625],[135.49043,34.62623],[135.48966,34.62618],[135.48905,34.62614],[135.48903,34.62613],[135.48897,34.62613],[135.48891,34.62613],[135.48844,34.62616],[135.48744,34.62622],[135.48741,34.62622],[135.48643,34.62622],[135.48642,34.62658],[135.48642,34.62659],[135.48639,34.6272],[135.4864,34.62724],[135.4864,34.62736],[135.48638,34.62755],[135.48638,34.62766],[135.48634,34.6284],[135.4872,34.62833],[135.48731,34.62833],[135.48742,34.62832],[135.48776,34.62838],[135.48809,34.62841],[135.48854,34.62844],[135.48896,34.62847],[135.4892,34.62849],[135.48969,34.62853],[135.49008,34.62855],[135.49033,34.62857],[135.4905,34.62858],[135.49097,34.62861],[135.49184,34.62866],[135.49175,34.62839]]]}},{"type":"Feature","properties":{"name":"玉出西二丁目","setai":1477,"jinko":2425,"key":"27122015002","units":1,"m":1326,"f":1099,"gk":123,"a0":176,"a1":1211,"a2":934,"a75":487,"ag":[53,65,58,48,95,85,106,129,117,170,156,157,148,198,249,186,147,104,43,7,0],"nf":104},"geometry":{"type":"Polygon","coordinates":[[[135.49105,34.62627],[135.49094,34.62581],[135.4909,34.6256],[135.49084,34.62537],[135.49074,34.62498],[135.49074,34.62497],[135.49058,34.62432],[135.49051,34.62397],[135.49051,34.62389],[135.49042,34.6236],[135.49033,34.62316],[135.49028,34.62311],[135.49013,34.6231],[135.49008,34.62313],[135.48996,34.62313],[135.4899,34.62315],[135.48952,34.62308],[135.48928,34.62303],[135.4889,34.62296],[135.48853,34.62289],[135.4885,34.62289],[135.48841,34.62287],[135.48803,34.6228],[135.48799,34.6228],[135.48664,34.62254],[135.4866,34.62253],[135.48663,34.62282],[135.48663,34.62286],[135.48666,34.62321],[135.48665,34.62354],[135.48669,34.62388],[135.48666,34.62414],[135.4866,34.62455],[135.48654,34.62488],[135.48649,34.62519],[135.48648,34.62539],[135.48644,34.62608],[135.48643,34.62622],[135.48741,34.62622],[135.48744,34.62622],[135.48844,34.62616],[135.48891,34.62613],[135.48897,34.62613],[135.48903,34.62613],[135.48905,34.62614],[135.48966,34.62618],[135.49043,34.62623],[135.49077,34.62625],[135.49086,34.62625],[135.49105,34.62627]]]}},{"type":"Feature","properties":{"name":"北開一丁目","setai":104,"jinko":160,"key":"27122016001","units":1,"m":77,"f":83,"gk":38,"a0":11,"a1":110,"a2":27,"a75":8,"ag":[2,6,3,10,24,15,12,10,11,7,7,9,5,12,7,4,3,1,0,0,0],"nf":12},"geometry":{"type":"Polygon","coordinates":[[[135.49262,34.65291],[135.4926,34.65276],[135.49162,34.65279],[135.49037,34.65282],[135.49037,34.65305],[135.49038,34.65336],[135.49041,34.65388],[135.49047,34.65386],[135.49065,34.65382],[135.49093,34.65376],[135.49121,34.65368],[135.49161,34.6536],[135.49175,34.65356],[135.49187,34.65352],[135.49197,34.65348],[135.49218,34.65337],[135.4926,34.65318],[135.49265,34.65313],[135.49262,34.65291]]]}},{"type":"Feature","properties":{"name":"北開二丁目","setai":38,"jinko":69,"key":"27122016002","units":1,"m":33,"f":36,"gk":20,"a0":9,"a1":40,"a2":19,"a75":13,"ag":[1,5,3,2,3,3,5,5,6,6,4,2,4,3,3,5,4,3,0,0,1],"nf":1},"geometry":{"type":"Polygon","coordinates":[[[135.49037,34.65305],[135.49037,34.65282],[135.49038,34.65226],[135.48915,34.6526],[135.48917,34.65285],[135.48893,34.65282],[135.48887,34.65269],[135.48765,34.65301],[135.48781,34.65339],[135.48788,34.65351],[135.48797,34.65358],[135.4882,34.65361],[135.48838,34.65394],[135.48916,34.65395],[135.48962,34.65395],[135.48969,34.65395],[135.49006,34.65391],[135.49035,34.65389],[135.49041,34.65388],[135.49038,34.65336],[135.49037,34.65305]]]}},{"type":"Feature","properties":{"name":"中開一丁目","setai":85,"jinko":100,"key":"27122017001","units":1,"m":76,"f":24,"gk":5,"a0":7,"a1":50,"a2":41,"a75":10,"ag":[4,2,1,1,7,3,2,5,7,4,9,5,7,20,11,5,4,1,0,0,0],"nf":2},"geometry":{"type":"Polygon","coordinates":[[[135.49611,34.65121],[135.49651,34.65113],[135.49669,34.65109],[135.49759,34.65084],[135.49761,34.65066],[135.4976,34.65044],[135.49718,34.65055],[135.49651,34.65074],[135.49572,34.65096],[135.49487,34.65118],[135.49487,34.65113],[135.49405,34.65134],[135.49339,34.65152],[135.49349,34.65181],[135.49352,34.65192],[135.49354,34.65198],[135.4936,34.65223],[135.49365,34.65251],[135.49374,34.65245],[135.49381,34.6524],[135.49414,34.65217],[135.49485,34.65175],[135.49513,34.65159],[135.49553,34.65141],[135.49592,34.65127],[135.49611,34.65121]]]}},{"type":"Feature","properties":{"name":"中開二丁目","setai":328,"jinko":415,"key":"27122017002","units":1,"m":275,"f":140,"gk":69,"a0":14,"a1":222,"a2":164,"a75":61,"ag":[4,4,6,5,25,26,18,12,26,28,27,24,31,46,57,31,18,9,3,0,0],"nf":15},"geometry":{"type":"Polygon","coordinates":[[[135.49304,34.65284],[135.49331,34.65268],[135.49346,34.65261],[135.49365,34.65251],[135.4936,34.65223],[135.49354,34.65198],[135.49352,34.65192],[135.49349,34.65181],[135.49339,34.65152],[135.49257,34.65172],[135.49158,34.65196],[135.49038,34.65226],[135.49037,34.65282],[135.49162,34.65279],[135.4926,34.65276],[135.49262,34.65291],[135.49265,34.65313],[135.49275,34.65302],[135.49304,34.65284]]]}},{"type":"Feature","properties":{"name":"中開三丁目","setai":155,"jinko":294,"key":"27122017003","units":1,"m":123,"f":171,"gk":47,"a0":31,"a1":144,"a2":113,"a75":62,"ag":[8,14,9,7,8,9,14,12,10,28,20,15,21,20,31,29,19,10,3,1,0],"nf":6},"geometry":{"type":"Polygon","coordinates":[[[135.48765,34.65301],[135.48887,34.65269],[135.48893,34.65282],[135.48917,34.65285],[135.48915,34.6526],[135.49038,34.65226],[135.49036,34.65179],[135.48914,34.6518],[135.48895,34.6518],[135.4882,34.65182],[135.48788,34.65181],[135.48787,34.6513],[135.48717,34.65131],[135.48686,34.65132],[135.48559,34.65135],[135.48556,34.6514],[135.48557,34.65153],[135.48558,34.6516],[135.48563,34.65168],[135.48568,34.65173],[135.48614,34.65195],[135.48644,34.65212],[135.48689,34.65235],[135.4875,34.65267],[135.48752,34.65271],[135.48765,34.65301]]]}},{"type":"Feature","properties":{"name":"南開一丁目","setai":74,"jinko":139,"key":"27122018001","units":1,"m":71,"f":68,"gk":9,"a0":10,"a1":72,"a2":55,"a75":36,"ag":[3,4,3,6,9,4,7,9,6,7,4,13,7,6,13,10,15,8,3,0,0],"nf":2},"geometry":{"type":"Polygon","coordinates":[[[135.49332,34.65125],[135.4933,34.65069],[135.49329,34.65051],[135.49328,34.65032],[135.49327,34.65018],[135.49252,34.6502],[135.49254,34.65075],[135.49244,34.65075],[135.49151,34.65075],[135.49109,34.65076],[135.49077,34.65076],[135.49033,34.65077],[135.49034,34.65129],[135.49036,34.65179],[135.49038,34.65226],[135.49158,34.65196],[135.49257,34.65172],[135.49339,34.65152],[135.49332,34.65125]]]}},{"type":"Feature","properties":{"name":"南開二丁目","setai":287,"jinko":591,"key":"27122018002","units":1,"m":290,"f":301,"gk":91,"a0":78,"a1":309,"a2":192,"a75":114,"ag":[17,36,25,25,29,25,28,27,31,39,35,38,32,35,43,52,38,18,4,1,1],"nf":12},"geometry":{"type":"Polygon","coordinates":[[[135.49036,34.65179],[135.49034,34.65129],[135.49033,34.65077],[135.4897,34.65077],[135.48952,34.65077],[135.4891,34.65078],[135.48828,34.65079],[135.48814,34.65079],[135.48785,34.65079],[135.48784,34.65027],[135.48684,34.65028],[135.48661,34.65029],[135.4865,34.6503],[135.48549,34.65033],[135.48553,34.65065],[135.48553,34.65079],[135.48553,34.65081],[135.48556,34.65106],[135.48558,34.65113],[135.48559,34.65135],[135.48686,34.65132],[135.48717,34.65131],[135.48787,34.6513],[135.48788,34.65181],[135.4882,34.65182],[135.48895,34.6518],[135.48914,34.6518],[135.49036,34.65179]]]}},{"type":"Feature","properties":{"name":"出城一丁目","setai":279,"jinko":408,"key":"27122019001","units":1,"m":254,"f":154,"gk":117,"a0":29,"a1":265,"a2":100,"a75":41,"ag":[11,8,10,10,41,48,38,23,15,26,21,21,22,20,39,25,9,6,1,0,0],"nf":14},"geometry":{"type":"Polygon","coordinates":[[[135.49405,34.65134],[135.49487,34.65113],[135.49487,34.65118],[135.49572,34.65096],[135.49651,34.65074],[135.49718,34.65055],[135.4976,34.65044],[135.49753,34.64999],[135.49746,34.64939],[135.49646,34.64944],[135.49574,34.64946],[135.4957,34.64951],[135.49523,34.64952],[135.49523,34.64949],[135.49504,34.6495],[135.49397,34.64951],[135.49318,34.64952],[135.49322,34.65006],[135.49323,34.65009],[135.49327,34.65018],[135.49328,34.65032],[135.49329,34.65051],[135.4933,34.65069],[135.49332,34.65125],[135.49339,34.65152],[135.49405,34.65134]]]}},{"type":"Feature","properties":{"name":"出城二丁目","setai":153,"jinko":364,"key":"27122019002","units":1,"m":150,"f":214,"gk":40,"a0":35,"a1":154,"a2":171,"a75":129,"ag":[11,10,14,9,10,13,20,21,9,17,19,24,12,16,26,32,41,30,15,10,1],"nf":4},"geometry":{"type":"Polygon","coordinates":[[[135.49151,34.65075],[135.49244,34.65075],[135.49254,34.65075],[135.49252,34.6502],[135.49327,34.65018],[135.49323,34.65009],[135.49322,34.65006],[135.49318,34.64952],[135.49253,34.64953],[135.49251,34.64953],[135.49209,34.64954],[135.49152,34.64954],[135.49147,34.64955],[135.49031,34.64957],[135.49032,34.65024],[135.49033,34.65077],[135.49077,34.65076],[135.49109,34.65076],[135.49151,34.65075]]]}},{"type":"Feature","properties":{"name":"出城三丁目","setai":325,"jinko":602,"key":"27122019003","units":1,"m":265,"f":337,"gk":47,"a0":68,"a1":304,"a2":230,"a75":133,"ag":[15,20,33,27,21,26,10,26,36,45,43,38,32,33,64,61,44,23,5,0,0]},"geometry":{"type":"Polygon","coordinates":[[[135.49033,34.65077],[135.49032,34.65024],[135.49031,34.64957],[135.48977,34.64958],[135.48906,34.64959],[135.48855,34.6496],[135.48837,34.6496],[135.48835,34.6496],[135.48815,34.6496],[135.48813,34.6496],[135.48783,34.64961],[135.48718,34.64958],[135.48681,34.6496],[135.48656,34.64959],[135.48589,34.64947],[135.48542,34.64938],[135.48541,34.64967],[135.48544,34.64998],[135.48543,34.65003],[135.48545,34.65024],[135.48549,34.65033],[135.4865,34.6503],[135.48661,34.65029],[135.48684,34.65028],[135.48784,34.65027],[135.48785,34.65079],[135.48814,34.65079],[135.48828,34.65079],[135.4891,34.65078],[135.48952,34.65077],[135.4897,34.65077],[135.49033,34.65077]]]}},{"type":"Feature","properties":{"name":"長橋一丁目","setai":738,"jinko":1333,"key":"27122020001","units":1,"m":649,"f":684,"gk":169,"a0":119,"a1":696,"a2":496,"a75":292,"ag":[40,41,38,43,86,87,61,63,55,73,66,96,66,90,114,107,98,52,25,5,5],"nf":22},"geometry":{"type":"Polygon","coordinates":[[[135.49504,34.6495],[135.49523,34.64949],[135.49523,34.64952],[135.4957,34.64951],[135.49574,34.64946],[135.49646,34.64944],[135.49746,34.64939],[135.49745,34.64928],[135.49743,34.64912],[135.49739,34.64891],[135.49737,34.64878],[135.49734,34.64867],[135.49729,34.64837],[135.49721,34.64792],[135.49721,34.64788],[135.49711,34.64739],[135.49671,34.64739],[135.49644,34.64739],[135.4957,34.6474],[135.4952,34.64741],[135.4952,34.6474],[135.49438,34.6474],[135.49395,34.64741],[135.49342,34.64741],[135.49328,34.64741],[135.49327,34.64741],[135.49311,34.64742],[135.49307,34.64798],[135.49307,34.64823],[135.49307,34.64855],[135.49312,34.64899],[135.49312,34.64903],[135.49318,34.64952],[135.49397,34.64951],[135.49504,34.6495]]]}},{"type":"Feature","properties":{"name":"長橋二丁目","setai":309,"jinko":507,"key":"27122020002","units":1,"m":261,"f":246,"gk":74,"a0":47,"a1":247,"a2":188,"a75":108,"ag":[15,21,11,12,25,22,24,26,17,28,29,30,34,34,46,52,35,18,3,0,0],"nf":25},"geometry":{"type":"Polygon","coordinates":[[[135.49209,34.64954],[135.49251,34.64953],[135.49253,34.64953],[135.49318,34.64952],[135.49312,34.64903],[135.49312,34.64899],[135.49307,34.64855],[135.49307,34.64823],[135.49307,34.64798],[135.49311,34.64742],[135.49213,34.64743],[135.49145,34.64743],[135.49143,34.64721],[135.49119,34.64722],[135.49093,34.64723],[135.49025,34.64724],[135.49024,34.64774],[135.49024,34.6478],[135.49026,34.64825],[135.49027,34.64856],[135.49028,34.64876],[135.49028,34.64888],[135.49029,34.64909],[135.49031,34.64957],[135.49147,34.64955],[135.49152,34.64954],[135.49209,34.64954]]]}},{"type":"Feature","properties":{"name":"長橋三丁目","setai":611,"jinko":1109,"key":"27122020003","units":1,"m":608,"f":501,"gk":147,"a0":54,"a1":518,"a2":535,"a75":294,"ag":[16,15,23,19,56,49,32,37,37,67,66,75,80,111,130,112,102,57,20,2,1],"nf":2},"geometry":{"type":"Polygon","coordinates":[[[135.48783,34.64961],[135.48813,34.6496],[135.48815,34.6496],[135.48835,34.6496],[135.48837,34.6496],[135.48855,34.6496],[135.48906,34.64959],[135.48977,34.64958],[135.49031,34.64957],[135.49029,34.64909],[135.49028,34.64888],[135.49028,34.64876],[135.49027,34.64856],[135.49026,34.64825],[135.49024,34.6478],[135.49024,34.64774],[135.49025,34.64724],[135.49016,34.64724],[135.48949,34.64726],[135.48901,34.64726],[135.48851,34.64726],[135.48819,34.64726],[135.48777,34.64727],[135.48771,34.64727],[135.48752,34.6473],[135.48687,34.6474],[135.48672,34.6474],[135.48661,34.64743],[135.48627,34.64765],[135.4862,34.64772],[135.48617,34.64783],[135.48584,34.64783],[135.48583,34.64783],[135.48565,34.64829],[135.48558,34.64855],[135.48559,34.64855],[135.48549,34.64882],[135.48544,34.64903],[135.48542,34.64924],[135.48542,34.64936],[135.48542,34.64938],[135.48589,34.64947],[135.48656,34.64959],[135.48681,34.6496],[135.48718,34.64958],[135.48783,34.64961]]]}},{"type":"Feature","properties":{"name":"鶴見橋一丁目","setai":1567,"jinko":2140,"key":"27122021001","units":1,"m":1275,"f":865,"gk":301,"a0":50,"a1":973,"a2":970,"a75":496,"ag":[26,15,9,30,121,107,88,76,81,105,87,131,147,213,261,213,166,71,36,9,1],"nf":147},"geometry":{"type":"Polygon","coordinates":[[[135.49438,34.6474],[135.4952,34.6474],[135.4952,34.64741],[135.4957,34.6474],[135.49644,34.64739],[135.49671,34.64739],[135.49711,34.64739],[135.49706,34.64712],[135.49704,34.64696],[135.49701,34.64681],[135.49699,34.64665],[135.49691,34.64625],[135.49689,34.64625],[135.49687,34.64612],[135.49682,34.64584],[135.49677,34.64558],[135.49673,34.64541],[135.49673,34.64534],[135.49668,34.6451],[135.4964,34.6451],[135.49628,34.64509],[135.49585,34.6451],[135.49567,34.64511],[135.49516,34.64511],[135.49515,34.64511],[135.49442,34.64512],[135.4943,34.64513],[135.49392,34.64513],[135.49342,34.64514],[135.4934,34.64514],[135.49296,34.64514],[135.49298,34.64522],[135.493,34.64546],[135.49304,34.64566],[135.49304,34.64575],[135.49305,34.64616],[135.49306,34.64632],[135.49305,34.64665],[135.49306,34.64671],[135.49307,34.64695],[135.49311,34.64742],[135.49327,34.64741],[135.49328,34.64741],[135.49342,34.64741],[135.49395,34.64741],[135.49438,34.6474]]]}},{"type":"Feature","properties":{"name":"鶴見橋二丁目","setai":902,"jinko":1360,"key":"27122021002","units":1,"m":807,"f":553,"gk":196,"a0":66,"a1":613,"a2":623,"a75":332,"ag":[19,17,30,35,57,46,43,41,49,67,96,83,96,127,164,119,109,77,22,4,1],"nf":58},"geometry":{"type":"Polygon","coordinates":[[[135.49311,34.64742],[135.49307,34.64695],[135.49306,34.64671],[135.49305,34.64665],[135.49306,34.64632],[135.49305,34.64616],[135.49304,34.64575],[135.49304,34.64566],[135.493,34.64546],[135.49298,34.64522],[135.49296,34.64514],[135.49289,34.64514],[135.49245,34.64514],[135.49218,34.64514],[135.49178,34.64515],[135.49142,34.64515],[135.49021,34.64516],[135.49022,34.64568],[135.49021,34.64568],[135.49022,34.64619],[135.49022,34.64624],[135.49023,34.64647],[135.49023,34.64662],[135.49023,34.64668],[135.49024,34.64673],[135.49025,34.64724],[135.49093,34.64723],[135.49119,34.64722],[135.49143,34.64721],[135.49145,34.64743],[135.49213,34.64743],[135.49311,34.64742]]]}},{"type":"Feature","properties":{"name":"鶴見橋三丁目","setai":835,"jinko":1428,"key":"27122021003","units":1,"m":757,"f":671,"gk":181,"a0":75,"a1":650,"a2":602,"a75":296,"ag":[20,25,30,24,45,65,51,56,55,90,90,92,82,116,190,137,90,48,17,4,0],"nf":101},"geometry":{"type":"Polygon","coordinates":[[[135.48661,34.64743],[135.48672,34.6474],[135.48687,34.6474],[135.48752,34.6473],[135.48771,34.64727],[135.48777,34.64727],[135.48819,34.64726],[135.48851,34.64726],[135.48901,34.64726],[135.48949,34.64726],[135.49016,34.64724],[135.49025,34.64724],[135.49024,34.64673],[135.49023,34.64668],[135.49023,34.64662],[135.49023,34.64647],[135.49022,34.64624],[135.49022,34.64619],[135.49021,34.64568],[135.49022,34.64568],[135.49021,34.64516],[135.48955,34.64517],[135.48897,34.64518],[135.48824,34.6452],[135.48773,34.6452],[135.48773,34.64542],[135.48732,34.64542],[135.48649,34.64542],[135.48597,34.64543],[135.48601,34.64559],[135.48607,34.64585],[135.48613,34.64608],[135.48614,34.64625],[135.48615,34.64633],[135.48615,34.64656],[135.48615,34.64664],[135.48609,34.64716],[135.48603,34.64742],[135.48584,34.64783],[135.48617,34.64783],[135.4862,34.64772],[135.48627,34.64765],[135.48661,34.64743]]]}},{"type":"Feature","properties":{"name":"旭一丁目","setai":689,"jinko":1202,"key":"27122022001","units":1,"m":596,"f":606,"gk":126,"a0":84,"a1":597,"a2":417,"a75":248,"ag":[22,27,35,42,70,67,49,56,60,59,73,68,53,70,99,89,82,57,18,2,0],"nf":104},"geometry":{"type":"Polygon","coordinates":[[[135.49585,34.6451],[135.49628,34.64509],[135.4964,34.6451],[135.49668,34.6451],[135.49655,34.64434],[135.49648,34.64396],[135.49642,34.64359],[135.49625,34.6436],[135.49594,34.64365],[135.49567,34.64364],[135.49564,34.64364],[135.49528,34.64363],[135.49517,34.64364],[135.49514,34.64364],[135.49442,34.64358],[135.49386,34.64353],[135.49386,34.64354],[135.4936,34.64355],[135.49333,34.64356],[135.49264,34.64356],[135.49276,34.64414],[135.49286,34.64464],[135.49296,34.64514],[135.4934,34.64514],[135.49342,34.64514],[135.49392,34.64513],[135.4943,34.64513],[135.49442,34.64512],[135.49515,34.64511],[135.49516,34.64511],[135.49567,34.64511],[135.49585,34.6451]]]}},{"type":"Feature","properties":{"name":"旭二丁目","setai":456,"jinko":668,"key":"27122022002","units":1,"m":370,"f":298,"gk":50,"a0":17,"a1":294,"a2":295,"a75":150,"ag":[3,6,8,11,21,21,20,20,22,49,49,49,32,69,76,63,58,23,6,0,0],"nf":62},"geometry":{"type":"Polygon","coordinates":[[[135.49021,34.64516],[135.49142,34.64515],[135.49178,34.64515],[135.49218,34.64514],[135.49245,34.64514],[135.49289,34.64514],[135.49296,34.64514],[135.49286,34.64464],[135.49276,34.64414],[135.49264,34.64356],[135.49214,34.64357],[135.49195,34.64357],[135.49185,34.64357],[135.49176,34.64357],[135.49168,34.64357],[135.4914,34.64358],[135.49114,34.64358],[135.49017,34.64359],[135.49019,34.64414],[135.49019,34.64441],[135.4902,34.64467],[135.4902,34.64477],[135.49021,34.64516]]]}},{"type":"Feature","properties":{"name":"旭三丁目","setai":491,"jinko":882,"key":"27122022003","units":1,"m":468,"f":414,"gk":154,"a0":45,"a1":464,"a2":361,"a75":206,"ag":[9,18,18,36,58,36,37,32,43,49,60,60,53,64,91,89,69,36,9,3,0],"nf":12},"geometry":{"type":"Polygon","coordinates":[[[135.48649,34.64542],[135.48732,34.64542],[135.48773,34.64542],[135.48773,34.6452],[135.48824,34.6452],[135.48897,34.64518],[135.48955,34.64517],[135.49021,34.64516],[135.4902,34.64477],[135.4902,34.64467],[135.49019,34.64441],[135.49019,34.64414],[135.49017,34.64359],[135.49017,34.64359],[135.48964,34.64359],[135.48896,34.6436],[135.48895,34.6436],[135.48808,34.6436],[135.48796,34.6436],[135.48772,34.6436],[135.48692,34.64362],[135.4867,34.64364],[135.48614,34.64367],[135.48597,34.64366],[135.48578,34.64364],[135.4857,34.64371],[135.48552,34.64399],[135.48569,34.64424],[135.48575,34.6444],[135.4858,34.64465],[135.48582,34.64477],[135.48585,34.64491],[135.48594,34.64532],[135.48597,34.64543],[135.48649,34.64542]]]}},{"type":"Feature","properties":{"name":"梅南一丁目","setai":823,"jinko":1361,"key":"27122023001","units":1,"m":679,"f":682,"gk":131,"a0":76,"a1":631,"a2":592,"a75":358,"ag":[20,27,29,38,56,45,35,48,53,84,94,100,78,96,138,103,121,88,36,10,0],"nf":62},"geometry":{"type":"Polygon","coordinates":[[[135.49594,34.64365],[135.49625,34.6436],[135.49642,34.64359],[135.49641,34.64353],[135.49637,34.64328],[135.49637,34.64326],[135.49632,34.64301],[135.49624,34.64271],[135.49616,34.64246],[135.49602,34.64197],[135.49528,34.64196],[135.4951,34.64196],[135.49469,34.64197],[135.49454,34.64197],[135.49418,34.64197],[135.49383,34.64198],[135.49383,34.64199],[135.49351,34.64199],[135.49314,34.642],[135.49293,34.64201],[135.49288,34.64201],[135.49261,34.64201],[135.49262,34.64253],[135.49262,34.64254],[135.49263,34.64304],[135.49264,34.64356],[135.49333,34.64356],[135.4936,34.64355],[135.49386,34.64354],[135.49386,34.64353],[135.49442,34.64358],[135.49514,34.64364],[135.49517,34.64364],[135.49528,34.64363],[135.49564,34.64364],[135.49567,34.64364],[135.49594,34.64365]]]}},{"type":"Feature","properties":{"name":"梅南二丁目","setai":609,"jinko":942,"key":"27122023002","units":1,"m":518,"f":424,"gk":164,"a0":82,"a1":521,"a2":293,"a75":153,"ag":[32,27,23,23,78,77,74,45,46,53,49,37,39,54,86,69,46,25,10,3,0],"nf":46},"geometry":{"type":"Polygon","coordinates":[[[135.49262,34.64253],[135.49261,34.64201],[135.49212,34.64202],[135.492,34.64202],[135.49174,34.64202],[135.49138,34.64202],[135.49075,34.64204],[135.49062,34.64204],[135.49023,34.64205],[135.49014,34.64205],[135.49015,34.64271],[135.49016,34.64306],[135.49017,34.64359],[135.49017,34.64359],[135.49114,34.64358],[135.4914,34.64358],[135.49168,34.64357],[135.49176,34.64357],[135.49185,34.64357],[135.49195,34.64357],[135.49214,34.64357],[135.49264,34.64356],[135.49263,34.64304],[135.49262,34.64254],[135.49262,34.64253]]]}},{"type":"Feature","properties":{"name":"梅南三丁目","setai":529,"jinko":1102,"key":"27122023003","units":1,"m":540,"f":562,"gk":164,"a0":88,"a1":581,"a2":396,"a75":247,"ag":[33,33,22,37,83,68,56,41,47,74,63,54,58,67,82,78,79,52,28,8,2],"nf":37},"geometry":{"type":"Polygon","coordinates":[[[135.4857,34.64371],[135.48578,34.64364],[135.48597,34.64366],[135.48614,34.64367],[135.4867,34.64364],[135.48692,34.64362],[135.48772,34.6436],[135.48796,34.6436],[135.48808,34.6436],[135.48895,34.6436],[135.48896,34.6436],[135.48964,34.64359],[135.49017,34.64359],[135.49016,34.64306],[135.49015,34.64271],[135.49014,34.64205],[135.48934,34.64206],[135.48931,34.64206],[135.48892,34.64207],[135.48768,34.64208],[135.48708,34.64208],[135.48697,34.64208],[135.48682,34.64209],[135.48668,34.64209],[135.48532,34.64211],[135.48529,34.6426],[135.48526,34.64277],[135.4852,34.64294],[135.48517,34.64322],[135.48518,34.64352],[135.48522,34.64362],[135.48537,34.64382],[135.48552,34.644],[135.48552,34.64399],[135.4857,34.64371]]]}},{"type":"Feature","properties":{"name":"松一丁目","setai":963,"jinko":1515,"key":"27122024001","units":1,"m":862,"f":653,"gk":139,"a0":81,"a1":661,"a2":616,"a75":350,"ag":[19,26,36,44,70,59,58,47,69,83,79,83,69,109,157,135,107,73,27,8,0],"nf":157},"geometry":{"type":"Polygon","coordinates":[[[135.49469,34.64197],[135.4951,34.64196],[135.49528,34.64196],[135.49602,34.64197],[135.49587,34.64143],[135.49589,34.64143],[135.49575,34.64094],[135.49575,34.64092],[135.49563,34.64046],[135.49562,34.64044],[135.49562,34.6404],[135.49546,34.63991],[135.49506,34.63991],[135.49467,34.63991],[135.49452,34.63992],[135.49383,34.63993],[135.4932,34.63993],[135.49314,34.63993],[135.4931,34.63993],[135.49258,34.63993],[135.49259,34.64045],[135.49259,34.64057],[135.49259,34.64097],[135.4926,34.64147],[135.49259,34.64151],[135.49261,34.64151],[135.49261,34.64201],[135.49288,34.64201],[135.49293,34.64201],[135.49314,34.642],[135.49351,34.64199],[135.49383,34.64199],[135.49383,34.64198],[135.49418,34.64197],[135.49454,34.64197],[135.49469,34.64197]]]}},{"type":"Feature","properties":{"name":"松二丁目","setai":660,"jinko":1391,"key":"27122024002","units":1,"m":716,"f":675,"gk":105,"a0":177,"a1":756,"a2":407,"a75":237,"ag":[57,55,65,50,70,60,66,82,80,88,102,77,81,79,91,88,87,42,16,4,0],"nf":51},"geometry":{"type":"Polygon","coordinates":[[[135.49259,34.64045],[135.49258,34.63993],[135.49219,34.63993],[135.49134,34.63994],[135.49055,34.63996],[135.4901,34.63996],[135.49011,34.6405],[135.49011,34.64061],[135.49012,34.641],[135.49012,34.64152],[135.49013,34.64152],[135.49014,34.64205],[135.49023,34.64205],[135.49062,34.64204],[135.49075,34.64204],[135.49138,34.64202],[135.49174,34.64202],[135.492,34.64202],[135.49212,34.64202],[135.49261,34.64201],[135.49261,34.64151],[135.49259,34.64151],[135.4926,34.64147],[135.49259,34.64097],[135.49259,34.64057],[135.49259,34.64045]]]}},{"type":"Feature","properties":{"name":"松三丁目","setai":696,"jinko":1578,"key":"27122024003","units":1,"m":766,"f":812,"gk":118,"a0":196,"a1":869,"a2":486,"a75":275,"ag":[66,59,71,64,67,82,102,73,84,111,103,108,75,88,123,89,99,48,25,12,2],"nf":27},"geometry":{"type":"Polygon","coordinates":[[[135.49011,34.6405],[135.4901,34.63996],[135.4892,34.63998],[135.48888,34.63998],[135.48827,34.63999],[135.48765,34.64],[135.48706,34.64001],[135.48665,34.64001],[135.48543,34.64003],[135.48541,34.64055],[135.48539,34.64085],[135.48538,34.64106],[135.48537,34.64119],[135.48535,34.6415],[135.48535,34.64156],[135.48535,34.64156],[135.48535,34.64164],[135.48532,34.64211],[135.48668,34.64209],[135.48682,34.64209],[135.48697,34.64208],[135.48708,34.64208],[135.48768,34.64208],[135.48892,34.64207],[135.48931,34.64206],[135.48934,34.64206],[135.49014,34.64205],[135.49013,34.64152],[135.49012,34.64152],[135.49012,34.641],[135.49011,34.64061],[135.49011,34.6405]]]}},{"type":"Feature","properties":{"name":"橘一丁目","setai":539,"jinko":968,"key":"27122025001","units":1,"m":497,"f":471,"gk":55,"a0":87,"a1":459,"a2":379,"a75":203,"ag":[28,40,19,18,40,38,42,38,51,61,53,49,69,70,106,94,58,41,10,0,0],"nf":43},"geometry":{"type":"Polygon","coordinates":[[[135.49496,34.63821],[135.49486,34.63788],[135.49464,34.63788],[135.49426,34.63788],[135.4938,34.63788],[135.49311,34.63789],[135.49311,34.63788],[135.49254,34.63789],[135.49255,34.63841],[135.49256,34.63891],[135.49256,34.63893],[135.49257,34.63944],[135.49257,34.63961],[135.49258,34.63993],[135.4931,34.63993],[135.49314,34.63993],[135.4932,34.63993],[135.49383,34.63993],[135.49452,34.63992],[135.49467,34.63991],[135.49506,34.63991],[135.49546,34.63991],[135.49532,34.63942],[135.49531,34.6394],[135.49525,34.63919],[135.49517,34.6389],[135.49516,34.63888],[135.49516,34.63884],[135.49502,34.63838],[135.49502,34.63836],[135.49497,34.63823],[135.49496,34.63821]]]}},{"type":"Feature","properties":{"name":"橘二丁目","setai":451,"jinko":790,"key":"27122025002","units":1,"m":389,"f":401,"gk":27,"a0":61,"a1":404,"a2":297,"a75":172,"ag":[13,21,27,31,32,24,35,35,32,59,65,51,40,44,81,75,50,35,11,1,0],"nf":28},"geometry":{"type":"Polygon","coordinates":[[[135.49255,34.63841],[135.49254,34.63789],[135.49175,34.6379],[135.4913,34.6379],[135.49097,34.63791],[135.49088,34.63791],[135.49061,34.63791],[135.49008,34.63792],[135.49009,34.63833],[135.49009,34.63842],[135.49009,34.63843],[135.4901,34.63896],[135.49009,34.63896],[135.4901,34.63946],[135.4901,34.63971],[135.4901,34.63996],[135.49055,34.63996],[135.49134,34.63994],[135.49219,34.63993],[135.49258,34.63993],[135.49257,34.63961],[135.49257,34.63944],[135.49256,34.63893],[135.49256,34.63891],[135.49255,34.63841]]]}},{"type":"Feature","properties":{"name":"橘三丁目","setai":754,"jinko":1477,"key":"27122025003","units":1,"m":719,"f":758,"gk":82,"a0":122,"a1":767,"a2":561,"a75":304,"ag":[32,46,44,52,73,58,57,59,69,102,108,99,90,108,149,131,101,55,12,4,1],"nf":27},"geometry":{"type":"Polygon","coordinates":[[[135.49009,34.63833],[135.49008,34.63792],[135.48971,34.63793],[135.48965,34.63793],[135.4896,34.63793],[135.48959,34.63793],[135.48956,34.63793],[135.48953,34.63793],[135.48944,34.63794],[135.48909,34.63794],[135.48887,34.63794],[135.48827,34.63794],[135.48827,34.63793],[135.48764,34.63795],[135.48713,34.63796],[135.48663,34.63796],[135.48642,34.63797],[135.48639,34.63809],[135.48634,34.63816],[135.4855,34.63816],[135.48548,34.63816],[135.48548,34.63849],[135.48547,34.63901],[135.48543,34.63998],[135.48543,34.64003],[135.48665,34.64001],[135.48706,34.64001],[135.48765,34.64],[135.48827,34.63999],[135.48888,34.63998],[135.4892,34.63998],[135.4901,34.63996],[135.4901,34.63971],[135.4901,34.63946],[135.49009,34.63896],[135.4901,34.63896],[135.49009,34.63843],[135.49009,34.63842],[135.49009,34.63833]]]}},{"type":"Feature","properties":{"name":"潮路一丁目","setai":780,"jinko":1350,"key":"27122026001","units":1,"m":689,"f":661,"gk":97,"a0":96,"a1":772,"a2":448,"a75":246,"ag":[21,26,49,64,68,40,54,59,84,132,106,93,72,92,110,114,69,49,12,2,0],"nf":34},"geometry":{"type":"Polygon","coordinates":[[[135.49254,34.63789],[135.49311,34.63788],[135.49311,34.63789],[135.4938,34.63788],[135.49426,34.63788],[135.49464,34.63788],[135.49486,34.63788],[135.49471,34.63732],[135.49466,34.63732],[135.49452,34.63685],[135.49434,34.6362],[135.4941,34.63532],[135.49409,34.63531],[135.49407,34.63527],[135.49381,34.63434],[135.49317,34.6344],[135.493,34.63442],[135.49294,34.63443],[135.49292,34.63443],[135.49261,34.63446],[135.49265,34.63472],[135.49267,34.63483],[135.49268,34.63492],[135.49269,34.63501],[135.49269,34.63525],[135.49267,34.63548],[135.49262,34.63561],[135.49259,34.63574],[135.49259,34.63574],[135.49256,34.63592],[135.49254,34.6362],[135.49253,34.6364],[135.49252,34.6366],[135.49252,34.6367],[135.49253,34.63702],[135.49253,34.63737],[135.49253,34.6374],[135.49254,34.63789]]]}},{"type":"Feature","properties":{"name":"潮路二丁目","setai":571,"jinko":990,"key":"27122026002","units":1,"m":517,"f":473,"gk":42,"a0":53,"a1":471,"a2":443,"a75":254,"ag":[9,20,24,18,31,35,35,31,50,73,67,67,64,83,106,102,91,46,13,2,0],"nf":23},"geometry":{"type":"Polygon","coordinates":[[[135.49265,34.63472],[135.49261,34.63446],[135.49257,34.63446],[135.49216,34.63447],[135.49207,34.63446],[135.49151,34.63525],[135.49147,34.63531],[135.49145,34.63534],[135.49107,34.63587],[135.49097,34.63601],[135.49083,34.63621],[135.49065,34.63647],[135.49046,34.63674],[135.49044,34.63676],[135.49028,34.637],[135.4901,34.63727],[135.48997,34.63745],[135.48994,34.63748],[135.4896,34.63793],[135.48965,34.63793],[135.48971,34.63793],[135.49008,34.63792],[135.49061,34.63791],[135.49088,34.63791],[135.49097,34.63791],[135.4913,34.6379],[135.49175,34.6379],[135.49254,34.63789],[135.49253,34.6374],[135.49253,34.63737],[135.49253,34.63702],[135.49252,34.6367],[135.49252,34.6366],[135.49253,34.6364],[135.49254,34.6362],[135.49256,34.63592],[135.49259,34.63574],[135.49259,34.63574],[135.49262,34.63561],[135.49267,34.63548],[135.49269,34.63525],[135.49269,34.63501],[135.49268,34.63492],[135.49267,34.63483],[135.49265,34.63472]]]}},{"type":"Feature","properties":{"name":"千本北一丁目","setai":808,"jinko":1327,"key":"27122027001","units":1,"m":704,"f":623,"gk":52,"a0":103,"a1":606,"a2":556,"a75":308,"ag":[37,38,28,28,38,53,51,66,49,87,87,79,68,108,140,140,84,59,20,4,1],"nf":62},"geometry":{"type":"Polygon","coordinates":[[[135.49065,34.63647],[135.49083,34.63621],[135.49097,34.63601],[135.49107,34.63587],[135.49145,34.63534],[135.49147,34.63531],[135.49151,34.63525],[135.49207,34.63446],[135.49157,34.63441],[135.49142,34.6344],[135.49123,34.63438],[135.491,34.63432],[135.49085,34.63426],[135.49061,34.63425],[135.4906,34.63425],[135.49057,34.63423],[135.49025,34.63426],[135.48999,34.63427],[135.48991,34.63427],[135.48967,34.63427],[135.48933,34.63428],[135.48925,34.63428],[135.4889,34.63428],[135.4888,34.63463],[135.48877,34.63489],[135.48877,34.63507],[135.48878,34.63525],[135.48878,34.63527],[135.4888,34.63538],[135.48882,34.6355],[135.48887,34.63567],[135.48899,34.63588],[135.48914,34.63608],[135.48921,34.63617],[135.48926,34.63621],[135.48926,34.6363],[135.48924,34.6363],[135.48917,34.63665],[135.48912,34.63692],[135.48907,34.63716],[135.48913,34.63724],[135.4891,34.63759],[135.48906,34.63781],[135.48909,34.63794],[135.48944,34.63794],[135.48953,34.63793],[135.48956,34.63793],[135.48959,34.63793],[135.4896,34.63793],[135.48994,34.63748],[135.48997,34.63745],[135.4901,34.63727],[135.49028,34.637],[135.49044,34.63676],[135.49046,34.63674],[135.49065,34.63647]]]}},{"type":"Feature","properties":{"name":"千本北二丁目","setai":1273,"jinko":2612,"key":"27122027002","units":1,"m":1266,"f":1346,"gk":118,"a0":262,"a1":1397,"a2":896,"a75":478,"ag":[64,99,99,108,126,126,115,106,152,188,160,153,163,209,209,201,133,97,35,11,1],"nf":57},"geometry":{"type":"Polygon","coordinates":[[[135.48764,34.63795],[135.48827,34.63793],[135.48827,34.63794],[135.48887,34.63794],[135.48909,34.63794],[135.48906,34.63781],[135.4891,34.63759],[135.48913,34.63724],[135.48907,34.63716],[135.48912,34.63692],[135.48917,34.63665],[135.48924,34.6363],[135.48926,34.6363],[135.48926,34.63621],[135.48921,34.63617],[135.48914,34.63608],[135.48899,34.63588],[135.48887,34.63567],[135.48882,34.6355],[135.4888,34.63538],[135.48878,34.63527],[135.48878,34.63525],[135.48877,34.63507],[135.48877,34.63489],[135.4888,34.63463],[135.4889,34.63428],[135.48888,34.63427],[135.48875,34.63427],[135.48834,34.63422],[135.48825,34.6342],[135.48816,34.63416],[135.48805,34.63413],[135.48784,34.6341],[135.48758,34.63407],[135.48756,34.63407],[135.48733,34.63408],[135.48692,34.63404],[135.48691,34.63404],[135.4866,34.63401],[135.48597,34.63395],[135.48595,34.63416],[135.48594,34.63417],[135.4858,34.63547],[135.48571,34.63626],[135.4857,34.6364],[135.48569,34.63647],[135.48563,34.63719],[135.48557,34.63772],[135.4855,34.63816],[135.48634,34.63816],[135.48639,34.63809],[135.48642,34.63797],[135.48663,34.63796],[135.48713,34.63796],[135.48764,34.63795]]]}},{"type":"Feature","properties":{"name":"千本中一丁目","setai":1116,"jinko":1801,"key":"27122028001","units":1,"m":944,"f":857,"gk":114,"a0":126,"a1":981,"a2":560,"a75":280,"ag":[32,43,51,67,98,116,90,90,94,124,112,98,92,114,166,115,87,53,18,6,1],"nf":134},"geometry":{"type":"Polygon","coordinates":[[[135.49216,34.63447],[135.49257,34.63446],[135.49261,34.63446],[135.49292,34.63443],[135.49294,34.63443],[135.493,34.63442],[135.49317,34.6344],[135.49381,34.63434],[135.49366,34.63382],[135.49353,34.63347],[135.49329,34.63273],[135.49325,34.63262],[135.49323,34.63255],[135.49282,34.63245],[135.492,34.63223],[135.49182,34.63218],[135.49163,34.63213],[135.49161,34.63213],[135.49132,34.63205],[135.49083,34.63191],[135.49061,34.63185],[135.49054,34.63183],[135.49039,34.63179],[135.49037,34.63178],[135.49018,34.63174],[135.48989,34.63165],[135.48919,34.63144],[135.4892,34.63185],[135.48919,34.63195],[135.48919,34.63208],[135.48916,34.63239],[135.48913,34.63266],[135.48917,34.63281],[135.48918,34.63286],[135.48913,34.63317],[135.48909,34.63332],[135.48908,34.63344],[135.48905,34.63358],[135.48897,34.63389],[135.48894,34.63405],[135.48888,34.63427],[135.4889,34.63428],[135.48925,34.63428],[135.48933,34.63428],[135.48967,34.63427],[135.48991,34.63427],[135.48999,34.63427],[135.49025,34.63426],[135.49057,34.63423],[135.4906,34.63425],[135.49061,34.63425],[135.49085,34.63426],[135.491,34.63432],[135.49123,34.63438],[135.49142,34.6344],[135.49157,34.63441],[135.49207,34.63446],[135.49216,34.63447]]]}},{"type":"Feature","properties":{"name":"千本中二丁目","setai":858,"jinko":1674,"key":"27122028002","units":1,"m":842,"f":832,"gk":68,"a0":138,"a1":935,"a2":567,"a75":305,"ag":[57,33,48,57,91,102,75,80,75,95,118,117,125,131,131,122,98,63,15,7,0],"nf":34},"geometry":{"type":"Polygon","coordinates":[[[135.48888,34.63427],[135.48894,34.63405],[135.48897,34.63389],[135.48905,34.63358],[135.48908,34.63344],[135.48909,34.63332],[135.48913,34.63317],[135.48918,34.63286],[135.48917,34.63281],[135.48913,34.63266],[135.48916,34.63239],[135.48919,34.63208],[135.48919,34.63195],[135.4892,34.63185],[135.48919,34.63144],[135.48866,34.6313],[135.48825,34.63118],[135.4881,34.63112],[135.48808,34.63111],[135.48789,34.631],[135.48755,34.63084],[135.48736,34.63084],[135.48724,34.63085],[135.487,34.63084],[135.48622,34.63077],[135.4862,34.63115],[135.48619,34.63121],[135.48619,34.63124],[135.48616,34.63168],[135.48614,34.63204],[135.48611,34.63239],[135.48607,34.63294],[135.48603,34.63338],[135.48603,34.63338],[135.486,34.63372],[135.48597,34.63395],[135.4866,34.63401],[135.48691,34.63404],[135.48692,34.63404],[135.48733,34.63408],[135.48756,34.63407],[135.48758,34.63407],[135.48784,34.6341],[135.48805,34.63413],[135.48816,34.63416],[135.48825,34.6342],[135.48834,34.63422],[135.48875,34.63427],[135.48888,34.63427]]]}},{"type":"Feature","properties":{"name":"千本南一丁目","setai":1323,"jinko":2353,"key":"27122029001","units":1,"m":1165,"f":1188,"gk":94,"a0":203,"a1":1258,"a2":758,"a75":400,"ag":[61,67,75,81,100,121,97,111,135,177,157,159,120,165,193,174,118,82,19,6,1],"nf":134},"geometry":{"type":"Polygon","coordinates":[[[135.49008,34.62855],[135.48969,34.62853],[135.48964,34.62876],[135.48962,34.62892],[135.48955,34.62936],[135.48955,34.62948],[135.48948,34.62981],[135.48945,34.63017],[135.48945,34.6302],[135.48937,34.63082],[135.48923,34.63107],[135.48918,34.63115],[135.48917,34.63116],[135.48919,34.63144],[135.48989,34.63165],[135.49018,34.63174],[135.49037,34.63178],[135.49039,34.63179],[135.49054,34.63183],[135.49061,34.63185],[135.49083,34.63191],[135.49132,34.63205],[135.49161,34.63213],[135.49163,34.63213],[135.49182,34.63218],[135.492,34.63223],[135.49282,34.63245],[135.49323,34.63255],[135.49303,34.63195],[135.49282,34.63134],[135.49275,34.63113],[135.49268,34.63095],[135.49257,34.63062],[135.49238,34.63013],[135.4923,34.62991],[135.49228,34.62987],[135.49224,34.62974],[135.49223,34.62972],[135.49223,34.62971],[135.49216,34.62954],[135.49202,34.62914],[135.49189,34.62881],[135.49184,34.62866],[135.49097,34.62861],[135.4905,34.62858],[135.49033,34.62857],[135.49008,34.62855]]]}},{"type":"Feature","properties":{"name":"千本南二丁目","setai":970,"jinko":2045,"key":"27122029002","units":1,"m":1054,"f":991,"gk":68,"a0":255,"a1":1262,"a2":493,"a75":234,"ag":[46,93,116,115,116,97,93,123,140,198,150,125,105,114,145,119,67,34,10,4,0],"nf":35},"geometry":{"type":"Polygon","coordinates":[[[135.48923,34.63107],[135.48937,34.63082],[135.48945,34.6302],[135.48945,34.63017],[135.48948,34.62981],[135.48955,34.62948],[135.48955,34.62936],[135.48962,34.62892],[135.48964,34.62876],[135.48969,34.62853],[135.4892,34.62849],[135.48896,34.62847],[135.48854,34.62844],[135.48809,34.62841],[135.48776,34.62838],[135.48742,34.62832],[135.48731,34.62833],[135.4872,34.62833],[135.48634,34.6284],[135.4863,34.62884],[135.4863,34.62889],[135.48627,34.62976],[135.48624,34.63009],[135.48624,34.63014],[135.48623,34.63018],[135.48622,34.63049],[135.48624,34.63058],[135.48622,34.63077],[135.487,34.63084],[135.48724,34.63085],[135.48736,34.63084],[135.48755,34.63084],[135.48789,34.631],[135.48808,34.63111],[135.4881,34.63112],[135.48825,34.63118],[135.48866,34.6313],[135.48919,34.63144],[135.48917,34.63116],[135.48918,34.63115],[135.48923,34.63107]]]}},{"type":"Feature","properties":{"name":"北津守一丁目","setai":166,"jinko":300,"key":"27122030001","units":1,"m":150,"f":150,"gk":75,"a0":45,"a1":186,"a2":46,"a75":23,"ag":[13,19,13,9,23,29,19,20,20,16,25,15,10,15,8,7,5,9,2,0,0],"nf":23},"geometry":{"type":"Polygon","coordinates":[[[135.48531,34.65707],[135.48532,34.65674],[135.48533,34.65645],[135.48536,34.65563],[135.48541,34.65483],[135.48543,34.65461],[135.48549,34.65394],[135.48552,34.65356],[135.48552,34.65338],[135.48442,34.65365],[135.48342,34.65387],[135.48261,34.65405],[135.48139,34.65435],[135.48081,34.65448],[135.48087,34.6546],[135.48124,34.65525],[135.48126,34.65529],[135.48129,34.65543],[135.48166,34.65546],[135.48192,34.6555],[135.48206,34.65556],[135.48247,34.65576],[135.48306,34.65615],[135.48342,34.65635],[135.4835,34.6564],[135.48377,34.65653],[135.48394,34.6566],[135.48394,34.65661],[135.48399,34.65653],[135.48414,34.6566],[135.48416,34.6566],[135.48412,34.65667],[135.48412,34.65668],[135.48434,34.65677],[135.48453,34.65689],[135.48453,34.65689],[135.48453,34.65689],[135.48453,34.65689],[135.48453,34.65688],[135.4846,34.65682],[135.48465,34.65676],[135.48466,34.65676],[135.48482,34.65686],[135.48497,34.65704],[135.48494,34.65707],[135.48499,34.65711],[135.4853,34.65737],[135.4853,34.65726],[135.4853,34.65719],[135.48531,34.65707]]]}},{"type":"Feature","properties":{"name":"北津守二丁目","setai":220,"jinko":438,"key":"27122030002","units":1,"m":207,"f":231,"gk":35,"a0":71,"a1":228,"a2":132,"a75":82,"ag":[26,22,23,17,17,33,35,23,15,31,17,25,15,11,39,26,31,15,7,3,0],"nf":7},"geometry":{"type":"Polygon","coordinates":[[[135.48333,34.65213],[135.48292,34.65205],[135.48293,34.65207],[135.48154,34.65179],[135.48095,34.65167],[135.48009,34.6515],[135.48006,34.6515],[135.47998,34.65129],[135.47939,34.65143],[135.47958,34.65188],[135.47965,34.65204],[135.48028,34.65345],[135.48081,34.65448],[135.48139,34.65435],[135.48261,34.65405],[135.48342,34.65387],[135.48442,34.65365],[135.48552,34.65338],[135.48557,34.65287],[135.4856,34.65258],[135.48449,34.65236],[135.48368,34.6522],[135.48343,34.65215],[135.48333,34.65213]]]}},{"type":"Feature","properties":{"name":"北津守三丁目","setai":274,"jinko":460,"key":"27122030003","units":1,"m":238,"f":222,"gk":42,"a0":39,"a1":249,"a2":159,"a75":86,"ag":[14,12,13,18,33,20,21,14,29,31,24,25,34,37,36,40,26,12,5,2,1],"nf":13},"geometry":{"type":"Polygon","coordinates":[[[135.4856,34.65258],[135.48568,34.65173],[135.48563,34.65168],[135.48558,34.6516],[135.48557,34.65153],[135.48556,34.6514],[135.48559,34.65135],[135.48558,34.65113],[135.48556,34.65106],[135.48553,34.65081],[135.48553,34.65079],[135.48541,34.65068],[135.48463,34.65044],[135.48464,34.65037],[135.48413,34.65036],[135.48297,34.65013],[135.48236,34.65002],[135.48237,34.65006],[135.48164,34.64993],[135.481,34.64986],[135.48087,34.64984],[135.47991,34.64966],[135.47991,34.64967],[135.47885,34.64972],[135.47886,34.64988],[135.47889,34.65013],[135.4789,34.65021],[135.47895,34.65034],[135.47939,34.65143],[135.47998,34.65129],[135.48006,34.6515],[135.48009,34.6515],[135.48095,34.65167],[135.48154,34.65179],[135.48293,34.65207],[135.48292,34.65205],[135.48333,34.65213],[135.48343,34.65215],[135.48368,34.6522],[135.48449,34.65236],[135.4856,34.65258]]]}},{"type":"Feature","properties":{"name":"北津守四丁目","setai":714,"jinko":1303,"key":"27122030004","units":1,"m":709,"f":594,"gk":114,"a0":101,"a1":698,"a2":417,"a75":211,"ag":[28,37,36,54,52,45,51,65,76,79,101,91,84,93,113,102,70,27,11,1,0],"nf":87},"geometry":{"type":"Polygon","coordinates":[[[135.48543,34.65003],[135.48544,34.64998],[135.48541,34.64967],[135.48542,34.64938],[135.48542,34.64936],[135.48542,34.64924],[135.48544,34.64903],[135.48549,34.64882],[135.48559,34.64855],[135.48558,34.64855],[135.4848,34.6483],[135.48478,34.6483],[135.48487,34.64722],[135.48395,34.6472],[135.48395,34.64762],[135.48396,34.64794],[135.48315,34.64791],[135.48276,34.6479],[135.48265,34.64789],[135.48201,34.64788],[135.48062,34.64784],[135.48063,34.64748],[135.48012,34.64743],[135.48017,34.64707],[135.47987,34.64702],[135.47986,34.64695],[135.47903,34.64691],[135.47889,34.6479],[135.47885,34.64819],[135.47883,34.64907],[135.47885,34.64972],[135.47991,34.64967],[135.47991,34.64966],[135.48087,34.64984],[135.481,34.64986],[135.48164,34.64993],[135.48237,34.65006],[135.48236,34.65002],[135.48297,34.65013],[135.48413,34.65036],[135.48464,34.65037],[135.48463,34.65044],[135.48541,34.65068],[135.48553,34.65079],[135.48553,34.65065],[135.48549,34.65033],[135.48545,34.65024],[135.48543,34.65003]]]}},{"type":"Feature","properties":{"name":"津守一丁目","setai":360,"jinko":656,"key":"27122031001","units":1,"m":363,"f":293,"gk":48,"a0":52,"a1":317,"a2":279,"a75":146,"ag":[15,18,19,20,31,23,8,28,39,45,40,39,44,58,75,59,48,29,7,2,1],"nf":8},"geometry":{"type":"Polygon","coordinates":[[[135.48603,34.64742],[135.48609,34.64716],[135.48615,34.64664],[135.48615,34.64656],[135.48615,34.64633],[135.48614,34.64625],[135.48613,34.64608],[135.48607,34.64585],[135.48601,34.64559],[135.48597,34.64543],[135.48594,34.64532],[135.48585,34.64491],[135.48582,34.64477],[135.4858,34.64465],[135.48575,34.6444],[135.48569,34.64424],[135.48552,34.64399],[135.48552,34.644],[135.48547,34.64398],[135.48495,34.64467],[135.48495,34.64466],[135.48478,34.64441],[135.48444,34.64379],[135.48432,34.64359],[135.48412,34.6432],[135.48397,34.6433],[135.48329,34.64373],[135.48259,34.64418],[135.48042,34.64416],[135.48027,34.64417],[135.48026,34.64417],[135.48028,34.64382],[135.48029,34.64368],[135.48032,34.64356],[135.48039,34.64344],[135.48045,34.64313],[135.48045,34.64267],[135.47916,34.64256],[135.47917,34.64298],[135.47918,34.64362],[135.47907,34.64623],[135.47905,34.6467],[135.47903,34.64691],[135.47986,34.64695],[135.47987,34.64702],[135.48017,34.64707],[135.48012,34.64743],[135.48063,34.64748],[135.48062,34.64784],[135.48201,34.64788],[135.48265,34.64789],[135.48276,34.6479],[135.48315,34.64791],[135.48396,34.64794],[135.48395,34.64762],[135.48395,34.6472],[135.48487,34.64722],[135.48478,34.6483],[135.4848,34.6483],[135.48558,34.64855],[135.48565,34.64829],[135.48583,34.64783],[135.48584,34.64783],[135.48603,34.64742]]]}},{"type":"Feature","properties":{"name":"津守二丁目","setai":141,"jinko":285,"key":"27122031002","units":1,"m":158,"f":127,"gk":31,"a0":5,"a1":134,"a2":141,"a75":90,"ag":[0,3,2,9,25,15,5,13,9,9,13,16,20,20,31,36,25,20,7,2,0],"nf":5},"geometry":{"type":"Polygon","coordinates":[[[135.48495,34.64467],[135.48547,34.64398],[135.48552,34.644],[135.48537,34.64382],[135.48522,34.64362],[135.48518,34.64352],[135.48517,34.64322],[135.4852,34.64294],[135.48526,34.64277],[135.48529,34.6426],[135.48532,34.64211],[135.48535,34.64164],[135.48535,34.64156],[135.48535,34.64156],[135.48535,34.6415],[135.48537,34.64119],[135.48538,34.64106],[135.48539,34.64085],[135.48491,34.64087],[135.48409,34.64091],[135.48395,34.64093],[135.48382,34.64095],[135.48348,34.64101],[135.48302,34.6412],[135.48284,34.64125],[135.48275,34.64124],[135.48237,34.64124],[135.48193,34.64124],[135.48124,34.64122],[135.48109,34.64122],[135.4804,34.64122],[135.4804,34.64122],[135.47908,34.64119],[135.47916,34.64226],[135.47916,34.64256],[135.48045,34.64267],[135.48045,34.64313],[135.48039,34.64344],[135.48032,34.64356],[135.48029,34.64368],[135.48028,34.64382],[135.48026,34.64417],[135.48027,34.64417],[135.48042,34.64416],[135.48259,34.64418],[135.48329,34.64373],[135.48397,34.6433],[135.48412,34.6432],[135.48432,34.64359],[135.48444,34.64379],[135.48478,34.64441],[135.48495,34.64466],[135.48495,34.64467]]]}},{"type":"Feature","properties":{"name":"津守三丁目","setai":490,"jinko":1052,"key":"27122031003","units":1,"m":472,"f":580,"gk":48,"a0":60,"a1":520,"a2":471,"a75":225,"ag":[21,24,15,30,50,34,40,40,42,52,58,80,94,114,132,86,78,39,17,3,2],"nf":1},"geometry":{"type":"Polygon","coordinates":[[[135.48284,34.64125],[135.48302,34.6412],[135.48348,34.64101],[135.48382,34.64095],[135.48395,34.64093],[135.48409,34.64091],[135.48491,34.64087],[135.48539,34.64085],[135.48541,34.64055],[135.48543,34.64003],[135.48543,34.63998],[135.48547,34.63901],[135.48548,34.63849],[135.48548,34.63816],[135.48547,34.63815],[135.48515,34.63813],[135.48479,34.63811],[135.48292,34.63799],[135.48292,34.63799],[135.48215,34.63797],[135.48204,34.63797],[135.48205,34.63664],[135.48204,34.63584],[135.48103,34.63583],[135.48102,34.63583],[135.47775,34.6358],[135.47785,34.63633],[135.47803,34.63684],[135.47811,34.63701],[135.47825,34.63739],[135.47845,34.63798],[135.4785,34.6382],[135.4786,34.63853],[135.47877,34.63924],[135.47883,34.63954],[135.47891,34.63987],[135.47897,34.64028],[135.47903,34.64082],[135.47908,34.64119],[135.4804,34.64122],[135.4804,34.64122],[135.48109,34.64122],[135.48124,34.64122],[135.48193,34.64124],[135.48237,34.64124],[135.48275,34.64124],[135.48284,34.64125]]]}},{"type":"Feature","properties":{"name":"南津守一丁目","setai":294,"jinko":873,"key":"27122032001","units":1,"m":424,"f":449,"gk":55,"a0":48,"a1":406,"a2":408,"a75":285,"ag":[8,18,22,19,39,41,24,24,40,76,68,36,39,56,67,90,71,70,34,18,2],"nf":11},"geometry":{"type":"Polygon","coordinates":[[[135.48376,34.63343],[135.48305,34.63334],[135.48305,34.63341],[135.48303,34.63372],[135.483,34.63441],[135.48299,34.63505],[135.48297,34.63545],[135.48295,34.63634],[135.48292,34.63799],[135.48292,34.63799],[135.48479,34.63811],[135.48515,34.63813],[135.48547,34.63815],[135.48548,34.63816],[135.4855,34.63816],[135.48557,34.63772],[135.48563,34.63719],[135.48569,34.63647],[135.4857,34.6364],[135.48571,34.63626],[135.4858,34.63547],[135.48594,34.63417],[135.48595,34.63416],[135.48597,34.63395],[135.486,34.63372],[135.48548,34.63366],[135.48524,34.63363],[135.4852,34.63363],[135.48475,34.63357],[135.48376,34.63343]]]}},{"type":"Feature","properties":{"name":"南津守二丁目","setai":511,"jinko":913,"key":"27122032002","units":1,"m":417,"f":496,"gk":22,"a0":74,"a1":398,"a2":441,"a75":238,"ag":[23,14,37,42,28,22,20,30,44,69,70,35,38,86,117,104,73,47,11,3,0]},"geometry":{"type":"Polygon","coordinates":[[[135.4831,34.63179],[135.4831,34.63161],[135.48308,34.63153],[135.48308,34.63151],[135.48306,34.63137],[135.48241,34.63143],[135.48099,34.63155],[135.48093,34.63155],[135.48078,34.63156],[135.47867,34.63174],[135.47854,34.63172],[135.47839,34.63173],[135.47818,34.63176],[135.478,34.63181],[135.47786,34.63187],[135.47758,34.63201],[135.47635,34.63232],[135.47627,34.63235],[135.47632,34.63243],[135.47646,34.63271],[135.47759,34.63525],[135.47769,34.63553],[135.47775,34.6358],[135.48102,34.63583],[135.48103,34.63583],[135.48204,34.63584],[135.48205,34.63664],[135.48204,34.63797],[135.48215,34.63797],[135.48292,34.63799],[135.48295,34.63634],[135.48297,34.63545],[135.48299,34.63505],[135.483,34.63441],[135.48303,34.63372],[135.48305,34.63341],[135.48305,34.63334],[135.48304,34.63327],[135.48308,34.63238],[135.4831,34.63188],[135.4831,34.63179]]]}},{"type":"Feature","properties":{"name":"南津守三丁目","setai":648,"jinko":1165,"key":"27122032003","units":1,"m":614,"f":551,"gk":76,"a0":134,"a1":689,"a2":311,"a75":155,"ag":[34,42,58,37,55,73,62,70,73,101,96,73,49,82,74,62,58,22,8,5,0],"nf":31},"geometry":{"type":"Polygon","coordinates":[[[135.48622,34.63077],[135.48624,34.63058],[135.48495,34.63089],[135.48451,34.631],[135.48438,34.63101],[135.48431,34.63103],[135.48411,34.63107],[135.48388,34.63114],[135.48305,34.63134],[135.48306,34.63137],[135.48308,34.63151],[135.48308,34.63153],[135.4831,34.63161],[135.4831,34.63179],[135.4831,34.63188],[135.48308,34.63238],[135.48304,34.63327],[135.48305,34.63334],[135.48376,34.63343],[135.48475,34.63357],[135.4852,34.63363],[135.48524,34.63363],[135.48548,34.63366],[135.486,34.63372],[135.48603,34.63338],[135.48603,34.63338],[135.48607,34.63294],[135.48611,34.63239],[135.48614,34.63204],[135.48616,34.63168],[135.48619,34.63124],[135.48619,34.63121],[135.4862,34.63115],[135.48622,34.63077]]]}},{"type":"Feature","properties":{"name":"南津守四丁目","setai":729,"jinko":1631,"key":"27122032004","units":1,"m":867,"f":764,"gk":87,"a0":220,"a1":1008,"a2":390,"a75":202,"ag":[38,77,105,85,86,62,77,117,145,155,118,89,74,92,96,83,52,40,19,6,2],"nf":13},"geometry":{"type":"Polygon","coordinates":[[[135.48163,34.62849],[135.48101,34.62843],[135.4812,34.6287],[135.48166,34.62932],[135.48172,34.62942],[135.48182,34.62956],[135.48214,34.63],[135.48242,34.63039],[135.48251,34.63051],[135.48278,34.63087],[135.48292,34.63105],[135.48305,34.63134],[135.48388,34.63114],[135.48411,34.63107],[135.48431,34.63103],[135.48438,34.63101],[135.48451,34.631],[135.48495,34.63089],[135.48624,34.63058],[135.48622,34.63049],[135.48623,34.63018],[135.48624,34.63014],[135.48624,34.63009],[135.48627,34.62976],[135.4863,34.62889],[135.48598,34.62886],[135.48571,34.62884],[135.48516,34.6288],[135.48254,34.62857],[135.48229,34.62855],[135.48163,34.62849]]]}},{"type":"Feature","properties":{"name":"南津守五丁目","setai":68,"jinko":191,"key":"27122032005","units":1,"m":87,"f":104,"gk":14,"a0":2,"a1":53,"a2":135,"a75":93,"ag":[1,1,0,0,3,3,1,2,3,7,16,8,10,19,23,31,27,22,11,2,0],"nf":1},"geometry":{"type":"Polygon","coordinates":[[[135.47839,34.63173],[135.47854,34.63172],[135.47867,34.63174],[135.48078,34.63156],[135.48093,34.63155],[135.48099,34.63155],[135.48241,34.63143],[135.48306,34.63137],[135.48305,34.63134],[135.48292,34.63105],[135.48278,34.63087],[135.48251,34.63051],[135.48242,34.63039],[135.48214,34.63],[135.48182,34.62956],[135.48172,34.62942],[135.48166,34.62932],[135.4812,34.6287],[135.48101,34.62843],[135.48059,34.62785],[135.48052,34.62777],[135.48052,34.62776],[135.47992,34.62693],[135.47992,34.62693],[135.47959,34.62649],[135.47915,34.62588],[135.47737,34.62676],[135.4764,34.62725],[135.47646,34.62731],[135.47447,34.62859],[135.47362,34.62913],[135.47381,34.62934],[135.47398,34.62957],[135.47426,34.6299],[135.47466,34.63034],[135.4749,34.63063],[135.47512,34.6309],[135.47545,34.63132],[135.47627,34.63235],[135.47635,34.63232],[135.47758,34.63201],[135.47786,34.63187],[135.478,34.63181],[135.47818,34.63176],[135.47839,34.63173]]]}},{"type":"Feature","properties":{"name":"南津守六丁目","setai":682,"jinko":1407,"key":"27122032006","units":1,"m":750,"f":657,"gk":92,"a0":210,"a1":877,"a2":303,"a75":111,"ag":[48,76,86,72,66,75,84,100,90,122,101,95,72,70,122,53,35,17,6,0,0],"nf":17},"geometry":{"type":"Polygon","coordinates":[[[135.48071,34.62543],[135.48022,34.62536],[135.47985,34.62554],[135.47984,34.62554],[135.4793,34.6258],[135.47915,34.62588],[135.47959,34.62649],[135.47992,34.62693],[135.47992,34.62693],[135.48052,34.62776],[135.48052,34.62777],[135.48059,34.62785],[135.48101,34.62843],[135.48163,34.62849],[135.48229,34.62855],[135.48254,34.62857],[135.48516,34.6288],[135.48571,34.62884],[135.48598,34.62886],[135.4863,34.62889],[135.4863,34.62884],[135.48634,34.6284],[135.48638,34.62766],[135.48638,34.62755],[135.4864,34.62736],[135.4864,34.62724],[135.48639,34.6272],[135.48642,34.62659],[135.48642,34.62658],[135.48643,34.62622],[135.48644,34.62608],[135.4858,34.62607],[135.48545,34.62604],[135.48535,34.62603],[135.48524,34.62602],[135.48513,34.62602],[135.48455,34.62597],[135.48349,34.6259],[135.48297,34.62581],[135.48201,34.62565],[135.48154,34.62557],[135.48148,34.62556],[135.48071,34.62543]]]}},{"type":"Feature","properties":{"name":"南津守七丁目","setai":1508,"jinko":2999,"key":"27122032007","units":1,"m":1552,"f":1447,"gk":187,"a0":317,"a1":1723,"a2":922,"a75":518,"ag":[88,102,127,137,152,164,156,155,165,234,242,168,150,204,200,171,127,112,70,34,4],"nf":37},"geometry":{"type":"Polygon","coordinates":[[[135.48379,34.62202],[135.48245,34.62177],[135.48244,34.62183],[135.48236,34.62212],[135.48227,34.62244],[135.48226,34.6225],[135.48216,34.62291],[135.48205,34.62337],[135.48195,34.62382],[135.48188,34.62409],[135.48179,34.62445],[135.48173,34.62452],[135.48169,34.62456],[135.48037,34.62528],[135.48022,34.62536],[135.48071,34.62543],[135.48148,34.62556],[135.48154,34.62557],[135.48201,34.62565],[135.48297,34.62581],[135.48349,34.6259],[135.48455,34.62597],[135.48513,34.62602],[135.48524,34.62602],[135.48535,34.62603],[135.48545,34.62604],[135.4858,34.62607],[135.48644,34.62608],[135.48648,34.62539],[135.48649,34.62519],[135.48654,34.62488],[135.4866,34.62455],[135.48666,34.62414],[135.48669,34.62388],[135.48665,34.62354],[135.48666,34.62321],[135.48663,34.62286],[135.48663,34.62282],[135.4866,34.62253],[135.48599,34.62242],[135.48515,34.62226],[135.48483,34.6222],[135.48419,34.62209],[135.48379,34.62202]]]}}]}