{"type":"FeatureCollection","features":[{"type":"Feature","properties":{"name":"波除一丁目","setai":849,"jinko":1768,"key":"27107001001","units":1,"m":806,"f":962,"gk":49,"a0":270,"a1":981,"a2":490,"a75":267,"ag":[95,76,99,62,68,104,116,121,135,148,100,73,54,88,135,138,91,27,8,3,0],"nf":27},"geometry":{"type":"Polygon","coordinates":[[[135.468,34.67149],[135.46758,34.67112],[135.46738,34.67127],[135.46618,34.67219],[135.46584,34.67245],[135.46513,34.673],[135.46456,34.67343],[135.46439,34.67357],[135.46421,34.67371],[135.46409,34.6738],[135.46388,34.67395],[135.46359,34.67418],[135.46354,34.67423],[135.46317,34.67452],[135.46302,34.67463],[135.46265,34.67492],[135.46264,34.67493],[135.46217,34.67529],[135.46197,34.67545],[135.46155,34.67578],[135.46209,34.67607],[135.46227,34.67616],[135.46242,34.67624],[135.46255,34.67631],[135.46269,34.67641],[135.46318,34.67599],[135.46388,34.67537],[135.46416,34.67515],[135.46439,34.67495],[135.46555,34.67407],[135.46831,34.67192],[135.4684,34.67185],[135.46812,34.67161],[135.468,34.67149]]]}},{"type":"Feature","properties":{"name":"波除二丁目","setai":1224,"jinko":2117,"key":"27107001002","units":1,"m":1010,"f":1107,"gk":54,"a0":164,"a1":1348,"a2":501,"a75":250,"ag":[64,54,46,78,119,182,173,141,136,149,138,121,111,123,128,96,83,51,18,2,0],"nf":104},"geometry":{"type":"Polygon","coordinates":[[[135.46495,34.66948],[135.46465,34.66936],[135.46437,34.66987],[135.46428,34.67004],[135.46401,34.67047],[135.46375,34.67088],[135.46366,34.67103],[135.46358,34.67116],[135.46345,34.67138],[135.46337,34.6715],[135.46321,34.67177],[135.4631,34.67197],[135.46296,34.67219],[135.46408,34.67259],[135.46442,34.67272],[135.46463,34.6728],[135.46487,34.67289],[135.46513,34.673],[135.46584,34.67245],[135.46618,34.67219],[135.46738,34.67127],[135.46758,34.67112],[135.46751,34.67106],[135.46712,34.67074],[135.46702,34.67066],[135.46686,34.67051],[135.4667,34.67039],[135.46648,34.67023],[135.46633,34.67012],[135.46631,34.6701],[135.46603,34.66993],[135.46597,34.66989],[135.46566,34.66976],[135.46565,34.66975],[135.46552,34.6697],[135.46523,34.66958],[135.46495,34.66948]]]}},{"type":"Feature","properties":{"name":"波除三丁目","setai":714,"jinko":1083,"key":"27107001003","units":1,"m":520,"f":563,"gk":37,"a0":59,"a1":798,"a2":197,"a75":101,"ag":[22,10,27,30,113,160,111,74,72,59,67,64,48,49,47,27,41,25,6,1,1],"nf":29},"geometry":{"type":"Polygon","coordinates":[[[135.46279,34.66869],[135.4622,34.66851],[135.46218,34.66855],[135.46222,34.66856],[135.46184,34.66917],[135.46096,34.67058],[135.46063,34.6711],[135.46052,34.6713],[135.46117,34.67153],[135.4616,34.67169],[135.46195,34.67183],[135.46296,34.67219],[135.4631,34.67197],[135.46321,34.67177],[135.46337,34.6715],[135.46345,34.67138],[135.46358,34.67116],[135.46366,34.67103],[135.46375,34.67088],[135.46401,34.67047],[135.46428,34.67004],[135.46437,34.66987],[135.46465,34.66936],[135.46463,34.66936],[135.4637,34.66902],[135.46361,34.66899],[135.46279,34.66869]]]}},{"type":"Feature","properties":{"name":"波除四丁目","setai":921,"jinko":2314,"key":"27107001004","units":1,"m":1094,"f":1220,"gk":38,"a0":502,"a1":1316,"a2":481,"a75":247,"ag":[95,200,207,116,79,29,71,173,259,285,146,84,74,90,144,122,69,40,13,3,0],"nf":15},"geometry":{"type":"Polygon","coordinates":[[[135.46408,34.67259],[135.46296,34.67219],[135.46274,34.67258],[135.46254,34.67291],[135.46233,34.67326],[135.46211,34.67364],[135.46183,34.67411],[135.46132,34.67495],[135.461,34.6755],[135.46155,34.67578],[135.46197,34.67545],[135.46217,34.67529],[135.46264,34.67493],[135.46265,34.67492],[135.46302,34.67463],[135.46317,34.67452],[135.46354,34.67423],[135.46359,34.67418],[135.46388,34.67395],[135.46409,34.6738],[135.46421,34.67371],[135.46439,34.67357],[135.46456,34.67343],[135.46513,34.673],[135.46487,34.67289],[135.46463,34.6728],[135.46442,34.67272],[135.46408,34.67259]]]}},{"type":"Feature","properties":{"name":"波除五丁目","setai":841,"jinko":1727,"key":"27107001005","units":1,"m":880,"f":861,"gk":32,"a0":162,"a1":1124,"a2":396,"a75":219,"ag":[50,56,56,72,98,137,106,104,119,145,139,100,104,79,98,102,54,43,17,3,0],"nf":59,"tt":1741,"gs":1},"geometry":{"type":"Polygon","coordinates":[[[135.46117,34.67153],[135.46052,34.6713],[135.46013,34.672],[135.45972,34.67275],[135.45969,34.67281],[135.45961,34.67293],[135.45947,34.67316],[135.45936,34.67335],[135.4591,34.67379],[135.45878,34.67433],[135.45907,34.67446],[135.45955,34.67472],[135.45995,34.67493],[135.46049,34.67524],[135.46069,34.67534],[135.461,34.6755],[135.46132,34.67495],[135.46183,34.67411],[135.46211,34.67364],[135.46233,34.67326],[135.46254,34.67291],[135.46274,34.67258],[135.46296,34.67219],[135.46195,34.67183],[135.4616,34.67169],[135.46117,34.67153]]]}},{"type":"Feature","properties":{"name":"波除六丁目","setai":4,"jinko":14,"key":"27107001006","units":1,"hi":1},"geometry":{"type":"Polygon","coordinates":[[[135.45907,34.67446],[135.45878,34.67433],[135.45876,34.67439],[135.45825,34.6752],[135.45823,34.67522],[135.45767,34.67611],[135.45788,34.67618],[135.45905,34.67656],[135.45936,34.67667],[135.46091,34.67719],[135.46205,34.67757],[135.46228,34.67707],[135.46253,34.67656],[135.46269,34.67641],[135.46255,34.67631],[135.46242,34.67624],[135.46227,34.67616],[135.46209,34.67607],[135.46155,34.67578],[135.461,34.6755],[135.46069,34.67534],[135.46049,34.67524],[135.45995,34.67493],[135.45955,34.67472],[135.45907,34.67446]]]}},{"type":"Feature","properties":{"name":"市岡元町一丁目","setai":1437,"jinko":1995,"key":"27107002001","units":1,"m":1032,"f":963,"gk":77,"a0":133,"a1":1420,"a2":271,"a75":124,"ag":[60,47,26,50,258,282,202,129,130,111,101,91,66,70,77,43,30,35,14,2,0],"nf":171},"geometry":{"type":"Polygon","coordinates":[[[135.4689,34.67145],[135.46925,34.67117],[135.46926,34.67118],[135.46961,34.67091],[135.4696,34.6709],[135.46986,34.67069],[135.47033,34.67032],[135.47048,34.67019],[135.47116,34.66966],[135.47192,34.66906],[135.472,34.669],[135.47165,34.66868],[135.47154,34.66859],[135.47149,34.66854],[135.47132,34.66838],[135.4712,34.66828],[135.47105,34.66818],[135.47074,34.66806],[135.4705,34.66796],[135.47041,34.66793],[135.47034,34.6679],[135.47026,34.66787],[135.46999,34.66776],[135.46956,34.66759],[135.46921,34.66818],[135.46905,34.66845],[135.46881,34.66886],[135.46864,34.66912],[135.46833,34.66968],[135.46801,34.67023],[135.46751,34.67106],[135.46758,34.67112],[135.468,34.67149],[135.46812,34.67161],[135.4684,34.67185],[135.46851,34.67177],[135.4688,34.67153],[135.4689,34.67145]]]}},{"type":"Feature","properties":{"name":"市岡元町二丁目","setai":1324,"jinko":2192,"key":"27107002002","units":1,"m":1075,"f":1117,"gk":38,"a0":160,"a1":1378,"a2":491,"a75":265,"ag":[65,47,48,68,224,171,165,134,97,137,128,131,123,99,127,109,76,51,25,4,0],"nf":163},"geometry":{"type":"Polygon","coordinates":[[[135.46652,34.66641],[135.46633,34.66634],[135.46611,34.66675],[135.46547,34.66789],[135.46537,34.66807],[135.46527,34.66825],[135.46507,34.66859],[135.46494,34.66882],[135.46463,34.66936],[135.46465,34.66936],[135.46495,34.66948],[135.46523,34.66958],[135.46552,34.6697],[135.46565,34.66975],[135.46566,34.66976],[135.46597,34.66989],[135.46603,34.66993],[135.46631,34.6701],[135.46633,34.67012],[135.46648,34.67023],[135.4667,34.67039],[135.46686,34.67051],[135.46702,34.67066],[135.46712,34.67074],[135.46751,34.67106],[135.46801,34.67023],[135.46833,34.66968],[135.46864,34.66912],[135.46881,34.66886],[135.46905,34.66845],[135.46921,34.66818],[135.46956,34.66759],[135.4693,34.6675],[135.46899,34.66737],[135.46887,34.66733],[135.46853,34.66719],[135.46778,34.6669],[135.46775,34.66689],[135.46752,34.6668],[135.46682,34.66653],[135.46652,34.66641]]]}},{"type":"Feature","properties":{"name":"市岡元町三丁目","setai":743,"jinko":1184,"key":"27107002003","units":1,"m":597,"f":587,"gk":24,"a0":105,"a1":818,"a2":181,"a75":91,"ag":[50,27,28,28,88,123,109,81,87,80,75,97,50,43,47,47,23,13,5,3,0],"nf":80},"geometry":{"type":"Polygon","coordinates":[[[135.4649,34.66579],[135.46404,34.66545],[135.46381,34.66585],[135.46367,34.66609],[135.46359,34.66622],[135.46345,34.66647],[135.46315,34.66698],[135.46286,34.66747],[135.46266,34.66779],[135.46246,34.66812],[135.4622,34.66851],[135.46279,34.66869],[135.46361,34.66899],[135.4637,34.66902],[135.46463,34.66936],[135.46494,34.66882],[135.46507,34.66859],[135.46527,34.66825],[135.46537,34.66807],[135.46547,34.66789],[135.46611,34.66675],[135.46633,34.66634],[135.46626,34.66631],[135.46608,34.66625],[135.46547,34.66601],[135.46545,34.666],[135.4649,34.66579]]]}},{"type":"Feature","properties":{"name":"弁天一丁目","setai":1138,"jinko":2250,"key":"27107003001","units":1,"m":1030,"f":1220,"gk":46,"a0":229,"a1":1346,"a2":565,"a75":300,"ag":[76,60,93,90,83,103,104,93,123,196,196,204,154,139,126,90,77,78,37,16,2],"nf":110},"geometry":{"type":"Polygon","coordinates":[[[135.45981,34.66777],[135.45957,34.66769],[135.45911,34.66802],[135.45891,34.66817],[135.45829,34.66862],[135.45791,34.66889],[135.45768,34.66906],[135.45746,34.66922],[135.45728,34.66935],[135.45707,34.6695],[135.45702,34.66954],[135.45683,34.66968],[135.45702,34.66974],[135.45706,34.66976],[135.45747,34.66992],[135.45771,34.67001],[135.45806,34.67014],[135.45822,34.6702],[135.45838,34.67026],[135.4586,34.67034],[135.45882,34.67043],[135.45944,34.67065],[135.46,34.67086],[135.46032,34.67098],[135.46063,34.6711],[135.46096,34.67058],[135.46184,34.66917],[135.46222,34.66856],[135.46218,34.66855],[135.46146,34.66831],[135.46124,34.66824],[135.46028,34.66792],[135.45981,34.66777]]]}},{"type":"Feature","properties":{"name":"弁天二丁目","setai":1108,"jinko":2391,"key":"27107003002","units":1,"m":1143,"f":1248,"gk":41,"a0":245,"a1":1368,"a2":708,"a75":370,"ag":[89,77,79,90,102,125,146,126,162,155,174,154,134,170,168,116,110,85,49,6,4],"nf":70},"geometry":{"type":"Polygon","coordinates":[[[135.45675,34.66666],[135.45612,34.66644],[135.45595,34.66656],[135.45579,34.66669],[135.45563,34.66682],[135.45557,34.66686],[135.45553,34.6669],[135.45542,34.66698],[135.45476,34.6675],[135.45439,34.66779],[135.45388,34.66819],[135.45387,34.66819],[135.45354,34.66845],[135.45417,34.66869],[135.4544,34.66877],[135.45457,34.66883],[135.45537,34.66914],[135.45544,34.66915],[135.45549,34.66917],[135.45683,34.66968],[135.45702,34.66954],[135.45707,34.6695],[135.45728,34.66935],[135.45746,34.66922],[135.45768,34.66906],[135.45791,34.66889],[135.45829,34.66862],[135.45891,34.66817],[135.45911,34.66802],[135.45957,34.66769],[135.45927,34.66759],[135.45874,34.66738],[135.45807,34.66714],[135.45776,34.66702],[135.45741,34.6669],[135.45704,34.66676],[135.45675,34.66666]]]}},{"type":"Feature","properties":{"name":"弁天三丁目","setai":1067,"jinko":2118,"key":"27107003003","units":1,"m":1062,"f":1056,"gk":36,"a0":250,"a1":1282,"a2":491,"a75":251,"ag":[89,71,90,78,109,136,157,139,148,146,114,135,120,115,125,120,68,38,23,1,1],"nf":95},"geometry":{"type":"Polygon","coordinates":[[[135.4526,34.66524],[135.4521,34.66507],[135.45162,34.66571],[135.45142,34.66599],[135.45122,34.66626],[135.45095,34.66662],[135.45066,34.667],[135.45044,34.66729],[135.45139,34.66764],[135.45172,34.66777],[135.45195,34.66786],[135.4524,34.66803],[135.453,34.66826],[135.45338,34.66839],[135.45354,34.66845],[135.45387,34.66819],[135.45388,34.66819],[135.45439,34.66779],[135.45476,34.6675],[135.45542,34.66698],[135.45553,34.6669],[135.45557,34.66686],[135.45563,34.66682],[135.45579,34.66669],[135.45595,34.66656],[135.45612,34.66644],[135.45499,34.66605],[135.45495,34.66605],[135.4549,34.66602],[135.45387,34.66567],[135.45349,34.66554],[135.45341,34.66552],[135.45312,34.66543],[135.45307,34.6654],[135.45275,34.66528],[135.4526,34.66524]]]}},{"type":"Feature","properties":{"name":"弁天四丁目","setai":1290,"jinko":2547,"key":"27107003004","units":1,"m":1228,"f":1319,"gk":52,"a0":207,"a1":1558,"a2":704,"a75":442,"ag":[56,69,82,106,171,162,143,146,136,213,198,147,136,117,145,160,109,108,49,15,1],"nf":78},"geometry":{"type":"Polygon","coordinates":[[[135.45702,34.66974],[135.45683,34.66968],[135.45626,34.6701],[135.45624,34.67012],[135.4559,34.6704],[135.45573,34.67067],[135.45566,34.67078],[135.45545,34.67111],[135.45599,34.67132],[135.45618,34.67139],[135.45682,34.67163],[135.45701,34.67171],[135.45735,34.67184],[135.45789,34.67205],[135.45907,34.6725],[135.45932,34.6726],[135.45936,34.67261],[135.45972,34.67275],[135.46013,34.672],[135.46052,34.6713],[135.46063,34.6711],[135.46032,34.67098],[135.46,34.67086],[135.45944,34.67065],[135.45882,34.67043],[135.4586,34.67034],[135.45838,34.67026],[135.45822,34.6702],[135.45806,34.67014],[135.45771,34.67001],[135.45747,34.66992],[135.45706,34.66976],[135.45702,34.66974]]]}},{"type":"Feature","properties":{"name":"弁天五丁目","setai":1401,"jinko":2528,"key":"27107003005","units":1,"m":1242,"f":1286,"gk":60,"a0":248,"a1":1571,"a2":560,"a75":312,"ag":[72,85,91,82,180,157,171,168,163,213,168,166,103,104,144,127,102,59,18,6,0],"nf":149},"geometry":{"type":"Polygon","coordinates":[[[135.45573,34.67067],[135.45508,34.67042],[135.45506,34.67046],[135.45514,34.6705],[135.45429,34.67211],[135.4548,34.67232],[135.45474,34.67243],[135.45457,34.67273],[135.45536,34.67302],[135.45556,34.67309],[135.45594,34.67323],[135.45654,34.67346],[135.45659,34.67347],[135.45698,34.67362],[135.457,34.67362],[135.45787,34.67395],[135.45795,34.67398],[135.45817,34.67407],[135.45853,34.67423],[135.45878,34.67433],[135.4591,34.67379],[135.45936,34.67335],[135.45947,34.67316],[135.45961,34.67293],[135.45969,34.67281],[135.45972,34.67275],[135.45936,34.67261],[135.45932,34.6726],[135.45907,34.6725],[135.45789,34.67205],[135.45735,34.67184],[135.45701,34.67171],[135.45682,34.67163],[135.45618,34.67139],[135.45599,34.67132],[135.45545,34.67111],[135.45566,34.67078],[135.45573,34.67067]]]}},{"type":"Feature","properties":{"name":"弁天六丁目","setai":95,"jinko":170,"key":"27107003006","units":1,"m":93,"f":77,"gk":3,"a0":15,"a1":112,"a2":29,"a75":13,"ag":[11,3,1,10,9,14,17,13,17,14,8,4,6,9,7,6,5,2,0,0,0],"nf":14},"geometry":{"type":"Polygon","coordinates":[[[135.4548,34.67232],[135.45429,34.67211],[135.45428,34.67213],[135.45411,34.67207],[135.45413,34.67199],[135.45097,34.67082],[135.45041,34.67184],[135.4517,34.6723],[135.45522,34.67362],[135.45501,34.674],[135.45471,34.67455],[135.45589,34.67502],[135.45592,34.67509],[135.45602,34.67513],[135.45605,34.67517],[135.45615,34.6752],[135.45615,34.67525],[135.45626,34.67529],[135.45621,34.67539],[135.45621,34.67565],[135.45688,34.67586],[135.45698,34.67589],[135.45767,34.67611],[135.45823,34.67522],[135.45825,34.6752],[135.45876,34.67439],[135.45878,34.67433],[135.45853,34.67423],[135.45817,34.67407],[135.45795,34.67398],[135.45787,34.67395],[135.457,34.67362],[135.45698,34.67362],[135.45659,34.67347],[135.45654,34.67346],[135.45594,34.67323],[135.45556,34.67309],[135.45536,34.67302],[135.45457,34.67273],[135.45474,34.67243],[135.4548,34.67232]]]}},{"type":"Feature","properties":{"name":"磯路一丁目","setai":389,"jinko":606,"key":"27107004001","units":1,"m":303,"f":303,"gk":21,"a0":35,"a1":386,"a2":146,"a75":77,"ag":[12,12,11,20,46,59,34,27,44,42,41,51,22,28,41,33,12,19,12,1,0],"nf":39},"geometry":{"type":"Polygon","coordinates":[[[135.4629,34.66501],[135.46284,34.66499],[135.46222,34.66552],[135.46221,34.66553],[135.46185,34.66584],[135.46147,34.66616],[135.46105,34.66651],[135.46104,34.66652],[135.46094,34.6666],[135.46089,34.66664],[135.4608,34.66672],[135.46076,34.66675],[135.46058,34.6669],[135.46045,34.66701],[135.45994,34.66743],[135.45973,34.66761],[135.45957,34.66769],[135.45981,34.66777],[135.46028,34.66792],[135.46124,34.66824],[135.46146,34.66831],[135.46218,34.66855],[135.4622,34.66851],[135.46246,34.66812],[135.46266,34.66779],[135.46286,34.66747],[135.46315,34.66698],[135.46345,34.66647],[135.46359,34.66622],[135.46367,34.66609],[135.46381,34.66585],[135.46404,34.66545],[135.46366,34.66531],[135.46343,34.66522],[135.4631,34.66509],[135.4629,34.66501]]]}},{"type":"Feature","properties":{"name":"磯路二丁目","setai":1529,"jinko":2905,"key":"27107004002","units":1,"m":1414,"f":1491,"gk":96,"a0":282,"a1":1793,"a2":706,"a75":343,"ag":[103,86,93,96,154,209,198,161,191,199,228,200,157,146,217,148,89,76,23,7,0],"nf":124},"geometry":{"type":"Polygon","coordinates":[[[135.45978,34.6638],[135.4596,34.66373],[135.45917,34.66406],[135.45895,34.66423],[135.45843,34.66463],[135.45754,34.66532],[135.45734,34.66548],[135.45705,34.66571],[135.45689,34.66583],[135.45635,34.66625],[135.45612,34.66644],[135.45675,34.66666],[135.45704,34.66676],[135.45741,34.6669],[135.45776,34.66702],[135.45807,34.66714],[135.45874,34.66738],[135.45927,34.66759],[135.45957,34.66769],[135.45973,34.66761],[135.45994,34.66743],[135.46045,34.66701],[135.46058,34.6669],[135.46076,34.66675],[135.4608,34.66672],[135.46089,34.66664],[135.46094,34.6666],[135.46104,34.66652],[135.46105,34.66651],[135.46147,34.66616],[135.46185,34.66584],[135.46221,34.66553],[135.46222,34.66552],[135.46284,34.66499],[135.46271,34.66494],[135.46241,34.66482],[135.46208,34.6647],[135.46204,34.66468],[135.46187,34.66461],[135.46152,34.66448],[135.46121,34.66436],[135.46084,34.66421],[135.46024,34.66398],[135.45978,34.6638]]]}},{"type":"Feature","properties":{"name":"磯路三丁目","setai":1536,"jinko":3037,"key":"27107004003","units":1,"m":1466,"f":1571,"gk":76,"a0":408,"a1":1731,"a2":771,"a75":389,"ag":[165,134,109,106,139,168,186,207,224,208,184,173,136,183,199,164,129,68,25,3,0],"nf":127},"geometry":{"type":"Polygon","coordinates":[[[135.45604,34.66231],[135.45596,34.66228],[135.45593,34.66229],[135.45589,34.66232],[135.45534,34.66284],[135.45505,34.66312],[135.45504,34.66313],[135.45484,34.66332],[135.45444,34.66371],[135.4543,34.66385],[135.45428,34.66387],[135.45396,34.66412],[135.45381,34.66425],[135.45371,34.66433],[135.45335,34.66462],[135.4526,34.66524],[135.45275,34.66528],[135.45307,34.6654],[135.45312,34.66543],[135.45341,34.66552],[135.45349,34.66554],[135.45387,34.66567],[135.4549,34.66602],[135.45495,34.66605],[135.45499,34.66605],[135.45612,34.66644],[135.45635,34.66625],[135.45689,34.66583],[135.45705,34.66571],[135.45734,34.66548],[135.45754,34.66532],[135.45843,34.66463],[135.45895,34.66423],[135.45917,34.66406],[135.4596,34.66373],[135.45955,34.66371],[135.45922,34.66358],[135.45896,34.66347],[135.45852,34.6633],[135.45843,34.66326],[135.4582,34.66317],[135.4579,34.66305],[135.45753,34.6629],[135.45707,34.66272],[135.45672,34.66258],[135.4567,34.66257],[135.45653,34.66251],[135.45604,34.66231]]]}},{"type":"Feature","properties":{"name":"南市岡一丁目","setai":763,"jinko":1233,"key":"27107005001","units":1,"m":611,"f":622,"gk":70,"a0":89,"a1":799,"a2":288,"a75":137,"ag":[19,32,38,45,116,105,86,94,78,80,80,52,63,73,78,47,45,27,14,3,1],"nf":57},"geometry":{"type":"Polygon","coordinates":[[[135.47456,34.66703],[135.47477,34.66686],[135.47456,34.66686],[135.47408,34.66687],[135.47391,34.66686],[135.47371,34.66686],[135.47355,34.66684],[135.47332,34.66676],[135.47317,34.6667],[135.47306,34.66665],[135.473,34.66662],[135.47249,34.66634],[135.47217,34.66616],[135.47195,34.66604],[135.47171,34.6659],[135.47157,34.66581],[135.47153,34.66578],[135.47126,34.66563],[135.47115,34.66556],[135.47102,34.66547],[135.47095,34.66542],[135.47046,34.66591],[135.47032,34.6661],[135.47006,34.66646],[135.46988,34.66695],[135.46956,34.66759],[135.46999,34.66776],[135.47026,34.66787],[135.47034,34.6679],[135.47041,34.66793],[135.4705,34.66796],[135.47074,34.66806],[135.47105,34.66818],[135.4712,34.66828],[135.47132,34.66838],[135.47149,34.66854],[135.47154,34.66859],[135.47165,34.66868],[135.472,34.669],[135.47233,34.66877],[135.47289,34.66835],[135.47393,34.66754],[135.47456,34.66703]]]}},{"type":"Feature","properties":{"name":"南市岡二丁目","setai":985,"jinko":1826,"key":"27107005002","units":1,"m":880,"f":946,"gk":23,"a0":180,"a1":1125,"a2":453,"a75":255,"ag":[48,59,73,51,106,158,112,112,113,136,116,129,92,97,101,94,67,66,23,5,0],"nf":68},"geometry":{"type":"Polygon","coordinates":[[[135.46865,34.66348],[135.4684,34.66326],[135.46837,34.66329],[135.46805,34.66371],[135.46784,34.66398],[135.46781,34.66402],[135.46756,34.66434],[135.46747,34.66445],[135.4674,34.66454],[135.46703,34.66502],[135.46686,34.66523],[135.46684,34.66531],[135.46681,34.66559],[135.46678,34.66575],[135.46675,34.66599],[135.46673,34.66606],[135.46652,34.66641],[135.46682,34.66653],[135.46752,34.6668],[135.46775,34.66689],[135.46778,34.6669],[135.46853,34.66719],[135.46887,34.66733],[135.46899,34.66737],[135.4693,34.6675],[135.46956,34.66759],[135.46988,34.66695],[135.47006,34.66646],[135.47032,34.6661],[135.47046,34.66591],[135.47095,34.66542],[135.47073,34.66526],[135.47069,34.66523],[135.47049,34.66508],[135.47036,34.66497],[135.47033,34.66495],[135.47015,34.6648],[135.46988,34.66456],[135.46962,34.66435],[135.46962,34.66435],[135.4696,34.66433],[135.46959,34.66432],[135.46957,34.6643],[135.46952,34.66426],[135.46949,34.66424],[135.46932,34.66407],[135.46925,34.66401],[135.4691,34.66388],[135.46882,34.66363],[135.46865,34.66348]]]}},{"type":"Feature","properties":{"name":"南市岡三丁目","setai":1930,"jinko":3815,"key":"27107005003","units":1,"m":1913,"f":1902,"gk":207,"a0":637,"a1":2495,"a2":539,"a75":251,"ag":[157,221,259,187,165,233,275,300,358,403,244,202,128,140,148,97,75,53,20,6,0],"nf":144},"geometry":{"type":"Polygon","coordinates":[[[135.46658,34.66161],[135.46632,34.66134],[135.46627,34.66142],[135.46618,34.66159],[135.46565,34.66256],[135.46527,34.66322],[135.46524,34.66329],[135.46515,34.66347],[135.46498,34.6638],[135.46498,34.66381],[135.46492,34.66392],[135.46489,34.66399],[135.46485,34.66406],[135.46482,34.66413],[135.46479,34.66417],[135.46473,34.66428],[135.46458,34.66451],[135.46441,34.66482],[135.46425,34.66508],[135.46404,34.66545],[135.4649,34.66579],[135.46545,34.666],[135.46547,34.66601],[135.46608,34.66625],[135.46626,34.66631],[135.46633,34.66634],[135.46652,34.66641],[135.46673,34.66606],[135.46675,34.66599],[135.46678,34.66575],[135.46681,34.66559],[135.46684,34.66531],[135.46686,34.66523],[135.46703,34.66502],[135.4674,34.66454],[135.46747,34.66445],[135.46756,34.66434],[135.46781,34.66402],[135.46784,34.66398],[135.46805,34.66371],[135.46837,34.66329],[135.46828,34.6632],[135.46822,34.66315],[135.46753,34.66252],[135.46735,34.66235],[135.46658,34.66161]]]}},{"type":"Feature","properties":{"name":"市岡一丁目","setai":1194,"jinko":2429,"key":"27107006001","units":1,"m":1164,"f":1265,"gk":46,"a0":230,"a1":1309,"a2":781,"a75":496,"ag":[59,86,85,85,146,135,123,126,131,166,145,131,121,112,173,137,129,117,73,31,9],"nf":109},"geometry":{"type":"Polygon","coordinates":[[[135.46175,34.66076],[135.46156,34.66052],[135.46112,34.66086],[135.4613,34.66112],[135.4605,34.66174],[135.46022,34.66196],[135.45993,34.66218],[135.46025,34.66228],[135.46006,34.66267],[135.45992,34.66296],[135.45955,34.66371],[135.4596,34.66373],[135.45978,34.6638],[135.46024,34.66398],[135.46084,34.66421],[135.46121,34.66436],[135.46152,34.66448],[135.46187,34.66461],[135.46204,34.66468],[135.46208,34.6647],[135.46241,34.66482],[135.46271,34.66494],[135.46284,34.66499],[135.4629,34.66501],[135.4631,34.66509],[135.46343,34.66522],[135.46366,34.66531],[135.46404,34.66545],[135.46425,34.66508],[135.46441,34.66482],[135.46458,34.66451],[135.46473,34.66428],[135.46464,34.6642],[135.46441,34.66399],[135.46399,34.66358],[135.4639,34.66346],[135.46354,34.66305],[135.46339,34.66285],[135.46333,34.66279],[135.46329,34.66273],[135.46274,34.66203],[135.46254,34.66177],[135.46229,34.66147],[135.46211,34.66122],[135.46179,34.66081],[135.46175,34.66076]]]}},{"type":"Feature","properties":{"name":"市岡二丁目","setai":672,"jinko":1341,"key":"27107006002","units":1,"m":658,"f":683,"gk":46,"a0":170,"a1":773,"a2":319,"a75":164,"ag":[50,59,61,52,69,74,71,77,87,112,92,63,76,77,78,71,47,32,12,2,0],"nf":79},"geometry":{"type":"Polygon","coordinates":[[[135.46156,34.66052],[135.46038,34.65904],[135.4602,34.65914],[135.45812,34.6604],[135.45806,34.66044],[135.4576,34.66108],[135.45756,34.66115],[135.45721,34.66141],[135.45708,34.66151],[135.45689,34.66165],[135.45669,34.66181],[135.45643,34.66201],[135.45628,34.66212],[135.45604,34.66231],[135.45653,34.66251],[135.4567,34.66257],[135.45672,34.66258],[135.45707,34.66272],[135.45753,34.6629],[135.4579,34.66305],[135.4582,34.66317],[135.45843,34.66326],[135.45852,34.6633],[135.45896,34.66347],[135.45922,34.66358],[135.45955,34.66371],[135.45992,34.66296],[135.46006,34.66267],[135.46025,34.66228],[135.45993,34.66218],[135.46022,34.66196],[135.4605,34.66174],[135.4613,34.66112],[135.46112,34.66086],[135.46156,34.66052]]]}},{"type":"Feature","properties":{"name":"市岡三丁目","setai":687,"jinko":1537,"key":"27107006003","units":1,"m":772,"f":765,"gk":22,"a0":201,"a1":881,"a2":405,"a75":217,"ag":[53,67,81,78,70,68,77,79,102,110,113,101,83,71,117,76,84,43,11,3,0],"nf":50},"geometry":{"type":"Polygon","coordinates":[[[135.46517,34.65999],[135.46471,34.6594],[135.4638,34.6599],[135.46353,34.66046],[135.46352,34.66046],[135.46339,34.66072],[135.46333,34.66085],[135.46326,34.66099],[135.46312,34.66126],[135.46295,34.6616],[135.46279,34.66193],[135.46274,34.66203],[135.46329,34.66273],[135.46333,34.66279],[135.46339,34.66285],[135.46354,34.66305],[135.4639,34.66346],[135.46399,34.66358],[135.46441,34.66399],[135.46464,34.6642],[135.46473,34.66428],[135.46479,34.66417],[135.46482,34.66413],[135.46485,34.66406],[135.46489,34.66399],[135.46492,34.66392],[135.46498,34.66381],[135.46498,34.6638],[135.46515,34.66347],[135.46524,34.66329],[135.46527,34.66322],[135.46565,34.66256],[135.46618,34.66159],[135.46627,34.66142],[135.46632,34.66134],[135.46626,34.66128],[135.46609,34.66109],[135.46604,34.66104],[135.46597,34.66097],[135.46535,34.66022],[135.46517,34.65999]]]}},{"type":"Feature","properties":{"name":"市岡四丁目","setai":164,"jinko":380,"key":"27107006004","units":1,"m":204,"f":176,"gk":12,"a0":69,"a1":230,"a2":72,"a75":45,"ag":[25,22,22,19,16,24,22,28,26,35,24,22,14,17,10,15,14,14,2,0,0],"nf":9},"geometry":{"type":"Polygon","coordinates":[[[135.46414,34.65866],[135.4639,34.65836],[135.46349,34.6586],[135.46281,34.65775],[135.4608,34.65881],[135.46038,34.65904],[135.46156,34.66052],[135.46175,34.66076],[135.46179,34.66081],[135.46211,34.66122],[135.46229,34.66147],[135.46254,34.66177],[135.46274,34.66203],[135.46279,34.66193],[135.46295,34.6616],[135.46312,34.66126],[135.46326,34.66099],[135.46333,34.66085],[135.46339,34.66072],[135.46352,34.66046],[135.46353,34.66046],[135.4638,34.6599],[135.46471,34.6594],[135.46432,34.6589],[135.46429,34.65885],[135.46427,34.65883],[135.46414,34.65866]]]}},{"type":"Feature","properties":{"name":"田中一丁目","setai":738,"jinko":1509,"key":"27107007001","units":1,"m":764,"f":745,"gk":36,"a0":148,"a1":884,"a2":423,"a75":228,"ag":[37,48,63,89,69,63,66,80,90,138,117,112,60,75,120,92,69,51,14,1,1],"nf":54},"geometry":{"type":"Polygon","coordinates":[[[135.45114,34.66411],[135.45104,34.66394],[135.45031,34.66426],[135.45002,34.66438],[135.44963,34.66455],[135.44923,34.66473],[135.44869,34.66496],[135.4482,34.66517],[135.44772,34.66538],[135.44768,34.6654],[135.44852,34.66638],[135.44857,34.66643],[135.44878,34.66669],[135.44916,34.66681],[135.45026,34.66721],[135.45028,34.66723],[135.45044,34.66729],[135.45066,34.667],[135.45095,34.66662],[135.45122,34.66626],[135.45142,34.66599],[135.45162,34.66571],[135.4521,34.66507],[135.45219,34.66496],[135.45227,34.66488],[135.45184,34.66474],[135.45166,34.66466],[135.45152,34.66457],[135.45144,34.6645],[135.45123,34.66425],[135.45114,34.66411]]]}},{"type":"Feature","properties":{"name":"田中二丁目","setai":942,"jinko":1785,"key":"27107007002","units":1,"m":867,"f":918,"gk":59,"a0":132,"a1":1072,"a2":510,"a75":283,"ag":[33,44,55,60,121,109,104,90,88,153,121,118,108,104,123,131,100,36,15,1,0],"nf":71},"geometry":{"type":"Polygon","coordinates":[[[135.4498,34.66198],[135.44961,34.66167],[135.44887,34.662],[135.44859,34.66212],[135.44819,34.6623],[135.44777,34.66248],[135.44665,34.66297],[135.44645,34.66306],[135.44608,34.66321],[135.44645,34.66374],[135.44689,34.66435],[135.447,34.66451],[135.44766,34.66541],[135.44768,34.6654],[135.44772,34.66538],[135.4482,34.66517],[135.44869,34.66496],[135.44923,34.66473],[135.44963,34.66455],[135.45002,34.66438],[135.45031,34.66426],[135.45104,34.66394],[135.45064,34.66331],[135.45035,34.66285],[135.45005,34.66237],[135.4499,34.66213],[135.44988,34.66209],[135.4498,34.66198]]]}},{"type":"Feature","properties":{"name":"田中三丁目","setai":141,"jinko":354,"key":"27107007003","units":1,"m":212,"f":142,"gk":6,"a0":17,"a1":206,"a2":129,"a75":58,"ag":[9,5,3,13,10,12,25,12,13,25,31,36,29,38,33,25,20,10,2,1,0],"nf":2},"geometry":{"type":"Polygon","coordinates":[[[135.44776,34.65894],[135.44725,34.65875],[135.44689,34.65862],[135.44628,34.65839],[135.44596,34.65827],[135.44569,34.65874],[135.44563,34.65885],[135.44538,34.65874],[135.44492,34.65855],[135.4444,34.65833],[135.44436,34.6584],[135.44419,34.65833],[135.44408,34.65854],[135.44397,34.65874],[135.44393,34.65882],[135.44381,34.65903],[135.44368,34.65926],[135.44357,34.65949],[135.44345,34.65978],[135.44341,34.65988],[135.44335,34.66003],[135.44382,34.66023],[135.44446,34.66104],[135.4448,34.66147],[135.44512,34.66189],[135.44516,34.66192],[135.44546,34.66234],[135.44608,34.66321],[135.44645,34.66306],[135.44665,34.66297],[135.44777,34.66248],[135.44819,34.6623],[135.44859,34.66212],[135.44887,34.662],[135.44961,34.66167],[135.44959,34.66164],[135.44929,34.66113],[135.44882,34.66037],[135.44817,34.65939],[135.44793,34.659],[135.44776,34.65894]]]}},{"type":"Feature","properties":{"name":"夕凪一丁目","setai":1511,"jinko":2267,"key":"27107008001","units":1,"m":1243,"f":1024,"gk":110,"a0":150,"a1":1451,"a2":480,"a75":209,"ag":[54,39,57,79,167,195,137,130,129,178,172,149,115,126,145,84,71,38,12,3,1],"nf":186},"geometry":{"type":"Polygon","coordinates":[[[135.45404,34.66147],[135.45359,34.66129],[135.45331,34.66176],[135.45317,34.66199],[135.45304,34.66222],[135.45292,34.66244],[135.45291,34.66245],[135.45278,34.66268],[135.45263,34.66293],[135.45252,34.66314],[135.45239,34.66336],[135.45211,34.66348],[135.45165,34.66368],[135.45135,34.66381],[135.45104,34.66394],[135.45114,34.66411],[135.45123,34.66425],[135.45144,34.6645],[135.45152,34.66457],[135.45166,34.66466],[135.45184,34.66474],[135.45227,34.66488],[135.45219,34.66496],[135.4521,34.66507],[135.4526,34.66524],[135.45335,34.66462],[135.45371,34.66433],[135.45381,34.66425],[135.45396,34.66412],[135.45428,34.66387],[135.4543,34.66385],[135.45444,34.66371],[135.45484,34.66332],[135.45504,34.66313],[135.45505,34.66312],[135.45534,34.66284],[135.45589,34.66232],[135.45593,34.66229],[135.45583,34.66224],[135.4556,34.66213],[135.45508,34.6619],[135.45503,34.66186],[135.45456,34.66167],[135.45404,34.66147]]]}},{"type":"Feature","properties":{"name":"夕凪二丁目","setai":1442,"jinko":2862,"key":"27107008002","units":1,"m":1366,"f":1496,"gk":71,"a0":285,"a1":1772,"a2":706,"a75":357,"ag":[108,90,87,100,169,191,169,173,157,211,199,221,182,176,173,138,109,71,33,5,1],"nf":99},"geometry":{"type":"Polygon","coordinates":[[[135.44883,34.65943],[135.44793,34.659],[135.44817,34.65939],[135.44882,34.66037],[135.44929,34.66113],[135.44959,34.66164],[135.44961,34.66167],[135.4498,34.66198],[135.44988,34.66209],[135.4499,34.66213],[135.45005,34.66237],[135.45035,34.66285],[135.45064,34.66331],[135.45104,34.66394],[135.45135,34.66381],[135.45165,34.66368],[135.45211,34.66348],[135.45239,34.66336],[135.45252,34.66314],[135.45263,34.66293],[135.45278,34.66268],[135.45291,34.66245],[135.45292,34.66244],[135.45304,34.66222],[135.45317,34.66199],[135.45331,34.66176],[135.45359,34.66129],[135.45241,34.66083],[135.45238,34.66082],[135.45209,34.66071],[135.45192,34.66064],[135.45175,34.66058],[135.45136,34.66042],[135.45129,34.6604],[135.45031,34.66001],[135.45027,34.65999],[135.44969,34.65977],[135.44944,34.65967],[135.4492,34.65957],[135.44916,34.65956],[135.4491,34.65954],[135.44889,34.65946],[135.44883,34.65943]]]}},{"type":"Feature","properties":{"name":"石田一丁目","setai":0,"jinko":0,"key":"27107009001","units":1,"m":0,"f":0,"gk":0,"a0":0,"a1":0,"a2":0,"a75":0,"ag":[0,0,0,0,0,0,0,0,0,0,0,0,0,0,0,0,0,0,0,0,0]},"geometry":{"type":"Polygon","coordinates":[[[135.45573,34.67067],[135.4559,34.6704],[135.45624,34.67012],[135.45626,34.6701],[135.45683,34.66968],[135.45549,34.66917],[135.45544,34.66915],[135.45537,34.66914],[135.45457,34.66883],[135.4544,34.66877],[135.45417,34.66869],[135.45354,34.66845],[135.45338,34.66839],[135.453,34.66826],[135.4524,34.66803],[135.45195,34.66786],[135.45172,34.66777],[135.45139,34.66764],[135.45044,34.66729],[135.45028,34.66723],[135.45026,34.66721],[135.44959,34.66848],[135.4495,34.66845],[135.44946,34.66851],[135.45103,34.66908],[135.45121,34.66916],[135.4513,34.6692],[135.45138,34.66908],[135.45273,34.66959],[135.45375,34.66997],[135.4548,34.67037],[135.45506,34.67046],[135.45508,34.67042],[135.45573,34.67067]]]}},{"type":"Feature","properties":{"name":"石田二丁目","setai":0,"jinko":0,"key":"27107009002","units":1,"m":0,"f":0,"gk":0,"a0":0,"a1":0,"a2":0,"a75":0,"ag":[0,0,0,0,0,0,0,0,0,0,0,0,0,0,0,0,0,0,0,0,0]},"geometry":{"type":"Polygon","coordinates":[[[135.44946,34.66851],[135.4495,34.66845],[135.44959,34.66848],[135.45026,34.66721],[135.44916,34.66681],[135.44878,34.66669],[135.44857,34.66643],[135.44852,34.66638],[135.44768,34.6654],[135.44766,34.66541],[135.447,34.66451],[135.44689,34.66435],[135.44645,34.66374],[135.44608,34.66321],[135.44605,34.66322],[135.44462,34.66386],[135.44483,34.66409],[135.44479,34.66413],[135.44475,34.6641],[135.44465,34.66415],[135.44518,34.66476],[135.44533,34.66472],[135.44568,34.66518],[135.44576,34.66533],[135.44572,34.66534],[135.44562,34.66525],[135.44555,34.66528],[135.4463,34.66619],[135.4474,34.66751],[135.44749,34.66748],[135.44778,34.66776],[135.44772,34.66786],[135.4478,34.6679],[135.44941,34.66848],[135.44946,34.66851]]]}},{"type":"Feature","properties":{"name":"石田三丁目","setai":0,"jinko":0,"key":"27107009003","units":1,"m":0,"f":0,"gk":0,"a0":0,"a1":0,"a2":0,"a75":0,"ag":[0,0,0,0,0,0,0,0,0,0,0,0,0,0,0,0,0,0,0,0,0]},"geometry":{"type":"Polygon","coordinates":[[[135.44546,34.66234],[135.44516,34.66192],[135.44512,34.66189],[135.4448,34.66147],[135.44446,34.66104],[135.44382,34.66023],[135.44335,34.66003],[135.44328,34.66006],[135.44239,34.66122],[135.44233,34.6612],[135.44242,34.66129],[135.44246,34.66126],[135.44291,34.66186],[135.44299,34.66189],[135.44311,34.66204],[135.44307,34.66208],[135.44293,34.6619],[135.44287,34.66192],[135.44307,34.66214],[135.44315,34.66209],[135.44363,34.66269],[135.44398,34.66314],[135.44398,34.66318],[135.44414,34.6634],[135.44432,34.66363],[135.44442,34.66363],[135.44462,34.66386],[135.44605,34.66322],[135.44608,34.66321],[135.44546,34.66234]]]}},{"type":"Feature","properties":{"name":"三先一丁目","setai":1061,"jinko":2084,"key":"27107010001","units":1,"m":1076,"f":1008,"gk":75,"a0":259,"a1":1239,"a2":490,"a75":261,"ag":[87,87,85,96,108,128,128,145,134,174,122,108,96,109,120,114,84,47,13,3,0],"nf":96},"geometry":{"type":"Polygon","coordinates":[[[135.45604,34.66231],[135.45628,34.66212],[135.45643,34.66201],[135.45669,34.66181],[135.45689,34.66165],[135.45708,34.66151],[135.45721,34.66141],[135.45756,34.66115],[135.4576,34.66108],[135.45806,34.66044],[135.45719,34.65965],[135.45709,34.6597],[135.45678,34.65983],[135.45682,34.65979],[135.45638,34.65938],[135.45574,34.65879],[135.4554,34.65848],[135.45528,34.65847],[135.45525,34.65846],[135.45465,34.65878],[135.45464,34.65879],[135.45404,34.65911],[135.45429,34.65934],[135.45402,34.65949],[135.45373,34.65965],[135.4537,34.65966],[135.45319,34.65994],[135.4528,34.66016],[135.45277,34.6602],[135.45259,34.66052],[135.45241,34.66083],[135.45359,34.66129],[135.45404,34.66147],[135.45456,34.66167],[135.45503,34.66186],[135.45508,34.6619],[135.4556,34.66213],[135.45583,34.66224],[135.45593,34.66229],[135.45596,34.66228],[135.45604,34.66231]]]}},{"type":"Feature","properties":{"name":"三先二丁目","setai":2018,"jinko":4359,"key":"27107010002","units":1,"m":2044,"f":2315,"gk":108,"a0":515,"a1":2530,"a2":1224,"a75":623,"ag":[131,160,224,277,188,182,177,174,250,385,378,274,245,283,318,284,191,122,22,4,0],"nf":90},"geometry":{"type":"Polygon","coordinates":[[[135.45449,34.65775],[135.45368,34.657],[135.45352,34.65698],[135.45343,34.65697],[135.45323,34.65695],[135.45297,34.65711],[135.45287,34.65717],[135.45271,34.65728],[135.45265,34.65732],[135.452,34.65772],[135.45184,34.65749],[135.45141,34.65771],[135.45138,34.65773],[135.45127,34.65778],[135.45115,34.65785],[135.45103,34.65791],[135.45093,34.65796],[135.45089,34.65798],[135.4508,34.65803],[135.45069,34.65808],[135.4506,34.65813],[135.45039,34.65824],[135.44937,34.65876],[135.44927,34.65881],[135.44908,34.65914],[135.44889,34.65946],[135.4491,34.65954],[135.44916,34.65956],[135.4492,34.65957],[135.44944,34.65967],[135.44969,34.65977],[135.45027,34.65999],[135.45031,34.66001],[135.45129,34.6604],[135.45136,34.66042],[135.45175,34.66058],[135.45192,34.66064],[135.45209,34.66071],[135.45238,34.66082],[135.45241,34.66083],[135.45259,34.66052],[135.45277,34.6602],[135.4528,34.66016],[135.45319,34.65994],[135.4537,34.65966],[135.45373,34.65965],[135.45402,34.65949],[135.45429,34.65934],[135.45404,34.65911],[135.45464,34.65879],[135.45465,34.65878],[135.45525,34.65846],[135.45522,34.65844],[135.45495,34.65819],[135.45449,34.65775]]]}},{"type":"Feature","properties":{"name":"福崎一丁目","setai":24,"jinko":45,"key":"27107011001","units":1,"m":23,"f":22,"gk":3,"a0":3,"a1":23,"a2":17,"a75":11,"ag":[1,2,0,3,2,1,0,0,4,4,3,4,2,5,1,4,5,2,0,0,0],"nf":2},"geometry":{"type":"Polygon","coordinates":[[[135.45812,34.6604],[135.4602,34.65914],[135.46038,34.65904],[135.4608,34.65881],[135.46281,34.65775],[135.46272,34.65763],[135.46213,34.6569],[135.46168,34.65633],[135.46156,34.65618],[135.461,34.65548],[135.46092,34.65543],[135.46085,34.65543],[135.46076,34.65545],[135.46068,34.65534],[135.46054,34.65542],[135.46062,34.65551],[135.45844,34.65672],[135.45836,34.65661],[135.45825,34.65667],[135.45833,34.65678],[135.45803,34.65694],[135.45792,34.65681],[135.45784,34.65685],[135.45774,34.65691],[135.45785,34.65705],[135.4571,34.65746],[135.45528,34.65847],[135.4554,34.65848],[135.45574,34.65879],[135.45638,34.65938],[135.45682,34.65979],[135.45678,34.65983],[135.45709,34.6597],[135.45719,34.65965],[135.45806,34.66044],[135.45812,34.6604]]]}},{"type":"Feature","properties":{"name":"福崎二丁目","setai":20,"jinko":29,"key":"27107011002","units":1,"m":21,"f":11,"gk":2,"a0":0,"a1":15,"a2":16,"a75":10,"ag":[0,0,0,1,0,1,1,1,0,2,4,3,2,3,3,5,4,1,0,0,0],"nf":1,"tt":32,"gs":1},"geometry":{"type":"Polygon","coordinates":[[[135.4571,34.65709],[135.45764,34.6568],[135.45774,34.65691],[135.45784,34.65685],[135.45711,34.65597],[135.45596,34.65458],[135.45519,34.65358],[135.45444,34.65263],[135.45437,34.65254],[135.45394,34.65196],[135.4539,34.65191],[135.45298,34.65074],[135.45239,34.65001],[135.45215,34.64987],[135.45192,34.64974],[135.45016,34.64879],[135.44967,34.64855],[135.44938,34.64869],[135.44988,34.64893],[135.44973,34.64898],[135.44976,34.64906],[135.45035,34.64935],[135.44906,34.65009],[135.44866,34.65032],[135.44825,34.65031],[135.44812,34.65038],[135.44823,34.65049],[135.44829,34.65045],[135.44866,34.65046],[135.44872,34.65042],[135.44886,34.65056],[135.44852,34.65078],[135.4486,34.65086],[135.44896,34.65065],[135.449,34.65069],[135.45055,34.65211],[135.45108,34.65259],[135.4516,34.65326],[135.45195,34.65373],[135.4521,34.65391],[135.45236,34.65428],[135.45252,34.65449],[135.45279,34.65489],[135.45311,34.65539],[135.45351,34.65597],[135.4537,34.65627],[135.45551,34.65797],[135.4571,34.65709]]]}},{"type":"Feature","properties":{"name":"福崎三丁目","setai":1,"jinko":3,"key":"27107011003","units":1,"hi":1},"geometry":{"type":"Polygon","coordinates":[[[135.45792,34.65681],[135.45782,34.6567],[135.45813,34.65653],[135.45821,34.65662],[135.45832,34.65656],[135.45824,34.65647],[135.46042,34.65527],[135.4605,34.65537],[135.46064,34.65529],[135.46056,34.65519],[135.46063,34.65511],[135.46055,34.65496],[135.4593,34.65339],[135.45717,34.65079],[135.45715,34.6508],[135.45707,34.65083],[135.45701,34.65074],[135.45709,34.65065],[135.45605,34.6494],[135.45591,34.64921],[135.45579,34.64924],[135.45555,34.64893],[135.45549,34.64891],[135.45531,34.64863],[135.4552,34.6485],[135.45502,34.64834],[135.45489,34.64839],[135.45481,34.64829],[135.45476,34.64828],[135.45468,34.64821],[135.45448,34.64831],[135.45439,34.64833],[135.45435,34.64838],[135.45359,34.64807],[135.45361,34.64796],[135.45327,34.64785],[135.45325,34.64788],[135.45297,34.64781],[135.45286,34.64777],[135.45277,34.64777],[135.45249,34.64781],[135.45241,34.64778],[135.45215,34.6479],[135.45174,34.64806],[135.45144,34.64825],[135.45113,34.6481],[135.45102,34.64816],[135.45136,34.64831],[135.4512,34.64847],[135.45098,34.64858],[135.45045,34.6488],[135.45032,34.64876],[135.45016,34.64879],[135.45192,34.64974],[135.45215,34.64987],[135.45239,34.65001],[135.45298,34.65074],[135.4539,34.65191],[135.45394,34.65196],[135.45437,34.65254],[135.45444,34.65263],[135.45519,34.65358],[135.45596,34.65458],[135.45711,34.65597],[135.45784,34.65685],[135.45792,34.65681]]]}},{"type":"Feature","properties":{"name":"池島一丁目","setai":272,"jinko":525,"key":"27107012001","units":1,"m":255,"f":270,"gk":15,"a0":68,"a1":289,"a2":158,"a75":90,"ag":[25,19,24,17,22,22,30,36,38,35,33,29,27,25,43,38,23,21,7,0,1],"nf":10},"geometry":{"type":"Polygon","coordinates":[[[135.44933,34.65682],[135.44887,34.65618],[135.44874,34.65623],[135.44795,34.65765],[135.4481,34.65835],[135.44799,34.65853],[135.44794,34.65862],[135.44791,34.65868],[135.44788,34.65873],[135.44786,34.65875],[135.44776,34.65894],[135.44793,34.659],[135.44883,34.65943],[135.44889,34.65946],[135.44908,34.65914],[135.44927,34.65881],[135.44937,34.65876],[135.45039,34.65824],[135.45028,34.65808],[135.44989,34.65757],[135.44972,34.65735],[135.4496,34.65717],[135.44933,34.65682]]]}},{"type":"Feature","properties":{"name":"池島二丁目","setai":429,"jinko":902,"key":"27107012002","units":1,"m":431,"f":471,"gk":23,"a0":70,"a1":440,"a2":385,"a75":215,"ag":[12,20,38,40,52,24,17,34,34,68,50,63,58,69,101,94,59,49,11,2,0],"nf":7},"geometry":{"type":"Polygon","coordinates":[[[135.45141,34.65771],[135.45184,34.65749],[135.452,34.65772],[135.45265,34.65732],[135.45271,34.65728],[135.45287,34.65717],[135.45297,34.65711],[135.45323,34.65695],[135.45292,34.65687],[135.45259,34.65639],[135.45259,34.65635],[135.45243,34.65612],[135.45234,34.65601],[135.45213,34.65572],[135.45202,34.65555],[135.45198,34.65547],[135.4514,34.65465],[135.45119,34.65437],[135.45107,34.65442],[135.45092,34.65449],[135.45081,34.65454],[135.45039,34.65472],[135.45089,34.65542],[135.45066,34.65552],[135.45063,34.65553],[135.45028,34.65569],[135.45021,34.65572],[135.44999,34.65581],[135.44976,34.65589],[135.44946,34.65599],[135.44913,34.6561],[135.44887,34.65618],[135.44933,34.65682],[135.4496,34.65717],[135.44972,34.65735],[135.44989,34.65757],[135.45028,34.65808],[135.45039,34.65824],[135.4506,34.65813],[135.45069,34.65808],[135.4508,34.65803],[135.45089,34.65798],[135.45093,34.65796],[135.45103,34.65791],[135.45115,34.65785],[135.45127,34.65778],[135.45138,34.65773],[135.45141,34.65771]]]}},{"type":"Feature","properties":{"name":"池島三丁目","setai":1408,"jinko":2791,"key":"27107012003","units":1,"m":1284,"f":1507,"gk":116,"a0":261,"a1":1451,"a2":1048,"a75":551,"ag":[58,82,121,114,128,88,77,107,101,215,229,205,187,223,274,237,173,93,37,10,1],"nf":31},"geometry":{"type":"Polygon","coordinates":[[[135.45028,34.65323],[135.45002,34.65297],[135.44991,34.6529],[135.44968,34.65286],[135.44952,34.65287],[135.44921,34.6529],[135.44919,34.65293],[135.44914,34.65299],[135.44865,34.6531],[135.4485,34.65309],[135.44755,34.65335],[135.44769,34.65367],[135.44778,34.65388],[135.44787,34.65411],[135.44792,34.65422],[135.44798,34.65436],[135.44798,34.65436],[135.44813,34.6547],[135.44815,34.65474],[135.44845,34.65542],[135.44853,34.6556],[135.44852,34.6556],[135.44864,34.65588],[135.44877,34.65616],[135.44874,34.65623],[135.44887,34.65618],[135.44913,34.6561],[135.44946,34.65599],[135.44976,34.65589],[135.44999,34.65581],[135.45021,34.65572],[135.45028,34.65569],[135.45063,34.65553],[135.45066,34.65552],[135.45089,34.65542],[135.45039,34.65472],[135.45081,34.65454],[135.45092,34.65449],[135.45107,34.65442],[135.45119,34.65437],[135.45116,34.65426],[135.45079,34.65385],[135.45043,34.65341],[135.45042,34.65335],[135.45035,34.65326],[135.45028,34.65323]]]}},{"type":"Feature","properties":{"name":"八幡屋一丁目","setai":604,"jinko":908,"key":"27107013001","units":1,"m":484,"f":424,"gk":38,"a0":58,"a1":526,"a2":240,"a75":127,"ag":[23,17,18,27,44,47,47,52,43,66,67,80,53,57,56,51,42,23,8,3,0],"nf":84},"geometry":{"type":"Polygon","coordinates":[[[135.44795,34.65765],[135.44874,34.65623],[135.44855,34.65629],[135.44798,34.65649],[135.4476,34.65662],[135.44673,34.65692],[135.44615,34.65711],[135.44589,34.65721],[135.4455,34.65734],[135.44555,34.65725],[135.44519,34.65644],[135.4451,34.65647],[135.44515,34.65659],[135.44486,34.65709],[135.44472,34.65736],[135.44454,34.65767],[135.44453,34.65771],[135.44519,34.65797],[135.44525,34.65799],[135.44596,34.65827],[135.44628,34.65839],[135.44689,34.65862],[135.44725,34.65875],[135.44776,34.65894],[135.44786,34.65875],[135.44788,34.65873],[135.44791,34.65868],[135.44794,34.65862],[135.44799,34.65853],[135.4481,34.65835],[135.44795,34.65765]]]}},{"type":"Feature","properties":{"name":"八幡屋二丁目","setai":722,"jinko":1386,"key":"27107013002","units":1,"m":649,"f":737,"gk":54,"a0":124,"a1":682,"a2":552,"a75":351,"ag":[28,40,56,62,62,38,41,46,61,110,99,84,79,79,122,123,104,83,32,6,3],"nf":28},"geometry":{"type":"Polygon","coordinates":[[[135.44798,34.65649],[135.44855,34.65629],[135.44874,34.65623],[135.44877,34.65616],[135.44864,34.65588],[135.44852,34.6556],[135.44853,34.6556],[135.44845,34.65542],[135.44815,34.65474],[135.44783,34.65484],[135.44753,34.65493],[135.44724,34.65502],[135.44692,34.65512],[135.44602,34.6554],[135.44546,34.65557],[135.4448,34.65578],[135.44508,34.6564],[135.4451,34.65647],[135.44519,34.65644],[135.44555,34.65725],[135.4455,34.65734],[135.44589,34.65721],[135.44615,34.65711],[135.44673,34.65692],[135.4476,34.65662],[135.44798,34.65649]]]}},{"type":"Feature","properties":{"name":"八幡屋三丁目","setai":1013,"jinko":1981,"key":"27107013003","units":1,"m":900,"f":1081,"gk":64,"a0":158,"a1":926,"a2":866,"a75":489,"ag":[42,47,69,67,65,52,72,83,83,144,129,122,109,155,222,217,175,74,17,5,1],"nf":31},"geometry":{"type":"Polygon","coordinates":[[[135.44769,34.65367],[135.44755,34.65335],[135.44678,34.65358],[135.4467,34.65335],[135.44661,34.65337],[135.44638,34.65279],[135.44598,34.65243],[135.44603,34.6524],[135.44564,34.65194],[135.4456,34.65197],[135.44507,34.65228],[135.44392,34.65294],[135.44385,34.65283],[135.4438,34.65283],[135.44348,34.65234],[135.44342,34.65235],[135.44329,34.65245],[135.4432,34.6523],[135.44315,34.6523],[135.44302,34.65213],[135.44284,34.65221],[135.44346,34.65317],[135.44349,34.6532],[135.44352,34.65325],[135.4436,34.65337],[135.44372,34.65356],[135.44381,34.65369],[135.44402,34.65401],[135.44404,34.65405],[135.44408,34.65413],[135.44444,34.65497],[135.4448,34.65578],[135.44546,34.65557],[135.44602,34.6554],[135.44692,34.65512],[135.44724,34.65502],[135.44753,34.65493],[135.44783,34.65484],[135.44815,34.65474],[135.44813,34.6547],[135.44798,34.65436],[135.44798,34.65436],[135.44792,34.65422],[135.44787,34.65411],[135.44778,34.65388],[135.44769,34.65367]]]}},{"type":"Feature","properties":{"name":"八幡屋四丁目","setai":343,"jinko":885,"key":"27107013004","units":1,"m":389,"f":496,"gk":17,"a0":88,"a1":352,"a2":430,"a75":290,"ag":[29,30,29,19,30,44,29,36,18,60,41,41,34,50,90,80,87,73,35,13,2],"nf":15},"geometry":{"type":"Polygon","coordinates":[[[135.44961,34.65255],[135.44928,34.65227],[135.44915,34.65236],[135.44906,34.65228],[135.44917,34.6522],[135.44901,34.65203],[135.44843,34.65152],[135.44815,34.65118],[135.44811,34.65114],[135.44847,34.65092],[135.44837,34.65083],[135.44802,34.65106],[135.44779,34.65085],[135.44785,34.65073],[135.44793,34.65067],[135.44783,34.65054],[135.4477,34.65063],[135.44763,34.65081],[135.44719,34.65106],[135.44715,34.65108],[135.44701,34.65116],[135.44697,34.65118],[135.44605,34.65171],[135.44564,34.65194],[135.44603,34.6524],[135.44598,34.65243],[135.44638,34.65279],[135.44661,34.65337],[135.4467,34.65335],[135.44674,34.65327],[135.44688,34.65323],[135.44745,34.65309],[135.44805,34.65294],[135.44898,34.65271],[135.44961,34.65255]]]}},{"type":"Feature","properties":{"name":"港晴一丁目","setai":345,"jinko":638,"key":"27107014001","units":1,"m":316,"f":322,"gk":27,"a0":53,"a1":326,"a2":240,"a75":154,"ag":[15,15,23,16,28,28,25,26,30,42,47,53,31,39,47,63,57,21,8,4,1],"nf":19},"geometry":{"type":"Polygon","coordinates":[[[135.4448,34.65578],[135.44444,34.65497],[135.44422,34.6551],[135.44409,34.65518],[135.4439,34.65529],[135.44345,34.65556],[135.44298,34.65585],[135.44248,34.65616],[135.44231,34.65642],[135.44211,34.65676],[135.44235,34.65685],[135.44305,34.65713],[135.4434,34.65727],[135.44454,34.65767],[135.44472,34.65736],[135.44486,34.65709],[135.44515,34.65659],[135.4451,34.65647],[135.44508,34.6564],[135.4448,34.65578]]]}},{"type":"Feature","properties":{"name":"港晴二丁目","setai":764,"jinko":1383,"key":"27107014002","units":1,"m":685,"f":701,"gk":38,"a0":148,"a1":735,"a2":435,"a75":239,"ag":[58,43,47,65,51,59,66,58,66,85,107,83,95,83,113,97,88,38,10,6,0],"nf":68,"tt":1386,"gs":1},"geometry":{"type":"Polygon","coordinates":[[[135.44444,34.65497],[135.44408,34.65413],[135.44404,34.65405],[135.44402,34.65401],[135.44381,34.65369],[135.44372,34.65356],[135.4436,34.65337],[135.44352,34.65325],[135.44349,34.6532],[135.44346,34.65317],[135.44284,34.65221],[135.44275,34.65226],[135.44279,34.65237],[135.44277,34.65242],[135.44285,34.65254],[135.44268,34.65264],[135.44309,34.65329],[135.44314,34.65334],[135.44177,34.65416],[135.44085,34.6547],[135.44079,34.65461],[135.44053,34.65429],[135.44089,34.65394],[135.44112,34.65371],[135.44146,34.65343],[135.44178,34.6531],[135.442,34.65276],[135.44167,34.65294],[135.44156,34.653],[135.44145,34.65314],[135.44116,34.65337],[135.44075,34.65368],[135.44046,34.65396],[135.44001,34.65419],[135.43998,34.65419],[135.43981,34.65392],[135.43976,34.65393],[135.43973,34.65394],[135.43991,34.65423],[135.43989,34.65424],[135.43815,34.65517],[135.43916,34.65555],[135.43937,34.65563],[135.43953,34.65569],[135.43965,34.65579],[135.43995,34.65591],[135.43996,34.65591],[135.44061,34.65617],[135.44093,34.65629],[135.44152,34.65652],[135.44161,34.65656],[135.44211,34.65676],[135.44231,34.65642],[135.44248,34.65616],[135.44298,34.65585],[135.44345,34.65556],[135.4439,34.65529],[135.44409,34.65518],[135.44422,34.6551],[135.44444,34.65497]]]}},{"type":"Feature","properties":{"name":"港晴三丁目","setai":690,"jinko":1364,"key":"27107014003","units":1,"m":677,"f":687,"gk":42,"a0":137,"a1":758,"a2":400,"a75":194,"ag":[45,45,47,55,59,64,64,66,76,108,97,71,98,108,98,69,62,39,20,4,0],"nf":69},"geometry":{"type":"Polygon","coordinates":[[[135.44408,34.65854],[135.44419,34.65833],[135.44436,34.6584],[135.4444,34.65833],[135.44492,34.65855],[135.44538,34.65874],[135.44563,34.65885],[135.44569,34.65874],[135.44596,34.65827],[135.44525,34.65799],[135.44519,34.65797],[135.44453,34.65771],[135.44454,34.65767],[135.4434,34.65727],[135.44305,34.65713],[135.44235,34.65685],[135.44203,34.6574],[135.44189,34.65764],[135.44173,34.65791],[135.44158,34.65818],[135.44157,34.65819],[135.44142,34.65844],[135.44139,34.6585],[135.44125,34.65872],[135.4412,34.6588],[135.44118,34.65882],[135.44096,34.65904],[135.44078,34.65921],[135.44095,34.65932],[135.44118,34.65943],[135.4417,34.65958],[135.4417,34.65959],[135.44202,34.65968],[135.44335,34.66003],[135.44341,34.65988],[135.44345,34.65978],[135.44357,34.65949],[135.44368,34.65926],[135.44381,34.65903],[135.44393,34.65882],[135.44397,34.65874],[135.44408,34.65854]]]}},{"type":"Feature","properties":{"name":"港晴四丁目","setai":514,"jinko":1071,"key":"27107014004","units":1,"m":538,"f":533,"gk":50,"a0":135,"a1":591,"a2":290,"a75":154,"ag":[38,50,47,49,51,58,38,63,61,84,81,51,55,61,75,56,59,27,9,3,0],"nf":55},"geometry":{"type":"Polygon","coordinates":[[[135.43996,34.65591],[135.43995,34.65591],[135.43966,34.65648],[135.43953,34.65672],[135.43946,34.65696],[135.43946,34.65705],[135.43948,34.65725],[135.43948,34.65729],[135.43987,34.65804],[135.44014,34.65847],[135.44031,34.65872],[135.4404,34.65886],[135.44058,34.65905],[135.44078,34.65921],[135.44096,34.65904],[135.44118,34.65882],[135.4412,34.6588],[135.44125,34.65872],[135.44139,34.6585],[135.44142,34.65844],[135.44157,34.65819],[135.44158,34.65818],[135.44173,34.65791],[135.44189,34.65764],[135.44203,34.6574],[135.44235,34.65685],[135.44211,34.65676],[135.44161,34.65656],[135.44152,34.65652],[135.44093,34.65629],[135.44061,34.65617],[135.43996,34.65591]]]}},{"type":"Feature","properties":{"name":"港晴五丁目","setai":0,"jinko":0,"key":"27107014005","units":1,"m":0,"f":0,"gk":0,"a0":0,"a1":0,"a2":0,"a75":0,"ag":[0,0,0,0,0,0,0,0,0,0,0,0,0,0,0,0,0,0,0,0,0]},"geometry":{"type":"Polygon","coordinates":[[[135.44031,34.65872],[135.44014,34.65847],[135.43987,34.65804],[135.43948,34.65729],[135.43948,34.65725],[135.43946,34.65705],[135.43946,34.65696],[135.43953,34.65672],[135.43966,34.65648],[135.43995,34.65591],[135.43965,34.65579],[135.43953,34.65569],[135.43937,34.65563],[135.43916,34.65555],[135.43815,34.65517],[135.43785,34.65505],[135.43784,34.65505],[135.43773,34.65512],[135.43744,34.6553],[135.43774,34.65539],[135.43738,34.65559],[135.43741,34.65573],[135.43812,34.656],[135.43867,34.65622],[135.43872,34.65638],[135.43801,34.65678],[135.43763,34.65699],[135.43762,34.65707],[135.43799,34.65763],[135.43819,34.65794],[135.43832,34.65817],[135.43818,34.65822],[135.43804,34.65799],[135.43791,34.65804],[135.43832,34.65868],[135.43857,34.65858],[135.43866,34.65871],[135.43873,34.65882],[135.4386,34.65887],[135.43852,34.65897],[135.43893,34.65963],[135.43925,34.65968],[135.43914,34.66032],[135.44119,34.66089],[135.44233,34.6612],[135.44239,34.66122],[135.44328,34.66006],[135.44335,34.66003],[135.44202,34.65968],[135.4417,34.65959],[135.4417,34.65958],[135.44118,34.65943],[135.44095,34.65932],[135.44078,34.65921],[135.44058,34.65905],[135.4404,34.65886],[135.44031,34.65872]]]}},{"type":"Feature","properties":{"name":"築港一丁目","setai":697,"jinko":1213,"key":"27107015001","units":1,"m":560,"f":653,"gk":44,"a0":57,"a1":628,"a2":466,"a75":286,"ag":[13,16,28,31,60,46,33,60,71,80,90,81,76,79,101,86,80,76,38,4,2],"nf":62},"geometry":{"type":"Polygon","coordinates":[[[135.43954,34.65377],[135.4396,34.65377],[135.43969,34.65391],[135.43975,34.65392],[135.43967,34.65374],[135.43972,34.65371],[135.43976,34.65355],[135.4399,34.65346],[135.43996,34.6534],[135.43989,34.65334],[135.43983,34.65324],[135.43985,34.65323],[135.43976,34.65308],[135.43974,34.65302],[135.43968,34.65299],[135.43965,34.65291],[135.43958,34.65279],[135.43949,34.65267],[135.4393,34.65237],[135.43932,34.65236],[135.43893,34.65171],[135.4389,34.65169],[135.43919,34.65155],[135.43912,34.65142],[135.43883,34.65154],[135.43885,34.65159],[135.43843,34.65177],[135.43829,34.65182],[135.43816,34.65188],[135.4379,34.652],[135.43755,34.65214],[135.4374,34.65221],[135.43736,34.65221],[135.4372,34.6522],[135.4371,34.65218],[135.43606,34.65179],[135.43557,34.65159],[135.43469,34.65126],[135.43454,34.65152],[135.43451,34.65157],[135.43442,34.65172],[135.4344,34.65176],[135.43431,34.65191],[135.43425,34.652],[135.43406,34.65234],[135.43387,34.65265],[135.43374,34.65289],[135.43341,34.65343],[135.43414,34.65371],[135.43437,34.6538],[135.43459,34.65388],[135.4348,34.65396],[135.43546,34.65423],[135.43563,34.65429],[135.43612,34.65449],[135.43681,34.65476],[135.4371,34.65487],[135.43773,34.65512],[135.43784,34.65505],[135.43764,34.65498],[135.4377,34.65496],[135.43774,34.65491],[135.43771,34.65484],[135.43808,34.65463],[135.43871,34.65426],[135.43954,34.65377]]]}},{"type":"Feature","properties":{"name":"築港二丁目","setai":744,"jinko":1398,"key":"27107015002","units":1,"m":735,"f":663,"gk":61,"a0":164,"a1":968,"a2":193,"a75":84,"ag":[90,38,36,55,101,123,129,129,81,101,111,86,52,51,58,38,19,15,11,1,0],"nf":73},"geometry":{"type":"Polygon","coordinates":[[[135.43321,34.6507],[135.43313,34.65066],[135.43217,34.65109],[135.43156,34.65136],[135.43139,34.65144],[135.43086,34.65168],[135.43084,34.65176],[135.43076,34.65197],[135.43065,34.65228],[135.4306,34.65239],[135.43145,34.65271],[135.43199,34.65292],[135.43228,34.65303],[135.43245,34.6531],[135.43264,34.65317],[135.43273,34.6532],[135.43305,34.65333],[135.43331,34.65342],[135.43341,34.65343],[135.43374,34.65289],[135.43387,34.65265],[135.43406,34.65234],[135.43425,34.652],[135.43431,34.65191],[135.4344,34.65176],[135.43442,34.65172],[135.43451,34.65157],[135.43454,34.65152],[135.43469,34.65126],[135.43459,34.65122],[135.43405,34.65101],[135.4338,34.65092],[135.43338,34.65076],[135.4333,34.65073],[135.43321,34.6507]]]}},{"type":"Feature","properties":{"name":"築港三丁目","setai":1364,"jinko":2574,"key":"27107015003","units":1,"m":1208,"f":1366,"gk":67,"a0":146,"a1":1278,"a2":1031,"a75":649,"ag":[56,46,44,58,113,132,103,124,122,189,177,128,132,157,225,219,195,136,69,24,6],"nf":119},"geometry":{"type":"Polygon","coordinates":[[[135.43351,34.65838],[135.43364,34.65776],[135.43351,34.65758],[135.43352,34.65755],[135.43356,34.65738],[135.43389,34.65719],[135.434,34.65732],[135.43432,34.65696],[135.43529,34.65643],[135.43547,34.65637],[135.43559,34.6563],[135.43576,34.65617],[135.43581,34.65612],[135.43607,34.65597],[135.43602,34.65592],[135.43605,34.65578],[135.43613,34.65574],[135.43624,34.65587],[135.43643,34.65577],[135.43647,34.6558],[135.43683,34.6556],[135.43681,34.65557],[135.4367,34.6555],[135.43682,34.65545],[135.43695,34.65553],[135.43737,34.65528],[135.43744,34.6553],[135.43773,34.65512],[135.4371,34.65487],[135.43681,34.65476],[135.43612,34.65449],[135.43563,34.65429],[135.43546,34.65423],[135.4348,34.65396],[135.43459,34.65388],[135.43437,34.6538],[135.43414,34.65371],[135.43341,34.65343],[135.43327,34.65368],[135.43317,34.65384],[135.43299,34.65416],[135.43283,34.65442],[135.43266,34.65471],[135.43265,34.6547],[135.43232,34.65528],[135.43205,34.65575],[135.43196,34.65581],[135.43181,34.65584],[135.43174,34.6559],[135.43105,34.65653],[135.43057,34.65698],[135.43155,34.65771],[135.43167,34.65761],[135.43132,34.65733],[135.43136,34.65728],[135.43159,34.65744],[135.43188,34.65763],[135.43188,34.65766],[135.43211,34.65783],[135.43213,34.65779],[135.43238,34.658],[135.43237,34.65809],[135.43246,34.65818],[135.43257,34.65819],[135.43277,34.65814],[135.43285,34.6581],[135.43347,34.65841],[135.43351,34.65838]]]}},{"type":"Feature","properties":{"name":"築港四丁目","setai":654,"jinko":975,"key":"27107015004","units":1,"m":488,"f":487,"gk":52,"a0":59,"a1":581,"a2":256,"a75":133,"ag":[22,22,15,22,52,64,66,70,65,63,77,71,31,55,68,52,39,25,15,2,0],"nf":79},"geometry":{"type":"Polygon","coordinates":[[[135.43232,34.65528],[135.43265,34.6547],[135.43266,34.65471],[135.43283,34.65442],[135.43299,34.65416],[135.43317,34.65384],[135.43327,34.65368],[135.43341,34.65343],[135.43331,34.65342],[135.43305,34.65333],[135.43273,34.6532],[135.43264,34.65317],[135.43245,34.6531],[135.43228,34.65303],[135.43199,34.65292],[135.43145,34.65271],[135.4306,34.65239],[135.43055,34.6525],[135.43033,34.65308],[135.4301,34.6537],[135.42984,34.65449],[135.43014,34.65471],[135.43064,34.65508],[135.43089,34.65526],[135.43112,34.65544],[135.43174,34.6559],[135.43181,34.65584],[135.43196,34.65581],[135.43205,34.65575],[135.43232,34.65528]]]}},{"type":"Feature","properties":{"name":"海岸通一丁目","setai":3,"jinko":4,"key":"27107016001","units":1,"hi":1},"geometry":{"type":"Polygon","coordinates":[[[135.4297,34.65194],[135.42916,34.65175],[135.42916,34.6515],[135.42832,34.6512],[135.42813,34.65112],[135.42836,34.65065],[135.42829,34.65063],[135.42812,34.65097],[135.42794,34.6509],[135.42801,34.65076],[135.42788,34.6507],[135.42714,34.65045],[135.42617,34.65011],[135.4261,34.65025],[135.4259,34.65018],[135.42582,34.65021],[135.4255,34.65086],[135.42542,34.651],[135.42548,34.65106],[135.42563,34.65112],[135.42555,34.65131],[135.42707,34.65185],[135.42732,34.65194],[135.42739,34.65194],[135.42744,34.65185],[135.42822,34.65212],[135.4283,34.6522],[135.42833,34.65213],[135.42795,34.652],[135.42804,34.65185],[135.42868,34.65208],[135.42863,34.65221],[135.4289,34.6523],[135.42873,34.65278],[135.42877,34.65282],[135.42874,34.65285],[135.42858,34.65329],[135.42838,34.65386],[135.42804,34.65485],[135.42849,34.65519],[135.42848,34.65521],[135.42881,34.65546],[135.42871,34.65557],[135.42882,34.65567],[135.42914,34.6559],[135.42968,34.65631],[135.43019,34.65669],[135.43017,34.65671],[135.43047,34.65692],[135.43057,34.65698],[135.43105,34.65653],[135.43174,34.6559],[135.43112,34.65544],[135.43089,34.65526],[135.43064,34.65508],[135.43014,34.65471],[135.42984,34.65449],[135.4301,34.6537],[135.43033,34.65308],[135.43055,34.6525],[135.4306,34.65239],[135.43065,34.65228],[135.4297,34.65194]]]}},{"type":"Feature","properties":{"name":"海岸通二丁目","setai":141,"jinko":143,"key":"27107016002","units":1,"m":86,"f":61,"gk":140,"a0":0,"a1":146,"a2":1,"a75":0,"ag":[0,0,0,9,43,36,31,7,7,3,3,5,2,1,0,0,0,0,0,0,0],"tt":147,"gs":1},"geometry":{"type":"Polygon","coordinates":[[[135.43086,34.65168],[135.43139,34.65144],[135.43156,34.65136],[135.43217,34.65109],[135.43313,34.65066],[135.43321,34.6507],[135.4333,34.65073],[135.43338,34.65076],[135.4338,34.65092],[135.43405,34.65101],[135.43459,34.65122],[135.43469,34.65126],[135.43557,34.65159],[135.43606,34.65179],[135.4371,34.65218],[135.4372,34.6522],[135.43736,34.65221],[135.4374,34.65221],[135.43755,34.65214],[135.4379,34.652],[135.43816,34.65188],[135.43829,34.65182],[135.43843,34.65177],[135.43885,34.65159],[135.43883,34.65154],[135.43883,34.65148],[135.43908,34.65137],[135.43906,34.65134],[135.43883,34.65144],[135.43872,34.6514],[135.43866,34.65132],[135.43854,34.65113],[135.43818,34.65057],[135.43813,34.65053],[135.43758,34.65077],[135.43746,34.65073],[135.43674,34.65046],[135.43627,34.65029],[135.43538,34.64996],[135.43371,34.64933],[135.43333,34.64924],[135.4332,34.64919],[135.43321,34.64915],[135.43303,34.64922],[135.43301,34.6493],[135.43283,34.64937],[135.4327,34.64937],[135.43245,34.64948],[135.43193,34.64969],[135.43151,34.64989],[135.43064,34.65028],[135.42969,34.6507],[135.4296,34.65074],[135.42945,34.65081],[135.42933,34.65112],[135.4292,34.6515],[135.42916,34.6515],[135.42916,34.65175],[135.4297,34.65194],[135.43065,34.65228],[135.43076,34.65197],[135.43084,34.65176],[135.43086,34.65168]]]}},{"type":"Feature","properties":{"name":"海岸通三丁目","setai":2,"jinko":3,"key":"27107016003","units":1,"hi":1},"geometry":{"type":"Polygon","coordinates":[[[135.44076,34.6531],[135.44092,34.653],[135.44101,34.65302],[135.44196,34.65246],[135.44181,34.65276],[135.44167,34.65294],[135.442,34.65276],[135.44212,34.65269],[135.44217,34.65264],[135.44228,34.65227],[135.44252,34.65212],[135.4426,34.65223],[135.44269,34.65219],[135.44273,34.65223],[135.44284,34.65218],[135.44295,34.65213],[135.4429,34.65206],[135.44298,34.65202],[135.44292,34.6519],[135.4464,34.64991],[135.44643,34.64964],[135.44628,34.64953],[135.44616,34.6494],[135.44562,34.64887],[135.44588,34.64876],[135.44585,34.64874],[135.44576,34.64866],[135.4455,34.64875],[135.44543,34.64867],[135.44536,34.64871],[135.44531,34.64867],[135.44539,34.64863],[135.44526,34.64849],[135.44517,34.64858],[135.44509,34.6485],[135.44516,34.64844],[135.44498,34.64826],[135.44489,34.64829],[135.4448,34.64844],[135.44497,34.64859],[135.44504,34.64858],[135.44503,34.64861],[135.44459,34.6488],[135.44427,34.6488],[135.44393,34.6483],[135.44458,34.64801],[135.44464,34.64794],[135.44457,34.64784],[135.4445,34.64782],[135.44403,34.64798],[135.44358,34.64778],[135.44364,34.6477],[135.44382,34.64773],[135.44387,34.64765],[135.4399,34.64619],[135.43941,34.64642],[135.43832,34.64466],[135.438,34.64477],[135.43905,34.64651],[135.43896,34.64655],[135.43725,34.64725],[135.43537,34.64803],[135.43545,34.64828],[135.43735,34.64901],[135.43886,34.64959],[135.43985,34.64917],[135.44031,34.64898],[135.4406,34.64948],[135.43885,34.65023],[135.43881,34.65033],[135.43935,34.6512],[135.43947,34.65136],[135.43921,34.65148],[135.43929,34.6516],[135.43936,34.6517],[135.43968,34.65156],[135.44012,34.65222],[135.44054,34.65291],[135.44063,34.65307],[135.44076,34.6531]]]}},{"type":"Feature","properties":{"name":"海岸通四丁目","setai":0,"jinko":0,"key":"27107016004","units":1,"m":0,"f":0,"gk":0,"a0":0,"a1":0,"a2":0,"a75":0,"ag":[0,0,0,0,0,0,0,0,0,0,0,0,0,0,0,0,0,0,0,0,0]},"geometry":{"type":"Polygon","coordinates":[[[135.4473,34.64946],[135.44913,34.64864],[135.44927,34.64868],[135.44936,34.64868],[135.44949,34.64862],[135.44971,34.64851],[135.44962,34.64846],[135.45065,34.64804],[135.45075,34.64811],[135.45089,34.64807],[135.451,34.64815],[135.45112,34.64809],[135.45102,34.64802],[135.45156,34.6478],[135.45162,34.64774],[135.45173,34.64749],[135.4517,34.64731],[135.45127,34.64718],[135.45101,34.64708],[135.44916,34.64638],[135.44826,34.64604],[135.44814,34.64614],[135.44753,34.64594],[135.44762,34.64571],[135.44413,34.64438],[135.44407,34.64448],[135.44385,34.64458],[135.44377,34.64453],[135.44226,34.64522],[135.44227,34.64525],[135.4421,34.64535],[135.44211,34.64538],[135.44341,34.64588],[135.44504,34.64649],[135.44555,34.64669],[135.44571,34.64677],[135.4465,34.64642],[135.44666,34.64645],[135.44673,34.64658],[135.44682,34.64672],[135.44679,34.64678],[135.44502,34.64754],[135.44498,34.64766],[135.4454,34.64804],[135.44545,34.64804],[135.44603,34.64854],[135.44576,34.64866],[135.44585,34.64874],[135.44588,34.64876],[135.44615,34.64862],[135.4467,34.64918],[135.44687,34.64936],[135.4473,34.64946]]]}}]}