{"type":"FeatureCollection","features":[{"type":"Feature","properties":{"name":"相生町","setai":350,"jinko":589,"key":"231020010","units":1},"geometry":{"type":"Polygon","coordinates":[[[136.92235,35.18256],[136.92255,35.18251],[136.92261,35.18254],[136.92315,35.18237],[136.92315,35.18237],[136.92316,35.18236],[136.92291,35.18184],[136.92273,35.18143],[136.92247,35.18088],[136.92232,35.18056],[136.92215,35.18019],[136.92213,35.18015],[136.922,35.17985],[136.92177,35.17932],[136.92175,35.17928],[136.92106,35.17919],[136.92104,35.17918],[136.92082,35.17917],[136.92076,35.17916],[136.92073,35.1794],[136.92078,35.17944],[136.92076,35.17957],[136.92074,35.17974],[136.92088,35.17975],[136.92086,35.17999],[136.92093,35.18],[136.92092,35.1802],[136.92114,35.1802],[136.92113,35.18021],[136.9211,35.18056],[136.92105,35.18057],[136.92103,35.18083],[136.92141,35.18085],[136.92141,35.18097],[136.92134,35.18098],[136.92133,35.18121],[136.92145,35.18122],[136.92144,35.18142],[136.9215,35.18143],[136.92181,35.18143],[136.92181,35.18169],[136.92176,35.18171],[136.92188,35.18196],[136.92195,35.18257],[136.92227,35.18258],[136.92232,35.18257],[136.92235,35.18256],[136.92235,35.18256]]]}},{"type":"Feature","properties":{"name":"葵一丁目","setai":1370,"jinko":1914,"key":"23102002091","units":1},"geometry":{"type":"Polygon","coordinates":[[[136.92025,35.1742],[136.92053,35.1742],[136.92068,35.1742],[136.92121,35.1742],[136.92197,35.17419],[136.92252,35.17418],[136.92259,35.17418],[136.92302,35.17417],[136.92353,35.17416],[136.92363,35.17416],[136.9244,35.17414],[136.92438,35.17364],[136.92438,35.17345],[136.92438,35.17315],[136.92438,35.17304],[136.92435,35.17259],[136.92435,35.1724],[136.92435,35.17227],[136.92434,35.17222],[136.92433,35.17194],[136.92433,35.17178],[136.92432,35.17143],[136.92432,35.17141],[136.9243,35.17104],[136.92429,35.17048],[136.92429,35.17016],[136.92427,35.17016],[136.92426,35.17013],[136.92404,35.17014],[136.92394,35.17013],[136.92394,35.17023],[136.92395,35.1703],[136.92376,35.1703],[136.92375,35.17017],[136.92374,35.17003],[136.92374,35.16997],[136.9237,35.16997],[136.92359,35.16999],[136.92361,35.17023],[136.92332,35.17023],[136.92328,35.17023],[136.92299,35.17025],[136.92299,35.1703],[136.92299,35.17048],[136.92279,35.17048],[136.92278,35.17048],[136.92276,35.17048],[136.92275,35.17048],[136.92266,35.17048],[136.92266,35.17048],[136.92257,35.17048],[136.92257,35.17046],[136.92257,35.17036],[136.92256,35.17032],[136.92256,35.17029],[136.92253,35.17029],[136.92254,35.17017],[136.92251,35.17017],[136.92235,35.17016],[136.92234,35.1703],[136.92211,35.17029],[136.92202,35.17029],[136.92186,35.17029],[136.92186,35.17029],[136.92185,35.17031],[136.92189,35.17031],[136.92188,35.17043],[136.92167,35.17042],[136.92168,35.17026],[136.92144,35.17024],[136.92142,35.17021],[136.92143,35.17011],[136.9214,35.17011],[136.92135,35.17011],[136.92134,35.17019],[136.92116,35.17018],[136.92116,35.17024],[136.92114,35.17024],[136.92113,35.17029],[136.92096,35.17028],[136.92098,35.17014],[136.92114,35.17015],[136.92114,35.17011],[136.9208,35.1701],[136.92081,35.17029],[136.92064,35.17032],[136.92054,35.17013],[136.92034,35.17018],[136.92031,35.17016],[136.92027,35.17007],[136.92012,35.1701],[136.92013,35.17019],[136.91951,35.17017],[136.91951,35.17018],[136.91932,35.17023],[136.91934,35.17073],[136.91939,35.17206],[136.9194,35.17251],[136.91942,35.17311],[136.91942,35.1733],[136.91947,35.17421],[136.92025,35.1742]]]}},{"type":"Feature","properties":{"name":"葵二丁目","setai":1004,"jinko":1656,"key":"23102002092","units":1},"geometry":{"type":"Polygon","coordinates":[[[136.92741,35.17376],[136.92773,35.17372],[136.92774,35.17373],[136.92793,35.1737],[136.92799,35.17368],[136.92781,35.17333],[136.92761,35.17293],[136.9275,35.17271],[136.92728,35.17223],[136.92711,35.17188],[136.92685,35.17134],[136.92668,35.171],[136.92648,35.17059],[136.9262,35.17001],[136.92619,35.16998],[136.92597,35.17004],[136.92598,35.17008],[136.92599,35.17014],[136.92568,35.1702],[136.92566,35.17014],[136.92565,35.1701],[136.92565,35.1701],[136.92564,35.1701],[136.92546,35.17011],[136.92521,35.17012],[136.92521,35.17048],[136.92507,35.17048],[136.92501,35.17048],[136.92499,35.17048],[136.92499,35.17027],[136.92499,35.17019],[136.92499,35.17019],[136.92499,35.17011],[136.92488,35.17012],[136.92467,35.17012],[136.92435,35.17013],[136.92429,35.17013],[136.92426,35.17013],[136.92427,35.17016],[136.92429,35.17016],[136.92429,35.17048],[136.9243,35.17104],[136.92432,35.17141],[136.92432,35.17143],[136.92433,35.17178],[136.92433,35.17194],[136.92434,35.17222],[136.92435,35.17227],[136.92435,35.1724],[136.92435,35.17259],[136.92438,35.17304],[136.92438,35.17315],[136.92438,35.17345],[136.92438,35.17364],[136.9244,35.17414],[136.92483,35.17414],[136.92489,35.17413],[136.92513,35.17409],[136.92527,35.17407],[136.92537,35.17406],[136.92582,35.17399],[136.92589,35.17398],[136.9264,35.17391],[136.92716,35.17381],[136.92741,35.17376]]]}},{"type":"Feature","properties":{"name":"葵三丁目","setai":1130,"jinko":1966,"key":"23102002093","units":1},"geometry":{"type":"Polygon","coordinates":[[[136.92793,35.16942],[136.92784,35.16942],[136.9274,35.16949],[136.92747,35.16972],[136.92692,35.16983],[136.92655,35.16991],[136.92655,35.16991],[136.92619,35.16998],[136.9262,35.17001],[136.92648,35.17059],[136.92668,35.171],[136.92685,35.17134],[136.92711,35.17188],[136.92728,35.17223],[136.9275,35.17271],[136.92761,35.17293],[136.92781,35.17333],[136.92799,35.17368],[136.92819,35.17365],[136.92825,35.17365],[136.92827,35.17364],[136.9285,35.17362],[136.92914,35.17352],[136.92944,35.17351],[136.92942,35.17347],[136.9298,35.17342],[136.93066,35.17328],[136.9309,35.17325],[136.93186,35.1731],[136.93207,35.17308],[136.93249,35.17291],[136.9327,35.17285],[136.93219,35.17232],[136.93171,35.17183],[136.93115,35.17125],[136.93053,35.17061],[136.93018,35.17026],[136.92983,35.16989],[136.92946,35.16987],[136.92914,35.16981],[136.92882,35.1697],[136.92852,35.16958],[136.92838,35.16952],[136.92836,35.16949],[136.92804,35.16942],[136.92793,35.16942]]]}},{"type":"Feature","properties":{"name":"赤塚町","setai":148,"jinko":280,"key":"23102005090","units":2},"geometry":{"type":"MultiPolygon","coordinates":[[[[136.92439,35.1843],[136.9237,35.18359],[136.9232,35.18372],[136.92273,35.18382],[136.92294,35.18429],[136.92318,35.18481],[136.92317,35.18482],[136.92343,35.18523],[136.92427,35.18502],[136.92436,35.18449],[136.92439,35.1843]]],[[[136.9232,35.18372],[136.9237,35.18359],[136.92374,35.18359],[136.92361,35.18334],[136.9234,35.18285],[136.92318,35.18238],[136.92315,35.18237],[136.92315,35.18237],[136.92261,35.18254],[136.92255,35.18251],[136.92235,35.18256],[136.92235,35.18256],[136.92232,35.18257],[136.92235,35.18269],[136.92241,35.18269],[136.92242,35.18269],[136.92242,35.18279],[136.92238,35.18279],[136.92239,35.18289],[136.92238,35.18289],[136.92233,35.18291],[136.9223,35.18379],[136.92232,35.18381],[136.92256,35.18384],[136.92273,35.18382],[136.9232,35.18372]]]]}},{"type":"Feature","properties":{"name":"飯田町","setai":110,"jinko":210,"key":"231020060","units":1},"geometry":{"type":"Polygon","coordinates":[[[136.91904,35.17961],[136.91908,35.17928],[136.9192,35.1793],[136.91919,35.1794],[136.91971,35.17943],[136.91972,35.17937],[136.92014,35.1794],[136.92014,35.17945],[136.92036,35.17947],[136.92035,35.17952],[136.92076,35.17957],[136.92078,35.17944],[136.92073,35.1794],[136.92076,35.17916],[136.92039,35.17911],[136.91982,35.17903],[136.91882,35.1789],[136.91861,35.17887],[136.91837,35.17886],[136.91796,35.17883],[136.91712,35.1788],[136.91684,35.17878],[136.91614,35.17873],[136.91612,35.17916],[136.9168,35.17921],[136.91678,35.17945],[136.91815,35.17955],[136.91904,35.17961]]]}},{"type":"Feature","properties":{"name":"泉一丁目","setai":4434,"jinko":6941,"key":"23102007091","units":1},"geometry":{"type":"Polygon","coordinates":[[[136.91397,35.17862],[136.91402,35.17778],[136.91406,35.17745],[136.9141,35.17701],[136.91407,35.17701],[136.91409,35.17676],[136.91407,35.17676],[136.91413,35.17614],[136.91418,35.17542],[136.91419,35.1752],[136.9142,35.17515],[136.91423,35.17489],[136.91426,35.17433],[136.91299,35.17426],[136.91244,35.17422],[136.91235,35.17421],[136.91214,35.17419],[136.9116,35.17416],[136.91044,35.17409],[136.91011,35.17407],[136.90935,35.17402],[136.90872,35.17398],[136.90865,35.17475],[136.90864,35.17476],[136.9086,35.1752],[136.90858,35.17532],[136.90854,35.17575],[136.9085,35.17618],[136.90849,35.17639],[136.90842,35.17708],[136.9083,35.17818],[136.90826,35.17839],[136.9095,35.17847],[136.90951,35.17831],[136.90977,35.17833],[136.91045,35.17838],[136.91047,35.17838],[136.91121,35.17843],[136.91205,35.17849],[136.91262,35.17854],[136.91397,35.17862]]]}},{"type":"Feature","properties":{"name":"泉二丁目","setai":1971,"jinko":2946,"key":"23102007092","units":1},"geometry":{"type":"Polygon","coordinates":[[[136.91516,35.17435],[136.91444,35.17433],[136.91426,35.17433],[136.91423,35.17489],[136.9142,35.17515],[136.91419,35.1752],[136.91418,35.17542],[136.91413,35.17614],[136.91407,35.17676],[136.91409,35.17676],[136.91407,35.17701],[136.9141,35.17701],[136.91406,35.17745],[136.91402,35.17778],[136.91397,35.17862],[136.9149,35.17868],[136.91546,35.1787],[136.9158,35.17872],[136.91602,35.17873],[136.91614,35.17873],[136.91684,35.17878],[136.91712,35.1788],[136.91796,35.17883],[136.9179,35.17828],[136.91787,35.17812],[136.91781,35.17773],[136.91778,35.17741],[136.91776,35.1774],[136.91773,35.17727],[136.91773,35.17713],[136.91773,35.1771],[136.91763,35.17636],[136.91763,35.17631],[136.9176,35.17612],[136.91756,35.17585],[136.91755,35.17584],[136.91748,35.17542],[136.91749,35.1754],[136.91744,35.17515],[136.91741,35.17493],[136.91733,35.17436],[136.91719,35.17436],[136.91666,35.17436],[136.91632,35.17436],[136.91516,35.17435]]]}},{"type":"Feature","properties":{"name":"泉三丁目","setai":1740,"jinko":2735,"key":"23102007093","units":1},"geometry":{"type":"Polygon","coordinates":[[[136.91947,35.17421],[136.91916,35.1742],[136.91857,35.1742],[136.91829,35.1742],[136.91821,35.1742],[136.91784,35.17419],[136.91784,35.1742],[136.91734,35.1742],[136.91733,35.17436],[136.91741,35.17493],[136.91744,35.17515],[136.91749,35.1754],[136.91748,35.17542],[136.91755,35.17584],[136.91756,35.17585],[136.9176,35.17612],[136.91763,35.17631],[136.91763,35.17636],[136.91773,35.1771],[136.91773,35.17713],[136.91773,35.17727],[136.91776,35.1774],[136.91778,35.17741],[136.91781,35.17773],[136.91787,35.17812],[136.9179,35.17828],[136.91796,35.17883],[136.91837,35.17886],[136.91861,35.17887],[136.91882,35.1789],[136.91982,35.17903],[136.92039,35.17911],[136.92076,35.17916],[136.92082,35.17917],[136.92104,35.17918],[136.92106,35.17919],[136.92175,35.17928],[136.92167,35.1791],[136.92162,35.17896],[136.92139,35.17846],[136.92119,35.178],[136.92113,35.17797],[136.92112,35.17792],[136.92114,35.17792],[136.92092,35.17743],[136.92065,35.17683],[136.9205,35.1765],[136.92037,35.1762],[136.92027,35.17601],[136.92004,35.17548],[136.92003,35.17545],[136.91985,35.17508],[136.91971,35.17478],[136.91947,35.17426],[136.91947,35.17421]]]}},{"type":"Feature","properties":{"name":"大曽根一丁目","setai":24,"jinko":46,"key":"23102010091","units":1},"geometry":{"type":"Polygon","coordinates":[[[136.92879,35.18877],[136.92848,35.18845],[136.9274,35.18845],[136.92672,35.18845],[136.92664,35.18845],[136.92664,35.18845],[136.92664,35.18848],[136.92664,35.18869],[136.92672,35.18871],[136.92684,35.18872],[136.92712,35.18872],[136.92715,35.18903],[136.92752,35.189],[136.92824,35.18887],[136.92879,35.18877]]]}},{"type":"Feature","properties":{"name":"大曽根二丁目","setai":92,"jinko":139,"key":"23102010092","units":1},"geometry":{"type":"Polygon","coordinates":[[[136.93192,35.18928],[136.93191,35.18879],[136.93192,35.18843],[136.93028,35.18844],[136.93027,35.18851],[136.93042,35.18851],[136.93053,35.18851],[136.93053,35.18874],[136.93053,35.18874],[136.93053,35.18874],[136.93053,35.18875],[136.93053,35.18875],[136.93053,35.18876],[136.93053,35.18877],[136.93053,35.18877],[136.93053,35.18877],[136.93098,35.18877],[136.93098,35.1888],[136.93097,35.18895],[136.93117,35.18893],[136.93119,35.18907],[136.93123,35.18907],[136.93134,35.18907],[136.93135,35.18925],[136.93139,35.18925],[136.93152,35.18925],[136.93162,35.18924],[136.93192,35.18941],[136.93192,35.18928]]]}},{"type":"Feature","properties":{"name":"大松町","setai":190,"jinko":429,"key":"231020120","units":1},"geometry":{"type":"Polygon","coordinates":[[[136.93694,35.18014],[136.93693,35.17963],[136.93697,35.17967],[136.93696,35.17916],[136.93696,35.17916],[136.93696,35.17913],[136.93688,35.17858],[136.93674,35.17861],[136.93674,35.17863],[136.93604,35.17872],[136.93535,35.17883],[136.93542,35.17922],[136.93549,35.17947],[136.93553,35.17961],[136.93555,35.1797],[136.93557,35.17985],[136.93563,35.18007],[136.93569,35.18039],[136.93576,35.18074],[136.93583,35.18113],[136.93667,35.181],[136.93696,35.18094],[136.93694,35.18014]]]}},{"type":"Feature","properties":{"name":"上竪杉町","setai":25,"jinko":54,"key":"231020130","units":1},"geometry":{"type":"Polygon","coordinates":[[[136.91098,35.18075],[136.91101,35.18051],[136.9114,35.18052],[136.91141,35.1804],[136.91162,35.18041],[136.91163,35.18023],[136.91104,35.18019],[136.9111,35.17958],[136.91131,35.1796],[136.91134,35.17961],[136.91135,35.17944],[136.9114,35.17944],[136.91141,35.17935],[136.91156,35.17936],[136.91157,35.17925],[136.91158,35.17907],[136.91115,35.17905],[136.9112,35.17855],[136.91105,35.17855],[136.91103,35.1787],[136.91085,35.17869],[136.91083,35.17884],[136.91064,35.17882],[136.91062,35.17905],[136.9106,35.1792],[136.91055,35.17952],[136.91048,35.17953],[136.91049,35.17955],[136.91046,35.17989],[136.91062,35.1799],[136.91061,35.1801],[136.91059,35.18011],[136.9103,35.18009],[136.91023,35.18064],[136.91024,35.1807],[136.91098,35.18075]]]}},{"type":"Feature","properties":{"name":"車道町一丁目","setai":4,"jinko":13,"key":"23102014001","units":1},"geometry":{"type":"Polygon","coordinates":[[[136.93101,35.17945],[136.93099,35.17935],[136.93086,35.17937],[136.9308,35.17933],[136.93076,35.17902],[136.93059,35.17904],[136.93043,35.17907],[136.93063,35.17951],[136.93101,35.17945]]]}},{"type":"Feature","properties":{"name":"車道町二丁目","setai":54,"jinko":108,"key":"23102014002","units":1},"geometry":{"type":"Polygon","coordinates":[[[136.93183,35.17845],[136.93171,35.17804],[136.93168,35.17795],[136.93097,35.1781],[136.93098,35.17812],[136.93074,35.17817],[136.93069,35.17801],[136.93058,35.17782],[136.92991,35.17795],[136.93014,35.17845],[136.93021,35.1786],[136.93043,35.17907],[136.93059,35.17904],[136.93052,35.17874],[136.93123,35.17867],[136.93185,35.17858],[136.93183,35.17845]]]}},{"type":"Feature","properties":{"name":"車道町三丁目","setai":72,"jinko":141,"key":"23102014003","units":1},"geometry":{"type":"Polygon","coordinates":[[[136.93058,35.17782],[136.9304,35.17726],[136.93013,35.17732],[136.93007,35.17733],[136.92992,35.17706],[136.9299,35.17701],[136.9298,35.17704],[136.9297,35.17686],[136.92946,35.17692],[136.92968,35.17741],[136.92974,35.17757],[136.92991,35.17795],[136.93058,35.17782]]]}},{"type":"Feature","properties":{"name":"黒門町","setai":472,"jinko":945,"key":"231020150","units":1},"geometry":{"type":"Polygon","coordinates":[[[136.93305,35.17909],[136.93373,35.17899],[136.93386,35.17897],[136.93443,35.17891],[136.93461,35.17889],[136.93534,35.17879],[136.93525,35.17838],[136.9352,35.17813],[136.93516,35.17793],[136.93449,35.17804],[136.93442,35.17778],[136.93437,35.17779],[136.9344,35.17789],[136.93422,35.17791],[136.93417,35.17763],[136.93366,35.17771],[136.93374,35.17725],[136.93384,35.17685],[136.9336,35.17655],[136.93358,35.17656],[136.93327,35.17664],[136.93316,35.17666],[136.93278,35.17675],[136.93246,35.17683],[136.93233,35.17628],[136.93163,35.1764],[136.9317,35.17664],[136.93184,35.17698],[136.93184,35.17701],[136.93162,35.17705],[136.93165,35.17714],[136.93148,35.17717],[136.93158,35.1776],[136.93168,35.17795],[136.93171,35.17804],[136.93183,35.17845],[136.93185,35.17858],[136.93123,35.17867],[136.93052,35.17874],[136.93059,35.17904],[136.93076,35.17902],[136.9308,35.17933],[136.93086,35.17937],[136.93099,35.17935],[136.93197,35.17923],[136.93238,35.17918],[136.9327,35.17914],[136.93305,35.17909]]]}},{"type":"Feature","properties":{"name":"古出来一丁目","setai":305,"jinko":606,"key":"23102016091","units":1},"geometry":{"type":"Polygon","coordinates":[[[136.94055,35.18101],[136.94048,35.18074],[136.94042,35.18055],[136.9404,35.18049],[136.94045,35.18049],[136.94032,35.18008],[136.94022,35.17973],[136.93919,35.18002],[136.93899,35.18007],[136.93836,35.18025],[136.93732,35.1804],[136.93698,35.18012],[136.93697,35.17967],[136.93693,35.17963],[136.93694,35.18014],[136.93696,35.18094],[136.93726,35.18091],[136.93733,35.1809],[136.9385,35.18075],[136.93857,35.18127],[136.93862,35.18176],[136.93945,35.18168],[136.93956,35.18167],[136.94026,35.18159],[136.94072,35.18156],[136.94056,35.18104],[136.94055,35.18101]]]}},{"type":"Feature","properties":{"name":"古出来二丁目","setai":148,"jinko":369,"key":"23102016092","units":1},"geometry":{"type":"Polygon","coordinates":[[[136.94105,35.18265],[136.94102,35.18255],[136.94099,35.18245],[136.94091,35.18221],[136.94087,35.18209],[136.94082,35.18191],[136.94072,35.18156],[136.94072,35.18156],[136.94026,35.18159],[136.93956,35.18167],[136.93945,35.18168],[136.9395,35.18211],[136.93955,35.18243],[136.93957,35.18261],[136.94032,35.18257],[136.94033,35.18264],[136.94035,35.18296],[136.94039,35.18351],[136.94039,35.18358],[136.94042,35.18393],[136.94045,35.18435],[136.94157,35.18427],[136.94146,35.18393],[136.94142,35.18376],[136.94135,35.18357],[136.94131,35.18348],[136.94129,35.18342],[136.94125,35.18331],[136.94111,35.18287],[136.94105,35.18265]]]}},{"type":"Feature","properties":{"name":"古出来三丁目","setai":20,"jinko":31,"key":"23102016093","units":1},"geometry":{"type":"Polygon","coordinates":[[[136.94212,35.18373],[136.94215,35.18317],[136.94185,35.18317],[136.94183,35.1832],[136.94183,35.18322],[136.94182,35.18322],[136.94172,35.18322],[136.94138,35.18329],[136.94125,35.18331],[136.94129,35.18342],[136.94131,35.18348],[136.94135,35.18357],[136.94142,35.18376],[136.94191,35.18377],[136.9419,35.18371],[136.94212,35.18373]]]}},{"type":"Feature","properties":{"name":"三の丸","setai":26,"jinko":47,"key":"231020190","units":1},"geometry":{"type":"MultiPolygon","coordinates":[[[[136.9085,35.18566],[136.90844,35.18565],[136.90737,35.18573],[136.90738,35.18577],[136.90739,35.18586],[136.90743,35.18621],[136.90757,35.1862],[136.90776,35.18619],[136.90835,35.18615],[136.90848,35.18614],[136.90848,35.18578],[136.9085,35.18566]]],[[[136.90878,35.18316],[136.9088,35.183],[136.9086,35.183],[136.90854,35.18385],[136.90852,35.18415],[136.90859,35.18422],[136.90859,35.18425],[136.90865,35.18426],[136.90866,35.18422],[136.90878,35.18316]]]]}},{"type":"Feature","properties":{"name":"橦木町一丁目","setai":362,"jinko":806,"key":"23102020001","units":1},"geometry":{"type":"Polygon","coordinates":[[[136.91388,35.17978],[136.9139,35.17939],[136.91391,35.17923],[136.91259,35.17914],[136.91158,35.17907],[136.91157,35.17925],[136.91156,35.17936],[136.91141,35.17935],[136.9114,35.17944],[136.91135,35.17944],[136.91134,35.17961],[136.91131,35.1796],[136.9111,35.17958],[136.91104,35.18019],[136.91163,35.18023],[136.91219,35.18026],[136.91321,35.18032],[136.91339,35.18034],[136.91383,35.18036],[136.91388,35.17978]]]}},{"type":"Feature","properties":{"name":"橦木町二丁目","setai":101,"jinko":234,"key":"23102020002","units":1},"geometry":{"type":"Polygon","coordinates":[[[136.91678,35.17945],[136.9168,35.17921],[136.91612,35.17916],[136.91577,35.17914],[136.91543,35.17912],[136.91451,35.17908],[136.91449,35.17942],[136.9139,35.17939],[136.91388,35.17978],[136.91383,35.18036],[136.9153,35.18045],[136.9156,35.18047],[136.91614,35.18051],[136.91667,35.18054],[136.91668,35.18041],[136.91672,35.17998],[136.91678,35.17945]]]}},{"type":"Feature","properties":{"name":"橦木町三丁目","setai":301,"jinko":669,"key":"23102020003","units":1},"geometry":{"type":"Polygon","coordinates":[[[136.92103,35.18083],[136.92105,35.18057],[136.9211,35.18056],[136.92113,35.18021],[136.92114,35.1802],[136.92092,35.1802],[136.92093,35.18],[136.92086,35.17999],[136.92088,35.17975],[136.92074,35.17974],[136.92076,35.17957],[136.92035,35.17952],[136.92036,35.17947],[136.92014,35.17945],[136.92014,35.1794],[136.91972,35.17937],[136.91971,35.17943],[136.91919,35.1794],[136.9192,35.1793],[136.91908,35.17928],[136.91904,35.17961],[136.91815,35.17955],[136.91678,35.17945],[136.91672,35.17998],[136.91668,35.18041],[136.91705,35.18044],[136.91705,35.18057],[136.9172,35.18058],[136.9172,35.1807],[136.91736,35.18071],[136.91738,35.1806],[136.9177,35.18063],[136.91771,35.1807],[136.91806,35.18072],[136.91807,35.18062],[136.91844,35.18063],[136.91845,35.18069],[136.91892,35.18071],[136.91894,35.18051],[136.91905,35.18052],[136.91904,35.18072],[136.91908,35.18072],[136.91921,35.18073],[136.91954,35.18075],[136.91955,35.18074],[136.91959,35.18074],[136.91984,35.18076],[136.92029,35.18078],[136.92029,35.18079],[136.92103,35.18083]]]}},{"type":"Feature","properties":{"name":"白壁一丁目","setai":271,"jinko":824,"key":"23102021091","units":1},"geometry":{"type":"Polygon","coordinates":[[[136.91356,35.18319],[136.91364,35.18209],[136.91371,35.1815],[136.91311,35.18146],[136.91237,35.18142],[136.91238,35.18136],[136.91205,35.18133],[136.91206,35.18125],[136.91149,35.18122],[136.9115,35.18106],[136.91117,35.18103],[136.91119,35.18076],[136.91098,35.18075],[136.91024,35.1807],[136.91025,35.18071],[136.90954,35.18068],[136.9093,35.18109],[136.90925,35.18171],[136.9092,35.18214],[136.90919,35.18214],[136.90909,35.1829],[136.91074,35.18301],[136.91078,35.18301],[136.91149,35.18305],[136.91171,35.18306],[136.91234,35.18311],[136.91263,35.18313],[136.91303,35.18316],[136.91351,35.18319],[136.91356,35.18319]]]}},{"type":"Feature","properties":{"name":"白壁二丁目","setai":779,"jinko":1388,"key":"23102021092","units":1},"geometry":{"type":"Polygon","coordinates":[[[136.91114,35.18623],[136.91115,35.18612],[136.9112,35.18612],[136.9114,35.18602],[136.91153,35.18595],[136.91156,35.18592],[136.9118,35.18593],[136.91181,35.18593],[136.91195,35.18584],[136.91195,35.18586],[136.91195,35.18586],[136.91208,35.18603],[136.9123,35.18601],[136.91229,35.18593],[136.91226,35.18587],[136.91227,35.18587],[136.91245,35.18581],[136.91245,35.18583],[136.91248,35.18593],[136.91273,35.18589],[136.91276,35.18601],[136.91324,35.18591],[136.91327,35.18574],[136.91335,35.18501],[136.91342,35.18427],[136.91346,35.18384],[136.91351,35.18319],[136.91303,35.18316],[136.91263,35.18313],[136.91234,35.18311],[136.91171,35.18306],[136.91149,35.18305],[136.91078,35.18301],[136.91074,35.18301],[136.90909,35.1829],[136.90908,35.18301],[136.9088,35.183],[136.90878,35.18316],[136.90866,35.18422],[136.90865,35.18426],[136.90859,35.18425],[136.90856,35.18449],[136.9085,35.18514],[136.90848,35.1854],[136.90844,35.18565],[136.9085,35.18566],[136.90848,35.18578],[136.90848,35.18614],[136.9085,35.18609],[136.90863,35.1861],[136.90878,35.18611],[136.90881,35.18609],[136.90881,35.18609],[136.90883,35.18607],[136.90886,35.18605],[136.90892,35.18606],[136.90921,35.18606],[136.90931,35.18606],[136.91001,35.18607],[136.91043,35.18609],[136.91095,35.18611],[136.91097,35.18622],[136.911,35.18622],[136.91114,35.18623]]]}},{"type":"Feature","properties":{"name":"白壁三丁目","setai":913,"jinko":1876,"key":"23102021093","units":1},"geometry":{"type":"Polygon","coordinates":[[[136.9196,35.18777],[136.91958,35.18698],[136.91956,35.18654],[136.91953,35.186],[136.91956,35.186],[136.91953,35.18583],[136.91949,35.18526],[136.91946,35.18475],[136.91941,35.18436],[136.91939,35.18425],[136.91938,35.18425],[136.91922,35.1836],[136.91924,35.18359],[136.91923,35.18356],[136.9192,35.18359],[136.91828,35.18353],[136.9176,35.18348],[136.91755,35.18348],[136.91637,35.18339],[136.91584,35.18334],[136.9154,35.18331],[136.91499,35.1833],[136.91482,35.18328],[136.91452,35.18326],[136.91356,35.18319],[136.91351,35.18319],[136.91346,35.18384],[136.91342,35.18427],[136.91335,35.18501],[136.91327,35.18574],[136.91324,35.18591],[136.9133,35.18593],[136.91346,35.18591],[136.91399,35.18583],[136.91451,35.18573],[136.91448,35.18556],[136.91465,35.18557],[136.91467,35.18557],[136.91488,35.18558],[136.91521,35.18561],[136.91521,35.18574],[136.91564,35.18576],[136.91565,35.18566],[136.91568,35.18567],[136.91603,35.18568],[136.91606,35.18568],[136.91608,35.18551],[136.91612,35.18522],[136.91653,35.18525],[136.91653,35.18525],[136.91652,35.18538],[136.91652,35.18538],[136.91652,35.18539],[136.91658,35.18539],[136.91658,35.1854],[136.91665,35.18541],[136.91666,35.18539],[136.91706,35.18542],[136.91711,35.18545],[136.91729,35.18555],[136.91756,35.18573],[136.91774,35.18592],[136.91802,35.18616],[136.91811,35.18624],[136.91814,35.18628],[136.91815,35.18629],[136.91817,35.18637],[136.91833,35.18643],[136.91831,35.18646],[136.91847,35.18661],[136.91853,35.18664],[136.91861,35.18662],[136.91873,35.18706],[136.91899,35.18709],[136.91905,35.18708],[136.9193,35.18707],[136.91933,35.18739],[136.91936,35.18752],[136.91932,35.18756],[136.91939,35.18767],[136.9196,35.18777]]]}},{"type":"Feature","properties":{"name":"白壁四丁目","setai":535,"jinko":1165,"key":"23102021094","units":1},"geometry":{"type":"Polygon","coordinates":[[[136.91874,35.18181],[136.91803,35.18176],[136.91803,35.18179],[136.91802,35.18179],[136.91772,35.18179],[136.91774,35.18157],[136.91771,35.18157],[136.91731,35.18156],[136.91731,35.18156],[136.91707,35.18156],[136.91706,35.18172],[136.91655,35.18169],[136.91371,35.1815],[136.91364,35.18209],[136.91356,35.18319],[136.91452,35.18326],[136.91482,35.18328],[136.91499,35.1833],[136.9154,35.18331],[136.91584,35.18334],[136.91637,35.18339],[136.91755,35.18348],[136.9176,35.18348],[136.91828,35.18353],[136.9192,35.18359],[136.91923,35.18356],[136.91908,35.18308],[136.91889,35.18242],[136.91875,35.18181],[136.91874,35.18181]]]}},{"type":"Feature","properties":{"name":"白壁五丁目","setai":258,"jinko":633,"key":"23102021095","units":1},"geometry":{"type":"Polygon","coordinates":[[[136.92242,35.18279],[136.92242,35.18269],[136.92241,35.18269],[136.92235,35.18269],[136.92232,35.18257],[136.92227,35.18258],[136.92195,35.18257],[136.92188,35.18196],[136.92176,35.18171],[136.9214,35.18176],[136.92144,35.18192],[136.92095,35.1819],[136.92093,35.18212],[136.92075,35.18212],[136.92068,35.18209],[136.92069,35.18197],[136.92065,35.18197],[136.92066,35.18189],[136.92022,35.18187],[136.92021,35.18191],[136.91979,35.18188],[136.91975,35.18188],[136.91918,35.18184],[136.91875,35.18181],[136.91889,35.18242],[136.91908,35.18308],[136.91923,35.18356],[136.91924,35.18359],[136.91989,35.18366],[136.92087,35.18372],[136.92198,35.18379],[136.92232,35.18381],[136.9223,35.18379],[136.92233,35.18291],[136.92238,35.18289],[136.92239,35.18289],[136.92238,35.18279],[136.92242,35.18279]]]}},{"type":"Feature","properties":{"name":"新出来一丁目","setai":262,"jinko":627,"key":"23102026091","units":1},"geometry":{"type":"Polygon","coordinates":[[[136.93136,35.18122],[136.93114,35.18053],[136.93111,35.18054],[136.93068,35.18061],[136.93046,35.18065],[136.93035,35.18067],[136.9288,35.18097],[136.92889,35.18132],[136.92889,35.18134],[136.92907,35.18198],[136.92927,35.18275],[136.9289,35.18279],[136.92898,35.18321],[136.92903,35.1834],[136.92945,35.18333],[136.92951,35.18332],[136.93031,35.18321],[136.93032,35.1832],[136.9317,35.18302],[136.9319,35.18299],[136.93192,35.18298],[136.93187,35.18279],[136.93186,35.18274],[136.93178,35.18247],[136.93162,35.18201],[136.93156,35.18181],[136.9314,35.18134],[136.93136,35.18122]]]}},{"type":"Feature","properties":{"name":"新出来二丁目","setai":479,"jinko":858,"key":"23102026092","units":1},"geometry":{"type":"Polygon","coordinates":[[[136.9336,35.18274],[136.93357,35.18254],[136.9336,35.18255],[136.93397,35.1825],[136.93398,35.18249],[136.9339,35.18224],[136.93377,35.18179],[136.93372,35.18158],[136.93361,35.18122],[136.9335,35.18081],[136.93348,35.18074],[136.93333,35.1802],[136.93304,35.18024],[136.93186,35.18042],[136.93114,35.18053],[136.93136,35.18122],[136.9314,35.18134],[136.93156,35.18181],[136.93162,35.18201],[136.93178,35.18247],[136.93186,35.18274],[136.93187,35.18279],[136.93192,35.18298],[136.93218,35.18295],[136.9336,35.18274]]]}},{"type":"Feature","properties":{"name":"砂田橋一丁目","setai":418,"jinko":896,"key":"23102028091","units":1},"geometry":{"type":"Polygon","coordinates":[[[136.95845,35.18743],[136.95835,35.18712],[136.9582,35.18669],[136.95815,35.18671],[136.95802,35.18674],[136.95725,35.18689],[136.95663,35.18701],[136.95625,35.18708],[136.95597,35.18714],[136.95523,35.18728],[136.95522,35.18726],[136.95475,35.18735],[136.95484,35.18758],[136.95491,35.18784],[136.95505,35.18829],[136.95515,35.18863],[136.957,35.18823],[136.95853,35.18789],[136.95862,35.18787],[136.95845,35.18743]]]}},{"type":"Feature","properties":{"name":"砂田橋二丁目","setai":625,"jinko":1335,"key":"23102028092","units":1},"geometry":{"type":"Polygon","coordinates":[[[136.95914,35.18979],[136.95853,35.18789],[136.957,35.18823],[136.95515,35.18863],[136.95516,35.18869],[136.95519,35.18868],[136.95536,35.18921],[136.9555,35.18962],[136.95563,35.19008],[136.95575,35.19048],[136.95586,35.19084],[136.95596,35.19119],[136.95606,35.19151],[136.95613,35.19173],[136.95634,35.19254],[136.95893,35.19173],[136.95972,35.19148],[136.95944,35.19067],[136.95933,35.19034],[136.95914,35.18979]]]}},{"type":"Feature","properties":{"name":"砂田橋三丁目","setai":1366,"jinko":2631,"key":"23102028093","units":1},"geometry":{"type":"Polygon","coordinates":[[[136.96187,35.18716],[136.96187,35.18715],[136.96148,35.18723],[136.96081,35.18738],[136.96004,35.18756],[136.95969,35.18764],[136.95905,35.18777],[136.95862,35.18787],[136.95853,35.18789],[136.95914,35.18979],[136.95933,35.19034],[136.95944,35.19067],[136.95972,35.19148],[136.96136,35.19109],[136.96201,35.191],[136.96261,35.19091],[136.963,35.19088],[136.96272,35.18995],[136.96255,35.1894],[136.96187,35.18716]]]}},{"type":"Feature","properties":{"name":"砂田橋四丁目","setai":699,"jinko":1698,"key":"23102028094","units":1},"geometry":{"type":"Polygon","coordinates":[[[136.96495,35.18634],[136.96497,35.18629],[136.96399,35.18663],[136.96273,35.18696],[136.96187,35.18716],[136.96255,35.1894],[136.96272,35.18995],[136.963,35.19088],[136.96579,35.19079],[136.96557,35.18956],[136.96553,35.18937],[136.96553,35.18937],[136.96549,35.18911],[136.96528,35.18804],[136.96509,35.18712],[136.96495,35.18634]]]}},{"type":"Feature","properties":{"name":"砂田橋五丁目","setai":444,"jinko":954,"key":"23102028095","units":1},"geometry":{"type":"Polygon","coordinates":[[[136.96148,35.18723],[136.96187,35.18715],[136.96187,35.18716],[136.96273,35.18696],[136.96399,35.18663],[136.96497,35.18629],[136.96565,35.1858],[136.96568,35.18563],[136.96543,35.18556],[136.96508,35.18544],[136.96492,35.18536],[136.96499,35.18576],[136.96498,35.18578],[136.96432,35.18587],[136.96432,35.18585],[136.96318,35.18601],[136.96253,35.18611],[136.96185,35.1862],[136.96128,35.18628],[136.96062,35.18636],[136.95998,35.18645],[136.9597,35.18649],[136.95946,35.18652],[136.95878,35.18661],[136.9582,35.18669],[136.95835,35.18712],[136.95845,35.18743],[136.95862,35.18787],[136.95905,35.18777],[136.95969,35.18764],[136.96004,35.18756],[136.96081,35.18738],[136.96148,35.18723]]]}},{"type":"Feature","properties":{"name":"代官町","setai":2091,"jinko":4200,"key":"231020330","units":1},"geometry":{"type":"Polygon","coordinates":[[[136.92341,35.17927],[136.92368,35.17926],[136.92388,35.17926],[136.9243,35.17923],[136.92436,35.17923],[136.9248,35.17908],[136.92539,35.17888],[136.92526,35.17859],[136.92522,35.1785],[136.92507,35.17815],[136.92506,35.17813],[136.92501,35.17807],[136.925,35.17802],[136.92497,35.17785],[136.92496,35.17782],[136.92491,35.17755],[136.92493,35.17746],[136.92511,35.17743],[136.92508,35.17726],[136.92507,35.17711],[136.92499,35.1763],[136.92493,35.17581],[136.92491,35.17562],[136.92486,35.17517],[136.92483,35.17421],[136.92483,35.17414],[136.9244,35.17414],[136.92363,35.17416],[136.92353,35.17416],[136.92302,35.17417],[136.92259,35.17418],[136.92252,35.17418],[136.92197,35.17419],[136.92121,35.1742],[136.92068,35.1742],[136.92053,35.1742],[136.92025,35.1742],[136.91947,35.17421],[136.91947,35.17426],[136.91971,35.17478],[136.91985,35.17508],[136.92003,35.17545],[136.92004,35.17548],[136.92027,35.17601],[136.92037,35.1762],[136.9205,35.1765],[136.92065,35.17683],[136.92092,35.17743],[136.92114,35.17792],[136.92112,35.17792],[136.92113,35.17797],[136.92119,35.178],[136.92139,35.17846],[136.92162,35.17896],[136.92167,35.1791],[136.92175,35.17928],[136.92177,35.17932],[136.92275,35.17927],[136.92341,35.17927]]]}},{"type":"Feature","properties":{"name":"大幸一丁目","setai":366,"jinko":717,"key":"23102034091","units":1},"geometry":{"type":"Polygon","coordinates":[[[136.94875,35.19396],[136.94885,35.19391],[136.94908,35.19397],[136.94919,35.19348],[136.9491,35.19324],[136.94879,35.19331],[136.94838,35.19341],[136.9483,35.19316],[136.94822,35.19287],[136.94817,35.19276],[136.9481,35.19247],[136.94799,35.19211],[136.94793,35.19193],[136.94786,35.19171],[136.9478,35.19148],[136.94773,35.19126],[136.94767,35.19105],[136.94761,35.19084],[136.94744,35.19028],[136.94669,35.19043],[136.94625,35.19053],[136.9464,35.19109],[136.94653,35.19151],[136.94668,35.19194],[136.94617,35.19204],[136.94563,35.19214],[136.94567,35.19216],[136.94598,35.19233],[136.94611,35.19243],[136.94627,35.19285],[136.94633,35.19307],[136.94649,35.1935],[136.94661,35.19383],[136.9467,35.19408],[136.94675,35.19422],[136.94688,35.19432],[136.94704,35.19435],[136.9473,35.19428],[136.94786,35.19415],[136.94844,35.19401],[136.94875,35.19396]]]}},{"type":"Feature","properties":{"name":"大幸二丁目","setai":328,"jinko":652,"key":"23102034092","units":1},"geometry":{"type":"Polygon","coordinates":[[[136.94927,35.19428],[136.94943,35.19419],[136.94948,35.19422],[136.94955,35.19414],[136.95076,35.19299],[136.95076,35.19299],[136.95065,35.19302],[136.9505,35.19308],[136.95018,35.19299],[136.94986,35.19306],[136.94977,35.19257],[136.94964,35.19216],[136.94956,35.19189],[136.94953,35.1918],[136.94947,35.19163],[136.94941,35.19138],[136.94934,35.19115],[136.94927,35.19093],[136.9492,35.19073],[136.94913,35.19052],[136.94897,35.18996],[136.94744,35.19028],[136.94761,35.19084],[136.94767,35.19105],[136.94773,35.19126],[136.9478,35.19148],[136.94786,35.19171],[136.94793,35.19193],[136.94799,35.19211],[136.9481,35.19247],[136.94817,35.19276],[136.94822,35.19287],[136.9483,35.19316],[136.94838,35.19341],[136.94879,35.19331],[136.9491,35.19324],[136.94919,35.19348],[136.94908,35.19397],[136.94922,35.19403],[136.9492,35.19407],[136.94926,35.1941],[136.94927,35.19428]]]}},{"type":"Feature","properties":{"name":"大幸三丁目","setai":423,"jinko":811,"key":"23102034093","units":1},"geometry":{"type":"Polygon","coordinates":[[[136.95407,35.19333],[136.95501,35.19297],[136.95599,35.19264],[136.95634,35.19254],[136.95613,35.19173],[136.95606,35.19151],[136.9548,35.19177],[136.95401,35.19198],[136.95307,35.19222],[136.95161,35.19261],[136.95168,35.19221],[136.9517,35.19216],[136.95178,35.19193],[136.9519,35.19167],[136.95199,35.19147],[136.952,35.19145],[136.95203,35.1914],[136.95203,35.19131],[136.95199,35.19116],[136.95191,35.19086],[136.95179,35.19041],[136.95178,35.19039],[136.95167,35.18998],[136.95152,35.18946],[136.95024,35.1897],[136.95016,35.18971],[136.94956,35.18983],[136.94896,35.18994],[136.94897,35.18996],[136.94913,35.19052],[136.9492,35.19073],[136.94927,35.19093],[136.94934,35.19115],[136.94941,35.19138],[136.94947,35.19163],[136.94953,35.1918],[136.94956,35.19189],[136.94964,35.19216],[136.94977,35.19257],[136.94986,35.19306],[136.95018,35.19299],[136.9505,35.19308],[136.95065,35.19302],[136.95076,35.19299],[136.95076,35.19299],[136.94955,35.19414],[136.94948,35.19422],[136.94955,35.19428],[136.95005,35.19465],[136.95047,35.19433],[136.95069,35.19416],[136.95096,35.19402],[136.95139,35.1939],[136.9519,35.19383],[136.95311,35.19361],[136.95349,35.19356],[136.95407,35.19333]]]}},{"type":"Feature","properties":{"name":"大幸四丁目","setai":904,"jinko":1522,"key":"23102034094","units":1},"geometry":{"type":"Polygon","coordinates":[[[136.95536,35.18921],[136.95519,35.18868],[136.95516,35.18869],[136.9539,35.18893],[136.95271,35.1892],[136.95152,35.18946],[136.95167,35.18998],[136.95178,35.19039],[136.95179,35.19041],[136.95191,35.19086],[136.95199,35.19116],[136.95203,35.19131],[136.95203,35.1914],[136.952,35.19145],[136.95199,35.19147],[136.9519,35.19167],[136.95178,35.19193],[136.9517,35.19216],[136.95168,35.19221],[136.95161,35.19261],[136.95307,35.19222],[136.95401,35.19198],[136.9548,35.19177],[136.95606,35.19151],[136.95596,35.19119],[136.95586,35.19084],[136.95575,35.19048],[136.95563,35.19008],[136.9555,35.18962],[136.95536,35.18921]]]}},{"type":"Feature","properties":{"name":"大幸南一丁目","setai":329,"jinko":451,"key":"23102038091","units":1},"geometry":{"type":"Polygon","coordinates":[[[136.95515,35.18863],[136.95505,35.18829],[136.95491,35.18784],[136.95484,35.18758],[136.95475,35.18735],[136.95466,35.18706],[136.95463,35.18695],[136.95437,35.187],[136.95384,35.18711],[136.95358,35.18717],[136.95339,35.1872],[136.95314,35.18726],[136.95304,35.18728],[136.95285,35.18732],[136.95285,35.18733],[136.95118,35.18766],[136.951,35.18712],[136.95075,35.18633],[136.95105,35.18629],[136.95087,35.18568],[136.95071,35.18517],[136.9506,35.18482],[136.95033,35.18488],[136.95015,35.18486],[136.94958,35.18481],[136.94943,35.1848],[136.94903,35.18474],[136.94892,35.18475],[136.94868,35.1848],[136.94849,35.1848],[136.94825,35.18482],[136.948,35.18482],[136.94726,35.1848],[136.94694,35.18478],[136.94649,35.18477],[136.94575,35.18475],[136.94522,35.18473],[136.94518,35.18477],[136.94523,35.18492],[136.94534,35.18524],[136.94545,35.18562],[136.94556,35.18597],[136.94638,35.18862],[136.94634,35.18861],[136.94626,35.18897],[136.94636,35.18931],[136.94656,35.18998],[136.94669,35.19043],[136.94744,35.19028],[136.94897,35.18996],[136.94896,35.18994],[136.94956,35.18983],[136.95016,35.18971],[136.95024,35.1897],[136.95152,35.18946],[136.95271,35.1892],[136.9539,35.18893],[136.95516,35.18869],[136.95515,35.18863]]]}},{"type":"Feature","properties":{"name":"大幸南二丁目","setai":318,"jinko":673,"key":"23102038092","units":1},"geometry":{"type":"Polygon","coordinates":[[[136.95439,35.18618],[136.95423,35.1856],[136.9538,35.18569],[136.95359,35.18574],[136.95343,35.18577],[136.95303,35.18587],[136.95248,35.18597],[136.95238,35.186],[136.95173,35.18614],[136.95105,35.18629],[136.95075,35.18633],[136.951,35.18712],[136.95118,35.18766],[136.95285,35.18733],[136.95285,35.18732],[136.95304,35.18728],[136.95314,35.18726],[136.95339,35.1872],[136.95358,35.18717],[136.95384,35.18711],[136.95437,35.187],[136.95463,35.18695],[136.95462,35.18691],[136.9546,35.18685],[136.95459,35.18682],[136.95448,35.1864],[136.95445,35.1864],[136.95439,35.18618]]]}},{"type":"Feature","properties":{"name":"主税町二丁目","setai":155,"jinko":335,"key":"23102040002","units":1},"geometry":{"type":"Polygon","coordinates":[[[136.91377,35.18093],[136.91383,35.18036],[136.91339,35.18034],[136.91321,35.18032],[136.91219,35.18026],[136.91163,35.18023],[136.91162,35.18041],[136.91141,35.1804],[136.9114,35.18052],[136.91101,35.18051],[136.91098,35.18075],[136.91119,35.18076],[136.91117,35.18103],[136.9115,35.18106],[136.91149,35.18122],[136.91206,35.18125],[136.91205,35.18133],[136.91238,35.18136],[136.91237,35.18142],[136.91311,35.18146],[136.91371,35.1815],[136.91377,35.18093]]]}},{"type":"Feature","properties":{"name":"主税町三丁目","setai":47,"jinko":113,"key":"23102040003","units":1},"geometry":{"type":"Polygon","coordinates":[[[136.9153,35.18045],[136.91383,35.18036],[136.91377,35.18093],[136.91371,35.1815],[136.91655,35.18169],[136.91662,35.18112],[136.91667,35.18054],[136.91614,35.18051],[136.9156,35.18047],[136.9153,35.18045]]]}},{"type":"Feature","properties":{"name":"主税町四丁目","setai":249,"jinko":576,"key":"23102040004","units":1},"geometry":{"type":"Polygon","coordinates":[[[136.92093,35.18212],[136.92095,35.1819],[136.92144,35.18192],[136.9214,35.18176],[136.92176,35.18171],[136.92181,35.18169],[136.92181,35.18143],[136.9215,35.18143],[136.92144,35.18142],[136.92145,35.18122],[136.92133,35.18121],[136.92134,35.18098],[136.92141,35.18097],[136.92141,35.18085],[136.92103,35.18083],[136.92029,35.18079],[136.92029,35.18078],[136.91984,35.18076],[136.91959,35.18074],[136.91955,35.18074],[136.91954,35.18075],[136.91921,35.18073],[136.91908,35.18072],[136.91904,35.18072],[136.91905,35.18052],[136.91894,35.18051],[136.91892,35.18071],[136.91845,35.18069],[136.91844,35.18063],[136.91807,35.18062],[136.91806,35.18072],[136.91771,35.1807],[136.9177,35.18063],[136.91738,35.1806],[136.91736,35.18071],[136.9172,35.1807],[136.9172,35.18058],[136.91705,35.18057],[136.91705,35.18044],[136.91668,35.18041],[136.91667,35.18054],[136.91662,35.18112],[136.91655,35.18169],[136.91706,35.18172],[136.91707,35.18156],[136.91731,35.18156],[136.91731,35.18156],[136.91771,35.18157],[136.91774,35.18157],[136.91772,35.18179],[136.91802,35.18179],[136.91803,35.18179],[136.91803,35.18176],[136.91874,35.18181],[136.91875,35.18181],[136.91918,35.18184],[136.91975,35.18188],[136.91979,35.18188],[136.92021,35.18191],[136.92022,35.18187],[136.92066,35.18189],[136.92065,35.18197],[136.92069,35.18197],[136.92068,35.18209],[136.92075,35.18212],[136.92093,35.18212]]]}},{"type":"Feature","properties":{"name":"筒井町","setai":127,"jinko":218,"key":"231020410","units":1},"geometry":{"type":"Polygon","coordinates":[[[136.93158,35.1776],[136.93148,35.17717],[136.93165,35.17714],[136.93162,35.17705],[136.93184,35.17701],[136.93184,35.17698],[136.9317,35.17664],[136.93163,35.1764],[136.93128,35.17645],[136.93077,35.17654],[136.93046,35.1766],[136.92938,35.17678],[136.92946,35.17692],[136.9297,35.17686],[136.9298,35.17704],[136.9299,35.17701],[136.92992,35.17706],[136.93007,35.17733],[136.93013,35.17732],[136.9304,35.17726],[136.93058,35.17782],[136.93069,35.17801],[136.93074,35.17817],[136.93098,35.17812],[136.93097,35.1781],[136.93168,35.17795],[136.93158,35.1776]]]}},{"type":"Feature","properties":{"name":"筒井一丁目","setai":474,"jinko":1019,"key":"23102042091","units":1},"geometry":{"type":"Polygon","coordinates":[[[136.92968,35.17741],[136.92946,35.17692],[136.92938,35.17678],[136.92799,35.17699],[136.92646,35.17723],[136.92572,35.17735],[136.9257,35.17734],[136.92556,35.17736],[136.92529,35.1774],[136.92511,35.17743],[136.92493,35.17746],[136.92491,35.17755],[136.92496,35.17782],[136.92497,35.17785],[136.925,35.17802],[136.92501,35.17807],[136.92506,35.17813],[136.92507,35.17815],[136.92522,35.1785],[136.92526,35.17859],[136.92539,35.17888],[136.92541,35.17892],[136.92555,35.17922],[136.92604,35.18028],[136.92655,35.18142],[136.92659,35.18141],[136.92802,35.18112],[136.92858,35.18101],[136.9288,35.18097],[136.93035,35.18067],[136.93046,35.18065],[136.93068,35.18061],[136.93111,35.18054],[136.93099,35.18026],[136.93072,35.17968],[136.93063,35.17951],[136.93043,35.17907],[136.93021,35.1786],[136.93014,35.17845],[136.92991,35.17795],[136.92974,35.17757],[136.92968,35.17741]]]}},{"type":"Feature","properties":{"name":"筒井二丁目","setai":811,"jinko":1432,"key":"23102042092","units":1},"geometry":{"type":"Polygon","coordinates":[[[136.92556,35.17736],[136.9257,35.17734],[136.92572,35.17735],[136.92646,35.17723],[136.92799,35.17699],[136.92938,35.17678],[136.92931,35.17661],[136.92922,35.17643],[136.92923,35.17636],[136.9291,35.17614],[136.92888,35.17566],[136.92886,35.17564],[136.92864,35.17519],[136.92864,35.17517],[136.92862,35.17512],[136.92857,35.17501],[136.92839,35.17465],[136.92816,35.17419],[136.92813,35.17412],[136.92793,35.1737],[136.92774,35.17373],[136.92773,35.17372],[136.92741,35.17376],[136.92716,35.17381],[136.9264,35.17391],[136.92589,35.17398],[136.92582,35.17399],[136.92537,35.17406],[136.92527,35.17407],[136.92513,35.17409],[136.92489,35.17413],[136.92483,35.17414],[136.92483,35.17421],[136.92486,35.17517],[136.92491,35.17562],[136.92493,35.17581],[136.92499,35.1763],[136.92507,35.17711],[136.92508,35.17726],[136.92511,35.17743],[136.92529,35.1774],[136.92556,35.17736]]]}},{"type":"Feature","properties":{"name":"筒井三丁目","setai":1500,"jinko":2494,"key":"23102042093","units":1},"geometry":{"type":"Polygon","coordinates":[[[136.93349,35.17369],[136.9327,35.17285],[136.93249,35.17291],[136.93207,35.17308],[136.93186,35.1731],[136.9309,35.17325],[136.93066,35.17328],[136.9298,35.17342],[136.92942,35.17347],[136.92944,35.17351],[136.92914,35.17352],[136.9285,35.17362],[136.92827,35.17364],[136.92825,35.17365],[136.92819,35.17365],[136.92799,35.17368],[136.92793,35.1737],[136.92813,35.17412],[136.92816,35.17419],[136.92839,35.17465],[136.92857,35.17501],[136.92862,35.17512],[136.92864,35.17517],[136.92864,35.17519],[136.92886,35.17564],[136.92888,35.17566],[136.9291,35.17614],[136.92923,35.17636],[136.92922,35.17643],[136.92931,35.17661],[136.92938,35.17678],[136.93046,35.1766],[136.93077,35.17654],[136.93128,35.17645],[136.93163,35.1764],[136.93233,35.17628],[136.93272,35.1762],[136.93311,35.17614],[136.93345,35.17608],[136.93353,35.176],[136.93422,35.17572],[136.93454,35.17559],[136.93512,35.17536],[136.93433,35.17456],[136.93427,35.1745],[136.9335,35.17369],[136.93349,35.17369]]]}},{"type":"Feature","properties":{"name":"出来町一丁目","setai":460,"jinko":818,"key":"23102045091","units":1},"geometry":{"type":"Polygon","coordinates":[[[136.93563,35.18007],[136.93557,35.17985],[136.93536,35.17989],[136.93419,35.18007],[136.93333,35.1802],[136.93333,35.1802],[136.93348,35.18074],[136.9335,35.18081],[136.93361,35.18122],[136.93372,35.18158],[136.93377,35.18179],[136.9339,35.18224],[136.93398,35.18249],[136.93397,35.1825],[136.93411,35.18287],[136.93447,35.18283],[136.93456,35.18281],[136.93452,35.18264],[136.93602,35.18247],[136.93597,35.18201],[136.9359,35.18159],[136.93585,35.18128],[136.93583,35.18113],[136.93576,35.18074],[136.93569,35.18039],[136.93563,35.18007]]]}},{"type":"Feature","properties":{"name":"出来町二丁目","setai":278,"jinko":564,"key":"23102045092","units":1},"geometry":{"type":"Polygon","coordinates":[[[136.93679,35.18563],[136.93679,35.18558],[136.93692,35.18558],[136.93693,35.1848],[136.93693,35.18338],[136.93693,35.18293],[136.93693,35.18267],[136.93692,35.18192],[136.93698,35.18192],[136.93696,35.18146],[136.93696,35.18094],[136.93667,35.181],[136.93583,35.18113],[136.93585,35.18128],[136.9359,35.18159],[136.93597,35.18201],[136.93602,35.18247],[136.93605,35.1827],[136.93605,35.18272],[136.93609,35.18298],[136.93611,35.18314],[136.93613,35.18343],[136.93616,35.18371],[136.93623,35.18429],[136.93626,35.18464],[136.93629,35.18484],[136.93632,35.18525],[136.93635,35.18551],[136.93637,35.18564],[136.93679,35.18563]]]}},{"type":"Feature","properties":{"name":"出来町三丁目","setai":425,"jinko":911,"key":"23102045093","units":1},"geometry":{"type":"Polygon","coordinates":[[[136.9369,35.18609],[136.93723,35.18601],[136.93724,35.18606],[136.93735,35.18603],[136.93736,35.18539],[136.93788,35.18541],[136.93812,35.18542],[136.93823,35.18539],[136.93838,35.18532],[136.93843,35.18518],[136.93888,35.18523],[136.93885,35.18516],[136.93889,35.18515],[136.93957,35.18497],[136.93944,35.18461],[136.94043,35.18435],[136.94045,35.18435],[136.94042,35.18393],[136.94039,35.18358],[136.94039,35.18351],[136.94035,35.18296],[136.94033,35.18264],[136.94032,35.18257],[136.93957,35.18261],[136.93955,35.18243],[136.9395,35.18211],[136.93945,35.18168],[136.93862,35.18176],[136.93857,35.18127],[136.9385,35.18075],[136.93733,35.1809],[136.93726,35.18091],[136.93696,35.18094],[136.93696,35.18146],[136.93698,35.18192],[136.93692,35.18192],[136.93693,35.18267],[136.93693,35.18293],[136.93693,35.18338],[136.93693,35.1848],[136.93692,35.18558],[136.93692,35.18571],[136.93692,35.18574],[136.93692,35.18588],[136.9369,35.18609]]]}},{"type":"Feature","properties":{"name":"徳川町","setai":1040,"jinko":2363,"key":"231020480","units":1},"geometry":{"type":"Polygon","coordinates":[[[136.93192,35.18627],[136.93346,35.18609],[136.93348,35.1861],[136.93412,35.18602],[136.93471,35.18595],[136.93472,35.18595],[136.93503,35.18591],[136.93637,35.18576],[136.93639,35.18576],[136.93637,35.18564],[136.93635,35.18551],[136.93632,35.18525],[136.93629,35.18484],[136.93626,35.18464],[136.93623,35.18429],[136.93541,35.18433],[136.93467,35.18438],[136.9346,35.18383],[136.93453,35.18331],[136.93447,35.18283],[136.93411,35.18287],[136.93397,35.1825],[136.9336,35.18255],[136.93357,35.18254],[136.9336,35.18274],[136.93218,35.18295],[136.93192,35.18298],[136.9319,35.18299],[136.9317,35.18302],[136.93032,35.1832],[136.93031,35.18321],[136.92951,35.18332],[136.92945,35.18333],[136.92903,35.1834],[136.92898,35.18321],[136.9289,35.18279],[136.92819,35.18287],[136.928,35.18289],[136.92726,35.18296],[136.9271,35.18298],[136.92739,35.18346],[136.92744,35.18353],[136.92748,35.18359],[136.92761,35.18379],[136.92762,35.18383],[136.92786,35.1842],[136.92793,35.18431],[136.92801,35.18445],[136.92823,35.18479],[136.92848,35.1852],[136.92893,35.18565],[136.92898,35.1857],[136.92926,35.18596],[136.92933,35.18603],[136.92982,35.18651],[136.92984,35.18652],[136.93082,35.1864],[136.93082,35.18639],[136.9319,35.18628],[136.93192,35.18627]]]}},{"type":"Feature","properties":{"name":"徳川一丁目","setai":1234,"jinko":2542,"key":"23102049091","units":1},"geometry":{"type":"Polygon","coordinates":[[[136.92444,35.18292],[136.9246,35.18289],[136.92463,35.183],[136.92466,35.18308],[136.9247,35.18312],[136.92552,35.183],[136.92631,35.18287],[136.92688,35.18279],[136.92692,35.18301],[136.9271,35.18298],[136.92726,35.18296],[136.928,35.18289],[136.92819,35.18287],[136.9289,35.18279],[136.92927,35.18275],[136.92907,35.18198],[136.92889,35.18134],[136.92889,35.18132],[136.9288,35.18097],[136.92858,35.18101],[136.92802,35.18112],[136.92659,35.18141],[136.92655,35.18142],[136.92604,35.18028],[136.92555,35.17922],[136.92541,35.17892],[136.92539,35.17888],[136.9248,35.17908],[136.92436,35.17923],[136.9243,35.17923],[136.92388,35.17926],[136.92368,35.17926],[136.92341,35.17927],[136.92275,35.17927],[136.92177,35.17932],[136.922,35.17985],[136.92213,35.18015],[136.92215,35.18019],[136.92232,35.18056],[136.92247,35.18088],[136.92273,35.18143],[136.92291,35.18184],[136.92316,35.18236],[136.92315,35.18237],[136.92318,35.18238],[136.9234,35.18285],[136.92361,35.18334],[136.92374,35.18359],[136.92418,35.18349],[136.92409,35.18322],[136.92436,35.18316],[136.9243,35.18297],[136.92445,35.18294],[136.92444,35.18292]]]}},{"type":"Feature","properties":{"name":"徳川二丁目","setai":668,"jinko":1349,"key":"23102049092","units":1},"geometry":{"type":"Polygon","coordinates":[[[136.92906,35.18868],[136.9293,35.18857],[136.9298,35.18857],[136.93018,35.18857],[136.93018,35.18853],[136.93018,35.18851],[136.93018,35.18849],[136.93018,35.18848],[136.93018,35.18846],[136.93018,35.18845],[136.93018,35.18844],[136.93018,35.18842],[136.93018,35.18839],[136.93017,35.18816],[136.93016,35.18782],[136.93014,35.18731],[136.93014,35.18729],[136.93009,35.18707],[136.93004,35.18692],[136.92999,35.18672],[136.92984,35.18652],[136.92982,35.18651],[136.92933,35.18603],[136.92926,35.18596],[136.92898,35.1857],[136.92893,35.18565],[136.92848,35.1852],[136.92823,35.18479],[136.92732,35.18521],[136.92679,35.18546],[136.92653,35.18518],[136.92627,35.18491],[136.92599,35.18461],[136.92557,35.1842],[136.92523,35.18384],[136.92488,35.18346],[136.92468,35.18361],[136.92471,35.18365],[136.92447,35.18375],[136.92431,35.18346],[136.92418,35.18349],[136.92374,35.18359],[136.9237,35.18359],[136.92439,35.1843],[136.92449,35.18435],[136.92472,35.18459],[136.92522,35.18509],[136.92574,35.18563],[136.92585,35.18575],[136.92627,35.18619],[136.92634,35.1863],[136.92699,35.18696],[136.92752,35.18751],[136.92755,35.1875],[136.9279,35.18786],[136.92824,35.1882],[136.92848,35.18845],[136.92879,35.18877],[136.92882,35.18876],[136.92906,35.18868]]]}},{"type":"Feature","properties":{"name":"豊前町一丁目","setai":65,"jinko":152,"key":"23102051001","units":1},"geometry":{"type":"Polygon","coordinates":[[[136.93675,35.17813],[136.93662,35.17769],[136.93582,35.17781],[136.93586,35.17797],[136.9352,35.17813],[136.93525,35.17838],[136.93534,35.17879],[136.93535,35.17883],[136.93604,35.17872],[136.93674,35.17863],[136.93674,35.17861],[136.93688,35.17858],[136.93685,35.17852],[136.93675,35.17813]]]}},{"type":"Feature","properties":{"name":"豊前町二丁目","setai":304,"jinko":616,"key":"23102051002","units":1},"geometry":{"type":"Polygon","coordinates":[[[136.93586,35.17797],[136.93582,35.17781],[136.93662,35.17769],[136.9365,35.17742],[136.93644,35.1773],[136.93641,35.17723],[136.93628,35.17694],[136.93624,35.17689],[136.93621,35.17685],[136.93569,35.17613],[136.93501,35.1764],[136.93465,35.17655],[136.93384,35.17685],[136.93374,35.17725],[136.93366,35.17771],[136.93417,35.17763],[136.93422,35.17791],[136.9344,35.17789],[136.93437,35.17779],[136.93442,35.17778],[136.93449,35.17804],[136.93516,35.17793],[136.9352,35.17813],[136.93586,35.17797]]]}},{"type":"Feature","properties":{"name":"豊前町三丁目","setai":341,"jinko":635,"key":"23102051003","units":1},"geometry":{"type":"Polygon","coordinates":[[[136.93384,35.17685],[136.93465,35.17655],[136.93501,35.1764],[136.93569,35.17613],[136.93537,35.1757],[136.93512,35.17536],[136.93454,35.17559],[136.93422,35.17572],[136.93353,35.176],[136.93345,35.17608],[136.93311,35.17614],[136.93272,35.1762],[136.93233,35.17628],[136.93246,35.17683],[136.93278,35.17675],[136.93316,35.17666],[136.93327,35.17664],[136.93358,35.17656],[136.9336,35.17655],[136.93384,35.17685]]]}},{"type":"Feature","properties":{"name":"西新町","setai":0,"jinko":0,"key":"231020520","units":1},"geometry":{"type":"Polygon","coordinates":[[[136.91304,35.17016],[136.91296,35.16989],[136.91243,35.16984],[136.91238,35.17012],[136.91304,35.17016]]]}},{"type":"Feature","properties":{"name":"東大曽根町","setai":1757,"jinko":3064,"key":"231020530","units":1},"geometry":{"type":"Polygon","coordinates":[[[136.93704,35.19018],[136.93704,35.18894],[136.93702,35.1878],[136.93696,35.18779],[136.93695,35.18798],[136.93691,35.18798],[136.93691,35.18736],[136.9369,35.18609],[136.93692,35.18588],[136.93692,35.18574],[136.93692,35.18571],[136.93692,35.18558],[136.93679,35.18558],[136.93679,35.18563],[136.93637,35.18564],[136.93639,35.18576],[136.93637,35.18576],[136.93503,35.18591],[136.93472,35.18595],[136.93471,35.18595],[136.93412,35.18602],[136.93348,35.1861],[136.93346,35.18609],[136.93192,35.18627],[136.9319,35.18628],[136.93082,35.18639],[136.93082,35.1864],[136.92984,35.18652],[136.92999,35.18672],[136.93004,35.18692],[136.93009,35.18707],[136.93014,35.18729],[136.93014,35.18731],[136.93016,35.18782],[136.93017,35.18816],[136.93018,35.18839],[136.93028,35.18839],[136.93028,35.18844],[136.93192,35.18843],[136.93191,35.18879],[136.93192,35.18928],[136.93192,35.18941],[136.93256,35.18975],[136.93263,35.18979],[136.93278,35.18987],[136.93288,35.18989],[136.93293,35.1899],[136.93306,35.18992],[136.93354,35.18992],[136.93461,35.18985],[136.93524,35.1898],[136.93547,35.18977],[136.93556,35.18977],[136.93559,35.18977],[136.93604,35.18973],[136.9362,35.18993],[136.93622,35.18995],[136.9364,35.1902],[136.93651,35.1906],[136.93653,35.19066],[136.93654,35.19087],[136.93687,35.19088],[136.937,35.19088],[136.93704,35.19088],[136.93704,35.19018]]]}},{"type":"Feature","properties":{"name":"東片端町","setai":222,"jinko":328,"key":"231020580","units":1},"geometry":{"type":"Polygon","coordinates":[[[136.91449,35.17942],[136.91451,35.17908],[136.91543,35.17912],[136.91577,35.17914],[136.91612,35.17916],[136.91614,35.17873],[136.91602,35.17873],[136.9158,35.17872],[136.91546,35.1787],[136.9149,35.17868],[136.91397,35.17862],[136.91262,35.17854],[136.91205,35.17849],[136.91121,35.17843],[136.91047,35.17838],[136.91044,35.17849],[136.91041,35.1788],[136.91064,35.17882],[136.91083,35.17884],[136.91085,35.17869],[136.91103,35.1787],[136.91105,35.17855],[136.9112,35.17855],[136.91115,35.17905],[136.91158,35.17907],[136.91259,35.17914],[136.91391,35.17923],[136.9139,35.17939],[136.91449,35.17942]]]}},{"type":"Feature","properties":{"name":"東桜一丁目","setai":612,"jinko":801,"key":"23102059091","units":1},"geometry":{"type":"Polygon","coordinates":[[[136.90965,35.16994],[136.90919,35.16992],[136.90918,35.17006],[136.90909,35.17089],[136.90908,35.17106],[136.90899,35.17186],[136.90889,35.17278],[136.90889,35.17279],[136.90879,35.1738],[136.90872,35.17398],[136.90935,35.17402],[136.91011,35.17407],[136.91044,35.17409],[136.9116,35.17416],[136.91214,35.17419],[136.91235,35.17421],[136.91244,35.17422],[136.91299,35.17426],[136.91426,35.17433],[136.91425,35.17417],[136.91429,35.17363],[136.91433,35.17294],[136.91434,35.17285],[136.91438,35.17219],[136.91441,35.1718],[136.9145,35.17041],[136.9145,35.17027],[136.91307,35.17016],[136.91304,35.17016],[136.91238,35.17012],[136.91054,35.17001],[136.90992,35.16995],[136.90965,35.16994]]]}},{"type":"Feature","properties":{"name":"東桜二丁目","setai":1753,"jinko":2657,"key":"23102059092","units":1},"geometry":{"type":"Polygon","coordinates":[[[136.91733,35.17436],[136.91734,35.1742],[136.91784,35.1742],[136.91784,35.17419],[136.91821,35.1742],[136.91829,35.1742],[136.91857,35.1742],[136.91916,35.1742],[136.91947,35.17421],[136.91942,35.1733],[136.91942,35.17311],[136.9194,35.17251],[136.91939,35.17206],[136.91934,35.17073],[136.91932,35.17023],[136.91927,35.17024],[136.91917,35.17027],[136.91916,35.17061],[136.91887,35.17059],[136.91887,35.17053],[136.91888,35.17023],[136.91867,35.17021],[136.91867,35.1702],[136.91868,35.1701],[136.91866,35.1701],[136.91858,35.1701],[136.91845,35.17011],[136.91839,35.17012],[136.91824,35.16995],[136.91811,35.17003],[136.91819,35.17012],[136.91827,35.17021],[136.9182,35.17024],[136.91814,35.17028],[136.91802,35.17032],[136.91776,35.17033],[136.91775,35.1703],[136.91767,35.17012],[136.91759,35.16995],[136.91739,35.17001],[136.91739,35.17002],[136.91703,35.17002],[136.91703,35.17021],[136.91701,35.17021],[136.91653,35.17021],[136.91653,35.17015],[136.91654,35.17003],[136.91655,35.16993],[136.9165,35.16993],[136.91636,35.16991],[136.91635,35.16996],[136.91612,35.16994],[136.91612,35.16996],[136.91611,35.16996],[136.91606,35.16997],[136.91574,35.17003],[136.91566,35.16982],[136.91565,35.16982],[136.91554,35.16984],[136.91548,35.16985],[136.91548,35.16985],[136.91544,35.17013],[136.91543,35.1702],[136.91538,35.17019],[136.91523,35.17018],[136.91521,35.17014],[136.91521,35.17013],[136.91511,35.17012],[136.91513,35.16989],[136.91476,35.16987],[136.91453,35.16983],[136.9145,35.17027],[136.9145,35.17041],[136.91441,35.1718],[136.91438,35.17219],[136.91434,35.17285],[136.91433,35.17294],[136.91429,35.17363],[136.91425,35.17417],[136.91426,35.17433],[136.91444,35.17433],[136.91516,35.17435],[136.91632,35.17436],[136.91666,35.17436],[136.91719,35.17436],[136.91733,35.17436]]]}},{"type":"Feature","properties":{"name":"東新町","setai":0,"jinko":0,"key":"231020610","units":1},"geometry":{"type":"Polygon","coordinates":[[[136.91453,35.16983],[136.91453,35.16971],[136.91387,35.16968],[136.91386,35.16976],[136.91299,35.16971],[136.91296,35.16989],[136.91296,35.16989],[136.91304,35.17016],[136.91307,35.17016],[136.9145,35.17027],[136.91453,35.16983]]]}},{"type":"Feature","properties":{"name":"東外堀町","setai":117,"jinko":196,"key":"231020620","units":1},"geometry":{"type":"Polygon","coordinates":[[[136.9093,35.18109],[136.90954,35.18068],[136.91025,35.18071],[136.91024,35.1807],[136.91023,35.18064],[136.9103,35.18009],[136.91059,35.18011],[136.91061,35.1801],[136.91062,35.1799],[136.91046,35.17989],[136.91049,35.17955],[136.91048,35.17953],[136.91055,35.17952],[136.9106,35.1792],[136.91062,35.17905],[136.91064,35.17882],[136.91041,35.1788],[136.91044,35.17849],[136.91047,35.17838],[136.91045,35.17838],[136.90977,35.17833],[136.90951,35.17831],[136.9095,35.17847],[136.90933,35.17996],[136.90911,35.17994],[136.90884,35.1821],[136.90919,35.18214],[136.9092,35.18214],[136.90925,35.18171],[136.9093,35.18109]]]}},{"type":"Feature","properties":{"name":"久屋町","setai":1,"jinko":3,"key":"231020630","units":1},"geometry":{"type":"Polygon","coordinates":[[[136.90965,35.16994],[136.90967,35.16968],[136.90922,35.16965],[136.90919,35.16992],[136.90965,35.16994]]]}},{"type":"Feature","properties":{"name":"百人町","setai":380,"jinko":704,"key":"231020640","units":1},"geometry":{"type":"Polygon","coordinates":[[[136.93535,35.17883],[136.93534,35.17879],[136.93461,35.17889],[136.93443,35.17891],[136.93386,35.17897],[136.93373,35.17899],[136.93305,35.17909],[136.9327,35.17914],[136.93238,35.17918],[136.93197,35.17923],[136.93099,35.17935],[136.93101,35.17945],[136.93063,35.17951],[136.93072,35.17968],[136.93099,35.18026],[136.93111,35.18054],[136.93114,35.18053],[136.93186,35.18042],[136.93304,35.18024],[136.93333,35.1802],[136.93333,35.1802],[136.93419,35.18007],[136.93536,35.17989],[136.93557,35.17985],[136.93555,35.1797],[136.93553,35.17961],[136.93549,35.17947],[136.93542,35.17922],[136.93535,35.17883]]]}},{"type":"Feature","properties":{"name":"武平町","setai":0,"jinko":0,"key":"231020650","units":1},"geometry":{"type":"Polygon","coordinates":[[[136.91054,35.17001],[136.91057,35.16966],[136.90996,35.16962],[136.90992,35.16995],[136.91054,35.17001]]]}},{"type":"Feature","properties":{"name":"前浪町","setai":428,"jinko":806,"key":"231020660","units":1},"geometry":{"type":"Polygon","coordinates":[[[136.95393,35.18449],[136.95384,35.18416],[136.95328,35.18427],[136.95297,35.18433],[136.95266,35.1844],[136.95202,35.18452],[136.95142,35.18464],[136.95127,35.18467],[136.9506,35.18482],[136.95071,35.18517],[136.95087,35.18568],[136.95105,35.18629],[136.95173,35.18614],[136.95238,35.186],[136.95248,35.18597],[136.95303,35.18587],[136.95343,35.18577],[136.95359,35.18574],[136.9538,35.18569],[136.95423,35.1856],[136.95422,35.18557],[136.95409,35.18511],[136.954,35.18482],[136.95393,35.18449]]]}},{"type":"Feature","properties":{"name":"明倫町","setai":233,"jinko":610,"key":"231020670","units":1},"geometry":{"type":"Polygon","coordinates":[[[136.93605,35.1827],[136.93602,35.18247],[136.93452,35.18264],[136.93456,35.18281],[136.93447,35.18283],[136.93453,35.18331],[136.9346,35.18383],[136.93467,35.18438],[136.93541,35.18433],[136.93623,35.18429],[136.93616,35.18371],[136.93613,35.18343],[136.93611,35.18314],[136.93609,35.18298],[136.93605,35.18272],[136.93605,35.1827]]]}},{"type":"Feature","properties":{"name":"矢田町","setai":0,"jinko":0,"key":"231020680","units":1},"geometry":{"type":"Polygon","coordinates":[[[136.94401,35.19924],[136.94409,35.19915],[136.94444,35.19887],[136.94462,35.19874],[136.94493,35.19856],[136.94535,35.1983],[136.9456,35.19816],[136.9466,35.19756],[136.94709,35.19718],[136.94773,35.19654],[136.94811,35.19618],[136.94823,35.19607],[136.94904,35.19545],[136.94955,35.19507],[136.95005,35.19465],[136.94955,35.19428],[136.94948,35.19422],[136.94943,35.19419],[136.94927,35.19428],[136.94876,35.19455],[136.94768,35.19528],[136.94655,35.19611],[136.94679,35.19632],[136.94672,35.19646],[136.94649,35.19686],[136.94632,35.19706],[136.94613,35.19722],[136.946,35.1973],[136.94577,35.19739],[136.94577,35.19739],[136.94577,35.19739],[136.94466,35.1978],[136.9444,35.1979],[136.94349,35.19899],[136.94394,35.1993],[136.94401,35.19924]]]}},{"type":"Feature","properties":{"name":"矢田東","setai":264,"jinko":488,"key":"231020690","units":1},"geometry":{"type":"Polygon","coordinates":[[[136.9464,35.19109],[136.94625,35.19053],[136.9459,35.1906],[136.94573,35.19063],[136.94534,35.19073],[136.94494,35.19081],[136.94474,35.19084],[136.94365,35.19106],[136.94365,35.19106],[136.94382,35.19117],[136.94468,35.19163],[136.9448,35.1917],[136.94524,35.19194],[136.94528,35.19196],[136.94563,35.19214],[136.94617,35.19204],[136.94668,35.19194],[136.94653,35.19151],[136.9464,35.19109]]]}},{"type":"Feature","properties":{"name":"矢田南一丁目","setai":271,"jinko":673,"key":"23102070091","units":1},"geometry":{"type":"Polygon","coordinates":[[[136.93907,35.18563],[136.94014,35.18536],[136.94195,35.1855],[136.94193,35.18541],[136.94169,35.18462],[136.94157,35.18427],[136.94045,35.18435],[136.94043,35.18435],[136.93944,35.18461],[136.93957,35.18497],[136.93889,35.18515],[136.93885,35.18516],[136.93888,35.18523],[136.93843,35.18518],[136.93838,35.18532],[136.93823,35.18539],[136.93812,35.18542],[136.93788,35.18541],[136.93736,35.18539],[136.93735,35.18603],[136.93724,35.18606],[136.93725,35.18607],[136.93816,35.18585],[136.93907,35.18563]]]}},{"type":"Feature","properties":{"name":"矢田南二丁目","setai":305,"jinko":523,"key":"23102070092","units":1},"geometry":{"type":"Polygon","coordinates":[[[136.94499,35.18382],[136.94484,35.18326],[136.94444,35.18324],[136.94423,35.18324],[136.94404,35.18324],[136.94388,35.18321],[136.94337,35.1832],[136.94333,35.1832],[136.94292,35.18319],[136.94257,35.18318],[136.94252,35.18318],[136.94215,35.18317],[136.94212,35.18373],[136.9419,35.18371],[136.94191,35.18377],[136.94142,35.18376],[136.94146,35.18393],[136.94157,35.18427],[136.94169,35.18462],[136.94207,35.18463],[136.94244,35.18465],[136.9426,35.18466],[136.94327,35.18469],[136.94389,35.18472],[136.94417,35.18473],[136.94518,35.18477],[136.94522,35.18473],[136.94511,35.1843],[136.94499,35.18382]]]}},{"type":"Feature","properties":{"name":"矢田南三丁目","setai":249,"jinko":557,"key":"23102070093","units":1},"geometry":{"type":"Polygon","coordinates":[[[136.94207,35.18463],[136.94169,35.18462],[136.94193,35.18541],[136.94195,35.1855],[136.94209,35.18594],[136.94219,35.18627],[136.94231,35.18668],[136.94232,35.18668],[136.94313,35.18651],[136.94435,35.18623],[136.94556,35.18597],[136.94545,35.18562],[136.94534,35.18524],[136.94523,35.18492],[136.94518,35.18477],[136.94417,35.18473],[136.94389,35.18472],[136.94327,35.18469],[136.9426,35.18466],[136.94244,35.18465],[136.94207,35.18463]]]}},{"type":"Feature","properties":{"name":"矢田南四丁目","setai":81,"jinko":152,"key":"23102070094","units":1},"geometry":{"type":"Polygon","coordinates":[[[136.94626,35.18897],[136.94634,35.18861],[136.94638,35.18862],[136.94556,35.18597],[136.94435,35.18623],[136.94313,35.18651],[136.94232,35.18668],[136.94328,35.1899],[136.94339,35.19029],[136.94363,35.19102],[136.94365,35.19106],[136.94474,35.19084],[136.94494,35.19081],[136.94534,35.19073],[136.94573,35.19063],[136.9459,35.1906],[136.94625,35.19053],[136.94669,35.19043],[136.94656,35.18998],[136.94636,35.18931],[136.94626,35.18897]]]}},{"type":"Feature","properties":{"name":"矢田南五丁目","setai":4,"jinko":11,"key":"23102070095","units":1},"geometry":{"type":"Polygon","coordinates":[[[136.93732,35.19225],[136.93784,35.19214],[136.93784,35.19214],[136.93792,35.19212],[136.93798,35.19211],[136.93798,35.1921],[136.93822,35.19207],[136.93869,35.19199],[136.93869,35.19199],[136.93965,35.19179],[136.94009,35.1917],[136.94024,35.19168],[136.94079,35.19159],[136.94111,35.19154],[136.94134,35.19151],[136.94159,35.19145],[136.94204,35.19136],[136.94205,35.19136],[136.94248,35.19126],[136.94286,35.19118],[136.94326,35.1911],[136.94327,35.19109],[136.94363,35.19102],[136.94339,35.19029],[136.94328,35.1899],[136.94232,35.18668],[136.94231,35.18668],[136.94219,35.18627],[136.94209,35.18594],[136.94195,35.1855],[136.94014,35.18536],[136.93907,35.18563],[136.93816,35.18585],[136.93725,35.18607],[136.93724,35.18606],[136.93723,35.18601],[136.9369,35.18609],[136.93691,35.18736],[136.93691,35.18798],[136.93695,35.18798],[136.93696,35.18779],[136.93702,35.1878],[136.93704,35.18894],[136.93704,35.19018],[136.93704,35.19088],[136.937,35.19088],[136.93687,35.19088],[136.93654,35.19087],[136.93654,35.19092],[136.93656,35.19151],[136.93657,35.19164],[136.93659,35.1924],[136.93691,35.19233],[136.9371,35.1923],[136.93732,35.19225]]]}},{"type":"Feature","properties":{"name":"山口町","setai":353,"jinko":737,"key":"23102075090","units":2},"geometry":{"type":"MultiPolygon","coordinates":[[[[136.92744,35.18353],[136.92739,35.18346],[136.9271,35.18298],[136.92692,35.18301],[136.92637,35.18309],[136.92571,35.18319],[136.92478,35.18333],[136.92431,35.18346],[136.92447,35.18375],[136.92471,35.18365],[136.92468,35.18361],[136.92488,35.18346],[136.92523,35.18384],[136.92557,35.1842],[136.92599,35.18461],[136.92627,35.18491],[136.92653,35.18518],[136.92679,35.18546],[136.92732,35.18521],[136.92823,35.18479],[136.92801,35.18445],[136.92793,35.18431],[136.92786,35.1842],[136.92762,35.18383],[136.92761,35.18379],[136.92748,35.18359],[136.92744,35.18353]]],[[[136.92571,35.18319],[136.92637,35.18309],[136.92692,35.18301],[136.92688,35.18279],[136.92631,35.18287],[136.92552,35.183],[136.9247,35.18312],[136.92466,35.18308],[136.92463,35.183],[136.9246,35.18289],[136.92444,35.18292],[136.92445,35.18294],[136.9243,35.18297],[136.92436,35.18316],[136.92409,35.18322],[136.92418,35.18349],[136.92431,35.18346],[136.92478,35.18333],[136.92571,35.18319]]]]}},{"type":"Feature","properties":{"name":"芳野一丁目","setai":570,"jinko":1154,"key":"23102077091","units":1},"geometry":{"type":"Polygon","coordinates":[[[136.92422,35.18567],[136.92427,35.18502],[136.92343,35.18523],[136.92317,35.18482],[136.92318,35.18481],[136.92294,35.18429],[136.92273,35.18382],[136.92256,35.18384],[136.92232,35.18381],[136.92198,35.18379],[136.92087,35.18372],[136.91989,35.18366],[136.91924,35.18359],[136.91922,35.1836],[136.91938,35.18425],[136.91939,35.18425],[136.91941,35.18436],[136.91946,35.18475],[136.91949,35.18526],[136.91953,35.18583],[136.91956,35.186],[136.91977,35.18601],[136.92011,35.18602],[136.92082,35.18615],[136.92185,35.18616],[136.92231,35.18617],[136.92343,35.18618],[136.92421,35.1862],[136.92422,35.18567]]]}},{"type":"Feature","properties":{"name":"芳野二丁目","setai":281,"jinko":486,"key":"23102077092","units":1},"geometry":{"type":"Polygon","coordinates":[[[136.92274,35.18834],[136.92307,35.1882],[136.92307,35.18827],[136.92324,35.18817],[136.92336,35.18818],[136.92341,35.18815],[136.92344,35.18805],[136.92346,35.18803],[136.9242,35.18801],[136.92418,35.18779],[136.92416,35.18759],[136.92416,35.18748],[136.9242,35.18709],[136.92421,35.1862],[136.92343,35.18618],[136.92231,35.18617],[136.92185,35.18616],[136.92082,35.18615],[136.92011,35.18602],[136.91977,35.18601],[136.91956,35.186],[136.91953,35.186],[136.91956,35.18654],[136.91958,35.18698],[136.9196,35.18777],[136.91965,35.1878],[136.91995,35.18793],[136.92024,35.18799],[136.92026,35.18803],[136.92037,35.18806],[136.92037,35.18811],[136.92045,35.18811],[136.92045,35.18814],[136.92044,35.18819],[136.92044,35.18821],[136.92051,35.18821],[136.92051,35.18834],[136.92099,35.18839],[136.92166,35.18836],[136.92247,35.18835],[136.92274,35.18834]]]}},{"type":"Feature","properties":{"name":"芳野三丁目","setai":698,"jinko":1501,"key":"23102077093","units":1},"geometry":{"type":"Polygon","coordinates":[[[136.92824,35.1882],[136.9279,35.18786],[136.92755,35.1875],[136.92752,35.18751],[136.92699,35.18696],[136.92634,35.1863],[136.92627,35.18619],[136.92585,35.18575],[136.92574,35.18563],[136.92522,35.18509],[136.92472,35.18459],[136.92449,35.18435],[136.92439,35.1843],[136.92436,35.18449],[136.92427,35.18502],[136.92422,35.18567],[136.92421,35.1862],[136.9242,35.18709],[136.92416,35.18748],[136.92416,35.18759],[136.92418,35.18779],[136.9242,35.18801],[136.92423,35.18801],[136.92424,35.18794],[136.92428,35.18794],[136.9243,35.18807],[136.92446,35.18807],[136.92446,35.18806],[136.92446,35.18793],[136.92449,35.18793],[136.92502,35.18791],[136.92505,35.18791],[136.92515,35.1879],[136.9256,35.18787],[136.92562,35.18787],[136.92564,35.1878],[136.92631,35.18782],[136.92634,35.18782],[136.92634,35.18782],[136.92643,35.18782],[136.92643,35.18782],[136.92643,35.18782],[136.92643,35.18781],[136.92643,35.18781],[136.92643,35.1878],[136.92643,35.1878],[136.92643,35.18779],[136.92643,35.18778],[136.92643,35.18777],[136.92643,35.18777],[136.92643,35.18776],[136.92643,35.18776],[136.92643,35.18775],[136.92643,35.18775],[136.92643,35.18774],[136.92643,35.18773],[136.92643,35.18773],[136.92665,35.18771],[136.92666,35.18771],[136.92667,35.18779],[136.92668,35.18781],[136.92668,35.18783],[136.92669,35.18791],[136.92669,35.18793],[136.92689,35.18792],[136.92705,35.18791],[136.92707,35.18791],[136.92713,35.18793],[136.92711,35.18819],[136.92671,35.1882],[136.92672,35.18822],[136.92672,35.18845],[136.9274,35.18845],[136.92848,35.18845],[136.92824,35.1882]]]}},{"type":"Feature","properties":{"name":"丸の内","setai":0,"jinko":0,"key":"231020800","units":1},"geometry":{"type":"Polygon","coordinates":[[[136.90826,35.17839],[136.9083,35.17818],[136.90709,35.17821],[136.90709,35.17823],[136.90709,35.17834],[136.90826,35.17839]]]}},{"type":"Feature","properties":{"name":"矢田一丁目","setai":745,"jinko":1208,"key":"23102081091","units":1},"geometry":{"type":"Polygon","coordinates":[[[136.93998,35.19375],[136.93985,35.1931],[136.93981,35.19287],[136.93978,35.19256],[136.93967,35.19192],[136.93967,35.19192],[136.93965,35.19179],[136.93869,35.19199],[136.93869,35.19199],[136.93822,35.19207],[136.93798,35.1921],[136.93798,35.19211],[136.93792,35.19212],[136.93784,35.19214],[136.93784,35.19214],[136.93732,35.19225],[136.9371,35.1923],[136.93691,35.19233],[136.93659,35.1924],[136.9366,35.19249],[136.93653,35.19256],[136.93678,35.19307],[136.93689,35.19317],[136.93695,35.19321],[136.93712,35.19322],[136.93722,35.19321],[136.93722,35.19321],[136.93733,35.19349],[136.93737,35.19359],[136.9374,35.19366],[136.93751,35.19389],[136.93767,35.19421],[136.9379,35.1946],[136.93801,35.19476],[136.9384,35.19531],[136.93849,35.19542],[136.93855,35.1955],[136.93926,35.19619],[136.93957,35.19648],[136.93981,35.19668],[136.93993,35.19676],[136.9405,35.19713],[136.94056,35.19718],[136.94056,35.19718],[136.94072,35.197],[136.94072,35.197],[136.9407,35.19698],[136.94051,35.19684],[136.94044,35.19635],[136.94042,35.19626],[136.94039,35.19605],[136.94034,35.19575],[136.94022,35.19504],[136.94015,35.19466],[136.94012,35.19451],[136.9401,35.19438],[136.94008,35.1943],[136.94007,35.19429],[136.93998,35.19375]]]}},{"type":"Feature","properties":{"name":"矢田二丁目","setai":459,"jinko":927,"key":"23102081092","units":1},"geometry":{"type":"Polygon","coordinates":[[[136.94152,35.19281],[136.94114,35.19162],[136.94114,35.19162],[136.94111,35.19154],[136.94079,35.19159],[136.94024,35.19168],[136.94009,35.1917],[136.93965,35.19179],[136.93967,35.19192],[136.93967,35.19192],[136.93978,35.19256],[136.93981,35.19287],[136.93985,35.1931],[136.93998,35.19375],[136.94007,35.19429],[136.94008,35.1943],[136.9401,35.19438],[136.94012,35.19451],[136.94015,35.19466],[136.94022,35.19504],[136.94034,35.19575],[136.94039,35.19605],[136.94042,35.19626],[136.94044,35.19635],[136.94051,35.19684],[136.9407,35.19698],[136.94072,35.197],[136.94076,35.19694],[136.94103,35.1967],[136.94103,35.1967],[136.94139,35.19645],[136.94148,35.19638],[136.94154,35.19635],[136.94169,35.19628],[136.94213,35.19607],[136.9422,35.19604],[136.94217,35.19592],[136.94217,35.19592],[136.94208,35.19549],[136.94205,35.19533],[136.94199,35.19507],[136.94192,35.19468],[136.94192,35.19466],[136.94181,35.19416],[136.94173,35.19368],[136.94161,35.19311],[136.94152,35.19281]]]}},{"type":"Feature","properties":{"name":"矢田三丁目","setai":527,"jinko":1022,"key":"23102081093","units":1},"geometry":{"type":"Polygon","coordinates":[[[136.94577,35.19739],[136.94577,35.19739],[136.94577,35.19739],[136.946,35.1973],[136.94613,35.19722],[136.94632,35.19706],[136.94649,35.19686],[136.94672,35.19646],[136.94679,35.19632],[136.94655,35.19611],[136.94768,35.19528],[136.94876,35.19455],[136.94927,35.19428],[136.94926,35.1941],[136.9492,35.19407],[136.94922,35.19403],[136.94908,35.19397],[136.94885,35.19391],[136.94875,35.19396],[136.94844,35.19401],[136.94786,35.19415],[136.9473,35.19428],[136.94704,35.19435],[136.94688,35.19432],[136.94675,35.19422],[136.9467,35.19408],[136.94628,35.19421],[136.94628,35.19421],[136.94628,35.19421],[136.94606,35.19429],[136.94606,35.19429],[136.94606,35.19429],[136.9453,35.19464],[136.94505,35.19475],[136.94441,35.19504],[136.94405,35.19521],[136.94405,35.19521],[136.94353,35.19545],[136.9435,35.19545],[136.94314,35.19561],[136.94308,35.19564],[136.9422,35.19604],[136.9422,35.19604],[136.94213,35.19607],[136.94169,35.19628],[136.94154,35.19635],[136.94148,35.19638],[136.94139,35.19645],[136.94103,35.1967],[136.94103,35.1967],[136.94076,35.19694],[136.94072,35.197],[136.94072,35.197],[136.94056,35.19718],[136.94065,35.19717],[136.94071,35.19717],[136.94138,35.19758],[136.94163,35.19776],[136.94172,35.19782],[136.94194,35.19796],[136.9423,35.1982],[136.9424,35.19827],[136.94264,35.19842],[136.94269,35.19846],[136.94269,35.19846],[136.94275,35.1985],[136.94291,35.19861],[136.94291,35.19861],[136.94315,35.19877],[136.94323,35.19882],[136.94328,35.19886],[136.94349,35.19899],[136.9444,35.1979],[136.94466,35.1978],[136.94577,35.19739]]]}},{"type":"Feature","properties":{"name":"矢田四丁目","setai":730,"jinko":1382,"key":"23102081094","units":1},"geometry":{"type":"Polygon","coordinates":[[[136.94314,35.19561],[136.9435,35.19545],[136.94353,35.19545],[136.94405,35.19521],[136.94405,35.19521],[136.94441,35.19504],[136.94505,35.19475],[136.9453,35.19464],[136.94606,35.19429],[136.94606,35.19429],[136.94606,35.19429],[136.94628,35.19421],[136.94628,35.19421],[136.94628,35.19421],[136.9467,35.19408],[136.94661,35.19383],[136.94649,35.1935],[136.94633,35.19307],[136.94627,35.19285],[136.94611,35.19243],[136.94598,35.19233],[136.94567,35.19216],[136.94524,35.19226],[136.94495,35.19232],[136.94454,35.1924],[136.9441,35.1925],[136.94376,35.19257],[136.94335,35.19264],[136.94295,35.19273],[136.94253,35.19281],[136.94204,35.1928],[136.94152,35.19281],[136.94161,35.19311],[136.94173,35.19368],[136.94181,35.19416],[136.94192,35.19466],[136.94192,35.19468],[136.94199,35.19507],[136.94205,35.19533],[136.94208,35.19549],[136.94217,35.19592],[136.94217,35.19592],[136.9422,35.19604],[136.9422,35.19604],[136.94308,35.19564],[136.94314,35.19561]]]}},{"type":"Feature","properties":{"name":"矢田五丁目","setai":283,"jinko":480,"key":"23102081095","units":1},"geometry":{"type":"Polygon","coordinates":[[[136.94253,35.19281],[136.94295,35.19273],[136.94335,35.19264],[136.94376,35.19257],[136.9441,35.1925],[136.94454,35.1924],[136.94495,35.19232],[136.94524,35.19226],[136.94567,35.19216],[136.94563,35.19214],[136.94528,35.19196],[136.94524,35.19194],[136.9448,35.1917],[136.94468,35.19163],[136.94382,35.19117],[136.94365,35.19106],[136.94365,35.19106],[136.94363,35.19102],[136.94327,35.19109],[136.94326,35.1911],[136.94286,35.19118],[136.94248,35.19126],[136.94205,35.19136],[136.94204,35.19136],[136.94159,35.19145],[136.94134,35.19151],[136.94111,35.19154],[136.94114,35.19162],[136.94114,35.19162],[136.94152,35.19281],[136.94204,35.1928],[136.94253,35.19281]]]}}]}