{"type":"FeatureCollection","features":[{"type":"Feature","properties":{"name":"下寺一丁目","setai":891,"jinko":1184,"key":"27111001001","units":1,"m":633,"f":551,"gk":223,"a0":64,"a1":859,"a2":161,"a75":67,"ag":[33,17,14,26,125,153,133,110,94,71,52,51,44,36,58,32,18,14,2,1,0],"nf":100},"geometry":{"type":"Polygon","coordinates":[[[135.51077,34.66028],[135.51077,34.66015],[135.51024,34.66027],[135.50979,34.66037],[135.50978,34.66037],[135.50938,34.66046],[135.50951,34.66103],[135.5096,34.6615],[135.5096,34.66152],[135.50972,34.66208],[135.50975,34.66219],[135.50977,34.66228],[135.50982,34.66251],[135.51018,34.66247],[135.51025,34.66246],[135.51046,34.66244],[135.51087,34.66238],[135.51092,34.66238],[135.5109,34.66202],[135.51085,34.66128],[135.5108,34.66066],[135.51077,34.66028]]]}},{"type":"Feature","properties":{"name":"下寺二丁目","setai":940,"jinko":1500,"key":"27111001002","units":1,"m":742,"f":758,"gk":215,"a0":180,"a1":1166,"a2":144,"a75":63,"ag":[55,76,49,46,114,178,165,182,146,125,82,71,57,40,41,24,21,11,6,1,0],"nf":10},"geometry":{"type":"Polygon","coordinates":[[[135.51062,34.65828],[135.51054,34.6579],[135.51016,34.65797],[135.50978,34.65805],[135.50935,34.65813],[135.50928,34.65815],[135.50903,34.6582],[135.5092,34.65902],[135.50926,34.65929],[135.50915,34.65932],[135.50924,34.65976],[135.50938,34.66046],[135.50978,34.66037],[135.50979,34.66037],[135.51024,34.66027],[135.51077,34.66015],[135.51071,34.65944],[135.51069,34.65916],[135.51068,34.65898],[135.51065,34.65858],[135.51062,34.65828]]]}},{"type":"Feature","properties":{"name":"下寺三丁目","setai":1227,"jinko":1712,"key":"27111001003","units":1,"m":936,"f":776,"gk":359,"a0":122,"a1":1291,"a2":229,"a75":103,"ag":[36,42,44,49,214,229,170,138,108,124,107,85,67,60,66,48,30,15,7,3,0],"nf":70},"geometry":{"type":"Polygon","coordinates":[[[135.50971,34.65382],[135.50969,34.65375],[135.50923,34.6538],[135.50842,34.6539],[135.50823,34.65393],[135.50832,34.65446],[135.5084,34.65493],[135.50841,34.65499],[135.50857,34.65589],[135.50857,34.65592],[135.50867,34.65634],[135.50884,34.65719],[135.50887,34.65734],[135.50892,34.65763],[135.50903,34.6582],[135.50928,34.65815],[135.50935,34.65813],[135.50978,34.65805],[135.51016,34.65797],[135.51054,34.6579],[135.51045,34.65743],[135.51043,34.65729],[135.51038,34.65708],[135.51035,34.65693],[135.51033,34.6568],[135.5102,34.65611],[135.51013,34.65582],[135.51007,34.65548],[135.51006,34.65543],[135.50997,34.655],[135.50993,34.65478],[135.50992,34.65472],[135.50978,34.65403],[135.50971,34.65382]]]}},{"type":"Feature","properties":{"name":"日本橋東一丁目","setai":562,"jinko":790,"key":"27111002001","units":1,"m":418,"f":372,"gk":215,"a0":38,"a1":578,"a2":164,"a75":90,"ag":[14,12,12,18,115,74,72,60,47,53,50,47,42,34,40,37,27,16,7,2,1],"nf":10},"geometry":{"type":"Polygon","coordinates":[[[135.50951,34.66103],[135.50938,34.66046],[135.50874,34.66061],[135.50869,34.66062],[135.50812,34.66076],[135.50811,34.66076],[135.50761,34.66087],[135.50759,34.66088],[135.50769,34.66136],[135.50769,34.66136],[135.50779,34.66176],[135.50791,34.66232],[135.50802,34.66275],[135.50851,34.6627],[135.50861,34.66268],[135.50907,34.66262],[135.50916,34.6626],[135.5097,34.66253],[135.50982,34.66251],[135.50977,34.66228],[135.50975,34.66219],[135.50972,34.66208],[135.5096,34.66152],[135.5096,34.6615],[135.50951,34.66103]]]}},{"type":"Feature","properties":{"name":"日本橋東二丁目","setai":497,"jinko":711,"key":"27111002002","units":1,"m":382,"f":329,"gk":75,"a0":50,"a1":504,"a2":123,"a75":67,"ag":[28,14,8,16,76,97,85,66,50,57,18,30,9,23,33,23,22,15,5,2,0],"nf":34},"geometry":{"type":"Polygon","coordinates":[[[135.5092,34.65902],[135.50903,34.6582],[135.50861,34.65828],[135.50818,34.65838],[135.50817,34.65838],[135.50731,34.65857],[135.50737,34.659],[135.50737,34.65901],[135.50743,34.65942],[135.50744,34.65951],[135.50748,34.65975],[135.50751,34.66005],[135.50761,34.66087],[135.50811,34.66076],[135.50812,34.66076],[135.50869,34.66062],[135.50874,34.66061],[135.50938,34.66046],[135.50924,34.65976],[135.50915,34.65932],[135.50926,34.65929],[135.5092,34.65902]]]}},{"type":"Feature","properties":{"name":"日本橋東三丁目","setai":1080,"jinko":1666,"key":"27111002003","units":1,"m":862,"f":804,"gk":210,"a0":131,"a1":1093,"a2":390,"a75":238,"ag":[45,44,42,54,146,174,129,107,104,119,102,76,82,59,93,103,67,44,17,7,0],"nf":52},"geometry":{"type":"Polygon","coordinates":[[[135.50832,34.65446],[135.50823,34.65393],[135.50806,34.65396],[135.50785,34.654],[135.50729,34.65412],[135.50687,34.6542],[135.50684,34.65421],[135.50638,34.65431],[135.50625,34.65434],[135.50648,34.65531],[135.50674,34.65632],[135.50674,34.65633],[135.50693,34.6571],[135.50719,34.6581],[135.50731,34.65857],[135.50817,34.65838],[135.50818,34.65838],[135.50861,34.65828],[135.50903,34.6582],[135.50892,34.65763],[135.50887,34.65734],[135.50884,34.65719],[135.50867,34.65634],[135.50857,34.65592],[135.50857,34.65589],[135.50841,34.65499],[135.5084,34.65493],[135.50832,34.65446]]]}},{"type":"Feature","properties":{"name":"日本橋三丁目","setai":607,"jinko":724,"key":"27111003003","units":1,"m":375,"f":349,"gk":81,"a0":7,"a1":577,"a2":80,"a75":36,"ag":[4,2,1,9,79,125,122,72,54,43,32,23,18,19,25,22,6,4,3,1,0],"nf":60},"geometry":{"type":"Polygon","coordinates":[[[135.50769,34.66136],[135.50759,34.66088],[135.50723,34.66096],[135.50678,34.66102],[135.50656,34.66104],[135.50594,34.66112],[135.50595,34.66137],[135.50545,34.66141],[135.50543,34.66141],[135.50493,34.66145],[135.50492,34.66145],[135.50498,34.66231],[135.50508,34.66277],[135.50517,34.6631],[135.50518,34.6631],[135.50597,34.66302],[135.50603,34.66301],[135.50651,34.66295],[135.50678,34.66291],[135.50683,34.6629],[135.50754,34.66282],[135.50802,34.66275],[135.50791,34.66232],[135.50779,34.66176],[135.50769,34.66136],[135.50769,34.66136]]]}},{"type":"Feature","properties":{"name":"日本橋四丁目","setai":677,"jinko":968,"key":"27111003004","units":1,"m":486,"f":482,"gk":75,"a0":56,"a1":686,"a2":201,"a75":102,"ag":[22,15,19,22,60,120,115,79,85,69,61,50,25,43,56,47,29,17,7,1,1],"nf":25},"geometry":{"type":"Polygon","coordinates":[[[135.50737,34.659],[135.50731,34.65857],[135.50659,34.6587],[135.50628,34.65876],[135.50582,34.65886],[135.5058,34.65886],[135.50529,34.65895],[135.50529,34.65896],[135.50504,34.659],[135.50488,34.65903],[135.50488,34.65903],[135.50429,34.65915],[135.50454,34.65976],[135.50472,34.66021],[135.50484,34.6605],[135.50489,34.66062],[135.50489,34.66076],[135.50493,34.66145],[135.50543,34.66141],[135.50545,34.66141],[135.50595,34.66137],[135.50594,34.66112],[135.50656,34.66104],[135.50678,34.66102],[135.50723,34.66096],[135.50759,34.66088],[135.50761,34.66087],[135.50751,34.66005],[135.50748,34.65975],[135.50744,34.65951],[135.50743,34.65942],[135.50737,34.65901],[135.50737,34.659]]]}},{"type":"Feature","properties":{"name":"日本橋五丁目","setai":1330,"jinko":2050,"key":"27111003005","units":1,"m":1012,"f":1038,"gk":215,"a0":124,"a1":1237,"a2":660,"a75":370,"ag":[41,38,45,48,131,176,189,127,118,152,110,82,104,128,162,135,109,69,43,12,2],"nf":29},"geometry":{"type":"Polygon","coordinates":[[[135.50648,34.65531],[135.50625,34.65434],[135.50583,34.65442],[135.50558,34.65445],[135.50553,34.65446],[135.50543,34.65448],[135.50557,34.65512],[135.50558,34.6552],[135.5056,34.65538],[135.50509,34.65544],[135.50469,34.65548],[135.50403,34.65555],[135.50399,34.65556],[135.50409,34.65634],[135.50409,34.65639],[135.50407,34.65671],[135.50402,34.65709],[135.504,34.65734],[135.50412,34.65822],[135.50415,34.65833],[135.5042,34.65865],[135.50423,34.65883],[135.50425,34.659],[135.50428,34.65915],[135.50429,34.65915],[135.50488,34.65903],[135.50488,34.65903],[135.50504,34.659],[135.50529,34.65896],[135.50529,34.65895],[135.5058,34.65886],[135.50582,34.65886],[135.50628,34.65876],[135.50659,34.6587],[135.50731,34.65857],[135.50719,34.6581],[135.50693,34.6571],[135.50674,34.65633],[135.50674,34.65632],[135.50648,34.65531]]]}},{"type":"Feature","properties":{"name":"日本橋西一丁目","setai":535,"jinko":663,"key":"27111004001","units":1,"m":354,"f":309,"gk":65,"a0":29,"a1":553,"a2":81,"a75":36,"ag":[10,12,7,12,66,114,122,75,57,41,24,26,16,22,23,14,10,7,4,0,1]},"geometry":{"type":"Polygon","coordinates":[[[135.50454,34.65976],[135.50429,34.65915],[135.50428,34.65915],[135.50425,34.659],[135.50423,34.65883],[135.5042,34.65865],[135.50415,34.65833],[135.50412,34.65822],[135.504,34.65734],[135.50324,34.65763],[135.50298,34.65773],[135.50293,34.65766],[135.50233,34.65775],[135.50239,34.65795],[135.50249,34.65834],[135.50252,34.65845],[135.50267,34.65899],[135.50275,34.65929],[135.50289,34.65978],[135.50299,34.66015],[135.50309,34.66051],[135.50322,34.66101],[135.50326,34.66117],[135.50403,34.66097],[135.50489,34.66076],[135.50489,34.66062],[135.50484,34.6605],[135.50472,34.66021],[135.50454,34.65976]]]}},{"type":"Feature","properties":{"name":"日本橋西二丁目","setai":429,"jinko":722,"key":"27111004002","units":1,"m":356,"f":366,"gk":69,"a0":72,"a1":449,"a2":201,"a75":109,"ag":[24,27,21,20,32,61,61,45,44,54,56,36,40,42,50,41,41,18,7,1,1]},"geometry":{"type":"Polygon","coordinates":[[[135.50233,34.65775],[135.50293,34.65766],[135.50298,34.65773],[135.50324,34.65763],[135.504,34.65734],[135.50402,34.65709],[135.50407,34.65671],[135.50409,34.65639],[135.50409,34.65634],[135.50399,34.65556],[135.50366,34.6556],[135.50346,34.65562],[135.50284,34.65572],[135.50276,34.65574],[135.50246,34.65581],[135.50187,34.65588],[135.502,34.65646],[135.50216,34.65712],[135.50223,34.65736],[135.50233,34.65775]]]}},{"type":"Feature","properties":{"name":"恵美須東一丁目","setai":717,"jinko":978,"key":"27111005001","units":1,"m":585,"f":393,"gk":165,"a0":51,"a1":628,"a2":257,"a75":127,"ag":[23,12,16,20,75,100,87,68,46,54,58,53,67,59,71,48,46,28,3,2,0],"nf":42},"geometry":{"type":"Polygon","coordinates":[[[135.5077,34.65263],[135.5075,34.65208],[135.50716,34.65217],[135.50666,34.65228],[135.50626,34.65237],[135.50588,34.65247],[135.50547,34.65257],[135.50526,34.65261],[135.50522,34.65262],[135.50488,34.6527],[135.50502,34.65309],[135.50508,34.65325],[135.50553,34.65446],[135.50558,34.65445],[135.50583,34.65442],[135.50625,34.65434],[135.50638,34.65431],[135.50684,34.65421],[135.50687,34.6542],[135.50729,34.65412],[135.50785,34.654],[135.50806,34.65396],[135.50796,34.65344],[135.50792,34.65334],[135.5077,34.65263]]]}},{"type":"Feature","properties":{"name":"恵美須東二丁目","setai":615,"jinko":745,"key":"27111005002","units":1,"m":469,"f":276,"gk":231,"a0":22,"a1":480,"a2":233,"a75":105,"ag":[10,4,8,24,123,74,37,30,32,47,45,39,29,49,79,60,26,15,2,2,0],"nf":10},"geometry":{"type":"Polygon","coordinates":[[[135.50709,34.6509],[135.50707,34.65084],[135.50658,34.65096],[135.50642,34.651],[135.50579,34.65114],[135.50565,34.65117],[135.50496,34.65134],[135.50443,34.65146],[135.50446,34.65157],[135.50461,34.65197],[135.50468,34.65218],[135.50469,34.65222],[135.50488,34.6527],[135.50522,34.65262],[135.50526,34.65261],[135.50547,34.65257],[135.50588,34.65247],[135.50626,34.65237],[135.50666,34.65228],[135.50716,34.65217],[135.5075,34.65208],[135.50731,34.65158],[135.50709,34.6509]]]}},{"type":"Feature","properties":{"name":"恵美須東三丁目","setai":226,"jinko":288,"key":"27111005003","units":1,"m":177,"f":111,"gk":35,"a0":10,"a1":151,"a2":116,"a75":63,"ag":[1,5,4,10,18,13,10,9,9,17,19,21,25,29,24,25,22,10,4,2,0],"nf":11},"geometry":{"type":"Polygon","coordinates":[[[135.50655,34.6495],[135.50625,34.64872],[135.50578,34.64884],[135.50568,34.64886],[135.50526,34.64896],[135.50518,34.64899],[135.5049,34.64906],[135.50453,34.64915],[135.5043,34.64921],[135.50424,34.64922],[135.50401,34.64927],[135.50383,34.6493],[135.50367,34.64933],[135.50432,34.65116],[135.50443,34.65146],[135.50496,34.65134],[135.50565,34.65117],[135.50579,34.65114],[135.50642,34.651],[135.50658,34.65096],[135.50707,34.65084],[135.50694,34.65044],[135.50679,34.65005],[135.50674,34.64994],[135.50663,34.64973],[135.50659,34.6496],[135.50655,34.6495]]]}},{"type":"Feature","properties":{"name":"恵美須西一丁目","setai":527,"jinko":709,"key":"27111006001","units":1,"m":388,"f":321,"gk":93,"a0":38,"a1":475,"a2":126,"a75":77,"ag":[16,11,11,12,77,92,82,43,44,41,24,34,26,20,29,34,23,15,5,0,0],"nf":70},"geometry":{"type":"Polygon","coordinates":[[[135.50557,34.65512],[135.50543,34.65448],[135.50496,34.65461],[135.50496,34.65461],[135.50415,34.65476],[135.50392,34.65473],[135.50329,34.65464],[135.50275,34.65458],[135.50271,34.65457],[135.50211,34.65451],[135.50157,34.65461],[135.5016,34.65473],[135.50163,34.65487],[135.50186,34.6558],[135.50187,34.65588],[135.50246,34.65581],[135.50276,34.65574],[135.50284,34.65572],[135.50346,34.65562],[135.50366,34.6556],[135.50399,34.65556],[135.50403,34.65555],[135.50469,34.65548],[135.50509,34.65544],[135.5056,34.65538],[135.50558,34.6552],[135.50557,34.65512]]]}},{"type":"Feature","properties":{"name":"恵美須西二丁目","setai":1431,"jinko":1782,"key":"27111006002","units":1,"m":1085,"f":697,"gk":260,"a0":69,"a1":1248,"a2":354,"a75":153,"ag":[42,14,13,27,167,225,170,130,111,116,114,101,87,98,103,80,40,24,7,2,0],"nf":111},"geometry":{"type":"Polygon","coordinates":[[[135.50496,34.65461],[135.50543,34.65448],[135.50553,34.65446],[135.50508,34.65325],[135.50502,34.65309],[135.50488,34.6527],[135.50469,34.65222],[135.50468,34.65218],[135.50435,34.65227],[135.50426,34.6523],[135.50386,34.65243],[135.50365,34.65251],[135.50332,34.65263],[135.50293,34.65268],[135.50272,34.65271],[135.50229,34.65276],[135.50182,34.65282],[135.50104,34.65291],[135.5011,34.6531],[135.50128,34.65386],[135.50155,34.65452],[135.50156,34.65456],[135.50157,34.65461],[135.50211,34.65451],[135.50271,34.65457],[135.50275,34.65458],[135.50329,34.65464],[135.50392,34.65473],[135.50415,34.65476],[135.50496,34.65461],[135.50496,34.65461]]]}},{"type":"Feature","properties":{"name":"恵美須西三丁目","setai":2348,"jinko":2982,"key":"27111006003","units":1,"m":1959,"f":1023,"gk":394,"a0":119,"a1":1871,"a2":957,"a75":421,"ag":[51,42,26,66,217,256,210,160,153,212,225,207,165,255,281,203,122,77,18,1,0],"nf":35},"geometry":{"type":"Polygon","coordinates":[[[135.50432,34.65116],[135.50367,34.64933],[135.5036,34.64934],[135.5033,34.64943],[135.50324,34.64945],[135.50269,34.64958],[135.50264,34.6496],[135.50204,34.64975],[135.50189,34.64979],[135.50175,34.64982],[135.50139,34.64991],[135.50038,34.65017],[135.50049,34.65061],[135.5006,34.6512],[135.50063,34.65134],[135.50069,34.65164],[135.50081,34.65213],[135.50097,34.65268],[135.501,34.65277],[135.50104,34.65291],[135.50182,34.65282],[135.50229,34.65276],[135.50272,34.65271],[135.50293,34.65268],[135.50332,34.65263],[135.50365,34.65251],[135.50386,34.65243],[135.50426,34.6523],[135.50435,34.65227],[135.50468,34.65218],[135.50461,34.65197],[135.50446,34.65157],[135.50443,34.65146],[135.50432,34.65116]]]}},{"type":"Feature","properties":{"name":"難波中一丁目","setai":240,"jinko":302,"key":"27111007001","units":1,"m":161,"f":141,"gk":62,"a0":9,"a1":189,"a2":44,"a75":21,"ag":[5,2,2,4,30,32,23,17,19,15,20,19,10,9,14,6,7,7,1,0,0],"nf":60},"geometry":{"type":"Polygon","coordinates":[[[135.49792,34.66271],[135.49791,34.66271],[135.49791,34.66344],[135.4979,34.66404],[135.4979,34.66436],[135.4979,34.66456],[135.49791,34.66526],[135.4979,34.66532],[135.4979,34.66538],[135.49792,34.66609],[135.49791,34.66717],[135.49823,34.66711],[135.49829,34.66706],[135.49856,34.66664],[135.49888,34.66613],[135.49891,34.66608],[135.49921,34.66567],[135.49949,34.66528],[135.49976,34.66491],[135.49986,34.66476],[135.50016,34.66433],[135.50058,34.66374],[135.50091,34.66328],[135.50089,34.6632],[135.50085,34.66296],[135.50085,34.66296],[135.50009,34.6629],[135.4999,34.66288],[135.49986,34.66288],[135.49936,34.66284],[135.49876,34.66279],[135.49792,34.66271]]]}},{"type":"Feature","properties":{"name":"難波中二丁目","setai":618,"jinko":861,"key":"27111007002","units":1,"m":440,"f":421,"gk":43,"a0":59,"a1":506,"a2":175,"a75":56,"ag":[33,15,11,10,39,66,66,52,69,58,53,45,48,63,56,19,18,13,6,0,0],"nf":121},"geometry":{"type":"Polygon","coordinates":[[[135.50517,34.6631],[135.50508,34.66277],[135.50498,34.66231],[135.50492,34.66145],[135.50493,34.66145],[135.50489,34.66076],[135.50403,34.66097],[135.50326,34.66117],[135.50322,34.66101],[135.50309,34.66051],[135.50299,34.66015],[135.50289,34.65978],[135.50275,34.65929],[135.50235,34.65933],[135.50048,34.65951],[135.50024,34.65953],[135.50023,34.65953],[135.50028,34.65989],[135.50036,34.66048],[135.50041,34.66087],[135.50043,34.66101],[135.50051,34.6616],[135.50056,34.66191],[135.50064,34.6622],[135.50071,34.66236],[135.50078,34.66255],[135.50085,34.66296],[135.50085,34.66296],[135.50089,34.6632],[135.50091,34.66328],[135.50105,34.66308],[135.50109,34.66306],[135.50233,34.66358],[135.50235,34.66359],[135.50268,34.66372],[135.5027,34.66372],[135.50294,34.66332],[135.50306,34.6632],[135.50315,34.66317],[135.50343,34.66317],[135.50345,34.66316],[135.50375,34.66316],[135.50376,34.66316],[135.50406,34.66315],[135.50478,34.66312],[135.50478,34.66311],[135.50517,34.6631]]]}},{"type":"Feature","properties":{"name":"難波中三丁目","setai":1298,"jinko":1735,"key":"27111007003","units":1,"m":850,"f":885,"gk":237,"a0":122,"a1":1313,"a2":190,"a75":75,"ag":[46,42,34,33,165,251,209,155,142,122,109,75,52,59,56,28,18,21,7,1,0],"nf":110},"geometry":{"type":"Polygon","coordinates":[[[135.50028,34.65989],[135.50023,34.65953],[135.49955,34.65959],[135.49894,34.65964],[135.49904,34.65921],[135.49907,34.65906],[135.4991,34.65898],[135.49911,34.65893],[135.49828,34.65897],[135.49781,34.659],[135.4978,34.65917],[135.49779,34.65926],[135.49779,34.65934],[135.4978,34.6597],[135.49781,34.66027],[135.49782,34.66031],[135.49785,34.66094],[135.49788,34.66164],[135.49789,34.66208],[135.4979,34.66212],[135.49792,34.66271],[135.49876,34.66279],[135.49936,34.66284],[135.49986,34.66288],[135.4999,34.66288],[135.50009,34.6629],[135.50085,34.66296],[135.50078,34.66255],[135.50071,34.66236],[135.50064,34.6622],[135.50056,34.66191],[135.50051,34.6616],[135.50043,34.66101],[135.50041,34.66087],[135.50036,34.66048],[135.50028,34.65989]]]}},{"type":"Feature","properties":{"name":"元町一丁目","setai":1305,"jinko":1798,"key":"27111008001","units":1,"m":896,"f":902,"gk":148,"a0":155,"a1":1248,"a2":202,"a75":96,"ag":[81,43,31,29,103,193,231,182,170,121,107,57,55,39,67,41,27,18,8,2,0],"nf":193},"geometry":{"type":"Polygon","coordinates":[[[135.49791,34.66271],[135.49783,34.66269],[135.49736,34.66273],[135.49691,34.66277],[135.49638,34.66281],[135.4958,34.66286],[135.49499,34.66294],[135.49504,34.66306],[135.4951,34.66323],[135.4951,34.66324],[135.49514,34.66335],[135.4952,34.66351],[135.49524,34.66362],[135.49525,34.66367],[135.4953,34.66379],[135.49555,34.66452],[135.49558,34.66461],[135.49618,34.66532],[135.49621,34.66536],[135.49646,34.66603],[135.49677,34.66679],[135.49685,34.66704],[135.49694,34.66739],[135.49707,34.66736],[135.49791,34.66717],[135.49792,34.66609],[135.4979,34.66538],[135.4979,34.66532],[135.49791,34.66526],[135.4979,34.66456],[135.4979,34.66436],[135.4979,34.66404],[135.49791,34.66344],[135.49791,34.66271]]]}},{"type":"Feature","properties":{"name":"元町二丁目","setai":1351,"jinko":1728,"key":"27111008002","units":1,"m":845,"f":883,"gk":150,"a0":61,"a1":1233,"a2":236,"a75":120,"ag":[29,20,12,101,157,246,199,137,106,103,86,47,51,52,64,47,37,22,8,5,1],"nf":198},"geometry":{"type":"Polygon","coordinates":[[[135.49736,34.66273],[135.49783,34.66269],[135.49791,34.66271],[135.49792,34.66271],[135.4979,34.66212],[135.49789,34.66208],[135.49788,34.66164],[135.49785,34.66094],[135.49703,34.66095],[135.49637,34.66095],[135.49577,34.66096],[135.49576,34.66087],[135.49498,34.66089],[135.49432,34.66097],[135.49393,34.66102],[135.49385,34.66103],[135.49385,34.66104],[135.49367,34.66107],[135.4943,34.66298],[135.49447,34.66297],[135.49462,34.66296],[135.49473,34.66296],[135.49499,34.66294],[135.4958,34.66286],[135.49638,34.66281],[135.49691,34.66277],[135.49736,34.66273]]]}},{"type":"Feature","properties":{"name":"元町三丁目","setai":1636,"jinko":2100,"key":"27111008003","units":1,"m":1056,"f":1044,"gk":186,"a0":96,"a1":1592,"a2":246,"a75":109,"ag":[41,34,21,30,209,388,292,199,127,124,86,67,70,86,51,45,37,18,7,2,0],"nf":166},"geometry":{"type":"Polygon","coordinates":[[[135.49498,34.66089],[135.49576,34.66087],[135.49577,34.66096],[135.49637,34.66095],[135.49703,34.66095],[135.49785,34.66094],[135.49782,34.66031],[135.49781,34.66027],[135.4978,34.6597],[135.49779,34.65934],[135.49779,34.65926],[135.4978,34.65917],[135.49682,34.65922],[135.49682,34.65922],[135.49576,34.65929],[135.49572,34.65931],[135.49476,34.65952],[135.49454,34.65957],[135.49445,34.65959],[135.49379,34.65973],[135.49356,34.65979],[135.49351,34.6598],[135.49312,34.65988],[135.49326,34.66031],[135.49326,34.66031],[135.49339,34.66071],[135.49353,34.6611],[135.49367,34.66107],[135.49385,34.66104],[135.49385,34.66103],[135.49393,34.66102],[135.49432,34.66097],[135.49498,34.66089]]]}},{"type":"Feature","properties":{"name":"湊町一丁目","setai":599,"jinko":1074,"key":"27111009001","units":1,"m":485,"f":589,"gk":76,"a0":94,"a1":651,"a2":313,"a75":138,"ag":[38,38,18,34,25,22,34,55,75,96,119,118,73,78,97,60,41,26,7,4,0],"nf":16},"geometry":{"type":"Polygon","coordinates":[[[135.49778,34.6678],[135.49823,34.66711],[135.49791,34.66717],[135.49707,34.66736],[135.49694,34.66739],[135.49685,34.66704],[135.49677,34.66679],[135.49646,34.66603],[135.49621,34.66536],[135.49519,34.66536],[135.49462,34.66542],[135.49457,34.66543],[135.49437,34.66547],[135.49416,34.66551],[135.494,34.66554],[135.49379,34.66558],[135.49392,34.66597],[135.49394,34.66607],[135.49395,34.66609],[135.49398,34.66618],[135.49424,34.66709],[135.49425,34.66713],[135.49428,34.66722],[135.49445,34.66774],[135.49448,34.66785],[135.49458,34.66815],[135.49471,34.6689],[135.49478,34.66925],[135.49576,34.66914],[135.49646,34.66906],[135.49699,34.66901],[135.49734,34.66898],[135.49734,34.66869],[135.49734,34.66845],[135.49761,34.66805],[135.49778,34.6678]]]}},{"type":"Feature","properties":{"name":"湊町二丁目","setai":1356,"jinko":2687,"key":"27111009002","units":1,"m":1252,"f":1435,"gk":276,"a0":413,"a1":1891,"a2":373,"a75":154,"ag":[199,141,73,69,65,119,186,311,252,282,235,220,152,129,90,58,60,24,10,2,0],"nf":10},"geometry":{"type":"Polygon","coordinates":[[[135.49504,34.66306],[135.49499,34.66294],[135.49473,34.66296],[135.49462,34.66296],[135.49447,34.66297],[135.4943,34.66298],[135.4943,34.66298],[135.49431,34.66299],[135.49357,34.66308],[135.49306,34.66314],[135.49323,34.66371],[135.49331,34.66398],[135.49346,34.66444],[135.49346,34.66447],[135.49377,34.66553],[135.49379,34.66558],[135.494,34.66554],[135.49416,34.66551],[135.49437,34.66547],[135.49457,34.66543],[135.49462,34.66542],[135.49519,34.66536],[135.49621,34.66536],[135.49618,34.66532],[135.49558,34.66461],[135.49555,34.66452],[135.4953,34.66379],[135.49525,34.66367],[135.49524,34.66362],[135.4952,34.66351],[135.49514,34.66335],[135.4951,34.66324],[135.4951,34.66323],[135.49504,34.66306]]]}},{"type":"Feature","properties":{"name":"敷津東一丁目","setai":322,"jinko":395,"key":"27111010001","units":1,"m":185,"f":210,"gk":71,"a0":11,"a1":298,"a2":46,"a75":22,"ag":[6,0,5,13,51,68,46,47,20,28,12,7,6,13,11,13,4,3,2,0,0],"nf":40},"geometry":{"type":"Polygon","coordinates":[[[135.50267,34.65899],[135.50252,34.65845],[135.50249,34.65834],[135.50239,34.65795],[135.50233,34.65775],[135.50223,34.65736],[135.50193,34.65774],[135.50127,34.65784],[135.50059,34.65783],[135.49918,34.65772],[135.49869,34.65771],[135.49784,34.65769],[135.49784,34.65823],[135.49783,34.65846],[135.49781,34.65897],[135.49781,34.659],[135.49828,34.65897],[135.49911,34.65893],[135.4991,34.65898],[135.49907,34.65906],[135.49904,34.65921],[135.49894,34.65964],[135.49955,34.65959],[135.50023,34.65953],[135.50024,34.65953],[135.50048,34.65951],[135.50235,34.65933],[135.50275,34.65929],[135.50267,34.65899]]]}},{"type":"Feature","properties":{"name":"敷津東二丁目","setai":615,"jinko":948,"key":"27111010002","units":1,"m":478,"f":470,"gk":134,"a0":85,"a1":737,"a2":126,"a75":57,"ag":[40,33,12,11,51,119,122,110,89,73,66,51,45,36,33,28,16,11,2,0,0]},"geometry":{"type":"Polygon","coordinates":[[[135.50216,34.65712],[135.502,34.65646],[135.50176,34.65649],[135.5009,34.65645],[135.5,34.65639],[135.49933,34.65634],[135.4987,34.65626],[135.49867,34.65626],[135.49787,34.65616],[135.49784,34.65696],[135.49784,34.65701],[135.49784,34.65733],[135.49784,34.65769],[135.49869,34.65771],[135.49918,34.65772],[135.50059,34.65783],[135.50127,34.65784],[135.50193,34.65774],[135.50223,34.65736],[135.50216,34.65712]]]}},{"type":"Feature","properties":{"name":"敷津東三丁目","setai":729,"jinko":1029,"key":"27111010003","units":1,"m":480,"f":549,"gk":98,"a0":66,"a1":632,"a2":283,"a75":141,"ag":[20,25,21,27,56,101,86,95,64,70,53,36,44,66,76,58,43,26,12,1,1],"nf":48},"geometry":{"type":"Polygon","coordinates":[[[135.50157,34.65461],[135.50156,34.65456],[135.50129,34.65462],[135.50126,34.65462],[135.50091,34.65468],[135.50056,34.65474],[135.5001,34.65482],[135.49999,34.65484],[135.49942,34.65494],[135.49935,34.65495],[135.49877,34.65506],[135.49788,34.65522],[135.49789,34.65546],[135.49787,34.65607],[135.49787,34.65616],[135.49867,34.65626],[135.4987,34.65626],[135.49933,34.65634],[135.5,34.65639],[135.5009,34.65645],[135.50176,34.65649],[135.502,34.65646],[135.50187,34.65588],[135.50186,34.6558],[135.50163,34.65487],[135.5016,34.65473],[135.50157,34.65461]]]}},{"type":"Feature","properties":{"name":"敷津西一丁目","setai":1926,"jinko":2452,"key":"27111011001","units":1,"m":1267,"f":1185,"gk":368,"a0":113,"a1":1963,"a2":294,"a75":133,"ag":[40,33,40,33,298,430,335,245,180,151,122,106,63,67,94,72,34,18,5,4,0],"nf":82},"geometry":{"type":"Polygon","coordinates":[[[135.49576,34.65929],[135.49682,34.65922],[135.49682,34.65922],[135.4978,34.65917],[135.49781,34.659],[135.49781,34.65897],[135.49783,34.65846],[135.49784,34.65823],[135.49784,34.65769],[135.49784,34.65733],[135.49685,34.65733],[135.49629,34.65737],[135.49616,34.65738],[135.49572,34.6574],[135.4957,34.65787],[135.49539,34.6579],[135.49469,34.65801],[135.49405,34.6581],[135.49399,34.65812],[135.4938,34.6582],[135.49351,34.65835],[135.49312,34.65853],[135.49287,34.65864],[135.49289,34.65869],[135.49296,34.65893],[135.49297,34.65895],[135.49312,34.65942],[135.49313,34.65946],[135.49322,34.65974],[135.49308,34.65978],[135.49312,34.65988],[135.49351,34.6598],[135.49356,34.65979],[135.49379,34.65973],[135.49445,34.65959],[135.49454,34.65957],[135.49476,34.65952],[135.49572,34.65931],[135.49576,34.65929]]]}},{"type":"Feature","properties":{"name":"敷津西二丁目","setai":1836,"jinko":2419,"key":"27111011002","units":1,"m":1315,"f":1104,"gk":346,"a0":118,"a1":1824,"a2":435,"a75":231,"ag":[52,32,34,36,241,362,292,230,133,151,144,120,115,96,108,91,71,47,17,5,0],"nf":42},"geometry":{"type":"Polygon","coordinates":[[[135.49789,34.65546],[135.49788,34.65522],[135.49783,34.65523],[135.49732,34.65532],[135.49722,34.65537],[135.49712,34.65541],[135.49663,34.65564],[135.49626,34.65581],[135.49624,34.65582],[135.49541,34.65621],[135.49516,34.65633],[135.49489,34.65647],[135.49482,34.6565],[135.49448,34.65682],[135.49443,34.65687],[135.49382,34.65738],[135.49376,34.65743],[135.49344,34.65777],[135.49335,34.65783],[135.49314,34.65795],[135.49294,34.65802],[135.49276,34.65808],[135.49271,34.6581],[135.49287,34.65864],[135.49312,34.65853],[135.49351,34.65835],[135.4938,34.6582],[135.49399,34.65812],[135.49405,34.6581],[135.49469,34.65801],[135.49539,34.6579],[135.4957,34.65787],[135.49572,34.6574],[135.49616,34.65738],[135.49629,34.65737],[135.49685,34.65733],[135.49784,34.65733],[135.49784,34.65701],[135.49784,34.65696],[135.49787,34.65616],[135.49787,34.65607],[135.49789,34.65546]]]}},{"type":"Feature","properties":{"name":"戎本町一丁目","setai":1431,"jinko":1755,"key":"27111012001","units":1,"m":932,"f":823,"gk":246,"a0":64,"a1":1421,"a2":221,"a75":88,"ag":[32,20,12,36,195,345,233,157,113,111,94,73,64,75,58,32,30,21,5,0,0],"nf":49},"geometry":{"type":"Polygon","coordinates":[[[135.50104,34.65291],[135.501,34.65277],[135.50074,34.6528],[135.50073,34.6528],[135.49945,34.65267],[135.49944,34.65348],[135.49773,34.65354],[135.49776,34.65401],[135.49779,34.65461],[135.49779,34.65464],[135.49783,34.65523],[135.49788,34.65522],[135.49877,34.65506],[135.49935,34.65495],[135.49942,34.65494],[135.49999,34.65484],[135.5001,34.65482],[135.50056,34.65474],[135.50091,34.65468],[135.50126,34.65462],[135.50129,34.65462],[135.50156,34.65456],[135.50155,34.65452],[135.50128,34.65386],[135.5011,34.6531],[135.50104,34.65291]]]}},{"type":"Feature","properties":{"name":"戎本町二丁目","setai":503,"jinko":691,"key":"27111012002","units":1,"m":393,"f":298,"gk":118,"a0":32,"a1":373,"a2":271,"a75":129,"ag":[13,11,8,11,45,59,37,29,43,38,29,45,37,50,92,61,40,21,6,1,0],"nf":15},"geometry":{"type":"Polygon","coordinates":[[[135.49944,34.65348],[135.49945,34.65267],[135.50073,34.6528],[135.50074,34.6528],[135.501,34.65277],[135.50097,34.65268],[135.50081,34.65213],[135.50069,34.65164],[135.50063,34.65134],[135.5006,34.6512],[135.50049,34.65061],[135.50038,34.65017],[135.50005,34.65025],[135.49997,34.65027],[135.49942,34.6504],[135.49937,34.65041],[135.49918,34.65046],[135.49881,34.65055],[135.49759,34.65084],[135.4976,34.6513],[135.49761,34.6514],[135.49761,34.65143],[135.49762,34.65162],[135.49764,34.65201],[135.49767,34.65242],[135.49767,34.65246],[135.4977,34.65303],[135.49773,34.65354],[135.49944,34.65348]]]}},{"type":"Feature","properties":{"name":"大国一丁目","setai":1527,"jinko":1999,"key":"27111013001","units":1,"m":1059,"f":940,"gk":348,"a0":125,"a1":1612,"a2":202,"a75":103,"ag":[48,42,35,40,273,367,262,197,127,121,94,66,65,55,44,50,29,21,2,1,0],"nf":60},"geometry":{"type":"Polygon","coordinates":[[[135.4976,34.6513],[135.49759,34.65084],[135.49669,34.65109],[135.49664,34.65135],[135.49658,34.65171],[135.49658,34.65171],[135.49655,34.65189],[135.49647,34.65234],[135.49641,34.65263],[135.49638,34.65285],[135.49625,34.65357],[135.49618,34.65392],[135.49614,34.65425],[135.49608,34.65459],[135.49615,34.6551],[135.49619,34.65558],[135.49624,34.65582],[135.49626,34.65581],[135.49663,34.65564],[135.49712,34.65541],[135.49722,34.65537],[135.49732,34.65532],[135.49783,34.65523],[135.49779,34.65464],[135.49779,34.65461],[135.49776,34.65401],[135.49773,34.65354],[135.4977,34.65303],[135.49767,34.65246],[135.49767,34.65242],[135.49764,34.65201],[135.49762,34.65162],[135.49761,34.65143],[135.49761,34.6514],[135.4976,34.6513]]]}},{"type":"Feature","properties":{"name":"大国二丁目","setai":1791,"jinko":2464,"key":"27111013002","units":1,"m":1267,"f":1197,"gk":381,"a0":114,"a1":1886,"a2":405,"a75":235,"ag":[50,35,29,71,337,430,292,185,145,151,108,91,76,94,76,72,67,50,38,8,0],"nf":59},"geometry":{"type":"Polygon","coordinates":[[[135.49618,34.65392],[135.49625,34.65357],[135.49638,34.65285],[135.49641,34.65263],[135.49647,34.65234],[135.49655,34.65189],[135.49658,34.65171],[135.49658,34.65171],[135.49664,34.65135],[135.49669,34.65109],[135.49651,34.65113],[135.49611,34.65121],[135.49592,34.65127],[135.49553,34.65141],[135.49513,34.65159],[135.49485,34.65175],[135.49482,34.6523],[135.49474,34.65274],[135.49469,34.6532],[135.49463,34.65371],[135.49438,34.65366],[135.49434,34.65411],[135.4943,34.65469],[135.49425,34.65469],[135.49423,34.65517],[135.49421,34.6557],[135.49419,34.65611],[135.49448,34.65682],[135.49482,34.6565],[135.49489,34.65647],[135.49516,34.65633],[135.49541,34.65621],[135.49624,34.65582],[135.49619,34.65558],[135.49615,34.6551],[135.49608,34.65459],[135.49614,34.65425],[135.49618,34.65392]]]}},{"type":"Feature","properties":{"name":"大国三丁目","setai":1628,"jinko":2109,"key":"27111013003","units":1,"m":1170,"f":939,"gk":406,"a0":124,"a1":1597,"a2":297,"a75":141,"ag":[54,28,42,62,296,323,224,178,126,115,105,101,67,80,76,45,53,24,16,3,0],"nf":91},"geometry":{"type":"Polygon","coordinates":[[[135.49434,34.65411],[135.49438,34.65366],[135.49463,34.65371],[135.49469,34.6532],[135.49474,34.65274],[135.49482,34.6523],[135.49485,34.65175],[135.49414,34.65217],[135.49381,34.6524],[135.49374,34.65245],[135.49367,34.65263],[135.49353,34.65284],[135.49336,34.65302],[135.49314,34.65331],[135.49275,34.65394],[135.49254,34.65434],[135.49239,34.65465],[135.49226,34.65492],[135.49213,34.65515],[135.49185,34.65561],[135.49183,34.65567],[135.49219,34.65568],[135.4922,34.65589],[135.49222,34.65619],[135.49229,34.65661],[135.49237,34.65697],[135.49253,34.65747],[135.49276,34.65808],[135.49294,34.65802],[135.49314,34.65795],[135.49335,34.65783],[135.49344,34.65777],[135.49376,34.65743],[135.49382,34.65738],[135.49443,34.65687],[135.49448,34.65682],[135.49419,34.65611],[135.49421,34.6557],[135.49423,34.65517],[135.49425,34.65469],[135.4943,34.65469],[135.49434,34.65411]]]}},{"type":"Feature","properties":{"name":"浪速東一丁目","setai":205,"jinko":282,"key":"27111014001","units":1,"m":134,"f":148,"gk":50,"a0":23,"a1":209,"a2":20,"a75":11,"ag":[13,4,6,3,40,51,36,26,12,18,8,8,7,3,6,5,4,2,0,0,0],"nf":30},"geometry":{"type":"Polygon","coordinates":[[[135.49276,34.65808],[135.49253,34.65747],[135.49237,34.65697],[135.49229,34.65661],[135.49222,34.65619],[135.4922,34.65589],[135.49219,34.65568],[135.49183,34.65567],[135.49173,34.65567],[135.49148,34.65619],[135.49142,34.65629],[135.49087,34.65703],[135.49043,34.65749],[135.49028,34.6576],[135.49009,34.65776],[135.49002,34.65783],[135.48997,34.65783],[135.48891,34.6577],[135.4883,34.65762],[135.48827,34.6579],[135.48826,34.65819],[135.48831,34.6589],[135.48831,34.65893],[135.48836,34.65944],[135.48838,34.65971],[135.48844,34.65965],[135.48906,34.65944],[135.48942,34.65931],[135.48962,34.65924],[135.48963,34.65924],[135.49022,34.65902],[135.49025,34.65901],[135.49046,34.65894],[135.49073,34.65885],[135.49095,34.65877],[135.49156,34.65854],[135.49271,34.6581],[135.49276,34.65808]]]}},{"type":"Feature","properties":{"name":"浪速東二丁目","setai":291,"jinko":531,"key":"27111014002","units":1,"m":257,"f":274,"gk":60,"a0":70,"a1":301,"a2":160,"a75":92,"ag":[23,26,21,32,20,18,23,48,23,34,34,36,33,32,36,30,36,17,8,1,0]},"geometry":{"type":"Polygon","coordinates":[[[135.49148,34.65619],[135.49173,34.65567],[135.49166,34.65568],[135.49088,34.65577],[135.49067,34.6558],[135.49033,34.65585],[135.49014,34.65587],[135.48961,34.65593],[135.48942,34.65596],[135.48886,34.65602],[135.48836,34.65598],[135.48835,34.6563],[135.48834,34.65637],[135.48834,34.6566],[135.48833,34.65676],[135.48832,34.65715],[135.4883,34.65762],[135.48891,34.6577],[135.48997,34.65783],[135.49002,34.65783],[135.49009,34.65776],[135.49028,34.6576],[135.49043,34.65749],[135.49087,34.65703],[135.49142,34.65629],[135.49148,34.65619]]]}},{"type":"Feature","properties":{"name":"浪速東三丁目","setai":362,"jinko":619,"key":"27111014003","units":1,"m":298,"f":321,"gk":104,"a0":56,"a1":319,"a2":241,"a75":151,"ag":[15,28,13,13,34,26,44,33,32,34,35,32,36,40,50,67,48,24,8,4,0],"nf":3},"geometry":{"type":"Polygon","coordinates":[[[135.49254,34.65434],[135.49275,34.65394],[135.49314,34.65331],[135.49336,34.65302],[135.49353,34.65284],[135.49367,34.65263],[135.49374,34.65245],[135.49365,34.65251],[135.49346,34.65261],[135.49331,34.65268],[135.49304,34.65284],[135.49275,34.65302],[135.49265,34.65313],[135.4926,34.65318],[135.49218,34.65337],[135.49197,34.65348],[135.49187,34.65352],[135.49175,34.65356],[135.49161,34.6536],[135.49121,34.65368],[135.49093,34.65376],[135.49065,34.65382],[135.49047,34.65386],[135.49041,34.65388],[135.49035,34.65389],[135.49006,34.65391],[135.48969,34.65395],[135.48962,34.65395],[135.48916,34.65395],[135.48838,34.65394],[135.48849,34.65416],[135.48849,34.65431],[135.48853,34.65449],[135.4885,34.65452],[135.48841,34.65459],[135.48839,34.65492],[135.48838,34.65552],[135.48837,34.65557],[135.48836,34.65598],[135.48886,34.65602],[135.48942,34.65596],[135.48961,34.65593],[135.49014,34.65587],[135.49033,34.65585],[135.49067,34.6558],[135.49088,34.65577],[135.49166,34.65568],[135.49173,34.65567],[135.49183,34.65567],[135.49185,34.65561],[135.49213,34.65515],[135.49226,34.65492],[135.49239,34.65465],[135.49254,34.65434]]]}},{"type":"Feature","properties":{"name":"浪速西一丁目","setai":552,"jinko":780,"key":"27111015001","units":1,"m":371,"f":409,"gk":76,"a0":51,"a1":536,"a2":192,"a75":87,"ag":[13,27,11,19,107,108,66,35,42,48,29,39,43,46,59,28,28,22,7,2,0],"nf":1},"geometry":{"type":"Polygon","coordinates":[[[135.48796,34.66029],[135.48817,34.65999],[135.48818,34.66002],[135.48838,34.65971],[135.48836,34.65944],[135.48831,34.65893],[135.48831,34.6589],[135.48826,34.65819],[135.48827,34.6579],[135.4883,34.65762],[135.48755,34.65752],[135.48654,34.6574],[135.4853,34.65726],[135.4853,34.65737],[135.48532,34.65739],[135.48552,34.65753],[135.48526,34.65756],[135.48521,34.65803],[135.48516,34.65804],[135.48503,34.65892],[135.48495,34.65949],[135.48472,34.65982],[135.48473,34.65982],[135.4848,34.65981],[135.4853,34.65995],[135.48532,34.65995],[135.486,34.66006],[135.4864,34.6601],[135.48647,34.66011],[135.48676,34.66015],[135.48769,34.66026],[135.48774,34.66026],[135.48796,34.66029]]]}},{"type":"Feature","properties":{"name":"浪速西二丁目","setai":325,"jinko":677,"key":"27111015002","units":1,"m":313,"f":364,"gk":127,"a0":129,"a1":363,"a2":185,"a75":118,"ag":[62,40,27,22,31,25,58,39,48,35,42,43,20,28,39,56,38,17,6,1,0]},"geometry":{"type":"Polygon","coordinates":[[[135.48537,34.65563],[135.48536,34.65563],[135.48533,34.65645],[135.48532,34.65674],[135.48531,34.65707],[135.4853,34.65719],[135.4853,34.65726],[135.48654,34.6574],[135.48755,34.65752],[135.4883,34.65762],[135.48832,34.65715],[135.48833,34.65676],[135.48834,34.6566],[135.48834,34.65637],[135.48835,34.6563],[135.48836,34.65598],[135.48793,34.65593],[135.48764,34.65591],[135.48649,34.65577],[135.4855,34.65565],[135.48537,34.65563]]]}},{"type":"Feature","properties":{"name":"浪速西三丁目","setai":241,"jinko":479,"key":"27111015003","units":1,"m":220,"f":259,"gk":81,"a0":77,"a1":257,"a2":145,"a75":73,"ag":[27,22,28,19,21,28,27,17,29,34,38,24,20,40,32,29,20,16,8,0,0]},"geometry":{"type":"Polygon","coordinates":[[[135.48839,34.65492],[135.48841,34.65459],[135.48838,34.65462],[135.48801,34.65431],[135.48781,34.65422],[135.48753,34.65419],[135.48549,34.65394],[135.48543,34.65461],[135.48541,34.65483],[135.48536,34.65563],[135.48537,34.65563],[135.4855,34.65565],[135.48649,34.65577],[135.48764,34.65591],[135.48793,34.65593],[135.48836,34.65598],[135.48837,34.65557],[135.48838,34.65552],[135.48839,34.65492]]]}},{"type":"Feature","properties":{"name":"浪速西四丁目","setai":188,"jinko":368,"key":"27111015004","units":1,"m":170,"f":198,"gk":66,"a0":42,"a1":218,"a2":107,"a75":39,"ag":[7,13,22,16,13,10,19,21,24,26,16,28,45,29,39,17,12,8,1,1,0],"nf":1},"geometry":{"type":"Polygon","coordinates":[[[135.48614,34.65195],[135.48568,34.65173],[135.4856,34.65258],[135.48557,34.65287],[135.48552,34.65338],[135.48552,34.65356],[135.48549,34.65394],[135.48753,34.65419],[135.48781,34.65422],[135.48801,34.65431],[135.48838,34.65462],[135.48841,34.65459],[135.4885,34.65452],[135.48853,34.65449],[135.48849,34.65431],[135.48849,34.65416],[135.48838,34.65394],[135.4882,34.65361],[135.48797,34.65358],[135.48788,34.65351],[135.48781,34.65339],[135.48765,34.65301],[135.48752,34.65271],[135.4875,34.65267],[135.48689,34.65235],[135.48644,34.65212],[135.48614,34.65195]]]}},{"type":"Feature","properties":{"name":"芦原一丁目","setai":292,"jinko":331,"key":"27111016001","units":1,"m":176,"f":155,"gk":28,"a0":4,"a1":287,"a2":40,"a75":21,"ag":[1,1,2,6,65,87,54,30,14,12,10,5,4,8,11,7,10,2,2,0,0]},"geometry":{"type":"Polygon","coordinates":[[[135.48817,34.66032],[135.48817,34.6602],[135.48723,34.66145],[135.48718,34.66151],[135.48659,34.66228],[135.48659,34.66236],[135.4866,34.66286],[135.4866,34.66291],[135.48658,34.66351],[135.48683,34.66352],[135.48807,34.66357],[135.48807,34.6635],[135.48809,34.66292],[135.48811,34.66246],[135.48811,34.66242],[135.48813,34.66158],[135.48813,34.66156],[135.48815,34.66084],[135.48817,34.66032]]]}},{"type":"Feature","properties":{"name":"芦原二丁目","setai":110,"jinko":210,"key":"27111016002","units":1,"m":107,"f":103,"gk":47,"a0":40,"a1":148,"a2":22,"a75":14,"ag":[15,12,13,9,16,19,25,21,19,11,12,12,4,5,3,9,3,2,0,0,0]},"geometry":{"type":"Polygon","coordinates":[[[135.48723,34.66145],[135.48817,34.6602],[135.48817,34.65999],[135.48796,34.66029],[135.48774,34.66026],[135.48769,34.66026],[135.48676,34.66015],[135.48647,34.66011],[135.4864,34.6601],[135.486,34.66006],[135.48596,34.66114],[135.48596,34.66134],[135.48596,34.66157],[135.48595,34.66177],[135.48593,34.66228],[135.48592,34.66265],[135.48593,34.66272],[135.48586,34.66281],[135.48549,34.66316],[135.48531,34.66331],[135.48509,34.66346],[135.4854,34.66347],[135.48552,34.66347],[135.48652,34.66351],[135.48658,34.66351],[135.4866,34.66291],[135.4866,34.66286],[135.48659,34.66236],[135.48659,34.66228],[135.48718,34.66151],[135.48723,34.66145]]]}},{"type":"Feature","properties":{"name":"久保吉一丁目","setai":467,"jinko":760,"key":"27111017001","units":1,"m":392,"f":368,"gk":116,"a0":101,"a1":527,"a2":132,"a75":51,"ag":[35,31,35,17,79,104,74,69,54,42,36,21,31,32,49,20,21,8,1,1,0]},"geometry":{"type":"Polygon","coordinates":[[[135.486,34.66006],[135.48532,34.65995],[135.48505,34.66056],[135.48495,34.66095],[135.48486,34.66128],[135.48484,34.66136],[135.48479,34.66155],[135.48461,34.66226],[135.48457,34.66239],[135.48447,34.6627],[135.48439,34.66296],[135.48435,34.66309],[135.48424,34.66344],[135.48475,34.66345],[135.48509,34.66346],[135.48531,34.66331],[135.48549,34.66316],[135.48586,34.66281],[135.48593,34.66272],[135.48592,34.66265],[135.48593,34.66228],[135.48595,34.66177],[135.48596,34.66157],[135.48596,34.66134],[135.48596,34.66114],[135.486,34.66006]]]}},{"type":"Feature","properties":{"name":"久保吉二丁目","setai":287,"jinko":497,"key":"27111017002","units":1,"m":234,"f":263,"gk":17,"a0":7,"a1":225,"a2":255,"a75":147,"ag":[1,2,4,14,11,15,23,11,13,37,30,40,31,45,63,66,41,27,9,4,0],"nf":10},"geometry":{"type":"Polygon","coordinates":[[[135.4853,34.65995],[135.4848,34.65981],[135.48473,34.65982],[135.48459,34.65999],[135.48435,34.66023],[135.48413,34.66041],[135.4841,34.66042],[135.48377,34.66059],[135.48374,34.66061],[135.48343,34.66075],[135.48323,34.66083],[135.48325,34.661],[135.48325,34.66109],[135.48301,34.66132],[135.48288,34.66146],[135.48273,34.66165],[135.48266,34.66179],[135.4826,34.66205],[135.48257,34.66229],[135.48257,34.66246],[135.48258,34.66318],[135.48258,34.6634],[135.48284,34.6634],[135.48333,34.66341],[135.48368,34.66342],[135.48424,34.66344],[135.48435,34.66309],[135.48439,34.66296],[135.48447,34.6627],[135.48457,34.66239],[135.48461,34.66226],[135.48479,34.66155],[135.48484,34.66136],[135.48486,34.66128],[135.48495,34.66095],[135.48505,34.66056],[135.48532,34.65995],[135.4853,34.65995]]]}},{"type":"Feature","properties":{"name":"立葉一丁目","setai":182,"jinko":278,"key":"27111018001","units":1,"m":118,"f":160,"gk":5,"a0":28,"a1":225,"a2":25,"a75":10,"ag":[6,10,12,11,38,46,45,23,18,13,13,9,9,3,12,2,6,1,1,0,0]},"geometry":{"type":"Polygon","coordinates":[[[135.48804,34.66448],[135.48804,34.66428],[135.48805,34.66403],[135.48807,34.66357],[135.48683,34.66352],[135.48658,34.66351],[135.48652,34.66351],[135.48649,34.66384],[135.48645,34.66438],[135.48639,34.66438],[135.48633,34.66535],[135.48675,34.66537],[135.48675,34.66537],[135.48746,34.6654],[135.48751,34.6654],[135.48803,34.66542],[135.48804,34.66448]]]}},{"type":"Feature","properties":{"name":"立葉二丁目","setai":196,"jinko":321,"key":"27111018002","units":1,"m":147,"f":174,"gk":26,"a0":30,"a1":222,"a2":69,"a75":28,"ag":[6,13,11,5,27,49,36,34,14,23,17,7,10,20,21,11,11,4,1,1,0]},"geometry":{"type":"Polygon","coordinates":[[[135.48633,34.66535],[135.48639,34.66438],[135.48645,34.66438],[135.48649,34.66384],[135.48652,34.66351],[135.48552,34.66347],[135.4854,34.66347],[135.48509,34.66346],[135.48475,34.66345],[135.48424,34.66344],[135.48422,34.66347],[135.4842,34.66392],[135.48419,34.6641],[135.48417,34.66434],[135.48412,34.66517],[135.4841,34.66526],[135.48475,34.66529],[135.48543,34.66532],[135.48632,34.66535],[135.48633,34.66535]]]}},{"type":"Feature","properties":{"name":"木津川一丁目","setai":385,"jinko":473,"key":"27111019001","units":1,"m":263,"f":210,"gk":29,"a0":14,"a1":380,"a2":68,"a75":33,"ag":[13,1,0,8,61,92,77,39,24,25,28,14,12,20,15,17,11,3,1,1,0],"nf":11},"geometry":{"type":"Polygon","coordinates":[[[135.4833,34.66515],[135.48334,34.66441],[135.48283,34.66459],[135.48283,34.66447],[135.48283,34.6644],[135.48283,34.66399],[135.48284,34.6634],[135.48258,34.6634],[135.48191,34.66338],[135.48192,34.6637],[135.48187,34.66393],[135.48181,34.66421],[135.48172,34.66468],[135.48168,34.66489],[135.48166,34.66493],[135.48161,34.66512],[135.48136,34.66586],[135.48119,34.66634],[135.48104,34.66673],[135.48091,34.66705],[135.4807,34.66757],[135.48155,34.66775],[135.48233,34.66791],[135.48243,34.66793],[135.48258,34.66751],[135.48263,34.66737],[135.48272,34.66711],[135.48272,34.6671],[135.48277,34.66696],[135.48288,34.66658],[135.48301,34.66612],[135.48328,34.66521],[135.4833,34.66515]]]}},{"type":"Feature","properties":{"name":"木津川二丁目","setai":87,"jinko":220,"key":"27111019002","units":1,"m":101,"f":119,"gk":57,"a0":41,"a1":155,"a2":24,"a75":7,"ag":[13,14,14,5,19,13,28,17,15,15,10,23,10,5,12,3,0,3,0,1,0]},"geometry":{"type":"Polygon","coordinates":[[[135.48459,34.65999],[135.48473,34.65982],[135.48472,34.65982],[135.48495,34.65949],[135.48503,34.65892],[135.48516,34.65804],[135.48521,34.65803],[135.48526,34.65756],[135.48552,34.65753],[135.48532,34.65739],[135.4853,34.65737],[135.48499,34.65711],[135.48494,34.65707],[135.48497,34.65704],[135.48482,34.65686],[135.48466,34.65676],[135.48465,34.65676],[135.4846,34.65682],[135.48453,34.65688],[135.48453,34.65689],[135.48453,34.65689],[135.48453,34.65689],[135.48453,34.65689],[135.48434,34.65677],[135.48412,34.65668],[135.48412,34.65667],[135.48416,34.6566],[135.48414,34.6566],[135.48399,34.65653],[135.48394,34.65661],[135.48394,34.6566],[135.48377,34.65653],[135.4835,34.6564],[135.48342,34.65635],[135.48306,34.65615],[135.48247,34.65576],[135.48206,34.65556],[135.48192,34.6555],[135.48166,34.65546],[135.48129,34.65543],[135.4813,34.65549],[135.48148,34.65632],[135.48162,34.65696],[135.48172,34.65739],[135.48184,34.65806],[135.48197,34.6589],[135.48202,34.65928],[135.48204,34.6594],[135.48207,34.66009],[135.48207,34.66016],[135.48207,34.66057],[135.48205,34.6611],[135.48204,34.6613],[135.48203,34.66136],[135.482,34.66205],[135.48191,34.66329],[135.48191,34.66338],[135.48258,34.6634],[135.48258,34.66318],[135.48257,34.66246],[135.48257,34.66229],[135.4826,34.66205],[135.48266,34.66179],[135.48273,34.66165],[135.48288,34.66146],[135.48301,34.66132],[135.48325,34.66109],[135.48325,34.661],[135.48323,34.66083],[135.48343,34.66075],[135.48374,34.66061],[135.48377,34.66059],[135.4841,34.66042],[135.48413,34.66041],[135.48435,34.66023],[135.48459,34.65999]]]}},{"type":"Feature","properties":{"name":"幸町一丁目","setai":906,"jinko":1369,"key":"27111020001","units":1,"m":645,"f":724,"gk":80,"a0":114,"a1":1060,"a2":175,"a75":70,"ag":[57,38,19,38,102,211,184,138,108,95,69,64,51,55,50,32,22,10,3,1,2],"nf":20},"geometry":{"type":"Polygon","coordinates":[[[135.49458,34.66815],[135.49448,34.66785],[135.49365,34.66795],[135.49323,34.668],[135.49319,34.66801],[135.49179,34.66817],[135.49206,34.66919],[135.49215,34.66954],[135.49351,34.6694],[135.49469,34.66926],[135.49478,34.66925],[135.49471,34.6689],[135.49458,34.66815]]]}},{"type":"Feature","properties":{"name":"幸町二丁目","setai":1485,"jinko":2126,"key":"27111020002","units":1,"m":1006,"f":1120,"gk":134,"a0":138,"a1":1554,"a2":294,"a75":195,"ag":[59,36,43,44,182,323,256,217,160,142,100,77,53,48,51,51,51,49,27,15,2],"nf":140},"geometry":{"type":"Polygon","coordinates":[[[135.49206,34.66919],[135.49179,34.66817],[135.49104,34.66824],[135.4899,34.66836],[135.48986,34.66837],[135.48911,34.66844],[135.4891,34.66845],[135.48875,34.66848],[135.48821,34.66852],[135.48787,34.66856],[135.48738,34.66857],[135.48729,34.66858],[135.48667,34.6686],[135.48663,34.66922],[135.4866,34.66958],[135.48659,34.66963],[135.48655,34.67002],[135.48662,34.67002],[135.48826,34.66987],[135.49007,34.66971],[135.49208,34.66955],[135.49215,34.66954],[135.49206,34.66919]]]}},{"type":"Feature","properties":{"name":"幸町三丁目","setai":1482,"jinko":1984,"key":"27111020003","units":1,"m":911,"f":1073,"gk":112,"a0":117,"a1":1620,"a2":197,"a75":101,"ag":[54,34,29,52,241,323,280,235,139,130,83,81,56,50,46,30,31,31,4,5,0],"nf":50},"geometry":{"type":"Polygon","coordinates":[[[135.48663,34.66922],[135.48667,34.6686],[135.48637,34.66862],[135.48558,34.66848],[135.48524,34.66842],[135.4848,34.66834],[135.48404,34.66822],[135.48371,34.66815],[135.48331,34.66808],[135.48289,34.66801],[135.48243,34.66793],[135.48233,34.66791],[135.48155,34.66775],[135.4807,34.66757],[135.4805,34.66803],[135.48063,34.66823],[135.48086,34.6685],[135.48106,34.66869],[135.48132,34.66891],[135.4816,34.66911],[135.48185,34.66922],[135.48203,34.66927],[135.48256,34.66935],[135.48369,34.66955],[135.48493,34.66976],[135.48589,34.66992],[135.48643,34.67001],[135.48655,34.67002],[135.48659,34.66963],[135.4866,34.66958],[135.48663,34.66922]]]}},{"type":"Feature","properties":{"name":"桜川一丁目","setai":921,"jinko":1219,"key":"27111021001","units":1,"m":578,"f":641,"gk":93,"a0":77,"a1":950,"a2":110,"a75":51,"ag":[50,18,9,36,93,132,159,128,135,94,78,56,39,34,25,10,10,18,9,4,0],"nf":82},"geometry":{"type":"Polygon","coordinates":[[[135.49392,34.66597],[135.49379,34.66558],[135.49343,34.66565],[135.49321,34.6657],[135.49316,34.66571],[135.49297,34.66575],[135.49244,34.66585],[135.4919,34.66596],[135.49118,34.66611],[135.49131,34.6665],[135.4916,34.66741],[135.4916,34.66742],[135.49179,34.66817],[135.49319,34.66801],[135.49323,34.668],[135.49365,34.66795],[135.49448,34.66785],[135.49445,34.66774],[135.49428,34.66722],[135.49425,34.66713],[135.49424,34.66709],[135.49398,34.66618],[135.49395,34.66609],[135.49394,34.66607],[135.49392,34.66597]]]}},{"type":"Feature","properties":{"name":"桜川二丁目","setai":2565,"jinko":3554,"key":"27111021002","units":1,"m":1606,"f":1948,"gk":238,"a0":257,"a1":2791,"a2":406,"a75":190,"ag":[135,86,36,54,320,609,489,426,293,211,174,123,92,105,111,87,48,35,18,2,0],"nf":100},"geometry":{"type":"Polygon","coordinates":[[[135.49131,34.6665],[135.49118,34.66611],[135.4911,34.66584],[135.49032,34.666],[135.48912,34.66626],[135.48899,34.66583],[135.48886,34.66541],[135.48873,34.66499],[135.48869,34.66445],[135.48932,34.6644],[135.48935,34.66439],[135.48935,34.66345],[135.48925,34.66346],[135.48869,34.66349],[135.48807,34.6635],[135.48807,34.66357],[135.48805,34.66403],[135.48804,34.66428],[135.48804,34.66448],[135.48803,34.66542],[135.48809,34.66639],[135.48809,34.6664],[135.48812,34.66701],[135.48814,34.66728],[135.48816,34.6677],[135.48821,34.66852],[135.48875,34.66848],[135.4891,34.66845],[135.48911,34.66844],[135.48986,34.66837],[135.4899,34.66836],[135.49104,34.66824],[135.49179,34.66817],[135.4916,34.66742],[135.4916,34.66741],[135.49131,34.6665]]]}},{"type":"Feature","properties":{"name":"桜川三丁目","setai":680,"jinko":1168,"key":"27111021003","units":1,"m":516,"f":652,"gk":107,"a0":80,"a1":728,"a2":360,"a75":218,"ag":[56,11,13,15,51,97,126,107,74,86,66,58,48,64,78,66,46,55,41,9,1]},"geometry":{"type":"Polygon","coordinates":[[[135.48633,34.66535],[135.48632,34.66535],[135.48596,34.66629],[135.4858,34.66719],[135.48558,34.66848],[135.48637,34.66862],[135.48667,34.6686],[135.48729,34.66858],[135.48738,34.66857],[135.48787,34.66856],[135.48821,34.66852],[135.48816,34.6677],[135.48814,34.66728],[135.48812,34.66701],[135.48809,34.6664],[135.48809,34.66639],[135.48803,34.66542],[135.48751,34.6654],[135.48746,34.6654],[135.48675,34.66537],[135.48675,34.66537],[135.48633,34.66535]]]}},{"type":"Feature","properties":{"name":"桜川四丁目","setai":1608,"jinko":2303,"key":"27111021004","units":1,"m":1108,"f":1195,"gk":151,"a0":190,"a1":1890,"a2":223,"a75":90,"ag":[121,52,17,30,298,411,380,241,158,129,107,58,78,69,64,40,26,17,5,2,0]},"geometry":{"type":"Polygon","coordinates":[[[135.48412,34.66517],[135.48417,34.66434],[135.48419,34.6641],[135.4842,34.66392],[135.48422,34.66347],[135.48424,34.66344],[135.48368,34.66342],[135.48333,34.66341],[135.48284,34.6634],[135.48283,34.66399],[135.48283,34.6644],[135.48283,34.66447],[135.48283,34.66459],[135.48334,34.66441],[135.4833,34.66515],[135.48328,34.66521],[135.48301,34.66612],[135.48288,34.66658],[135.48277,34.66696],[135.48272,34.6671],[135.48272,34.66711],[135.48263,34.66737],[135.48258,34.66751],[135.48243,34.66793],[135.48289,34.66801],[135.48331,34.66808],[135.48371,34.66815],[135.48404,34.66822],[135.4848,34.66834],[135.48524,34.66842],[135.48558,34.66848],[135.4858,34.66719],[135.48596,34.66629],[135.48632,34.66535],[135.48543,34.66532],[135.48475,34.66529],[135.4841,34.66526],[135.48412,34.66517]]]}},{"type":"Feature","properties":{"name":"塩草一丁目","setai":499,"jinko":800,"key":"27111022001","units":1,"m":353,"f":447,"gk":41,"a0":73,"a1":556,"a2":171,"a75":84,"ag":[25,30,18,29,85,98,63,73,60,47,25,36,40,32,55,39,30,14,1,0,0]},"geometry":{"type":"Polygon","coordinates":[[[135.49431,34.66299],[135.4943,34.66298],[135.4943,34.66298],[135.49367,34.66107],[135.49353,34.6611],[135.49339,34.66071],[135.49326,34.66031],[135.49326,34.66031],[135.49283,34.66039],[135.49279,34.66041],[135.49223,34.66061],[135.49172,34.66065],[135.49093,34.66065],[135.49009,34.66063],[135.49009,34.66065],[135.49012,34.66161],[135.49027,34.66249],[135.49032,34.66276],[135.49037,34.663],[135.49044,34.66336],[135.49173,34.66326],[135.4918,34.66325],[135.49306,34.66314],[135.49357,34.66308],[135.49431,34.66299]]]}},{"type":"Feature","properties":{"name":"塩草二丁目","setai":428,"jinko":790,"key":"27111022002","units":1,"m":390,"f":400,"gk":60,"a0":94,"a1":565,"a2":121,"a75":59,"ag":[33,41,20,22,49,103,88,63,61,63,37,41,38,24,38,19,13,18,8,1,0],"nf":10},"geometry":{"type":"Polygon","coordinates":[[[135.49287,34.65864],[135.49271,34.6581],[135.49156,34.65854],[135.49095,34.65877],[135.49073,34.65885],[135.49046,34.65894],[135.49025,34.65901],[135.49022,34.65902],[135.49016,34.65973],[135.49016,34.65973],[135.49009,34.66063],[135.49093,34.66065],[135.49172,34.66065],[135.49223,34.66061],[135.49279,34.66041],[135.49283,34.66039],[135.49326,34.66031],[135.49312,34.65988],[135.49308,34.65978],[135.49322,34.65974],[135.49313,34.65946],[135.49312,34.65942],[135.49297,34.65895],[135.49296,34.65893],[135.49289,34.65869],[135.49287,34.65864]]]}},{"type":"Feature","properties":{"name":"塩草三丁目","setai":1331,"jinko":1913,"key":"27111022003","units":1,"m":946,"f":967,"gk":106,"a0":118,"a1":1462,"a2":302,"a75":142,"ag":[49,40,29,43,217,358,261,171,117,115,66,65,49,65,95,56,50,25,9,2,0],"nf":31},"geometry":{"type":"Polygon","coordinates":[[[135.49009,34.66063],[135.49016,34.65973],[135.49016,34.65973],[135.49022,34.65902],[135.48963,34.65924],[135.48962,34.65924],[135.48942,34.65931],[135.48906,34.65944],[135.48844,34.65965],[135.48838,34.65971],[135.48818,34.66002],[135.48817,34.65999],[135.48817,34.6602],[135.48817,34.66032],[135.48815,34.66084],[135.48813,34.66156],[135.48813,34.66158],[135.48811,34.66242],[135.48811,34.66246],[135.48809,34.66292],[135.48807,34.6635],[135.48869,34.66349],[135.48925,34.66346],[135.48935,34.66345],[135.49044,34.66336],[135.49037,34.663],[135.49032,34.66276],[135.49027,34.66249],[135.49012,34.66161],[135.49009,34.66065],[135.49009,34.66063]]]}},{"type":"Feature","properties":{"name":"稲荷一丁目","setai":1040,"jinko":1514,"key":"27111023001","units":1,"m":712,"f":802,"gk":111,"a0":118,"a1":1187,"a2":148,"a75":76,"ag":[57,35,26,33,144,226,224,171,122,97,76,60,34,34,38,39,27,6,4,0,0],"nf":61},"geometry":{"type":"Polygon","coordinates":[[[135.49323,34.66371],[135.49306,34.66314],[135.4918,34.66325],[135.49173,34.66326],[135.49044,34.66336],[135.49061,34.66428],[135.49073,34.66467],[135.49085,34.66504],[135.49089,34.66518],[135.4911,34.66584],[135.49118,34.66611],[135.4919,34.66596],[135.49244,34.66585],[135.49297,34.66575],[135.49316,34.66571],[135.49321,34.6657],[135.49343,34.66565],[135.49379,34.66558],[135.49377,34.66553],[135.49346,34.66447],[135.49346,34.66444],[135.49331,34.66398],[135.49323,34.66371]]]}},{"type":"Feature","properties":{"name":"稲荷二丁目","setai":832,"jinko":1218,"key":"27111023002","units":1,"m":571,"f":647,"gk":62,"a0":83,"a1":871,"a2":194,"a75":119,"ag":[41,29,13,16,99,185,185,118,84,76,58,27,23,35,40,25,36,35,15,8,0],"nf":70},"geometry":{"type":"Polygon","coordinates":[[[135.49061,34.66428],[135.49044,34.66336],[135.48935,34.66345],[135.48935,34.66439],[135.48932,34.6644],[135.48869,34.66445],[135.48873,34.66499],[135.48886,34.66541],[135.48899,34.66583],[135.48912,34.66626],[135.49032,34.666],[135.4911,34.66584],[135.49089,34.66518],[135.49085,34.66504],[135.49073,34.66467],[135.49061,34.66428]]]}}]}