{"type":"FeatureCollection","features":[{"type":"Feature","properties":{"name":"本町一丁目","setai":623,"jinko":1423,"key":"11228001001","units":1},"geometry":{"type":"Polygon","coordinates":[[[139.57996,35.83538],[139.57988,35.83527],[139.57981,35.83517],[139.57972,35.83506],[139.57956,35.83489],[139.57946,35.83451],[139.57931,35.83383],[139.57922,35.83344],[139.57916,35.83304],[139.57915,35.83298],[139.5791,35.8326],[139.57891,35.83198],[139.57887,35.83179],[139.5787,35.83117],[139.57856,35.83039],[139.57855,35.83028],[139.57852,35.83001],[139.57851,35.83001],[139.57834,35.83004],[139.57813,35.83008],[139.57801,35.83009],[139.57783,35.83012],[139.57773,35.83014],[139.57761,35.83018],[139.57748,35.83025],[139.57742,35.83028],[139.57737,35.8303],[139.57731,35.83034],[139.57723,35.83045],[139.57688,35.83058],[139.57658,35.83069],[139.57617,35.83084],[139.57575,35.83099],[139.57536,35.83113],[139.57537,35.83118],[139.57561,35.83194],[139.57566,35.8321],[139.57584,35.83243],[139.57597,35.83262],[139.57611,35.8328],[139.57625,35.83294],[139.57635,35.83303],[139.57649,35.83316],[139.57652,35.83318],[139.57672,35.83336],[139.5773,35.83386],[139.57749,35.83402],[139.57757,35.83409],[139.57768,35.83418],[139.57768,35.83426],[139.57772,35.83434],[139.57779,35.83445],[139.57783,35.83453],[139.57793,35.83468],[139.57797,35.83475],[139.578,35.83485],[139.57807,35.83513],[139.57808,35.83522],[139.57824,35.83523],[139.57834,35.83525],[139.57844,35.83529],[139.57856,35.83532],[139.57877,35.83539],[139.57891,35.83543],[139.57898,35.83543],[139.57906,35.83543],[139.57921,35.83537],[139.57928,35.83534],[139.57934,35.83532],[139.57941,35.8353],[139.57944,35.8353],[139.57951,35.8353],[139.57957,35.8353],[139.5796,35.83531],[139.57964,35.83532],[139.57967,35.83534],[139.57969,35.83535],[139.57974,35.83538],[139.57979,35.83542],[139.5799,35.83553],[139.57996,35.83559],[139.58011,35.83554],[139.58002,35.83544],[139.57996,35.83538]]]}},{"type":"Feature","properties":{"name":"本町二丁目","setai":854,"jinko":2158,"key":"11228001002","units":1},"geometry":{"type":"Polygon","coordinates":[[[139.58679,35.83118],[139.58672,35.83108],[139.58671,35.83107],[139.58666,35.831],[139.58659,35.83101],[139.58652,35.83101],[139.58637,35.83106],[139.58627,35.83113],[139.58623,35.83113],[139.58615,35.83112],[139.58614,35.83105],[139.58613,35.83095],[139.58612,35.83093],[139.58607,35.8309],[139.58601,35.83089],[139.58591,35.83082],[139.58585,35.83078],[139.58582,35.83068],[139.58576,35.83064],[139.58573,35.83058],[139.58567,35.83054],[139.58538,35.83055],[139.5853,35.83051],[139.58519,35.83043],[139.58498,35.83028],[139.58504,35.83021],[139.58493,35.83014],[139.58499,35.83007],[139.58494,35.83004],[139.58486,35.83],[139.58472,35.82991],[139.58436,35.82966],[139.58433,35.82964],[139.58392,35.82936],[139.58383,35.82945],[139.58375,35.82953],[139.58413,35.82985],[139.58413,35.82986],[139.58414,35.82987],[139.58403,35.83003],[139.58402,35.83008],[139.58404,35.8302],[139.58406,35.83024],[139.58405,35.83031],[139.58396,35.8304],[139.58387,35.83051],[139.58377,35.83069],[139.58371,35.83078],[139.58365,35.83084],[139.58355,35.8309],[139.58321,35.831],[139.5832,35.83101],[139.58297,35.83109],[139.5827,35.83123],[139.58203,35.8316],[139.582,35.83161],[139.58159,35.83185],[139.58149,35.8319],[139.5814,35.83194],[139.58118,35.83202],[139.581,35.83208],[139.58085,35.83212],[139.58044,35.83225],[139.57992,35.83242],[139.57954,35.83252],[139.5791,35.8326],[139.57915,35.83298],[139.57916,35.83304],[139.57922,35.83344],[139.57931,35.83383],[139.57946,35.83451],[139.57956,35.83489],[139.57972,35.83506],[139.57981,35.83517],[139.57988,35.83527],[139.57996,35.83538],[139.58002,35.83544],[139.58011,35.83554],[139.58054,35.8354],[139.58062,35.83537],[139.58076,35.83532],[139.58124,35.83511],[139.58164,35.83491],[139.58203,35.83473],[139.58216,35.83469],[139.58228,35.83466],[139.58242,35.8346],[139.58262,35.83452],[139.58266,35.83451],[139.58277,35.83446],[139.58288,35.83435],[139.58295,35.83427],[139.58303,35.83416],[139.58313,35.83405],[139.58323,35.83391],[139.58333,35.83377],[139.58348,35.83358],[139.58361,35.83341],[139.58369,35.83331],[139.58382,35.83314],[139.58402,35.83293],[139.58425,35.83273],[139.58494,35.83233],[139.58531,35.83212],[139.58535,35.8321],[139.58544,35.83205],[139.58662,35.8314],[139.5867,35.83136],[139.58687,35.83126],[139.58679,35.83118]]]}},{"type":"Feature","properties":{"name":"本町三丁目","setai":904,"jinko":2061,"key":"11228001003","units":1},"geometry":{"type":"Polygon","coordinates":[[[139.58214,35.82944],[139.58211,35.82944],[139.58147,35.82943],[139.58137,35.82943],[139.58135,35.82942],[139.58132,35.8294],[139.58097,35.82911],[139.58082,35.8289],[139.58076,35.8288],[139.58073,35.82871],[139.58072,35.82864],[139.5807,35.82856],[139.58069,35.82849],[139.58068,35.82842],[139.58065,35.82835],[139.5806,35.82825],[139.58055,35.82824],[139.58048,35.82839],[139.58045,35.82845],[139.58033,35.82868],[139.5803,35.82873],[139.58025,35.8288],[139.58017,35.82889],[139.58008,35.82898],[139.57932,35.8295],[139.57853,35.83001],[139.57852,35.83001],[139.57855,35.83028],[139.57856,35.83039],[139.5787,35.83117],[139.57887,35.83179],[139.57891,35.83198],[139.5791,35.8326],[139.57954,35.83252],[139.57992,35.83242],[139.58044,35.83225],[139.58085,35.83212],[139.581,35.83208],[139.58118,35.83202],[139.5814,35.83194],[139.58149,35.8319],[139.58159,35.83185],[139.582,35.83161],[139.58203,35.8316],[139.5827,35.83123],[139.58297,35.83109],[139.5832,35.83101],[139.58321,35.831],[139.58355,35.8309],[139.58365,35.83084],[139.58371,35.83078],[139.58377,35.83069],[139.58387,35.83051],[139.58396,35.8304],[139.58405,35.83031],[139.58406,35.83024],[139.58404,35.8302],[139.58402,35.83008],[139.58403,35.83003],[139.58414,35.82987],[139.58413,35.82986],[139.58413,35.82985],[139.58375,35.82953],[139.58311,35.82947],[139.58272,35.82945],[139.58214,35.82944]]]}},{"type":"Feature","properties":{"name":"本町四丁目","setai":1141,"jinko":2440,"key":"11228001004","units":1},"geometry":{"type":"Polygon","coordinates":[[[139.58048,35.82839],[139.58055,35.82824],[139.5806,35.82825],[139.58094,35.82813],[139.58098,35.8282],[139.58099,35.82826],[139.58096,35.82849],[139.58106,35.82849],[139.5811,35.82829],[139.58116,35.82828],[139.5812,35.82832],[139.58126,35.82838],[139.5813,35.82848],[139.58134,35.8286],[139.5817,35.82843],[139.58164,35.82839],[139.5816,35.82834],[139.58152,35.82825],[139.58133,35.82796],[139.58151,35.82792],[139.58164,35.82789],[139.58176,35.82788],[139.58184,35.82785],[139.5819,35.82782],[139.58195,35.82779],[139.58183,35.82753],[139.58166,35.82758],[139.58157,35.82731],[139.5818,35.82723],[139.58167,35.82703],[139.58165,35.827],[139.5817,35.82699],[139.58164,35.82684],[139.58183,35.82677],[139.58177,35.82671],[139.58162,35.82655],[139.58182,35.82645],[139.5818,35.82639],[139.58174,35.82624],[139.58174,35.82624],[139.58172,35.82621],[139.58208,35.82614],[139.58213,35.82621],[139.58225,35.82616],[139.58203,35.82565],[139.58198,35.82554],[139.5823,35.82532],[139.58231,35.82532],[139.58277,35.82501],[139.58293,35.82489],[139.58281,35.82473],[139.58274,35.82464],[139.58267,35.82454],[139.58255,35.82432],[139.58248,35.82418],[139.58243,35.82411],[139.58242,35.8241],[139.58231,35.82391],[139.58185,35.82396],[139.58172,35.82397],[139.58169,35.82398],[139.58123,35.82403],[139.58114,35.82404],[139.58113,35.82404],[139.58112,35.82404],[139.58136,35.82321],[139.58151,35.82267],[139.58152,35.82264],[139.58129,35.82267],[139.581,35.82272],[139.58064,35.82277],[139.58014,35.82284],[139.57818,35.82308],[139.57813,35.8231],[139.57738,35.82331],[139.57719,35.82336],[139.57723,35.82359],[139.5773,35.82385],[139.5774,35.82415],[139.57748,35.82443],[139.57758,35.82471],[139.57762,35.82482],[139.57766,35.82497],[139.57767,35.82499],[139.57775,35.82521],[139.57802,35.826],[139.57841,35.82707],[139.57875,35.82802],[139.57914,35.82903],[139.57932,35.8295],[139.58008,35.82898],[139.58017,35.82889],[139.58025,35.8288],[139.5803,35.82873],[139.58033,35.82868],[139.58045,35.82845],[139.58048,35.82839]]]}},{"type":"Feature","properties":{"name":"本町五丁目","setai":2661,"jinko":5675,"key":"11228001005","units":1},"geometry":{"type":"Polygon","coordinates":[[[139.57719,35.82336],[139.57707,35.8227],[139.57648,35.8228],[139.57646,35.82273],[139.57634,35.82261],[139.57634,35.82261],[139.57633,35.82261],[139.57582,35.82297],[139.57534,35.8233],[139.57532,35.8233],[139.57528,35.82319],[139.57514,35.82321],[139.57509,35.82322],[139.57504,35.8231],[139.57502,35.82306],[139.57496,35.82293],[139.5749,35.82293],[139.57489,35.82289],[139.57468,35.82282],[139.57456,35.82279],[139.57444,35.82286],[139.57436,35.82291],[139.57412,35.82289],[139.57326,35.82336],[139.5733,35.82345],[139.57344,35.82369],[139.5735,35.82382],[139.57356,35.82393],[139.57371,35.8242],[139.57388,35.82447],[139.57389,35.82448],[139.57395,35.82457],[139.57413,35.82484],[139.5744,35.82525],[139.57452,35.82542],[139.57455,35.82546],[139.57471,35.82568],[139.57484,35.82586],[139.57494,35.82602],[139.57515,35.82629],[139.57533,35.8265],[139.57562,35.82682],[139.57572,35.82694],[139.57598,35.82724],[139.57598,35.82724],[139.57662,35.828],[139.57682,35.82824],[139.57689,35.82832],[139.57705,35.82846],[139.57732,35.82884],[139.57737,35.8289],[139.57742,35.82897],[139.57749,35.82904],[139.57756,35.82913],[139.57771,35.82928],[139.5779,35.82943],[139.57805,35.82956],[139.57837,35.82981],[139.57842,35.82988],[139.57847,35.82995],[139.57851,35.83001],[139.57852,35.83001],[139.57853,35.83001],[139.57932,35.8295],[139.57914,35.82903],[139.57875,35.82802],[139.57841,35.82707],[139.57802,35.826],[139.57775,35.82521],[139.57767,35.82499],[139.57766,35.82497],[139.57762,35.82482],[139.57758,35.82471],[139.57748,35.82443],[139.5774,35.82415],[139.5773,35.82385],[139.57723,35.82359],[139.57719,35.82336]]]}},{"type":"Feature","properties":{"name":"本町六丁目","setai":1861,"jinko":3456,"key":"11228001006","units":1},"geometry":{"type":"Polygon","coordinates":[[[139.57344,35.82369],[139.5733,35.82345],[139.5728,35.82378],[139.57277,35.82379],[139.57271,35.82383],[139.57236,35.82406],[139.57232,35.82408],[139.57217,35.82418],[139.57184,35.8244],[139.57171,35.82449],[139.57158,35.82457],[139.57155,35.82459],[139.57134,35.82473],[139.57092,35.825],[139.57037,35.82536],[139.57044,35.82542],[139.57162,35.82655],[139.57196,35.82688],[139.57212,35.82704],[139.57324,35.8281],[139.57345,35.8283],[139.57378,35.82863],[139.57408,35.82891],[139.57437,35.82921],[139.57444,35.82929],[139.57454,35.82941],[139.57464,35.82957],[139.57479,35.82977],[139.57487,35.8299],[139.57491,35.82996],[139.57496,35.83005],[139.57501,35.83015],[139.57511,35.83037],[139.57515,35.83045],[139.57521,35.83065],[139.57525,35.83077],[139.57529,35.83092],[139.57536,35.83113],[139.57575,35.83099],[139.57617,35.83084],[139.57658,35.83069],[139.57688,35.83058],[139.57723,35.83045],[139.57731,35.83034],[139.57737,35.8303],[139.57742,35.83028],[139.57748,35.83025],[139.57761,35.83018],[139.57773,35.83014],[139.57783,35.83012],[139.57801,35.83009],[139.57813,35.83008],[139.57834,35.83004],[139.57851,35.83001],[139.57847,35.82995],[139.57842,35.82988],[139.57837,35.82981],[139.57805,35.82956],[139.5779,35.82943],[139.57771,35.82928],[139.57756,35.82913],[139.57749,35.82904],[139.57742,35.82897],[139.57737,35.8289],[139.57732,35.82884],[139.57705,35.82846],[139.57689,35.82832],[139.57682,35.82824],[139.57662,35.828],[139.57598,35.82724],[139.57598,35.82724],[139.57572,35.82694],[139.57562,35.82682],[139.57533,35.8265],[139.57515,35.82629],[139.57494,35.82602],[139.57484,35.82586],[139.57471,35.82568],[139.57455,35.82546],[139.57452,35.82542],[139.5744,35.82525],[139.57413,35.82484],[139.57395,35.82457],[139.57389,35.82448],[139.57388,35.82447],[139.57371,35.8242],[139.57356,35.82393],[139.5735,35.82382],[139.57344,35.82369]]]}},{"type":"Feature","properties":{"name":"柏町一丁目","setai":2056,"jinko":5345,"key":"11228002001","units":1},"geometry":{"type":"Polygon","coordinates":[[[139.57634,35.83848],[139.57636,35.83837],[139.57651,35.83839],[139.57652,35.83827],[139.57657,35.83805],[139.5765,35.83804],[139.57651,35.83801],[139.5765,35.83801],[139.57652,35.83796],[139.57653,35.83791],[139.57659,35.83791],[139.57661,35.83782],[139.57668,35.83783],[139.57673,35.83783],[139.5768,35.83794],[139.57686,35.83808],[139.57688,35.83817],[139.57691,35.83827],[139.57693,35.83832],[139.57698,35.83836],[139.57702,35.83839],[139.57706,35.8384],[139.5771,35.83841],[139.57714,35.8384],[139.57719,35.83838],[139.57723,35.83836],[139.57727,35.83833],[139.57729,35.8383],[139.57732,35.83826],[139.57734,35.83822],[139.57736,35.83809],[139.57738,35.83796],[139.5774,35.83786],[139.57745,35.83778],[139.5775,35.83772],[139.57754,35.8377],[139.57761,35.83769],[139.57768,35.8377],[139.57774,35.8377],[139.57778,35.8377],[139.57782,35.83771],[139.57793,35.83774],[139.57804,35.83777],[139.57813,35.83781],[139.57821,35.83784],[139.57825,35.8378],[139.57825,35.8378],[139.57833,35.83773],[139.57837,35.83769],[139.57838,35.83764],[139.57838,35.8376],[139.57839,35.83749],[139.5784,35.83743],[139.5784,35.83739],[139.57841,35.83723],[139.57839,35.83721],[139.57839,35.83719],[139.57837,35.83717],[139.57834,35.83716],[139.57828,35.83712],[139.57799,35.83699],[139.57796,35.83698],[139.57797,35.83695],[139.57798,35.8369],[139.57799,35.83681],[139.57804,35.83678],[139.57812,35.83675],[139.57819,35.83671],[139.57864,35.83651],[139.57868,35.83655],[139.57872,35.83659],[139.57879,35.83666],[139.57883,35.83669],[139.5789,35.83665],[139.57888,35.83659],[139.57886,35.83654],[139.57883,35.83648],[139.57874,35.83629],[139.57893,35.83616],[139.57979,35.83562],[139.5799,35.83553],[139.57979,35.83542],[139.57974,35.83538],[139.57969,35.83535],[139.57967,35.83534],[139.57964,35.83532],[139.5796,35.83531],[139.57957,35.8353],[139.57951,35.8353],[139.57944,35.8353],[139.57941,35.8353],[139.57934,35.83532],[139.57928,35.83534],[139.57921,35.83537],[139.57906,35.83543],[139.57898,35.83543],[139.57891,35.83543],[139.57877,35.83539],[139.57856,35.83532],[139.57844,35.83529],[139.57834,35.83525],[139.57824,35.83523],[139.57808,35.83522],[139.57807,35.83513],[139.578,35.83485],[139.57797,35.83475],[139.57793,35.83468],[139.57783,35.83453],[139.57779,35.83445],[139.57772,35.83434],[139.57768,35.83426],[139.57768,35.83418],[139.57757,35.83409],[139.57749,35.83402],[139.5773,35.83386],[139.57672,35.83336],[139.57652,35.83318],[139.57649,35.83316],[139.57635,35.83303],[139.57625,35.83294],[139.57611,35.8328],[139.57597,35.83262],[139.57584,35.83243],[139.57566,35.8321],[139.57561,35.83194],[139.57537,35.83118],[139.5749,35.83119],[139.57467,35.83121],[139.57433,35.83124],[139.57375,35.83126],[139.57342,35.83127],[139.57334,35.83128],[139.57329,35.83128],[139.57299,35.8313],[139.57251,35.83135],[139.57244,35.83151],[139.57239,35.83164],[139.57249,35.83182],[139.5726,35.83199],[139.57269,35.83213],[139.57266,35.83221],[139.57264,35.83227],[139.57257,35.83243],[139.5725,35.83255],[139.57235,35.83283],[139.57231,35.83297],[139.57228,35.83306],[139.57225,35.83314],[139.57217,35.83339],[139.57214,35.8335],[139.57211,35.8336],[139.57206,35.83366],[139.57201,35.83372],[139.57195,35.83379],[139.57189,35.83386],[139.57154,35.8343],[139.57162,35.83434],[139.57244,35.83443],[139.57263,35.83446],[139.57279,35.83452],[139.57292,35.83458],[139.57311,35.83471],[139.57322,35.83479],[139.57331,35.83491],[139.57336,35.83499],[139.57345,35.83507],[139.57354,35.83515],[139.5736,35.83518],[139.57373,35.83525],[139.57393,35.83534],[139.57411,35.8354],[139.57432,35.83542],[139.57449,35.83543],[139.57476,35.83541],[139.575,35.83539],[139.575,35.83541],[139.5747,35.83572],[139.57449,35.83593],[139.57425,35.83617],[139.57401,35.83641],[139.57377,35.83664],[139.57352,35.83688],[139.57359,35.83693],[139.57356,35.83696],[139.57392,35.83718],[139.57407,35.83719],[139.57418,35.8372],[139.57431,35.8372],[139.57441,35.8372],[139.5745,35.8372],[139.57459,35.8372],[139.57469,35.8372],[139.57481,35.83724],[139.57494,35.83728],[139.57504,35.83731],[139.57511,35.83736],[139.57505,35.83766],[139.57499,35.83784],[139.57496,35.83807],[139.57513,35.8381],[139.5752,35.83811],[139.57521,35.83808],[139.57522,35.83799],[139.57522,35.83799],[139.57522,35.83799],[139.57532,35.838],[139.57534,35.83789],[139.57538,35.83789],[139.57556,35.83791],[139.57558,35.8378],[139.57568,35.83781],[139.5757,35.8377],[139.57574,35.83771],[139.57577,35.83751],[139.57587,35.8375],[139.57599,35.83749],[139.57613,35.83748],[139.57629,35.83746],[139.57628,35.83756],[139.57624,35.83777],[139.57612,35.83775],[139.5761,35.83788],[139.576,35.83787],[139.57599,35.83797],[139.57594,35.83797],[139.57593,35.83808],[139.57584,35.83807],[139.5758,35.83807],[139.57579,35.83813],[139.57578,35.83818],[139.57578,35.83818],[139.57572,35.83818],[139.5757,35.83829],[139.57568,35.8384],[139.57598,35.83844],[139.57623,35.83847],[139.57634,35.83848]]]}},{"type":"Feature","properties":{"name":"柏町二丁目","setai":565,"jinko":1367,"key":"11228002002","units":1},"geometry":{"type":"Polygon","coordinates":[[[139.57307,35.83817],[139.57333,35.8379],[139.57348,35.83802],[139.57362,35.83814],[139.5737,35.83821],[139.57385,35.83833],[139.57389,35.83833],[139.57403,35.83831],[139.57414,35.8383],[139.57416,35.83818],[139.5741,35.83818],[139.57411,35.8381],[139.57405,35.83808],[139.57405,35.83802],[139.57398,35.83801],[139.57393,35.838],[139.57388,35.83799],[139.57388,35.83798],[139.57388,35.83798],[139.5739,35.8379],[139.57378,35.83787],[139.57379,35.83779],[139.57372,35.83777],[139.57378,35.8376],[139.57392,35.83718],[139.57356,35.83696],[139.57359,35.83693],[139.57352,35.83688],[139.57377,35.83664],[139.57401,35.83641],[139.57425,35.83617],[139.57449,35.83593],[139.5747,35.83572],[139.575,35.83541],[139.575,35.83539],[139.57476,35.83541],[139.57449,35.83543],[139.57432,35.83542],[139.57411,35.8354],[139.57393,35.83534],[139.57373,35.83525],[139.5736,35.83518],[139.57354,35.83515],[139.57345,35.83507],[139.57336,35.83499],[139.57331,35.83491],[139.57322,35.83479],[139.57311,35.83471],[139.57292,35.83458],[139.57279,35.83452],[139.57263,35.83446],[139.57244,35.83443],[139.57162,35.83434],[139.57154,35.8343],[139.57189,35.83386],[139.57195,35.83379],[139.57201,35.83372],[139.57206,35.83366],[139.57211,35.8336],[139.57214,35.8335],[139.57217,35.83339],[139.57225,35.83314],[139.57228,35.83306],[139.57231,35.83297],[139.57235,35.83283],[139.5725,35.83255],[139.57225,35.83238],[139.57206,35.83224],[139.57183,35.83246],[139.57167,35.83257],[139.57148,35.8327],[139.57145,35.83282],[139.57131,35.83319],[139.57124,35.83333],[139.57119,35.83338],[139.57095,35.83355],[139.57073,35.83376],[139.57073,35.83394],[139.57072,35.83401],[139.57057,35.83416],[139.57033,35.8344],[139.56994,35.83478],[139.56996,35.83479],[139.57053,35.83495],[139.57091,35.83506],[139.57114,35.83515],[139.57131,35.83524],[139.57138,35.83528],[139.57144,35.8354],[139.57185,35.83576],[139.57224,35.83607],[139.57223,35.83608],[139.57205,35.83607],[139.57195,35.83607],[139.5719,35.83609],[139.57185,35.83611],[139.57183,35.83614],[139.57183,35.83617],[139.57184,35.8362],[139.57187,35.83624],[139.57191,35.83628],[139.57199,35.83634],[139.57208,35.83639],[139.57217,35.83642],[139.57228,35.83647],[139.57247,35.83655],[139.57249,35.83656],[139.57248,35.83658],[139.57246,35.83664],[139.57243,35.83671],[139.5724,35.83677],[139.57238,35.83679],[139.57235,35.8368],[139.57233,35.8368],[139.57232,35.83681],[139.5723,35.83681],[139.57228,35.83681],[139.57225,35.83681],[139.57223,35.83678],[139.57222,35.83675],[139.5722,35.83672],[139.57217,35.83669],[139.57214,35.83666],[139.5721,35.83664],[139.57202,35.83663],[139.57188,35.83662],[139.57173,35.83661],[139.57162,35.83662],[139.57155,35.83665],[139.5715,35.8367],[139.57149,35.83673],[139.57148,35.83677],[139.57147,35.83682],[139.57147,35.83685],[139.57149,35.83691],[139.57152,35.83697],[139.57157,35.83705],[139.57162,35.83713],[139.57166,35.83721],[139.57169,35.83725],[139.57172,35.83731],[139.57175,35.83735],[139.57176,35.83738],[139.57171,35.83744],[139.57161,35.83754],[139.5715,35.83764],[139.57151,35.83772],[139.57159,35.83778],[139.57161,35.83781],[139.57166,35.83785],[139.57168,35.83786],[139.57187,35.83797],[139.57219,35.83816],[139.57225,35.83819],[139.5725,35.83832],[139.57263,35.83837],[139.57269,35.83838],[139.57274,35.83839],[139.57277,35.8384],[139.57281,35.83839],[139.57289,35.83834],[139.57292,35.83832],[139.57296,35.83828],[139.57303,35.83821],[139.57307,35.83817]]]}},{"type":"Feature","properties":{"name":"柏町三丁目","setai":611,"jinko":1391,"key":"11228002003","units":1},"geometry":{"type":"Polygon","coordinates":[[[139.57125,35.83552],[139.57144,35.8354],[139.57138,35.83528],[139.57131,35.83524],[139.57114,35.83515],[139.57091,35.83506],[139.57053,35.83495],[139.56996,35.83479],[139.56994,35.83478],[139.57033,35.8344],[139.57057,35.83416],[139.57072,35.83401],[139.57073,35.83394],[139.57073,35.83376],[139.57095,35.83355],[139.57119,35.83338],[139.57124,35.83333],[139.57131,35.83319],[139.57145,35.83282],[139.57148,35.8327],[139.57167,35.83257],[139.57183,35.83246],[139.57206,35.83224],[139.57225,35.83238],[139.5725,35.83255],[139.57257,35.83243],[139.57264,35.83227],[139.57266,35.83221],[139.57269,35.83213],[139.5726,35.83199],[139.57249,35.83182],[139.57239,35.83164],[139.57244,35.83151],[139.57251,35.83135],[139.57231,35.83126],[139.57224,35.8312],[139.57214,35.83112],[139.57202,35.83102],[139.57189,35.8309],[139.57179,35.83082],[139.57169,35.83078],[139.57155,35.83074],[139.57133,35.83069],[139.57132,35.83069],[139.57107,35.83062],[139.57098,35.83058],[139.57087,35.83053],[139.5707,35.83046],[139.57055,35.83041],[139.57024,35.83037],[139.56998,35.83034],[139.56955,35.83033],[139.56935,35.83036],[139.56919,35.83038],[139.56913,35.83041],[139.56894,35.83054],[139.56879,35.83064],[139.5686,35.83076],[139.5685,35.83082],[139.56844,35.83085],[139.56836,35.8309],[139.56821,35.83098],[139.56812,35.83104],[139.56824,35.83121],[139.56828,35.83127],[139.56833,35.83134],[139.56837,35.8314],[139.56839,35.83144],[139.5684,35.83146],[139.56842,35.83154],[139.56844,35.83162],[139.56847,35.8317],[139.56848,35.83174],[139.56848,35.83175],[139.56848,35.83183],[139.5685,35.83195],[139.56851,35.83208],[139.56852,35.83216],[139.56842,35.8323],[139.56835,35.83241],[139.56827,35.83256],[139.5682,35.83271],[139.56819,35.83278],[139.56824,35.83283],[139.56821,35.8329],[139.56814,35.83311],[139.56814,35.83314],[139.5682,35.83338],[139.56825,35.83351],[139.56827,35.83363],[139.56824,35.83365],[139.56831,35.83373],[139.56845,35.83389],[139.56853,35.83397],[139.5685,35.83409],[139.56843,35.83439],[139.56841,35.83447],[139.56839,35.83459],[139.56843,35.83463],[139.56867,35.83482],[139.56885,35.83492],[139.569,35.83499],[139.56926,35.8351],[139.56943,35.83529],[139.56959,35.83547],[139.56996,35.83558],[139.57022,35.83551],[139.57059,35.83546],[139.57081,35.83553],[139.57098,35.83559],[139.57103,35.83558],[139.57109,35.83557],[139.57125,35.83552]]]}},{"type":"Feature","properties":{"name":"柏町四丁目","setai":900,"jinko":1776,"key":"11228002004","units":1},"geometry":{"type":"Polygon","coordinates":[[[139.57212,35.82704],[139.57196,35.82688],[139.57161,35.82728],[139.57147,35.82745],[139.57142,35.82753],[139.57134,35.8277],[139.57133,35.82773],[139.5713,35.82781],[139.57124,35.82792],[139.57123,35.82794],[139.57118,35.82805],[139.57108,35.82828],[139.57096,35.8286],[139.57088,35.82883],[139.57068,35.82913],[139.57059,35.82927],[139.57052,35.82939],[139.57046,35.82948],[139.57043,35.82958],[139.57037,35.8298],[139.57033,35.8299],[139.57026,35.83007],[139.57022,35.83012],[139.57017,35.83017],[139.56998,35.83034],[139.57024,35.83037],[139.57055,35.83041],[139.5707,35.83046],[139.57087,35.83053],[139.57098,35.83058],[139.57107,35.83062],[139.57132,35.83069],[139.57133,35.83069],[139.57155,35.83074],[139.57169,35.83078],[139.57179,35.83082],[139.57189,35.8309],[139.57202,35.83102],[139.57214,35.83112],[139.57224,35.8312],[139.57231,35.83126],[139.57251,35.83135],[139.57299,35.8313],[139.57329,35.83128],[139.57334,35.83128],[139.57342,35.83127],[139.57375,35.83126],[139.57433,35.83124],[139.57467,35.83121],[139.5749,35.83119],[139.57537,35.83118],[139.57536,35.83113],[139.57529,35.83092],[139.57525,35.83077],[139.57521,35.83065],[139.57515,35.83045],[139.57511,35.83037],[139.57501,35.83015],[139.57496,35.83005],[139.57491,35.82996],[139.57487,35.8299],[139.57479,35.82977],[139.57464,35.82957],[139.57454,35.82941],[139.57444,35.82929],[139.57437,35.82921],[139.57408,35.82891],[139.57378,35.82863],[139.57345,35.8283],[139.57324,35.8281],[139.57212,35.82704]]]}},{"type":"Feature","properties":{"name":"柏町五丁目","setai":962,"jinko":1990,"key":"11228002005","units":1},"geometry":{"type":"Polygon","coordinates":[[[139.56935,35.83036],[139.56955,35.83033],[139.56998,35.83034],[139.57017,35.83017],[139.57022,35.83012],[139.57026,35.83007],[139.57033,35.8299],[139.57037,35.8298],[139.57043,35.82958],[139.57046,35.82948],[139.57052,35.82939],[139.57059,35.82927],[139.57068,35.82913],[139.57088,35.82883],[139.57096,35.8286],[139.57108,35.82828],[139.57118,35.82805],[139.57123,35.82794],[139.57124,35.82792],[139.5713,35.82781],[139.57133,35.82773],[139.57134,35.8277],[139.57142,35.82753],[139.57147,35.82745],[139.57161,35.82728],[139.57196,35.82688],[139.57162,35.82655],[139.57044,35.82542],[139.56956,35.82601],[139.56843,35.82676],[139.56761,35.82732],[139.56686,35.82782],[139.56597,35.82832],[139.56582,35.82842],[139.56577,35.82846],[139.56577,35.82858],[139.56568,35.82873],[139.56563,35.82881],[139.56572,35.829],[139.56574,35.82904],[139.56612,35.82914],[139.56623,35.82916],[139.5668,35.82927],[139.56697,35.82937],[139.56703,35.8294],[139.56707,35.82943],[139.56715,35.82947],[139.56733,35.82957],[139.56771,35.82995],[139.56769,35.83004],[139.56778,35.83025],[139.56782,35.83037],[139.56783,35.83046],[139.56784,35.83052],[139.5679,35.83081],[139.56792,35.83088],[139.56803,35.83104],[139.56807,35.83105],[139.56812,35.83104],[139.56821,35.83098],[139.56836,35.8309],[139.56844,35.83085],[139.5685,35.83082],[139.5686,35.83076],[139.56879,35.83064],[139.56894,35.83054],[139.56913,35.83041],[139.56919,35.83038],[139.56935,35.83036]]]}},{"type":"Feature","properties":{"name":"柏町六丁目","setai":1180,"jinko":2478,"key":"11228002006","units":1},"geometry":{"type":"Polygon","coordinates":[[[139.56827,35.83256],[139.56835,35.83241],[139.56842,35.8323],[139.56852,35.83216],[139.56851,35.83208],[139.5685,35.83195],[139.56848,35.83183],[139.56848,35.83175],[139.56848,35.83174],[139.56847,35.8317],[139.56844,35.83162],[139.56842,35.83154],[139.5684,35.83146],[139.56839,35.83144],[139.56837,35.8314],[139.56833,35.83134],[139.56828,35.83127],[139.56824,35.83121],[139.56812,35.83104],[139.56807,35.83105],[139.56803,35.83104],[139.56792,35.83088],[139.5679,35.83081],[139.56784,35.83052],[139.56783,35.83046],[139.56782,35.83037],[139.56778,35.83025],[139.56769,35.83004],[139.56771,35.82995],[139.56733,35.82957],[139.56715,35.82947],[139.56707,35.82943],[139.56703,35.8294],[139.56697,35.82937],[139.5668,35.82927],[139.56623,35.82916],[139.56612,35.82914],[139.56574,35.82904],[139.56572,35.829],[139.56563,35.82881],[139.56568,35.82873],[139.56577,35.82858],[139.56577,35.82846],[139.56552,35.82862],[139.56535,35.82873],[139.56521,35.82882],[139.565,35.82897],[139.56477,35.82911],[139.56453,35.82927],[139.56425,35.82945],[139.564,35.82961],[139.56362,35.82986],[139.56342,35.82999],[139.56327,35.83009],[139.56326,35.8301],[139.56278,35.83041],[139.56269,35.83046],[139.56266,35.83044],[139.56148,35.83119],[139.56101,35.8315],[139.56129,35.83156],[139.56171,35.83172],[139.56187,35.83181],[139.56195,35.83186],[139.56202,35.83194],[139.5621,35.83202],[139.56216,35.83208],[139.56223,35.83214],[139.56227,35.83215],[139.56234,35.83217],[139.56245,35.83219],[139.56276,35.83224],[139.56301,35.83229],[139.56336,35.83189],[139.56377,35.83198],[139.5642,35.83207],[139.56416,35.83241],[139.56448,35.83248],[139.56466,35.83252],[139.56473,35.83254],[139.56486,35.83257],[139.56505,35.83262],[139.56515,35.83264],[139.56525,35.83266],[139.56536,35.83266],[139.56547,35.83265],[139.56558,35.83264],[139.56572,35.83259],[139.56581,35.83255],[139.5659,35.8325],[139.56608,35.83242],[139.56611,35.83241],[139.56615,35.83241],[139.5662,35.8324],[139.56629,35.83245],[139.56633,35.83247],[139.56641,35.83253],[139.56649,35.83261],[139.56658,35.83268],[139.56672,35.8328],[139.56678,35.83286],[139.56682,35.83289],[139.56686,35.83293],[139.5669,35.83295],[139.56696,35.83299],[139.5671,35.83307],[139.5672,35.83314],[139.56729,35.83319],[139.56745,35.83327],[139.56758,35.83335],[139.56766,35.83341],[139.56778,35.83355],[139.56784,35.83365],[139.5679,35.83373],[139.56798,35.83387],[139.56803,35.83398],[139.56806,35.83408],[139.56809,35.83414],[139.56811,35.83422],[139.56815,35.8343],[139.56826,35.83446],[139.5683,35.8345],[139.56839,35.83459],[139.56841,35.83447],[139.56843,35.83439],[139.5685,35.83409],[139.56853,35.83397],[139.56845,35.83389],[139.56831,35.83373],[139.56824,35.83365],[139.56827,35.83363],[139.56825,35.83351],[139.5682,35.83338],[139.56814,35.83314],[139.56814,35.83311],[139.56821,35.8329],[139.56824,35.83283],[139.56819,35.83278],[139.5682,35.83271],[139.56827,35.83256]]]}},{"type":"Feature","properties":{"name":"幸町一丁目","setai":1913,"jinko":3915,"key":"11228003001","units":1},"geometry":{"type":"Polygon","coordinates":[[[139.57329,35.82274],[139.57336,35.82269],[139.57323,35.82258],[139.57308,35.82269],[139.57305,35.82271],[139.57298,35.8227],[139.57272,35.82263],[139.57243,35.82252],[139.57222,35.82244],[139.572,35.82235],[139.57162,35.8222],[139.57158,35.82219],[139.57138,35.82211],[139.57103,35.82198],[139.571,35.82196],[139.57087,35.82192],[139.57082,35.8219],[139.5705,35.82177],[139.57001,35.82158],[139.56983,35.82151],[139.56962,35.82142],[139.56958,35.82141],[139.56902,35.82118],[139.56854,35.82099],[139.56815,35.82083],[139.56809,35.82081],[139.56752,35.82057],[139.56746,35.82054],[139.56714,35.82041],[139.56706,35.82037],[139.56683,35.82027],[139.56678,35.82025],[139.56656,35.82016],[139.56651,35.82013],[139.5663,35.82005],[139.56627,35.82003],[139.56559,35.81975],[139.56555,35.81973],[139.56533,35.81964],[139.56522,35.81959],[139.56515,35.81956],[139.56513,35.81955],[139.56459,35.81932],[139.56434,35.81921],[139.56415,35.81913],[139.56413,35.81912],[139.56382,35.81899],[139.56354,35.81887],[139.56347,35.81884],[139.56337,35.8188],[139.56331,35.81878],[139.56324,35.81876],[139.56313,35.81874],[139.563,35.81872],[139.56288,35.8187],[139.56252,35.81865],[139.56219,35.81861],[139.56198,35.81859],[139.56187,35.81858],[139.56185,35.8186],[139.56184,35.81863],[139.56183,35.81867],[139.56182,35.81872],[139.56182,35.8188],[139.56184,35.8189],[139.56182,35.81896],[139.56182,35.81903],[139.56198,35.81912],[139.56218,35.81923],[139.56252,35.81943],[139.56254,35.81944],[139.56326,35.81984],[139.56375,35.82012],[139.56432,35.82044],[139.56439,35.82048],[139.56469,35.82065],[139.56472,35.82066],[139.56491,35.82077],[139.56578,35.82127],[139.56615,35.82148],[139.56627,35.82155],[139.56647,35.82168],[139.56681,35.82196],[139.56697,35.82212],[139.56723,35.82236],[139.56726,35.82239],[139.56785,35.82295],[139.56816,35.82325],[139.5686,35.82368],[139.56883,35.8239],[139.56922,35.82427],[139.56952,35.82455],[139.56989,35.82491],[139.57037,35.82536],[139.57092,35.825],[139.57134,35.82473],[139.57155,35.82459],[139.57158,35.82457],[139.57171,35.82449],[139.57184,35.8244],[139.57217,35.82418],[139.57232,35.82408],[139.57236,35.82406],[139.57271,35.82383],[139.57277,35.82379],[139.5728,35.82378],[139.5733,35.82345],[139.57326,35.82336],[139.57412,35.82289],[139.57389,35.82285],[139.57329,35.82274]]]}},{"type":"Feature","properties":{"name":"幸町二丁目","setai":522,"jinko":1228,"key":"11228003002","units":1},"geometry":{"type":"Polygon","coordinates":[[[139.56843,35.82676],[139.56956,35.82601],[139.57044,35.82542],[139.57037,35.82536],[139.56989,35.82491],[139.56952,35.82455],[139.56922,35.82427],[139.56883,35.8239],[139.5686,35.82399],[139.5685,35.82407],[139.56835,35.82421],[139.56817,35.82436],[139.56795,35.82451],[139.56787,35.82456],[139.56785,35.82458],[139.56772,35.82463],[139.56751,35.82473],[139.56745,35.82476],[139.56682,35.82519],[139.56662,35.82533],[139.56588,35.82582],[139.56595,35.82588],[139.56545,35.82571],[139.56512,35.82564],[139.56498,35.82559],[139.56492,35.82557],[139.56484,35.82553],[139.56475,35.8255],[139.56465,35.82546],[139.56457,35.82543],[139.56447,35.82541],[139.56439,35.82541],[139.56431,35.82541],[139.56421,35.82542],[139.56409,35.82546],[139.56396,35.82551],[139.56334,35.82614],[139.56322,35.82627],[139.56323,35.82628],[139.56387,35.82667],[139.56423,35.82689],[139.56428,35.82684],[139.56433,35.82678],[139.56444,35.82666],[139.56471,35.82637],[139.56488,35.82634],[139.56482,35.82662],[139.5648,35.82673],[139.5648,35.82681],[139.56478,35.82685],[139.56509,35.82706],[139.56511,35.82708],[139.56516,35.82717],[139.56519,35.82724],[139.56526,35.82732],[139.5654,35.82743],[139.56549,35.82756],[139.56554,35.82763],[139.5656,35.82771],[139.56564,35.82781],[139.56568,35.8279],[139.56597,35.82832],[139.56686,35.82782],[139.56761,35.82732],[139.56843,35.82676]]]}},{"type":"Feature","properties":{"name":"幸町三丁目","setai":1500,"jinko":3774,"key":"11228003003","units":1},"geometry":{"type":"Polygon","coordinates":[[[139.56421,35.82542],[139.56431,35.82541],[139.56439,35.82541],[139.56447,35.82541],[139.56457,35.82543],[139.56465,35.82546],[139.56475,35.8255],[139.56484,35.82553],[139.56492,35.82557],[139.56498,35.82559],[139.56512,35.82564],[139.56545,35.82571],[139.56595,35.82588],[139.56588,35.82582],[139.56662,35.82533],[139.56682,35.82519],[139.56745,35.82476],[139.56751,35.82473],[139.56772,35.82463],[139.56785,35.82458],[139.56787,35.82456],[139.56795,35.82451],[139.56817,35.82436],[139.56835,35.82421],[139.5685,35.82407],[139.5686,35.82399],[139.56883,35.8239],[139.5686,35.82368],[139.56816,35.82325],[139.56785,35.82295],[139.56726,35.82239],[139.56723,35.82236],[139.56697,35.82212],[139.56681,35.82196],[139.56647,35.82168],[139.56627,35.82155],[139.56615,35.82148],[139.56578,35.82127],[139.56552,35.82142],[139.5655,35.82143],[139.5652,35.82163],[139.56519,35.82164],[139.56491,35.82185],[139.56468,35.82201],[139.56451,35.82213],[139.56409,35.8224],[139.56354,35.82277],[139.56353,35.82278],[139.5633,35.82294],[139.56325,35.82297],[139.56306,35.82309],[139.56286,35.82322],[139.56274,35.82332],[139.56269,35.82336],[139.56265,35.8234],[139.56253,35.82353],[139.56242,35.82364],[139.5623,35.82373],[139.56225,35.82379],[139.56222,35.82385],[139.56217,35.82392],[139.56181,35.82432],[139.56172,35.82441],[139.5616,35.82454],[139.56148,35.82467],[139.56136,35.8248],[139.56132,35.82484],[139.56124,35.82492],[139.56116,35.82501],[139.56118,35.82502],[139.56218,35.82563],[139.56322,35.82627],[139.56334,35.82614],[139.56396,35.82551],[139.56409,35.82546],[139.56421,35.82542]]]}},{"type":"Feature","properties":{"name":"幸町四丁目","setai":1228,"jinko":2825,"key":"11228003004","units":1},"geometry":{"type":"Polygon","coordinates":[[[139.56198,35.81912],[139.56182,35.81903],[139.56178,35.81925],[139.56179,35.81938],[139.56179,35.81951],[139.56175,35.81969],[139.56175,35.81979],[139.56177,35.81987],[139.56178,35.81994],[139.56178,35.8201],[139.56179,35.82028],[139.56179,35.82029],[139.56177,35.8204],[139.56154,35.82047],[139.56134,35.82072],[139.56126,35.8208],[139.56121,35.82086],[139.56119,35.82088],[139.56107,35.82099],[139.56105,35.82101],[139.56101,35.82104],[139.56084,35.82146],[139.56081,35.82148],[139.56073,35.82157],[139.56069,35.82162],[139.56063,35.82168],[139.56058,35.82183],[139.56055,35.82193],[139.56054,35.82201],[139.56054,35.8221],[139.56058,35.82217],[139.56058,35.82221],[139.56051,35.82229],[139.56049,35.82232],[139.56046,35.82235],[139.56045,35.82236],[139.56043,35.82238],[139.56039,35.82243],[139.55991,35.82294],[139.55991,35.82295],[139.55975,35.82312],[139.55955,35.82334],[139.55953,35.82336],[139.55948,35.82342],[139.55935,35.82355],[139.55916,35.82378],[139.55965,35.82407],[139.56016,35.82439],[139.56116,35.82501],[139.56124,35.82492],[139.56132,35.82484],[139.56136,35.8248],[139.56148,35.82467],[139.5616,35.82454],[139.56172,35.82441],[139.56181,35.82432],[139.56217,35.82392],[139.56222,35.82385],[139.56225,35.82379],[139.5623,35.82373],[139.56242,35.82364],[139.56253,35.82353],[139.56265,35.8234],[139.56269,35.82336],[139.56274,35.82332],[139.56286,35.82322],[139.56306,35.82309],[139.56325,35.82297],[139.5633,35.82294],[139.56353,35.82278],[139.56354,35.82277],[139.56409,35.8224],[139.56451,35.82213],[139.56468,35.82201],[139.56491,35.82185],[139.56519,35.82164],[139.5652,35.82163],[139.5655,35.82143],[139.56552,35.82142],[139.56578,35.82127],[139.56491,35.82077],[139.56472,35.82066],[139.56469,35.82065],[139.56439,35.82048],[139.56432,35.82044],[139.56375,35.82012],[139.56326,35.81984],[139.56254,35.81944],[139.56252,35.81943],[139.56218,35.81923],[139.56198,35.81912]]]}},{"type":"Feature","properties":{"name":"上宗岡一丁目","setai":614,"jinko":1449,"key":"11228004001","units":1},"geometry":{"type":"Polygon","coordinates":[[[139.57602,35.84344],[139.5761,35.84337],[139.57628,35.84349],[139.57644,35.84343],[139.57678,35.84339],[139.57709,35.84338],[139.5773,35.84344],[139.57733,35.84346],[139.57736,35.8435],[139.57739,35.84354],[139.57739,35.84355],[139.57735,35.84389],[139.57762,35.84393],[139.5776,35.84364],[139.5777,35.84365],[139.57804,35.84368],[139.5781,35.84367],[139.57819,35.84368],[139.57825,35.8437],[139.57827,35.84371],[139.57835,35.84372],[139.57847,35.84372],[139.57852,35.84372],[139.5788,35.84376],[139.57894,35.84377],[139.57904,35.84377],[139.57924,35.84374],[139.5799,35.84362],[139.58007,35.84362],[139.58013,35.84362],[139.58029,35.84361],[139.58049,35.84359],[139.58067,35.84354],[139.58078,35.84351],[139.58105,35.84341],[139.5812,35.84335],[139.58128,35.84333],[139.58135,35.8433],[139.58232,35.84291],[139.58252,35.84283],[139.58272,35.84274],[139.58307,35.8425],[139.58315,35.84244],[139.58323,35.84236],[139.58329,35.84226],[139.58333,35.84214],[139.58339,35.84192],[139.58335,35.8418],[139.58334,35.84179],[139.58331,35.84171],[139.58326,35.84159],[139.58322,35.84137],[139.58321,35.8413],[139.58318,35.84101],[139.58312,35.8405],[139.5831,35.84034],[139.58309,35.84023],[139.58308,35.84013],[139.58309,35.84004],[139.5831,35.83998],[139.58311,35.83992],[139.58312,35.83982],[139.58313,35.83946],[139.58282,35.83947],[139.58278,35.83957],[139.58202,35.8395],[139.58189,35.83949],[139.58177,35.83957],[139.58167,35.83961],[139.58159,35.83962],[139.58149,35.8396],[139.58125,35.83952],[139.58119,35.8395],[139.58117,35.83948],[139.58111,35.83943],[139.58099,35.83929],[139.58087,35.83914],[139.58082,35.83908],[139.58076,35.83905],[139.58039,35.83898],[139.58032,35.8393],[139.58029,35.83947],[139.58023,35.83964],[139.5802,35.83973],[139.58005,35.84001],[139.57982,35.84026],[139.57956,35.8405],[139.57927,35.84072],[139.57901,35.84093],[139.57843,35.8414],[139.57824,35.84155],[139.5781,35.84165],[139.57803,35.8417],[139.57801,35.84169],[139.57783,35.84153],[139.5776,35.84134],[139.57749,35.84123],[139.57738,35.84114],[139.57732,35.84109],[139.5773,35.84108],[139.57725,35.84103],[139.57723,35.84102],[139.57718,35.84096],[139.57715,35.84091],[139.57699,35.8407],[139.57693,35.84062],[139.57685,35.84051],[139.57683,35.84048],[139.57681,35.84045],[139.57678,35.84043],[139.57674,35.84039],[139.5767,35.84037],[139.57663,35.84032],[139.57658,35.8403],[139.57655,35.84028],[139.57648,35.84028],[139.57645,35.84028],[139.57642,35.84029],[139.5764,35.8403],[139.57639,35.84031],[139.57635,35.8404],[139.57629,35.84044],[139.57624,35.84047],[139.57621,35.84047],[139.57616,35.84048],[139.57613,35.8405],[139.5761,35.84051],[139.57605,35.84054],[139.576,35.84059],[139.57595,35.84065],[139.57589,35.84071],[139.57579,35.84083],[139.57573,35.84097],[139.57568,35.84107],[139.57561,35.84117],[139.57554,35.84123],[139.57532,35.84134],[139.57526,35.84137],[139.57522,35.84139],[139.57515,35.84141],[139.57508,35.84144],[139.57497,35.84149],[139.57484,35.84153],[139.57479,35.84155],[139.57465,35.8416],[139.57462,35.84161],[139.5745,35.84165],[139.57435,35.84171],[139.57419,35.84178],[139.57409,35.84182],[139.57403,35.84187],[139.57391,35.84194],[139.57389,35.84195],[139.57374,35.84199],[139.57361,35.84199],[139.57352,35.84198],[139.57342,35.84194],[139.57312,35.84181],[139.57276,35.84162],[139.57265,35.84163],[139.57255,35.84158],[139.57248,35.84153],[139.57193,35.84171],[139.57159,35.84182],[139.57161,35.84188],[139.57166,35.84196],[139.57162,35.842],[139.57156,35.84206],[139.57154,35.84213],[139.57154,35.84219],[139.57155,35.84224],[139.57159,35.84229],[139.57165,35.84232],[139.57175,35.84235],[139.57183,35.84237],[139.57194,35.84239],[139.57204,35.8424],[139.57208,35.84243],[139.57216,35.84248],[139.5722,35.84249],[139.57235,35.84252],[139.57245,35.84254],[139.57252,35.84254],[139.5726,35.84255],[139.57268,35.84255],[139.57299,35.84256],[139.57313,35.84256],[139.57329,35.84256],[139.57348,35.84257],[139.57361,35.84257],[139.57369,35.84258],[139.57373,35.8426],[139.57377,35.84263],[139.57379,35.84264],[139.57381,35.84267],[139.57386,35.84272],[139.5739,35.84278],[139.57392,35.84282],[139.57394,35.84285],[139.57396,35.84287],[139.57399,35.84292],[139.57402,35.84295],[139.57404,35.84299],[139.57409,35.84306],[139.57441,35.84353],[139.57464,35.84386],[139.57477,35.84402],[139.57488,35.8442],[139.57519,35.84404],[139.57533,35.84397],[139.57563,35.84375],[139.57589,35.84356],[139.57602,35.84344]]]}},{"type":"Feature","properties":{"name":"上宗岡二丁目","setai":404,"jinko":1090,"key":"11228004002","units":1},"geometry":{"type":"Polygon","coordinates":[[[139.58278,35.85043],[139.58279,35.85029],[139.5828,35.8503],[139.58288,35.84968],[139.58294,35.8494],[139.58317,35.84909],[139.58375,35.84828],[139.58328,35.848],[139.58286,35.84776],[139.58278,35.84771],[139.58262,35.84758],[139.5825,35.84749],[139.58235,35.84734],[139.58231,35.84729],[139.58228,35.84725],[139.58204,35.8469],[139.58202,35.84686],[139.58167,35.84627],[139.58148,35.84595],[139.58141,35.84585],[139.5814,35.84586],[139.58129,35.84569],[139.5808,35.84499],[139.58051,35.84462],[139.58017,35.84419],[139.58011,35.84411],[139.58003,35.84403],[139.58,35.844],[139.57988,35.8439],[139.57978,35.84386],[139.57962,35.84381],[139.57924,35.84374],[139.57904,35.84377],[139.57894,35.84377],[139.5788,35.84376],[139.57852,35.84372],[139.57847,35.84372],[139.57835,35.84372],[139.57827,35.84371],[139.57825,35.8437],[139.57819,35.84368],[139.5781,35.84367],[139.57804,35.84368],[139.5777,35.84365],[139.5776,35.84364],[139.57762,35.84393],[139.57735,35.84389],[139.57731,35.84411],[139.57727,35.84417],[139.57722,35.84439],[139.57718,35.84445],[139.57715,35.84453],[139.57713,35.84456],[139.57707,35.84462],[139.57733,35.84475],[139.57717,35.84501],[139.57741,35.84523],[139.57752,35.84523],[139.57765,35.84522],[139.57768,35.8454],[139.5777,35.84556],[139.5777,35.8456],[139.57772,35.84565],[139.57776,35.84571],[139.57784,35.84585],[139.57801,35.84614],[139.57814,35.84638],[139.57827,35.84662],[139.57834,35.84679],[139.57837,35.84689],[139.57841,35.84703],[139.57842,35.84716],[139.57844,35.84732],[139.57847,35.8477],[139.57847,35.84782],[139.57845,35.84801],[139.57843,35.8481],[139.5784,35.84821],[139.57836,35.84829],[139.57824,35.84854],[139.5782,35.84863],[139.57931,35.8492],[139.58018,35.84968],[139.58032,35.84976],[139.58064,35.84993],[139.58103,35.85014],[139.58139,35.85033],[139.58218,35.85076],[139.58265,35.85104],[139.58271,35.85095],[139.58273,35.85093],[139.58276,35.8509],[139.58278,35.85088],[139.58279,35.85086],[139.58282,35.85082],[139.58282,35.8508],[139.58282,35.85077],[139.5828,35.85072],[139.58279,35.85068],[139.58277,35.85065],[139.58276,35.85062],[139.58276,35.8506],[139.58276,35.85057],[139.58278,35.85043]]]}},{"type":"Feature","properties":{"name":"上宗岡三丁目","setai":472,"jinko":1173,"key":"11228004003","units":1},"geometry":{"type":"Polygon","coordinates":[[[139.5838,35.85285],[139.58419,35.85252],[139.58462,35.85224],[139.58409,35.85193],[139.58265,35.85104],[139.58218,35.85076],[139.58139,35.85033],[139.58103,35.85014],[139.58064,35.84993],[139.58032,35.84976],[139.58018,35.84968],[139.57931,35.8492],[139.5782,35.84863],[139.57816,35.84879],[139.5781,35.84918],[139.57804,35.8496],[139.57802,35.84977],[139.57793,35.85028],[139.57792,35.85039],[139.57791,35.85051],[139.57793,35.85061],[139.57797,35.85079],[139.57807,35.85096],[139.5782,35.85125],[139.57834,35.8516],[139.57837,35.85172],[139.57862,35.85221],[139.57869,35.85236],[139.5788,35.8525],[139.57897,35.85275],[139.57905,35.85271],[139.57907,35.85272],[139.57908,35.85274],[139.5791,35.85281],[139.57916,35.8531],[139.57918,35.85322],[139.57921,35.85339],[139.57924,35.85361],[139.57927,35.85388],[139.57928,35.85421],[139.57934,35.85442],[139.57939,35.85451],[139.57942,35.85457],[139.57944,35.85459],[139.57948,35.85466],[139.5796,35.85482],[139.57989,35.85523],[139.58012,35.8556],[139.58012,35.85569],[139.58016,35.85575],[139.58035,35.85611],[139.58066,35.85683],[139.58093,35.85688],[139.58098,35.85672],[139.58106,35.85654],[139.58111,35.85643],[139.58118,35.8563],[139.58129,35.85612],[139.58139,35.856],[139.58159,35.85579],[139.58174,35.85561],[139.5821,35.85524],[139.58224,35.85509],[139.5824,35.8549],[139.58256,35.85471],[139.58269,35.85445],[139.58278,35.85416],[139.58282,35.85401],[139.5829,35.85376],[139.58292,35.85371],[139.58297,35.85361],[139.58304,35.85352],[139.5831,35.85345],[139.58333,35.85324],[139.58361,35.85302],[139.5838,35.85285]]]}},{"type":"Feature","properties":{"name":"上宗岡四丁目","setai":1253,"jinko":3000,"key":"11228004004","units":1},"geometry":{"type":"Polygon","coordinates":[[[139.58733,35.85049],[139.58801,35.84999],[139.5883,35.84979],[139.58845,35.84965],[139.58855,35.84954],[139.58858,35.8495],[139.58863,35.84942],[139.58878,35.8492],[139.58895,35.84899],[139.58932,35.84858],[139.58966,35.8482],[139.58985,35.84797],[139.59037,35.84733],[139.5906,35.84705],[139.5907,35.84692],[139.59077,35.84682],[139.59085,35.84672],[139.59062,35.84661],[139.59006,35.84633],[139.58987,35.84624],[139.58975,35.84617],[139.58967,35.84613],[139.58952,35.84605],[139.58932,35.84594],[139.5892,35.84588],[139.58917,35.84587],[139.58914,35.84585],[139.58902,35.84583],[139.58893,35.84581],[139.58886,35.8458],[139.5888,35.84579],[139.58869,35.84577],[139.58858,35.84575],[139.58849,35.84572],[139.58839,35.84569],[139.58831,35.84566],[139.58824,35.84562],[139.58814,35.84556],[139.58783,35.84538],[139.58757,35.84516],[139.58745,35.84506],[139.58718,35.84483],[139.58669,35.84439],[139.58624,35.845],[139.58606,35.84525],[139.58593,35.84544],[139.58562,35.84584],[139.58529,35.84629],[139.58516,35.84647],[139.58499,35.84671],[139.58469,35.8471],[139.58442,35.84747],[139.58426,35.84769],[139.58413,35.84787],[139.58396,35.84809],[139.5838,35.84831],[139.58375,35.84828],[139.58317,35.84909],[139.58294,35.8494],[139.58288,35.84968],[139.5828,35.8503],[139.58279,35.85029],[139.58278,35.85043],[139.58276,35.85057],[139.58276,35.8506],[139.58276,35.85062],[139.58277,35.85065],[139.58279,35.85068],[139.5828,35.85072],[139.58282,35.85077],[139.58282,35.8508],[139.58282,35.85082],[139.58279,35.85086],[139.58278,35.85088],[139.58276,35.8509],[139.58273,35.85093],[139.58271,35.85095],[139.58265,35.85104],[139.58409,35.85193],[139.58462,35.85224],[139.58482,35.85211],[139.58509,35.85194],[139.58543,35.85177],[139.58615,35.85131],[139.58643,35.85113],[139.58681,35.85086],[139.58707,35.85067],[139.58733,35.85049]]]}},{"type":"Feature","properties":{"name":"上宗岡五丁目","setai":602,"jinko":1545,"key":"11228004005","units":1},"geometry":{"type":"Polygon","coordinates":[[[139.58529,35.84629],[139.58562,35.84584],[139.58593,35.84544],[139.58606,35.84525],[139.58624,35.845],[139.58669,35.84439],[139.58623,35.84396],[139.58618,35.84391],[139.58587,35.84361],[139.58569,35.84346],[139.58535,35.84336],[139.58507,35.84326],[139.58491,35.84321],[139.5848,35.84318],[139.58468,35.84314],[139.58465,35.84313],[139.5843,35.84316],[139.5842,35.84317],[139.58412,35.84318],[139.58406,35.84318],[139.58402,35.84317],[139.58383,35.84304],[139.58372,35.84297],[139.58354,35.84283],[139.58336,35.84264],[139.58345,35.84247],[139.58346,35.84239],[139.58347,35.84235],[139.58348,35.8423],[139.58348,35.84223],[139.58348,35.84214],[139.58345,35.84203],[139.58339,35.84192],[139.58333,35.84214],[139.58329,35.84226],[139.58323,35.84236],[139.58315,35.84244],[139.58307,35.8425],[139.58272,35.84274],[139.58252,35.84283],[139.58232,35.84291],[139.58135,35.8433],[139.58128,35.84333],[139.5812,35.84335],[139.58105,35.84341],[139.58078,35.84351],[139.58067,35.84354],[139.58049,35.84359],[139.58029,35.84361],[139.58013,35.84362],[139.58007,35.84362],[139.5799,35.84362],[139.57924,35.84374],[139.57962,35.84381],[139.57978,35.84386],[139.57988,35.8439],[139.58,35.844],[139.58003,35.84403],[139.58011,35.84411],[139.58017,35.84419],[139.58051,35.84462],[139.5808,35.84499],[139.58129,35.84569],[139.5814,35.84586],[139.58141,35.84585],[139.58148,35.84595],[139.58167,35.84627],[139.58202,35.84686],[139.58204,35.8469],[139.58228,35.84725],[139.58231,35.84729],[139.58235,35.84734],[139.5825,35.84749],[139.58262,35.84758],[139.58278,35.84771],[139.58286,35.84776],[139.58328,35.848],[139.58375,35.84828],[139.5838,35.84831],[139.58396,35.84809],[139.58413,35.84787],[139.58426,35.84769],[139.58442,35.84747],[139.58469,35.8471],[139.58499,35.84671],[139.58516,35.84647],[139.58529,35.84629]]]}},{"type":"Feature","properties":{"name":"中宗岡一丁目","setai":1019,"jinko":2364,"key":"11228005001","units":1},"geometry":{"type":"Polygon","coordinates":[[[139.58689,35.84331],[139.58696,35.84282],[139.58697,35.84266],[139.58702,35.84231],[139.58707,35.84179],[139.58714,35.84131],[139.58716,35.84113],[139.58733,35.84086],[139.58734,35.84084],[139.58764,35.84038],[139.58783,35.84008],[139.5879,35.83996],[139.58795,35.83984],[139.58802,35.83954],[139.58804,35.83944],[139.58813,35.83909],[139.58819,35.83884],[139.58705,35.83841],[139.58694,35.83837],[139.5869,35.83835],[139.58669,35.83827],[139.58658,35.83823],[139.58651,35.83821],[139.58611,35.83806],[139.58577,35.83794],[139.58564,35.83789],[139.58508,35.83769],[139.58506,35.83768],[139.58499,35.83766],[139.58452,35.83748],[139.5844,35.83743],[139.58429,35.83739],[139.58416,35.83734],[139.58398,35.83726],[139.58362,35.83709],[139.58312,35.83686],[139.58287,35.83674],[139.58279,35.83672],[139.58272,35.8367],[139.58225,35.83658],[139.58199,35.8365],[139.58196,35.83649],[139.58136,35.83626],[139.58113,35.83617],[139.58103,35.83613],[139.58072,35.836],[139.58063,35.83595],[139.58054,35.83589],[139.58043,35.83581],[139.58011,35.83554],[139.57996,35.83559],[139.57943,35.83594],[139.57898,35.83626],[139.57906,35.83636],[139.57912,35.83642],[139.57914,35.83643],[139.5792,35.83641],[139.57928,35.83648],[139.57936,35.83654],[139.57937,35.83655],[139.57942,35.8366],[139.5795,35.83669],[139.57957,35.83675],[139.57962,35.83679],[139.57969,35.83682],[139.57987,35.83689],[139.57995,35.83693],[139.58,35.83696],[139.58004,35.83699],[139.58013,35.83707],[139.58025,35.83721],[139.58037,35.83732],[139.58063,35.83681],[139.58067,35.83683],[139.58086,35.83696],[139.5807,35.83729],[139.58066,35.83739],[139.58062,35.8375],[139.58054,35.83785],[139.58052,35.83799],[139.58048,35.83818],[139.58045,35.83832],[139.58095,35.8385],[139.58108,35.83852],[139.58147,35.83859],[139.5818,35.83865],[139.58187,35.83867],[139.58198,35.83872],[139.58203,35.83875],[139.58205,35.83877],[139.58209,35.83885],[139.58212,35.8389],[139.58212,35.83898],[139.58208,35.83913],[139.58206,35.83921],[139.58202,35.83935],[139.58196,35.83943],[139.58189,35.83949],[139.58202,35.8395],[139.58278,35.83957],[139.58282,35.83947],[139.58313,35.83946],[139.58312,35.83982],[139.58311,35.83992],[139.5831,35.83998],[139.58309,35.84004],[139.58308,35.84013],[139.58309,35.84023],[139.5831,35.84034],[139.58312,35.8405],[139.58318,35.84101],[139.58321,35.8413],[139.58322,35.84137],[139.58326,35.84159],[139.58331,35.84171],[139.58334,35.84179],[139.58335,35.8418],[139.58339,35.84192],[139.58345,35.84203],[139.58348,35.84214],[139.58348,35.84223],[139.58348,35.8423],[139.58347,35.84235],[139.58346,35.84239],[139.58345,35.84247],[139.58336,35.84264],[139.58354,35.84283],[139.58372,35.84297],[139.58383,35.84304],[139.58402,35.84317],[139.58406,35.84318],[139.58412,35.84318],[139.5842,35.84317],[139.5843,35.84316],[139.58465,35.84313],[139.58468,35.84314],[139.5848,35.84318],[139.58491,35.84321],[139.58507,35.84326],[139.58535,35.84336],[139.58569,35.84346],[139.58587,35.84361],[139.58618,35.84391],[139.58623,35.84396],[139.58669,35.84439],[139.58678,35.84418],[139.58679,35.84415],[139.58681,35.84399],[139.58683,35.84381],[139.58687,35.8435],[139.58688,35.84342],[139.58689,35.84331]]]}},{"type":"Feature","properties":{"name":"中宗岡二丁目","setai":1220,"jinko":2986,"key":"11228005002","units":1},"geometry":{"type":"Polygon","coordinates":[[[139.59396,35.84137],[139.59405,35.84126],[139.59412,35.84118],[139.59422,35.84107],[139.59434,35.84098],[139.59448,35.84087],[139.5944,35.84089],[139.59424,35.84095],[139.59411,35.84101],[139.59403,35.84103],[139.59399,35.84102],[139.59393,35.84103],[139.59387,35.84105],[139.59383,35.84109],[139.59373,35.84118],[139.59363,35.8413],[139.59362,35.8413],[139.59344,35.84121],[139.59323,35.84111],[139.59295,35.841],[139.5927,35.84092],[139.59209,35.84072],[139.59186,35.84065],[139.59161,35.84058],[139.59138,35.84052],[139.59112,35.84049],[139.59074,35.84045],[139.59026,35.84043],[139.59016,35.84042],[139.59008,35.8403],[139.58995,35.84011],[139.58966,35.83976],[139.58929,35.83944],[139.58872,35.83912],[139.58863,35.83898],[139.58851,35.83895],[139.58819,35.83884],[139.58813,35.83909],[139.58804,35.83944],[139.58802,35.83954],[139.58795,35.83984],[139.5879,35.83996],[139.58783,35.84008],[139.58764,35.84038],[139.58734,35.84084],[139.58733,35.84086],[139.58716,35.84113],[139.58714,35.84131],[139.58707,35.84179],[139.58702,35.84231],[139.58697,35.84266],[139.58696,35.84282],[139.58689,35.84331],[139.58688,35.84342],[139.58687,35.8435],[139.58683,35.84381],[139.58681,35.84399],[139.58679,35.84415],[139.58678,35.84418],[139.58669,35.84439],[139.58718,35.84483],[139.58745,35.84506],[139.58757,35.84516],[139.58783,35.84538],[139.58814,35.84556],[139.58824,35.84562],[139.58831,35.84566],[139.58839,35.84569],[139.58849,35.84572],[139.58858,35.84575],[139.58869,35.84577],[139.5888,35.84579],[139.58886,35.8458],[139.58893,35.84581],[139.58902,35.84583],[139.58914,35.84585],[139.58917,35.84587],[139.5892,35.84588],[139.58932,35.84594],[139.58952,35.84605],[139.58967,35.84613],[139.58975,35.84617],[139.58987,35.84624],[139.59006,35.84633],[139.59062,35.84661],[139.59085,35.84672],[139.59136,35.84598],[139.59152,35.84573],[139.59166,35.84555],[139.59198,35.84505],[139.59222,35.84468],[139.59233,35.8445],[139.59254,35.84408],[139.59268,35.84377],[139.5928,35.84353],[139.59296,35.84323],[139.59305,35.8431],[139.5931,35.84305],[139.59317,35.84291],[139.59321,35.84282],[139.59323,35.84272],[139.59325,35.84266],[139.59329,35.84254],[139.59337,35.84237],[139.59354,35.84203],[139.59369,35.84178],[139.59387,35.84149],[139.59396,35.84137]]]}},{"type":"Feature","properties":{"name":"中宗岡三丁目","setai":787,"jinko":2080,"key":"11228005003","units":1},"geometry":{"type":"Polygon","coordinates":[[[139.59393,35.84103],[139.59399,35.84102],[139.59403,35.84103],[139.59411,35.84101],[139.59424,35.84095],[139.5944,35.84089],[139.59448,35.84087],[139.59462,35.84076],[139.59489,35.84058],[139.59512,35.84045],[139.59563,35.8402],[139.59627,35.83989],[139.59662,35.83973],[139.59728,35.83941],[139.59734,35.83936],[139.59751,35.83921],[139.59761,35.83919],[139.59765,35.83919],[139.59769,35.83917],[139.59801,35.83906],[139.59812,35.83901],[139.59823,35.83895],[139.59836,35.83886],[139.59851,35.83875],[139.59872,35.8386],[139.59881,35.83853],[139.59893,35.83841],[139.599,35.83833],[139.59915,35.83822],[139.59932,35.83811],[139.59939,35.83806],[139.59955,35.83797],[139.59975,35.83785],[139.5999,35.83777],[139.60003,35.83771],[139.60044,35.8375],[139.60084,35.83729],[139.60141,35.83698],[139.60155,35.83689],[139.60144,35.83685],[139.60104,35.83685],[139.60061,35.83684],[139.60034,35.83682],[139.60014,35.83681],[139.59979,35.83679],[139.5994,35.83678],[139.59906,35.83676],[139.59821,35.83672],[139.59753,35.8367],[139.59718,35.83668],[139.59688,35.83671],[139.59669,35.83673],[139.59648,35.83675],[139.59623,35.83677],[139.59612,35.83678],[139.59595,35.83677],[139.59571,35.83675],[139.59544,35.83672],[139.59444,35.83659],[139.59434,35.83658],[139.59405,35.83665],[139.5939,35.8367],[139.59347,35.83685],[139.59334,35.83691],[139.59322,35.83699],[139.59303,35.83713],[139.59289,35.83723],[139.59275,35.83734],[139.5926,35.83746],[139.59238,35.83764],[139.5922,35.83778],[139.59179,35.83811],[139.59147,35.83836],[139.59129,35.83851],[139.59122,35.83856],[139.59112,35.83864],[139.59106,35.83868],[139.59101,35.83871],[139.59093,35.83875],[139.59087,35.83878],[139.5908,35.83882],[139.59069,35.83885],[139.5906,35.83888],[139.5905,35.83891],[139.59034,35.83894],[139.59021,35.83896],[139.58987,35.83899],[139.58928,35.83904],[139.58911,35.83905],[139.58899,35.83904],[139.58887,35.83902],[139.58877,35.83901],[139.58864,35.83898],[139.58863,35.83898],[139.58872,35.83912],[139.58929,35.83944],[139.58966,35.83976],[139.58995,35.84011],[139.59008,35.8403],[139.59016,35.84042],[139.59026,35.84043],[139.59074,35.84045],[139.59112,35.84049],[139.59138,35.84052],[139.59161,35.84058],[139.59186,35.84065],[139.59209,35.84072],[139.5927,35.84092],[139.59295,35.841],[139.59323,35.84111],[139.59344,35.84121],[139.59362,35.8413],[139.59363,35.8413],[139.59373,35.84118],[139.59383,35.84109],[139.59387,35.84105],[139.59393,35.84103]]]}},{"type":"Feature","properties":{"name":"中宗岡四丁目","setai":745,"jinko":1848,"key":"11228005004","units":1},"geometry":{"type":"Polygon","coordinates":[[[139.58977,35.83554],[139.58955,35.83544],[139.58947,35.83544],[139.58937,35.83544],[139.5892,35.83546],[139.58904,35.83547],[139.58891,35.83549],[139.58868,35.83554],[139.58828,35.83562],[139.58775,35.83595],[139.58684,35.83654],[139.58668,35.83664],[139.58624,35.83693],[139.58576,35.83723],[139.58508,35.83769],[139.58564,35.83789],[139.58577,35.83794],[139.58611,35.83806],[139.58651,35.83821],[139.58658,35.83823],[139.58669,35.83827],[139.5869,35.83835],[139.58694,35.83837],[139.58705,35.83841],[139.58819,35.83884],[139.58851,35.83895],[139.58863,35.83898],[139.58864,35.83898],[139.58877,35.83901],[139.58887,35.83902],[139.58899,35.83904],[139.58911,35.83905],[139.58928,35.83904],[139.58987,35.83899],[139.59021,35.83896],[139.59034,35.83894],[139.5905,35.83891],[139.5906,35.83888],[139.59069,35.83885],[139.5908,35.83882],[139.59087,35.83878],[139.59093,35.83875],[139.59101,35.83871],[139.59106,35.83868],[139.59112,35.83864],[139.59122,35.83856],[139.59129,35.83851],[139.59147,35.83836],[139.59179,35.83811],[139.5922,35.83778],[139.59238,35.83764],[139.5926,35.83746],[139.59275,35.83734],[139.59289,35.83723],[139.59303,35.83713],[139.59322,35.83699],[139.59334,35.83691],[139.59347,35.83685],[139.5939,35.8367],[139.59405,35.83665],[139.59394,35.83657],[139.5935,35.83628],[139.59341,35.83623],[139.5933,35.83618],[139.59325,35.83617],[139.59293,35.83617],[139.59287,35.83616],[139.59282,35.83616],[139.59249,35.83608],[139.59226,35.83603],[139.59164,35.83597],[139.59103,35.8359],[139.5908,35.83589],[139.59076,35.83589],[139.59069,35.83589],[139.59061,35.83589],[139.59055,35.83588],[139.59043,35.83583],[139.59034,35.83579],[139.58977,35.83554]]]}},{"type":"Feature","properties":{"name":"中宗岡五丁目","setai":738,"jinko":1703,"key":"11228005005","units":1},"geometry":{"type":"Polygon","coordinates":[[[139.58677,35.83157],[139.58662,35.8314],[139.58544,35.83205],[139.58535,35.8321],[139.58531,35.83212],[139.58494,35.83233],[139.58425,35.83273],[139.58402,35.83293],[139.58382,35.83314],[139.58369,35.83331],[139.58361,35.83341],[139.58348,35.83358],[139.58333,35.83377],[139.58323,35.83391],[139.58313,35.83405],[139.58303,35.83416],[139.58295,35.83427],[139.58288,35.83435],[139.58277,35.83446],[139.58266,35.83451],[139.58262,35.83452],[139.58242,35.8346],[139.58228,35.83466],[139.58216,35.83469],[139.58203,35.83473],[139.58164,35.83491],[139.58124,35.83511],[139.58076,35.83532],[139.58062,35.83537],[139.58054,35.8354],[139.58011,35.83554],[139.58043,35.83581],[139.58054,35.83589],[139.58063,35.83595],[139.58072,35.836],[139.58103,35.83613],[139.58113,35.83617],[139.58136,35.83626],[139.58196,35.83649],[139.58199,35.8365],[139.58225,35.83658],[139.58272,35.8367],[139.58279,35.83672],[139.58287,35.83674],[139.58312,35.83686],[139.58362,35.83709],[139.58398,35.83726],[139.58416,35.83734],[139.58429,35.83739],[139.5844,35.83743],[139.58452,35.83748],[139.58499,35.83766],[139.58506,35.83768],[139.58508,35.83769],[139.58576,35.83723],[139.58624,35.83693],[139.58668,35.83664],[139.58684,35.83654],[139.58775,35.83595],[139.58828,35.83562],[139.58824,35.83498],[139.58823,35.83474],[139.58822,35.83439],[139.58818,35.83378],[139.58818,35.83373],[139.58817,35.83348],[139.58816,35.83324],[139.58761,35.83256],[139.58726,35.83209],[139.58706,35.83184],[139.5869,35.8317],[139.58683,35.83164],[139.58677,35.83157]]]}},{"type":"Feature","properties":{"name":"下宗岡一丁目","setai":330,"jinko":831,"key":"11228006001","units":1},"geometry":{"type":"Polygon","coordinates":[[[139.5917,35.83204],[139.59167,35.832],[139.59186,35.83211],[139.59205,35.8322],[139.59216,35.83223],[139.5923,35.83226],[139.5924,35.83228],[139.59245,35.83229],[139.5928,35.83237],[139.59302,35.83241],[139.59321,35.83246],[139.59357,35.83254],[139.59401,35.83268],[139.59435,35.83278],[139.59449,35.83281],[139.5946,35.83282],[139.59471,35.83282],[139.59492,35.83281],[139.59565,35.83274],[139.59609,35.83272],[139.59616,35.83271],[139.59638,35.83271],[139.59659,35.83271],[139.59671,35.83271],[139.59666,35.83265],[139.59662,35.83261],[139.59657,35.83256],[139.59652,35.83249],[139.59645,35.8324],[139.59641,35.83233],[139.59637,35.83228],[139.59634,35.83223],[139.59625,35.83204],[139.59612,35.83167],[139.59609,35.83161],[139.59575,35.83074],[139.59574,35.8307],[139.59559,35.83031],[139.59551,35.83012],[139.59548,35.83006],[139.59545,35.82999],[139.59543,35.82999],[139.59537,35.83],[139.5953,35.82998],[139.59526,35.82997],[139.59522,35.82995],[139.59516,35.82991],[139.59511,35.82985],[139.59509,35.82983],[139.59506,35.82979],[139.59506,35.82976],[139.59506,35.82975],[139.59506,35.82972],[139.59506,35.82972],[139.59506,35.82972],[139.59507,35.8297],[139.59508,35.82969],[139.59508,35.82969],[139.5951,35.82963],[139.59519,35.8296],[139.59525,35.82957],[139.59536,35.82954],[139.59551,35.82953],[139.59566,35.82952],[139.59585,35.82951],[139.59599,35.82954],[139.59609,35.82956],[139.59617,35.82956],[139.5963,35.82955],[139.59642,35.82952],[139.59652,35.82949],[139.59655,35.82949],[139.59659,35.8295],[139.59666,35.82949],[139.59674,35.82949],[139.59679,35.82948],[139.59683,35.82944],[139.59684,35.82941],[139.59685,35.82939],[139.59685,35.82937],[139.59686,35.82929],[139.59685,35.82924],[139.59679,35.82917],[139.59672,35.82912],[139.59664,35.82906],[139.59657,35.82902],[139.59651,35.82896],[139.59646,35.82888],[139.59643,35.82881],[139.5964,35.82873],[139.59639,35.82865],[139.59639,35.82864],[139.5964,35.82859],[139.59646,35.82849],[139.59651,35.82844],[139.5966,35.82838],[139.59666,35.82832],[139.59668,35.82828],[139.59668,35.82827],[139.59669,35.82822],[139.59672,35.82813],[139.59673,35.82803],[139.59673,35.82795],[139.59671,35.82787],[139.59668,35.82777],[139.59663,35.82769],[139.5966,35.82764],[139.59653,35.82757],[139.59646,35.82752],[139.59639,35.82749],[139.59631,35.82745],[139.5962,35.82742],[139.59618,35.82742],[139.5961,35.82741],[139.59598,35.82738],[139.59598,35.82738],[139.59592,35.82735],[139.59584,35.82727],[139.59572,35.82712],[139.59559,35.82697],[139.59547,35.82702],[139.59477,35.82735],[139.59482,35.82769],[139.59494,35.82786],[139.59508,35.82797],[139.59507,35.828],[139.59504,35.82806],[139.59502,35.82819],[139.59501,35.82821],[139.59504,35.82835],[139.59508,35.82843],[139.59501,35.82843],[139.59498,35.82843],[139.59488,35.82842],[139.59478,35.82839],[139.59467,35.82835],[139.59463,35.82833],[139.59457,35.82829],[139.59453,35.82826],[139.59451,35.82823],[139.59451,35.82818],[139.59453,35.8281],[139.59454,35.82798],[139.59454,35.82797],[139.59455,35.82785],[139.59455,35.82782],[139.59456,35.82773],[139.59455,35.82771],[139.59451,35.82765],[139.59441,35.82753],[139.59377,35.82783],[139.59376,35.82784],[139.59323,35.82808],[139.59308,35.82788],[139.5929,35.82762],[139.5927,35.82762],[139.59217,35.82807],[139.5923,35.82824],[139.59232,35.82834],[139.59236,35.82843],[139.59242,35.82875],[139.59243,35.82876],[139.59243,35.82878],[139.59245,35.82883],[139.59246,35.82889],[139.59247,35.82891],[139.59249,35.82895],[139.59254,35.82908],[139.59262,35.82921],[139.5927,35.82929],[139.59282,35.8294],[139.5929,35.82945],[139.59303,35.82954],[139.59309,35.82958],[139.59325,35.82974],[139.59338,35.82986],[139.5934,35.8299],[139.59337,35.82994],[139.59332,35.82999],[139.59272,35.83052],[139.59271,35.83053],[139.59265,35.83059],[139.5926,35.83061],[139.59254,35.83064],[139.5925,35.83065],[139.59246,35.83065],[139.59243,35.83062],[139.5924,35.83059],[139.59236,35.83052],[139.59233,35.83042],[139.59232,35.83035],[139.59231,35.83027],[139.59227,35.83013],[139.59223,35.83],[139.59218,35.82985],[139.59215,35.82969],[139.59212,35.82957],[139.59209,35.82943],[139.59206,35.82927],[139.59201,35.82908],[139.59198,35.82896],[139.59196,35.82885],[139.59193,35.82874],[139.59192,35.82871],[139.59191,35.82864],[139.59183,35.82856],[139.5917,35.82847],[139.59155,35.8284],[139.59144,35.8284],[139.59129,35.8284],[139.59116,35.8284],[139.59103,35.82843],[139.59091,35.82846],[139.5908,35.82848],[139.59069,35.82852],[139.59037,35.82858],[139.59043,35.82897],[139.59046,35.82908],[139.59048,35.82918],[139.59051,35.82923],[139.59053,35.82928],[139.59055,35.82934],[139.59052,35.82936],[139.59047,35.82938],[139.58887,35.83018],[139.58865,35.8303],[139.58858,35.83034],[139.58856,35.83035],[139.58832,35.83048],[139.58813,35.83059],[139.58739,35.83099],[139.58691,35.83123],[139.58687,35.83126],[139.5867,35.83136],[139.58662,35.8314],[139.58677,35.83157],[139.58683,35.83164],[139.5869,35.8317],[139.58706,35.83184],[139.58726,35.83209],[139.58761,35.83256],[139.58816,35.83324],[139.58864,35.83323],[139.58888,35.83321],[139.58911,35.8332],[139.58923,35.83318],[139.58939,35.83316],[139.58951,35.83311],[139.58962,35.83306],[139.58979,35.83296],[139.59012,35.83281],[139.59066,35.83254],[139.5917,35.83204]]]}},{"type":"Feature","properties":{"name":"下宗岡二丁目","setai":716,"jinko":1805,"key":"11228006002","units":1},"geometry":{"type":"Polygon","coordinates":[[[139.59405,35.83665],[139.59434,35.83658],[139.59444,35.83659],[139.59496,35.83543],[139.59497,35.83542],[139.59521,35.83488],[139.59541,35.83442],[139.59562,35.83394],[139.5957,35.83376],[139.59583,35.83348],[139.59605,35.83298],[139.59613,35.83279],[139.59616,35.83271],[139.59609,35.83272],[139.59565,35.83274],[139.59492,35.83281],[139.59471,35.83282],[139.5946,35.83282],[139.59449,35.83281],[139.59435,35.83278],[139.59401,35.83268],[139.59357,35.83254],[139.59321,35.83246],[139.59302,35.83241],[139.5928,35.83237],[139.59245,35.83229],[139.5924,35.83228],[139.5923,35.83226],[139.59216,35.83223],[139.59205,35.8322],[139.59186,35.83211],[139.59167,35.832],[139.5917,35.83204],[139.59066,35.83254],[139.59012,35.83281],[139.58979,35.83296],[139.58962,35.83306],[139.58951,35.83311],[139.58939,35.83316],[139.58923,35.83318],[139.58911,35.8332],[139.58888,35.83321],[139.58864,35.83323],[139.58816,35.83324],[139.58817,35.83348],[139.58818,35.83373],[139.58818,35.83378],[139.58822,35.83439],[139.58823,35.83474],[139.58824,35.83498],[139.58828,35.83562],[139.58868,35.83554],[139.58891,35.83549],[139.58904,35.83547],[139.5892,35.83546],[139.58937,35.83544],[139.58947,35.83544],[139.58955,35.83544],[139.58977,35.83554],[139.59034,35.83579],[139.59043,35.83583],[139.59055,35.83588],[139.59061,35.83589],[139.59069,35.83589],[139.59076,35.83589],[139.5908,35.83589],[139.59103,35.8359],[139.59164,35.83597],[139.59226,35.83603],[139.59249,35.83608],[139.59282,35.83616],[139.59287,35.83616],[139.59293,35.83617],[139.59325,35.83617],[139.5933,35.83618],[139.59341,35.83623],[139.5935,35.83628],[139.59394,35.83657],[139.59405,35.83665]]]}},{"type":"Feature","properties":{"name":"下宗岡三丁目","setai":455,"jinko":1225,"key":"11228006003","units":1},"geometry":{"type":"Polygon","coordinates":[[[139.60155,35.83689],[139.60181,35.83672],[139.6019,35.83665],[139.60196,35.83661],[139.6021,35.83649],[139.60215,35.83644],[139.60231,35.83631],[139.60241,35.8362],[139.60275,35.83585],[139.60315,35.83539],[139.6035,35.83501],[139.60375,35.83472],[139.60385,35.83456],[139.60379,35.83454],[139.60346,35.83443],[139.60322,35.83437],[139.60299,35.83433],[139.60284,35.83431],[139.60271,35.8343],[139.60255,35.8343],[139.60226,35.8343],[139.60193,35.83436],[139.60185,35.83437],[139.60081,35.8347],[139.60001,35.83494],[139.59997,35.83496],[139.59972,35.83476],[139.59955,35.83463],[139.59943,35.83453],[139.599,35.83422],[139.59894,35.83419],[139.59853,35.83392],[139.59806,35.83361],[139.59758,35.83331],[139.59711,35.83301],[139.59693,35.8329],[139.59687,35.83285],[139.59683,35.83282],[139.59679,35.83279],[139.59675,35.83275],[139.59671,35.83271],[139.59659,35.83271],[139.59638,35.83271],[139.59616,35.83271],[139.59613,35.83279],[139.59605,35.83298],[139.59583,35.83348],[139.5957,35.83376],[139.59562,35.83394],[139.59541,35.83442],[139.59521,35.83488],[139.59497,35.83542],[139.59496,35.83543],[139.59444,35.83659],[139.59544,35.83672],[139.59571,35.83675],[139.59595,35.83677],[139.59612,35.83678],[139.59623,35.83677],[139.59648,35.83675],[139.59669,35.83673],[139.59688,35.83671],[139.59718,35.83668],[139.59753,35.8367],[139.59821,35.83672],[139.59906,35.83676],[139.5994,35.83678],[139.59979,35.83679],[139.60014,35.83681],[139.60034,35.83682],[139.60061,35.83684],[139.60104,35.83685],[139.60144,35.83685],[139.60155,35.83689]]]}},{"type":"Feature","properties":{"name":"下宗岡四丁目","setai":635,"jinko":1601,"key":"11228006004","units":1},"geometry":{"type":"Polygon","coordinates":[[[139.60226,35.8343],[139.60255,35.8343],[139.60271,35.8343],[139.60284,35.83431],[139.60299,35.83433],[139.60322,35.83437],[139.60346,35.83443],[139.60379,35.83454],[139.60385,35.83456],[139.60401,35.83427],[139.60431,35.83371],[139.60467,35.83309],[139.60482,35.83287],[139.60495,35.83269],[139.60508,35.83252],[139.60528,35.83225],[139.60506,35.83213],[139.60487,35.83206],[139.60455,35.83196],[139.60441,35.83193],[139.60436,35.83191],[139.60433,35.83189],[139.60428,35.83186],[139.60422,35.83182],[139.60418,35.83179],[139.60394,35.83165],[139.60363,35.83146],[139.60316,35.83115],[139.60315,35.83115],[139.60307,35.8311],[139.60296,35.83106],[139.60271,35.83098],[139.6027,35.83096],[139.60269,35.83096],[139.60262,35.83085],[139.60259,35.83079],[139.60211,35.8307],[139.60175,35.83065],[139.60142,35.8306],[139.60103,35.8305],[139.60094,35.83047],[139.60093,35.83046],[139.60072,35.83038],[139.6003,35.83026],[139.59989,35.83017],[139.5997,35.83014],[139.59966,35.83013],[139.59964,35.83011],[139.59962,35.8301],[139.5995,35.83004],[139.59911,35.82969],[139.59885,35.82947],[139.59884,35.82946],[139.5987,35.82937],[139.59857,35.82931],[139.59843,35.82922],[139.5983,35.8291],[139.59821,35.82905],[139.59813,35.82902],[139.5981,35.82902],[139.59806,35.82902],[139.59804,35.82902],[139.59802,35.82903],[139.598,35.82905],[139.59798,35.82908],[139.59794,35.82911],[139.59792,35.82913],[139.59783,35.82919],[139.59784,35.82925],[139.59793,35.8294],[139.59798,35.82955],[139.59799,35.82957],[139.59804,35.82971],[139.59806,35.82977],[139.59806,35.82981],[139.59803,35.82981],[139.59797,35.82982],[139.59794,35.82982],[139.59775,35.82982],[139.5976,35.8298],[139.59748,35.82979],[139.59729,35.82973],[139.59711,35.8297],[139.59694,35.82969],[139.5968,35.82969],[139.59669,35.82971],[139.59661,35.82973],[139.59651,35.82974],[139.59649,35.82974],[139.59635,35.82977],[139.59624,35.82982],[139.59609,35.82992],[139.59596,35.82996],[139.59583,35.82997],[139.59573,35.82999],[139.59565,35.82998],[139.59561,35.82998],[139.59555,35.82999],[139.59545,35.82999],[139.59548,35.83006],[139.59551,35.83012],[139.59559,35.83031],[139.59574,35.8307],[139.59575,35.83074],[139.59609,35.83161],[139.59612,35.83167],[139.59625,35.83204],[139.59634,35.83223],[139.59637,35.83228],[139.59641,35.83233],[139.59645,35.8324],[139.59652,35.83249],[139.59657,35.83256],[139.59662,35.83261],[139.59666,35.83265],[139.59671,35.83271],[139.59675,35.83275],[139.59679,35.83279],[139.59683,35.83282],[139.59687,35.83285],[139.59693,35.8329],[139.59711,35.83301],[139.59758,35.83331],[139.59806,35.83361],[139.59853,35.83392],[139.59894,35.83419],[139.599,35.83422],[139.59943,35.83453],[139.59955,35.83463],[139.59972,35.83476],[139.59997,35.83496],[139.60001,35.83494],[139.60081,35.8347],[139.60185,35.83437],[139.60193,35.83436],[139.60226,35.8343]]]}},{"type":"Feature","properties":{"name":"館一丁目","setai":1077,"jinko":2402,"key":"11228007001","units":1},"geometry":{"type":"Polygon","coordinates":[[[139.56509,35.82706],[139.56478,35.82685],[139.5648,35.82681],[139.5648,35.82673],[139.56482,35.82662],[139.56488,35.82634],[139.56471,35.82637],[139.56444,35.82666],[139.56433,35.82678],[139.56428,35.82684],[139.56423,35.82689],[139.56387,35.82667],[139.56323,35.82628],[139.56322,35.82627],[139.56218,35.82563],[139.56118,35.82502],[139.56116,35.82501],[139.56016,35.82439],[139.55965,35.82407],[139.55916,35.82378],[139.55911,35.82383],[139.55902,35.82396],[139.55894,35.82405],[139.55875,35.82427],[139.55871,35.82431],[139.55861,35.82442],[139.5584,35.82465],[139.55817,35.82489],[139.55777,35.82532],[139.55771,35.82539],[139.55829,35.82575],[139.55936,35.82642],[139.55968,35.82662],[139.56024,35.82696],[139.56067,35.82723],[139.56078,35.8273],[139.5611,35.8275],[139.56147,35.82774],[139.56172,35.82789],[139.56263,35.82847],[139.56269,35.8285],[139.56311,35.82876],[139.56425,35.82945],[139.56453,35.82927],[139.56477,35.82911],[139.565,35.82897],[139.56521,35.82882],[139.56535,35.82873],[139.56552,35.82862],[139.56577,35.82846],[139.56582,35.82842],[139.56597,35.82832],[139.56568,35.8279],[139.56564,35.82781],[139.5656,35.82771],[139.56554,35.82763],[139.56549,35.82756],[139.5654,35.82743],[139.56526,35.82732],[139.56519,35.82724],[139.56516,35.82717],[139.56511,35.82708],[139.56509,35.82706]]]}},{"type":"Feature","properties":{"name":"館二丁目","setai":2182,"jinko":4942,"key":"11228007002","units":1},"geometry":{"type":"Polygon","coordinates":[[[139.56101,35.8315],[139.56148,35.83119],[139.56266,35.83044],[139.56269,35.83046],[139.56278,35.83041],[139.56326,35.8301],[139.56327,35.83009],[139.56342,35.82999],[139.56362,35.82986],[139.564,35.82961],[139.56425,35.82945],[139.56311,35.82876],[139.56269,35.8285],[139.56263,35.82847],[139.56172,35.82789],[139.56147,35.82774],[139.5611,35.8275],[139.56078,35.8273],[139.56067,35.82723],[139.56024,35.82696],[139.55968,35.82662],[139.55936,35.82642],[139.55829,35.82575],[139.55771,35.82539],[139.55777,35.82532],[139.55748,35.82459],[139.55741,35.8246],[139.55647,35.82484],[139.55664,35.82526],[139.55542,35.82557],[139.5553,35.82565],[139.55553,35.82609],[139.55555,35.82614],[139.55556,35.8262],[139.55552,35.82641],[139.55548,35.82669],[139.55545,35.82707],[139.55545,35.82712],[139.55551,35.82742],[139.55558,35.82773],[139.5556,35.82789],[139.5556,35.82801],[139.55559,35.82807],[139.55555,35.8282],[139.5555,35.82835],[139.55548,35.82844],[139.55549,35.82849],[139.55551,35.82853],[139.55553,35.82856],[139.55557,35.8286],[139.55564,35.82865],[139.5557,35.8287],[139.55574,35.82872],[139.5558,35.82875],[139.55589,35.8288],[139.55601,35.82886],[139.55614,35.82892],[139.55646,35.82901],[139.55662,35.82905],[139.55664,35.82905],[139.55671,35.82907],[139.55698,35.82909],[139.55706,35.8291],[139.55714,35.82912],[139.55719,35.82915],[139.55729,35.82921],[139.55745,35.82939],[139.55755,35.82944],[139.55799,35.8297],[139.55837,35.82995],[139.55861,35.83011],[139.55871,35.83019],[139.55875,35.83021],[139.55893,35.83032],[139.55909,35.83041],[139.55932,35.83055],[139.55934,35.83061],[139.55938,35.83072],[139.55945,35.83088],[139.55948,35.83092],[139.55951,35.83095],[139.55955,35.83098],[139.55962,35.83099],[139.55968,35.83099],[139.5598,35.831],[139.55989,35.83101],[139.55998,35.83104],[139.56019,35.83111],[139.56026,35.83118],[139.56035,35.83125],[139.56043,35.83131],[139.56047,35.83136],[139.56051,35.8314],[139.56058,35.83145],[139.56062,35.83145],[139.56073,35.83144],[139.56085,35.83145],[139.5609,35.83147],[139.56097,35.83149],[139.56101,35.8315]]]}},{"type":"Feature","properties":{"name":"宗岡","setai":0,"jinko":0,"key":"112280080","units":1},"geometry":{"type":"Polygon","coordinates":[[[139.58571,35.86027],[139.58579,35.8602],[139.5859,35.86009],[139.58605,35.85998],[139.58625,35.85984],[139.58657,35.8596],[139.58706,35.85923],[139.58745,35.85883],[139.58783,35.85841],[139.58811,35.85804],[139.58831,35.85775],[139.58856,35.85737],[139.58866,35.85721],[139.58867,35.8572],[139.58885,35.8569],[139.58903,35.85654],[139.58917,35.85627],[139.58925,35.85608],[139.58936,35.85586],[139.58949,35.85558],[139.58961,35.85534],[139.58973,35.85508],[139.58981,35.85486],[139.58992,35.85462],[139.59001,35.85447],[139.59014,35.85424],[139.59035,35.85392],[139.5905,35.85368],[139.59074,35.85338],[139.5909,35.85323],[139.59112,35.85301],[139.59128,35.85286],[139.59153,35.85262],[139.59171,35.85246],[139.59177,35.8524],[139.5932,35.85141],[139.59354,35.85123],[139.59404,35.85094],[139.5945,35.85066],[139.59488,35.85044],[139.59514,35.85024],[139.59521,35.85021],[139.59531,35.85013],[139.59593,35.84974],[139.59626,35.84953],[139.59671,35.84922],[139.59675,35.84918],[139.59686,35.84908],[139.59687,35.84909],[139.59783,35.84819],[139.59789,35.84813],[139.59796,35.84805],[139.59805,35.84793],[139.59933,35.84618],[139.59934,35.84616],[139.59956,35.84587],[139.59962,35.84579],[139.59978,35.84559],[139.59992,35.84542],[139.60005,35.84526],[139.60018,35.84514],[139.6003,35.84502],[139.6006,35.84474],[139.60067,35.84468],[139.60083,35.84458],[139.60099,35.84444],[139.60126,35.84427],[139.6017,35.84407],[139.60215,35.84391],[139.6025,35.84378],[139.60299,35.84366],[139.60326,35.84358],[139.6036,35.84345],[139.60505,35.84275],[139.6057,35.84242],[139.60628,35.84202],[139.60676,35.84166],[139.60704,35.84144],[139.60698,35.84017],[139.60695,35.8391],[139.60685,35.83823],[139.60667,35.83757],[139.6065,35.83689],[139.60676,35.83632],[139.60692,35.83597],[139.60696,35.83588],[139.60719,35.83538],[139.60749,35.83476],[139.60755,35.83464],[139.60721,35.83451],[139.60643,35.83423],[139.6064,35.83422],[139.6059,35.83415],[139.60587,35.83398],[139.6055,35.83253],[139.60546,35.8324],[139.60542,35.83232],[139.60536,35.83228],[139.60531,35.83226],[139.60528,35.83225],[139.60508,35.83252],[139.60495,35.83269],[139.60482,35.83287],[139.60467,35.83309],[139.60431,35.83371],[139.60401,35.83427],[139.60385,35.83456],[139.60375,35.83472],[139.6035,35.83501],[139.60315,35.83539],[139.60275,35.83585],[139.60241,35.8362],[139.60231,35.83631],[139.60215,35.83644],[139.6021,35.83649],[139.60196,35.83661],[139.6019,35.83665],[139.60181,35.83672],[139.60155,35.83689],[139.60141,35.83698],[139.60084,35.83729],[139.60044,35.8375],[139.60003,35.83771],[139.5999,35.83777],[139.59975,35.83785],[139.59955,35.83797],[139.59939,35.83806],[139.59932,35.83811],[139.59915,35.83822],[139.599,35.83833],[139.59893,35.83841],[139.59881,35.83853],[139.59872,35.8386],[139.59851,35.83875],[139.59836,35.83886],[139.59823,35.83895],[139.59812,35.83901],[139.59801,35.83906],[139.59769,35.83917],[139.59765,35.83919],[139.59761,35.83919],[139.59751,35.83921],[139.59734,35.83936],[139.59728,35.83941],[139.59662,35.83973],[139.59627,35.83989],[139.59563,35.8402],[139.59512,35.84045],[139.59489,35.84058],[139.59462,35.84076],[139.59448,35.84087],[139.59434,35.84098],[139.59422,35.84107],[139.59412,35.84118],[139.59405,35.84126],[139.59396,35.84137],[139.59387,35.84149],[139.59369,35.84178],[139.59354,35.84203],[139.59337,35.84237],[139.59329,35.84254],[139.59325,35.84266],[139.59323,35.84272],[139.59321,35.84282],[139.59317,35.84291],[139.5931,35.84305],[139.59305,35.8431],[139.59296,35.84323],[139.5928,35.84353],[139.59268,35.84377],[139.59254,35.84408],[139.59233,35.8445],[139.59222,35.84468],[139.59198,35.84505],[139.59166,35.84555],[139.59152,35.84573],[139.59136,35.84598],[139.59085,35.84672],[139.59077,35.84682],[139.5907,35.84692],[139.5906,35.84705],[139.59037,35.84733],[139.58985,35.84797],[139.58966,35.8482],[139.58932,35.84858],[139.58895,35.84899],[139.58878,35.8492],[139.58863,35.84942],[139.58858,35.8495],[139.58855,35.84954],[139.58845,35.84965],[139.5883,35.84979],[139.58801,35.84999],[139.58733,35.85049],[139.58707,35.85067],[139.58681,35.85086],[139.58643,35.85113],[139.58707,35.85223],[139.58722,35.85251],[139.58697,35.85265],[139.58661,35.85286],[139.58638,35.85295],[139.5858,35.8532],[139.58568,35.85325],[139.58499,35.85365],[139.58458,35.85393],[139.58434,35.8542],[139.58427,35.85431],[139.58425,35.85435],[139.58422,35.85462],[139.58421,35.85479],[139.5842,35.8552],[139.5841,35.85543],[139.58403,35.85561],[139.58364,35.85676],[139.58344,35.85743],[139.58341,35.85752],[139.58318,35.85818],[139.58307,35.85858],[139.58305,35.85865],[139.58304,35.85866],[139.58309,35.85897],[139.58317,35.8593],[139.58315,35.85965],[139.58295,35.86004],[139.58294,35.86005],[139.58275,35.86045],[139.58259,35.86086],[139.58281,35.86088],[139.58336,35.8608],[139.58378,35.86075],[139.58429,35.86071],[139.58446,35.86062],[139.58479,35.86051],[139.58487,35.86049],[139.58548,35.86033],[139.58571,35.86027]]]}}]}