{"type":"FeatureCollection","features":[{"type":"Feature","properties":{"name":"福島一丁目","setai":820,"jinko":1384,"key":"27103001001","units":1,"m":677,"f":707,"gk":27,"a0":156,"a1":881,"a2":250,"a75":121,"ag":[50,65,41,22,43,71,88,114,126,126,105,98,88,57,72,45,43,24,6,2,1],"nf":97},"geometry":{"type":"Polygon","coordinates":[[[135.48953,34.69319],[135.48852,34.69268],[135.48796,34.69354],[135.48768,34.69396],[135.48763,34.69404],[135.4874,34.69466],[135.48729,34.69499],[135.4871,34.69562],[135.48758,34.69579],[135.48826,34.69605],[135.48883,34.69625],[135.48888,34.69627],[135.49027,34.69677],[135.49033,34.69661],[135.49029,34.69597],[135.49028,34.69576],[135.49029,34.69573],[135.49032,34.69567],[135.49063,34.695],[135.49121,34.69377],[135.49108,34.69374],[135.49075,34.69364],[135.49058,34.69358],[135.49014,34.69344],[135.4899,34.69335],[135.48953,34.69319]]]}},{"type":"Feature","properties":{"name":"福島二丁目","setai":611,"jinko":759,"key":"27103001002","units":1,"m":406,"f":353,"gk":19,"a0":13,"a1":500,"a2":160,"a75":88,"ag":[5,3,5,12,48,77,75,61,48,61,50,45,23,33,39,36,24,14,13,1,0],"nf":86},"geometry":{"type":"Polygon","coordinates":[[[135.48752,34.69215],[135.48715,34.69192],[135.48616,34.69262],[135.48606,34.69268],[135.48605,34.69273],[135.48596,34.69317],[135.48587,34.69363],[135.48581,34.69394],[135.48573,34.69437],[135.48561,34.69498],[135.4856,34.69506],[135.48599,34.6952],[135.4871,34.69562],[135.48729,34.69499],[135.4874,34.69466],[135.48763,34.69404],[135.48768,34.69396],[135.48796,34.69354],[135.48852,34.69268],[135.4877,34.69225],[135.48752,34.69215]]]}},{"type":"Feature","properties":{"name":"福島三丁目","setai":1514,"jinko":2698,"key":"27103001003","units":1,"m":1266,"f":1432,"gk":60,"a0":297,"a1":1807,"a2":487,"a75":217,"ag":[119,99,79,71,71,150,205,244,256,267,198,211,134,130,140,90,72,44,9,2,0],"nf":107},"geometry":{"type":"Polygon","coordinates":[[[135.48491,34.68965],[135.48485,34.68959],[135.484,34.6901],[135.48403,34.69021],[135.48403,34.69132],[135.48404,34.69151],[135.48404,34.69178],[135.48404,34.69193],[135.48404,34.69207],[135.48404,34.69221],[135.48404,34.6925],[135.48404,34.69305],[135.48404,34.6931],[135.48404,34.6933],[135.48405,34.69387],[135.48407,34.6945],[135.48536,34.69498],[135.48551,34.69503],[135.4856,34.69506],[135.48561,34.69498],[135.48573,34.69437],[135.48581,34.69394],[135.48587,34.69363],[135.48596,34.69317],[135.48605,34.69273],[135.48606,34.69268],[135.48616,34.69262],[135.48715,34.69192],[135.48691,34.69174],[135.48672,34.69154],[135.48619,34.691],[135.48566,34.69044],[135.48491,34.68965]]]}},{"type":"Feature","properties":{"name":"福島四丁目","setai":1818,"jinko":3629,"key":"27103001004","units":1,"m":1668,"f":1961,"gk":59,"a0":664,"a1":2596,"a2":367,"a75":173,"ag":[227,279,158,145,148,222,288,390,465,350,262,209,117,89,105,78,50,31,8,5,1],"nf":2},"geometry":{"type":"Polygon","coordinates":[[[135.48403,34.69021],[135.484,34.6901],[135.48394,34.69003],[135.48385,34.68988],[135.4833,34.69012],[135.48244,34.68958],[135.48228,34.68955],[135.4821,34.6896],[135.48186,34.68975],[135.48163,34.6899],[135.48167,34.68994],[135.48175,34.69001],[135.48174,34.69025],[135.48174,34.69053],[135.48173,34.69079],[135.48173,34.69094],[135.48173,34.69096],[135.48173,34.69111],[135.48173,34.69121],[135.48173,34.69131],[135.48172,34.69142],[135.48161,34.69154],[135.48133,34.69205],[135.48123,34.69222],[135.48117,34.69233],[135.48065,34.69327],[135.4809,34.69344],[135.48117,34.69355],[135.48116,34.69377],[135.48141,34.694],[135.48164,34.69421],[135.48179,34.69434],[135.48214,34.69461],[135.48249,34.69488],[135.48253,34.69491],[135.48254,34.69492],[135.4826,34.69497],[135.48308,34.69533],[135.48332,34.69549],[135.48362,34.69566],[135.48416,34.69593],[135.48415,34.69568],[135.48414,34.69556],[135.4841,34.69497],[135.48407,34.6945],[135.48405,34.69387],[135.48404,34.6933],[135.48404,34.6931],[135.48404,34.69305],[135.48404,34.6925],[135.48404,34.69221],[135.48404,34.69207],[135.48404,34.69193],[135.48404,34.69178],[135.48404,34.69151],[135.48403,34.69132],[135.48403,34.69021]]]}},{"type":"Feature","properties":{"name":"福島五丁目","setai":616,"jinko":1085,"key":"27103001005","units":1,"m":484,"f":601,"gk":22,"a0":117,"a1":697,"a2":214,"a75":118,"ag":[43,44,30,25,42,76,91,79,94,88,76,83,43,44,52,56,25,22,12,3,0],"nf":57},"geometry":{"type":"Polygon","coordinates":[[[135.48994,34.69762],[135.49015,34.6971],[135.49027,34.69677],[135.48888,34.69627],[135.48883,34.69625],[135.48826,34.69605],[135.48758,34.69579],[135.4871,34.69562],[135.48599,34.6952],[135.4856,34.69506],[135.48551,34.69503],[135.48536,34.69498],[135.48407,34.6945],[135.4841,34.69497],[135.48414,34.69556],[135.48415,34.69568],[135.48416,34.69593],[135.4842,34.69595],[135.4842,34.69595],[135.4843,34.696],[135.48441,34.69605],[135.48463,34.69616],[135.48479,34.69624],[135.485,34.69634],[135.4852,34.69644],[135.4854,34.69652],[135.48562,34.6966],[135.48581,34.69666],[135.48706,34.69729],[135.48706,34.69722],[135.48742,34.6974],[135.48845,34.69792],[135.48961,34.69852],[135.48984,34.6979],[135.48994,34.69762]]]}},{"type":"Feature","properties":{"name":"福島六丁目","setai":2122,"jinko":2989,"key":"27103001006","units":1,"m":1481,"f":1508,"gk":66,"a0":261,"a1":2096,"a2":279,"a75":128,"ag":[131,89,41,42,171,389,321,326,276,226,171,102,72,62,89,47,42,27,8,3,1],"nf":353},"geometry":{"type":"Polygon","coordinates":[[[135.49084,34.70267],[135.49006,34.70032],[135.48999,34.7001],[135.48996,34.70011],[135.48987,34.69992],[135.48968,34.69957],[135.48961,34.69945],[135.48959,34.69858],[135.48961,34.69852],[135.48845,34.69792],[135.48742,34.6974],[135.48706,34.69722],[135.48706,34.69729],[135.48706,34.69752],[135.48695,34.69746],[135.48695,34.69769],[135.48695,34.69775],[135.48694,34.69808],[135.48696,34.69844],[135.48696,34.69849],[135.48698,34.69902],[135.48701,34.69937],[135.48703,34.69968],[135.48705,34.70003],[135.48708,34.70051],[135.48711,34.70113],[135.48716,34.70113],[135.488,34.70112],[135.48796,34.70168],[135.48796,34.70187],[135.48793,34.70231],[135.48849,34.7024],[135.48854,34.7024],[135.48864,34.70242],[135.4891,34.70249],[135.48915,34.7025],[135.49016,34.70265],[135.49035,34.70267],[135.49084,34.70267]]]}},{"type":"Feature","properties":{"name":"福島七丁目","setai":1801,"jinko":2601,"key":"27103001007","units":1,"m":1272,"f":1329,"gk":71,"a0":226,"a1":1863,"a2":231,"a75":100,"ag":[113,65,48,147,156,249,278,246,201,226,153,119,88,63,68,42,36,17,4,1,0],"nf":281},"geometry":{"type":"Polygon","coordinates":[[[135.48708,34.70051],[135.48705,34.70003],[135.48703,34.69968],[135.48701,34.69937],[135.48698,34.69902],[135.48696,34.69849],[135.48696,34.69844],[135.48694,34.69808],[135.48695,34.69775],[135.48695,34.69769],[135.48695,34.69746],[135.48706,34.69752],[135.48706,34.69729],[135.48581,34.69666],[135.48562,34.6966],[135.4854,34.69652],[135.4852,34.69644],[135.485,34.69634],[135.48479,34.69624],[135.48463,34.69616],[135.48441,34.69605],[135.4843,34.696],[135.4842,34.69595],[135.4842,34.69595],[135.48421,34.69595],[135.48422,34.69614],[135.48426,34.69665],[135.48426,34.69667],[135.48433,34.69754],[135.48435,34.69787],[135.48437,34.69821],[135.4844,34.69866],[135.48435,34.69871],[135.48404,34.69883],[135.48371,34.69897],[135.4839,34.69925],[135.48395,34.69941],[135.48399,34.69953],[135.48417,34.70004],[135.48419,34.70009],[135.48424,34.70023],[135.48452,34.70032],[135.48463,34.70033],[135.4853,34.70039],[135.48548,34.7004],[135.48554,34.7004],[135.48595,34.70083],[135.48612,34.70113],[135.48649,34.70113],[135.48711,34.70113],[135.48708,34.70051]]]}},{"type":"Feature","properties":{"name":"福島八丁目","setai":854,"jinko":1419,"key":"27103001008","units":1,"m":698,"f":721,"gk":28,"a0":109,"a1":909,"a2":347,"a75":202,"ag":[31,39,39,34,75,142,106,125,85,95,80,98,69,68,77,80,60,40,16,5,1],"nf":54},"geometry":{"type":"Polygon","coordinates":[[[135.48141,34.694],[135.48116,34.69377],[135.48114,34.69403],[135.48113,34.69419],[135.48113,34.69427],[135.4812,34.69447],[135.48137,34.69496],[135.48139,34.69503],[135.48149,34.69513],[135.48157,34.69521],[135.48187,34.69553],[135.48187,34.69554],[135.48196,34.69577],[135.48209,34.69614],[135.48248,34.69695],[135.48252,34.69702],[135.48255,34.6971],[135.48263,34.69725],[135.48284,34.69768],[135.48285,34.69769],[135.48303,34.69797],[135.48327,34.69831],[135.48349,34.69864],[135.48371,34.69897],[135.48404,34.69883],[135.48435,34.69871],[135.4844,34.69866],[135.48437,34.69821],[135.48435,34.69787],[135.48433,34.69754],[135.48426,34.69667],[135.48426,34.69665],[135.48422,34.69614],[135.48421,34.69595],[135.4842,34.69595],[135.48416,34.69593],[135.48362,34.69566],[135.48332,34.69549],[135.48308,34.69533],[135.4826,34.69497],[135.48254,34.69492],[135.48253,34.69491],[135.48249,34.69488],[135.48214,34.69461],[135.48179,34.69434],[135.48164,34.69421],[135.48141,34.694]]]}},{"type":"Feature","properties":{"name":"玉川一丁目","setai":1400,"jinko":2922,"key":"27103002001","units":1,"m":1332,"f":1590,"gk":67,"a0":494,"a1":1978,"a2":388,"a75":183,"ag":[150,186,158,126,154,168,193,236,279,277,245,176,124,108,97,85,44,34,17,2,1],"nf":62},"geometry":{"type":"Polygon","coordinates":[[[135.4833,34.69012],[135.48385,34.68988],[135.48394,34.69003],[135.484,34.6901],[135.48485,34.68959],[135.48428,34.68892],[135.48407,34.68866],[135.48326,34.68771],[135.48244,34.68673],[135.482,34.68705],[135.48194,34.68709],[135.48169,34.68727],[135.48107,34.68772],[135.48083,34.68789],[135.48071,34.688],[135.48042,34.68831],[135.48038,34.68836],[135.47988,34.68889],[135.48018,34.68932],[135.48024,34.6894],[135.48055,34.68972],[135.48058,34.68975],[135.48063,34.69005],[135.48063,34.6901],[135.48129,34.68958],[135.48129,34.68959],[135.48163,34.6899],[135.48186,34.68975],[135.4821,34.6896],[135.48228,34.68955],[135.48244,34.68958],[135.4833,34.69012]]]}},{"type":"Feature","properties":{"name":"玉川二丁目","setai":1154,"jinko":2276,"key":"27103002002","units":1,"m":1005,"f":1271,"gk":17,"a0":208,"a1":1316,"a2":745,"a75":397,"ag":[66,70,72,87,127,145,157,122,142,179,138,117,102,136,212,181,95,73,36,11,1],"nf":7},"geometry":{"type":"Polygon","coordinates":[[[135.48174,34.69025],[135.48175,34.69001],[135.48167,34.68994],[135.48163,34.6899],[135.48129,34.68959],[135.48129,34.68958],[135.48063,34.6901],[135.48063,34.69005],[135.48058,34.68975],[135.48055,34.68972],[135.48024,34.6894],[135.48018,34.68932],[135.47988,34.68889],[135.47972,34.68906],[135.47955,34.68924],[135.4787,34.69015],[135.47847,34.69039],[135.47805,34.69082],[135.47781,34.69109],[135.4779,34.69116],[135.47861,34.6917],[135.47885,34.69189],[135.47923,34.69218],[135.47979,34.69261],[135.48005,34.69281],[135.48039,34.69307],[135.4804,34.69308],[135.48065,34.69327],[135.48117,34.69233],[135.48123,34.69222],[135.48133,34.69205],[135.48161,34.69154],[135.48172,34.69142],[135.48173,34.69131],[135.48173,34.69121],[135.48173,34.69111],[135.48173,34.69096],[135.48173,34.69094],[135.48173,34.69079],[135.48174,34.69053],[135.48174,34.69025]]]}},{"type":"Feature","properties":{"name":"玉川三丁目","setai":564,"jinko":962,"key":"27103002003","units":1,"m":469,"f":493,"gk":23,"a0":103,"a1":641,"a2":141,"a75":71,"ag":[31,31,41,39,63,96,110,79,83,69,40,42,20,35,35,27,25,9,10,0,0],"nf":77},"geometry":{"type":"Polygon","coordinates":[[[135.48215,34.68636],[135.48171,34.68577],[135.48061,34.68639],[135.48036,34.68653],[135.47957,34.68698],[135.47941,34.68707],[135.47894,34.68733],[135.47865,34.6875],[135.47918,34.68789],[135.4791,34.68796],[135.47942,34.68827],[135.47954,34.68844],[135.47985,34.68885],[135.47988,34.68889],[135.48038,34.68836],[135.48042,34.68831],[135.48071,34.688],[135.48083,34.68789],[135.48107,34.68772],[135.48169,34.68727],[135.48194,34.68709],[135.482,34.68705],[135.48244,34.68673],[135.48215,34.68636]]]}},{"type":"Feature","properties":{"name":"玉川四丁目","setai":799,"jinko":1518,"key":"27103002004","units":1,"m":747,"f":771,"gk":25,"a0":208,"a1":1000,"a2":309,"a75":145,"ag":[55,77,76,40,71,102,108,136,126,154,83,97,83,80,84,59,45,27,12,2,0],"nf":1},"geometry":{"type":"Polygon","coordinates":[[[135.47918,34.68789],[135.47865,34.6875],[135.47801,34.68786],[135.47789,34.68793],[135.47779,34.68799],[135.47774,34.68801],[135.4772,34.68832],[135.47712,34.68837],[135.47699,34.68844],[135.47677,34.6887],[135.47643,34.68923],[135.47623,34.68953],[135.4761,34.68974],[135.47618,34.6898],[135.47691,34.6904],[135.47694,34.69041],[135.47703,34.69049],[135.47768,34.69099],[135.47772,34.69102],[135.47781,34.69109],[135.47805,34.69082],[135.47847,34.69039],[135.4787,34.69015],[135.47955,34.68924],[135.47972,34.68906],[135.47988,34.68889],[135.47985,34.68885],[135.47954,34.68844],[135.47942,34.68827],[135.4791,34.68796],[135.47918,34.68789]]]}},{"type":"Feature","properties":{"name":"野田一丁目","setai":0,"jinko":0,"key":"27103003001","units":1,"m":0,"f":0,"gk":0,"a0":0,"a1":0,"a2":0,"a75":0,"ag":[0,0,0,0,0,0,0,0,0,0,0,0,0,0,0,0,0,0,0,0,0]},"geometry":{"type":"Polygon","coordinates":[[[135.48171,34.68577],[135.48098,34.68464],[135.48085,34.68444],[135.48033,34.68363],[135.48019,34.68342],[135.47996,34.68332],[135.47937,34.68305],[135.47825,34.68266],[135.47699,34.68223],[135.47608,34.68191],[135.47552,34.68317],[135.47552,34.68317],[135.47565,34.68326],[135.47581,34.68326],[135.47584,34.6841],[135.47553,34.68464],[135.47674,34.68504],[135.47704,34.68514],[135.47778,34.68539],[135.47848,34.68563],[135.47863,34.68568],[135.47917,34.68586],[135.47975,34.68606],[135.48061,34.68639],[135.48171,34.68577]]]}},{"type":"Feature","properties":{"name":"野田二丁目","setai":1005,"jinko":2171,"key":"27103003002","units":1,"m":1022,"f":1149,"gk":28,"a0":296,"a1":1338,"a2":530,"a75":296,"ag":[110,93,93,87,90,164,140,156,177,189,139,113,83,84,150,111,90,69,23,3,0],"nf":7},"geometry":{"type":"Polygon","coordinates":[[[135.47611,34.68722],[135.47657,34.68721],[135.4767,34.68722],[135.47726,34.68732],[135.47768,34.68734],[135.47791,34.68734],[135.47807,34.6873],[135.47833,34.68732],[135.47856,34.68731],[135.47882,34.68731],[135.47894,34.68733],[135.47941,34.68707],[135.47957,34.68698],[135.48036,34.68653],[135.48061,34.68639],[135.47975,34.68606],[135.47917,34.68586],[135.47863,34.68568],[135.47848,34.68563],[135.47778,34.68539],[135.47704,34.68514],[135.47674,34.68504],[135.47553,34.68464],[135.47543,34.68481],[135.47542,34.6848],[135.47488,34.68463],[135.47487,34.68463],[135.47464,34.68518],[135.47442,34.6857],[135.47467,34.68576],[135.47439,34.68654],[135.47436,34.68663],[135.47413,34.68727],[135.47436,34.68731],[135.47469,34.68735],[135.47501,34.68734],[135.47505,34.68734],[135.47507,34.68733],[135.47596,34.68723],[135.47601,34.68722],[135.47611,34.68722]]]}},{"type":"Feature","properties":{"name":"野田三丁目","setai":749,"jinko":1186,"key":"27103003003","units":1,"m":568,"f":618,"gk":26,"a0":87,"a1":803,"a2":277,"a75":150,"ag":[25,33,29,31,84,148,107,88,79,97,65,47,57,60,67,54,40,36,17,3,0],"nf":19},"geometry":{"type":"Polygon","coordinates":[[[135.4761,34.68974],[135.47623,34.68953],[135.47643,34.68923],[135.47677,34.6887],[135.47699,34.68844],[135.47712,34.68837],[135.4772,34.68832],[135.47774,34.68801],[135.47779,34.68799],[135.47789,34.68793],[135.47801,34.68786],[135.47865,34.6875],[135.47894,34.68733],[135.47882,34.68731],[135.47856,34.68731],[135.47833,34.68732],[135.47807,34.6873],[135.47791,34.68734],[135.47768,34.68734],[135.47726,34.68732],[135.4767,34.68722],[135.47657,34.68721],[135.47611,34.68722],[135.47601,34.68722],[135.47596,34.68723],[135.47507,34.68733],[135.47505,34.68734],[135.47501,34.68734],[135.47469,34.68735],[135.47436,34.68731],[135.47413,34.68727],[135.47395,34.68723],[135.4738,34.68719],[135.47352,34.68717],[135.47335,34.68715],[135.47301,34.68715],[135.47254,34.68712],[135.47262,34.68719],[135.47273,34.68721],[135.47293,34.68722],[135.47333,34.6874],[135.47357,34.68752],[135.47394,34.68781],[135.47413,34.68795],[135.47424,34.68805],[135.47443,34.68832],[135.47447,34.68837],[135.47456,34.68848],[135.47477,34.68878],[135.47594,34.6897],[135.47598,34.68964],[135.4761,34.68974]]]}},{"type":"Feature","properties":{"name":"野田四丁目","setai":176,"jinko":374,"key":"27103003004","units":1,"m":183,"f":191,"gk":8,"a0":55,"a1":225,"a2":92,"a75":42,"ag":[30,15,10,14,21,30,36,28,24,22,21,18,11,31,19,19,12,8,2,1,0],"nf":2},"geometry":{"type":"Polygon","coordinates":[[[135.47584,34.6841],[135.47581,34.68326],[135.47565,34.68326],[135.47552,34.68317],[135.47552,34.68317],[135.47608,34.68191],[135.47573,34.68179],[135.47537,34.68167],[135.47449,34.68136],[135.47359,34.68105],[135.47279,34.68078],[135.47249,34.68071],[135.47213,34.68067],[135.47177,34.68116],[135.47166,34.68134],[135.47224,34.68162],[135.47243,34.68195],[135.47244,34.68196],[135.47294,34.68284],[135.47342,34.68364],[135.47342,34.68364],[135.47362,34.68397],[135.47365,34.68402],[135.47376,34.68421],[135.47382,34.6843],[135.47383,34.68432],[135.47424,34.68444],[135.47487,34.68463],[135.47488,34.68463],[135.47542,34.6848],[135.47543,34.68481],[135.47553,34.68464],[135.47584,34.6841]]]}},{"type":"Feature","properties":{"name":"野田五丁目","setai":867,"jinko":1836,"key":"27103003005","units":1,"m":881,"f":955,"gk":20,"a0":220,"a1":1084,"a2":523,"a75":321,"ag":[73,83,64,85,80,115,128,117,121,149,87,117,85,78,124,109,110,61,31,9,1],"nf":9},"geometry":{"type":"Polygon","coordinates":[[[135.47376,34.68421],[135.47365,34.68402],[135.47334,34.68406],[135.47308,34.6841],[135.47294,34.68413],[135.47259,34.68428],[135.47229,34.68444],[135.47228,34.68445],[135.47224,34.68447],[135.47192,34.68469],[135.4718,34.68481],[135.47164,34.685],[135.47157,34.68513],[135.47148,34.68533],[135.47144,34.68554],[135.47144,34.68582],[135.47152,34.68632],[135.47183,34.68656],[135.47218,34.68683],[135.47252,34.6871],[135.47254,34.68712],[135.47301,34.68715],[135.47335,34.68715],[135.47352,34.68717],[135.4738,34.68719],[135.47395,34.68723],[135.47413,34.68727],[135.47436,34.68663],[135.47439,34.68654],[135.47467,34.68576],[135.47442,34.6857],[135.47464,34.68518],[135.47487,34.68463],[135.47424,34.68444],[135.47383,34.68432],[135.47382,34.6843],[135.47376,34.68421]]]}},{"type":"Feature","properties":{"name":"野田六丁目","setai":946,"jinko":2782,"key":"27103003006","units":1,"m":1319,"f":1463,"gk":11,"a0":634,"a1":1788,"a2":358,"a75":181,"ag":[79,200,355,231,69,58,79,149,330,414,220,146,92,87,90,44,50,43,31,12,1],"nf":2},"geometry":{"type":"Polygon","coordinates":[[[135.47224,34.68162],[135.47166,34.68134],[135.47163,34.68137],[135.47156,34.68148],[135.47141,34.6817],[135.4713,34.68183],[135.47117,34.68198],[135.47109,34.68207],[135.47098,34.68222],[135.47088,34.68236],[135.47074,34.68255],[135.47051,34.68291],[135.47041,34.68306],[135.47026,34.68329],[135.47004,34.68361],[135.47003,34.68363],[135.46973,34.684],[135.46972,34.68402],[135.46925,34.68458],[135.46943,34.68472],[135.46964,34.68488],[135.46983,34.68503],[135.47005,34.68519],[135.47025,34.68535],[135.47073,34.68572],[135.47132,34.68617],[135.47152,34.68632],[135.47144,34.68582],[135.47144,34.68554],[135.47148,34.68533],[135.47157,34.68513],[135.47164,34.685],[135.4718,34.68481],[135.47192,34.68469],[135.47224,34.68447],[135.47228,34.68445],[135.47229,34.68444],[135.47259,34.68428],[135.47294,34.68413],[135.47308,34.6841],[135.47334,34.68406],[135.47365,34.68402],[135.47362,34.68397],[135.47342,34.68364],[135.47342,34.68364],[135.47294,34.68284],[135.47244,34.68196],[135.47243,34.68195],[135.47224,34.68162]]]}},{"type":"Feature","properties":{"name":"吉野一丁目","setai":1193,"jinko":2096,"key":"27103004001","units":1,"m":1031,"f":1065,"gk":38,"a0":201,"a1":1462,"a2":382,"a75":203,"ag":[95,64,42,59,142,264,191,186,140,139,143,112,86,76,103,68,60,55,15,3,2],"nf":51},"geometry":{"type":"Polygon","coordinates":[[[135.48035,34.69405],[135.4808,34.69403],[135.48114,34.69403],[135.48116,34.69377],[135.48117,34.69355],[135.4809,34.69344],[135.48065,34.69327],[135.4804,34.69308],[135.48039,34.69307],[135.48005,34.69281],[135.47979,34.69261],[135.47923,34.69218],[135.47885,34.69189],[135.47861,34.6917],[135.4779,34.69116],[135.47781,34.69109],[135.47772,34.69102],[135.47758,34.69116],[135.4775,34.69126],[135.47716,34.69161],[135.47669,34.69211],[135.47665,34.69215],[135.47655,34.69226],[135.47647,34.69234],[135.47631,34.69251],[135.47621,34.69262],[135.47596,34.69289],[135.47535,34.69353],[135.47578,34.69381],[135.4759,34.69385],[135.47575,34.69407],[135.47567,34.6942],[135.4764,34.69419],[135.4766,34.69418],[135.47672,34.69418],[135.47781,34.69417],[135.47802,34.69417],[135.47827,34.69416],[135.47844,34.69415],[135.47893,34.69412],[135.47906,34.69411],[135.47931,34.6941],[135.48034,34.69405],[135.48035,34.69405]]]}},{"type":"Feature","properties":{"name":"吉野二丁目","setai":900,"jinko":1304,"key":"27103004002","units":1,"m":605,"f":699,"gk":18,"a0":63,"a1":1025,"a2":214,"a75":119,"ag":[26,21,16,33,121,235,120,91,93,98,98,78,58,46,49,41,35,31,10,2,0],"nf":2},"geometry":{"type":"Polygon","coordinates":[[[135.4761,34.68974],[135.47598,34.68964],[135.47594,34.6897],[135.47582,34.68988],[135.47577,34.68996],[135.47551,34.69036],[135.47543,34.69048],[135.47534,34.69062],[135.47518,34.69086],[135.47508,34.691],[135.47497,34.69116],[135.47486,34.69132],[135.47476,34.69148],[135.47476,34.69148],[135.47475,34.69183],[135.47475,34.69266],[135.47474,34.69315],[135.47497,34.69328],[135.47515,34.69339],[135.47535,34.69353],[135.47596,34.69289],[135.47621,34.69262],[135.47631,34.69251],[135.47647,34.69234],[135.47655,34.69226],[135.47665,34.69215],[135.47669,34.69211],[135.47716,34.69161],[135.4775,34.69126],[135.47758,34.69116],[135.47772,34.69102],[135.47768,34.69099],[135.47703,34.69049],[135.47694,34.69041],[135.47691,34.6904],[135.47618,34.6898],[135.4761,34.68974]]]}},{"type":"Feature","properties":{"name":"吉野三丁目","setai":1362,"jinko":2359,"key":"27103004003","units":1,"m":1144,"f":1215,"gk":18,"a0":186,"a1":1568,"a2":553,"a75":276,"ag":[82,54,50,74,107,260,208,192,177,191,144,122,93,117,160,103,87,53,28,4,1],"nf":52},"geometry":{"type":"Polygon","coordinates":[[[135.47254,34.68712],[135.47252,34.6871],[135.47225,34.68723],[135.47222,34.68725],[135.47266,34.6876],[135.47265,34.68773],[135.47262,34.68832],[135.47261,34.68859],[135.4726,34.68899],[135.47259,34.68917],[135.47258,34.68933],[135.47258,34.68959],[135.47258,34.68989],[135.47257,34.69013],[135.47256,34.69042],[135.47255,34.69054],[135.4725,34.69071],[135.47243,34.691],[135.47235,34.69127],[135.47226,34.69163],[135.47275,34.69193],[135.47312,34.69217],[135.47326,34.69225],[135.4734,34.69234],[135.47376,34.69257],[135.47379,34.69259],[135.47406,34.69275],[135.47425,34.69286],[135.47448,34.69299],[135.47474,34.69315],[135.47475,34.69266],[135.47475,34.69183],[135.47476,34.69148],[135.47476,34.69148],[135.47486,34.69132],[135.47497,34.69116],[135.47508,34.691],[135.47518,34.69086],[135.47534,34.69062],[135.47543,34.69048],[135.47551,34.69036],[135.47577,34.68996],[135.47582,34.68988],[135.47594,34.6897],[135.47477,34.68878],[135.47456,34.68848],[135.47447,34.68837],[135.47443,34.68832],[135.47424,34.68805],[135.47413,34.68795],[135.47394,34.68781],[135.47357,34.68752],[135.47333,34.6874],[135.47293,34.68722],[135.47273,34.68721],[135.47262,34.68719],[135.47254,34.68712]]]}},{"type":"Feature","properties":{"name":"吉野四丁目","setai":1933,"jinko":3385,"key":"27103004004","units":1,"m":1615,"f":1770,"gk":37,"a0":345,"a1":2365,"a2":553,"a75":311,"ag":[153,110,82,112,219,439,307,268,253,242,233,162,130,124,118,109,81,73,29,15,4],"nf":122},"geometry":{"type":"Polygon","coordinates":[[[135.47073,34.68572],[135.47025,34.68535],[135.4701,34.68563],[135.47006,34.6857],[135.46999,34.68584],[135.46982,34.68616],[135.46974,34.68653],[135.46964,34.68701],[135.46954,34.68743],[135.46939,34.68815],[135.46939,34.68818],[135.46939,34.68819],[135.46924,34.68891],[135.46916,34.68929],[135.46908,34.68963],[135.46958,34.68995],[135.46969,34.69002],[135.46986,34.69012],[135.47036,34.69044],[135.47044,34.69048],[135.47047,34.69052],[135.47094,34.69082],[135.47139,34.6911],[135.47191,34.69142],[135.47226,34.69163],[135.47235,34.69127],[135.47243,34.691],[135.4725,34.69071],[135.47255,34.69054],[135.47256,34.69042],[135.47257,34.69013],[135.47258,34.68989],[135.47258,34.68959],[135.47258,34.68933],[135.47259,34.68917],[135.4726,34.68899],[135.47261,34.68859],[135.47262,34.68832],[135.47265,34.68773],[135.47266,34.6876],[135.47222,34.68725],[135.47225,34.68723],[135.47252,34.6871],[135.47218,34.68683],[135.47183,34.68656],[135.47152,34.68632],[135.47132,34.68617],[135.47073,34.68572]]]}},{"type":"Feature","properties":{"name":"吉野五丁目","setai":1125,"jinko":2065,"key":"27103004005","units":1,"m":980,"f":1085,"gk":48,"a0":218,"a1":1401,"a2":338,"a75":182,"ag":[64,76,78,95,140,190,215,165,141,174,130,92,59,77,79,63,50,32,26,8,3],"nf":108},"geometry":{"type":"Polygon","coordinates":[[[135.46964,34.68701],[135.46974,34.68653],[135.46982,34.68616],[135.46999,34.68584],[135.47006,34.6857],[135.4701,34.68563],[135.47025,34.68535],[135.47005,34.68519],[135.46983,34.68503],[135.46964,34.68488],[135.46943,34.68472],[135.46925,34.68458],[135.46921,34.68463],[135.46909,34.68477],[135.46907,34.68479],[135.46918,34.68486],[135.46902,34.68503],[135.469,34.68505],[135.46888,34.68498],[135.4688,34.68508],[135.46884,34.6851],[135.46875,34.6852],[135.46888,34.68528],[135.46879,34.68538],[135.46834,34.68581],[135.46796,34.68613],[135.46751,34.68625],[135.46664,34.68654],[135.46637,34.68658],[135.46626,34.68665],[135.46611,34.68671],[135.46576,34.68676],[135.46571,34.68674],[135.46511,34.6868],[135.46556,34.68714],[135.46625,34.68765],[135.46685,34.68813],[135.46693,34.68819],[135.46704,34.68827],[135.46796,34.68893],[135.468,34.68895],[135.46905,34.68961],[135.46908,34.68963],[135.46916,34.68929],[135.46924,34.68891],[135.46939,34.68819],[135.46939,34.68818],[135.46939,34.68815],[135.46954,34.68743],[135.46964,34.68701]]]}},{"type":"Feature","properties":{"name":"大開一丁目","setai":848,"jinko":1648,"key":"27103005001","units":1,"m":797,"f":851,"gk":31,"a0":156,"a1":1017,"a2":439,"a75":237,"ag":[59,44,53,50,59,125,115,92,122,134,122,99,99,88,114,102,64,47,21,3,0],"nf":36},"geometry":{"type":"Polygon","coordinates":[[[135.47275,34.69193],[135.47226,34.69163],[135.47191,34.69196],[135.47137,34.69249],[135.471,34.69285],[135.47069,34.69314],[135.47066,34.6932],[135.47065,34.69328],[135.47058,34.69387],[135.47056,34.694],[135.47053,34.69414],[135.47054,34.6943],[135.47057,34.69464],[135.47105,34.69461],[135.47115,34.6946],[135.47228,34.69453],[135.47246,34.69452],[135.4742,34.69445],[135.47425,34.69445],[135.47468,34.69443],[135.47479,34.69432],[135.47489,34.69428],[135.47564,34.69424],[135.47567,34.6942],[135.47575,34.69407],[135.4759,34.69385],[135.47578,34.69381],[135.47535,34.69353],[135.47515,34.69339],[135.47497,34.69328],[135.47474,34.69315],[135.47448,34.69299],[135.47425,34.69286],[135.47406,34.69275],[135.47379,34.69259],[135.47376,34.69257],[135.4734,34.69234],[135.47326,34.69225],[135.47312,34.69217],[135.47275,34.69193]]]}},{"type":"Feature","properties":{"name":"大開二丁目","setai":1225,"jinko":2157,"key":"27103005002","units":1,"m":1034,"f":1123,"gk":59,"a0":189,"a1":1472,"a2":447,"a75":253,"ag":[75,62,52,94,153,205,187,148,162,175,134,127,87,79,115,100,70,54,25,3,1],"nf":49},"geometry":{"type":"Polygon","coordinates":[[[135.46908,34.68963],[135.46905,34.68961],[135.46897,34.68993],[135.46896,34.68996],[135.46892,34.69009],[135.4689,34.69021],[135.46887,34.6903],[135.46877,34.69074],[135.46864,34.69132],[135.46841,34.6923],[135.4684,34.69234],[135.46839,34.69235],[135.4683,34.69314],[135.46829,34.69334],[135.46829,34.69336],[135.46823,34.69396],[135.46822,34.69412],[135.46823,34.69433],[135.46824,34.69482],[135.46876,34.69478],[135.46913,34.69474],[135.4697,34.6947],[135.47033,34.69465],[135.47057,34.69464],[135.47054,34.6943],[135.47053,34.69414],[135.47056,34.694],[135.47058,34.69387],[135.47065,34.69328],[135.47066,34.6932],[135.47069,34.69314],[135.471,34.69285],[135.47137,34.69249],[135.47191,34.69196],[135.47226,34.69163],[135.47191,34.69142],[135.47139,34.6911],[135.47094,34.69082],[135.47047,34.69052],[135.47044,34.69048],[135.47036,34.69044],[135.46986,34.69012],[135.46969,34.69002],[135.46958,34.68995],[135.46908,34.68963]]]}},{"type":"Feature","properties":{"name":"大開三丁目","setai":1262,"jinko":2828,"key":"27103005003","units":1,"m":1310,"f":1518,"gk":33,"a0":404,"a1":1707,"a2":671,"a75":336,"ag":[116,158,130,95,139,139,156,206,224,248,190,184,126,158,177,148,102,56,27,3,0],"nf":46},"geometry":{"type":"Polygon","coordinates":[[[135.46704,34.68827],[135.46693,34.68819],[135.46709,34.68929],[135.46726,34.69042],[135.46737,34.69097],[135.4674,34.69112],[135.46738,34.69121],[135.46728,34.69139],[135.46722,34.69151],[135.46702,34.69189],[135.46702,34.6919],[135.46649,34.69234],[135.46594,34.69278],[135.46586,34.69285],[135.4657,34.69301],[135.46569,34.69313],[135.46572,34.69322],[135.46575,34.69333],[135.46581,34.69341],[135.4659,34.69349],[135.4659,34.69373],[135.46581,34.69396],[135.46576,34.69411],[135.46554,34.69441],[135.46554,34.69444],[135.46564,34.69489],[135.46565,34.69493],[135.46542,34.69525],[135.46613,34.69555],[135.46617,34.69553],[135.4665,34.69537],[135.46691,34.69521],[135.46748,34.69501],[135.46785,34.6949],[135.46823,34.69484],[135.46824,34.69482],[135.46823,34.69433],[135.46822,34.69412],[135.46823,34.69396],[135.46829,34.69336],[135.46829,34.69334],[135.4683,34.69314],[135.46839,34.69235],[135.4684,34.69234],[135.46841,34.6923],[135.46864,34.69132],[135.46877,34.69074],[135.46887,34.6903],[135.4689,34.69021],[135.46892,34.69009],[135.46896,34.68996],[135.46897,34.68993],[135.46905,34.68961],[135.468,34.68895],[135.46796,34.68893],[135.46704,34.68827]]]}},{"type":"Feature","properties":{"name":"大開四丁目","setai":841,"jinko":1582,"key":"27103005004","units":1,"m":773,"f":809,"gk":48,"a0":157,"a1":986,"a2":435,"a75":204,"ag":[52,49,56,65,85,85,90,97,103,149,127,94,91,94,137,107,57,29,10,1,0],"nf":4},"geometry":{"type":"Polygon","coordinates":[[[135.46556,34.68714],[135.46511,34.6868],[135.46507,34.68681],[135.46502,34.68681],[135.4649,34.68681],[135.46467,34.6868],[135.46395,34.68699],[135.46247,34.68721],[135.46247,34.68726],[135.46248,34.68741],[135.46248,34.68755],[135.46249,34.68769],[135.4625,34.68782],[135.46251,34.68797],[135.46251,34.6881],[135.46254,34.68855],[135.46256,34.68892],[135.46267,34.68905],[135.46271,34.6891],[135.46283,34.68927],[135.46375,34.69038],[135.46407,34.69087],[135.46413,34.69097],[135.46417,34.69108],[135.46418,34.69137],[135.46424,34.69215],[135.46424,34.6924],[135.46423,34.69254],[135.46417,34.69271],[135.46411,34.69282],[135.4635,34.69423],[135.46349,34.69426],[135.46301,34.69523],[135.46297,34.69535],[135.46298,34.69554],[135.46304,34.69574],[135.46315,34.69594],[135.46335,34.69617],[135.46402,34.69657],[135.46453,34.69683],[135.46474,34.69655],[135.46501,34.69626],[135.46526,34.69606],[135.46554,34.69588],[135.46573,34.69578],[135.46613,34.69555],[135.46542,34.69525],[135.46565,34.69493],[135.46564,34.69489],[135.46554,34.69444],[135.46554,34.69441],[135.46576,34.69411],[135.46581,34.69396],[135.4659,34.69373],[135.4659,34.69349],[135.46581,34.69341],[135.46575,34.69333],[135.46572,34.69322],[135.46569,34.69313],[135.4657,34.69301],[135.46586,34.69285],[135.46594,34.69278],[135.46649,34.69234],[135.46702,34.6919],[135.46702,34.69189],[135.46722,34.69151],[135.46728,34.69139],[135.46738,34.69121],[135.4674,34.69112],[135.46737,34.69097],[135.46726,34.69042],[135.46709,34.68929],[135.46693,34.68819],[135.46685,34.68813],[135.46625,34.68765],[135.46556,34.68714]]]}},{"type":"Feature","properties":{"name":"鷺洲一丁目","setai":774,"jinko":1538,"key":"27103006001","units":1,"m":715,"f":823,"gk":5,"a0":166,"a1":1038,"a2":333,"a75":178,"ag":[74,59,33,62,79,157,131,127,89,124,105,91,73,84,71,68,48,43,16,3,0],"nf":1},"geometry":{"type":"Polygon","coordinates":[[[135.48114,34.69403],[135.4808,34.69403],[135.48035,34.69405],[135.48034,34.69405],[135.47931,34.6941],[135.47906,34.69411],[135.47893,34.69412],[135.47844,34.69415],[135.47827,34.69416],[135.47802,34.69417],[135.47781,34.69417],[135.47672,34.69418],[135.4766,34.69418],[135.47658,34.69453],[135.47692,34.69482],[135.47697,34.69486],[135.47703,34.69494],[135.47734,34.69541],[135.47819,34.69549],[135.47821,34.69549],[135.47862,34.69553],[135.47906,34.69558],[135.47929,34.6956],[135.47966,34.69565],[135.48019,34.69571],[135.48067,34.69583],[135.48097,34.69589],[135.48127,34.69596],[135.4815,34.69602],[135.48176,34.69608],[135.48199,34.69613],[135.48209,34.69614],[135.48196,34.69577],[135.48187,34.69554],[135.48187,34.69553],[135.48157,34.69521],[135.48149,34.69513],[135.48139,34.69503],[135.48137,34.69496],[135.4812,34.69447],[135.48113,34.69427],[135.48113,34.69419],[135.48114,34.69403]]]}},{"type":"Feature","properties":{"name":"鷺洲二丁目","setai":985,"jinko":1753,"key":"27103006002","units":1,"m":830,"f":923,"gk":31,"a0":184,"a1":1210,"a2":352,"a75":183,"ag":[68,58,58,50,117,180,148,129,141,155,100,119,71,87,82,75,47,43,15,1,2],"nf":7},"geometry":{"type":"Polygon","coordinates":[[[135.48293,34.69976],[135.48388,34.6994],[135.48395,34.69941],[135.4839,34.69925],[135.48371,34.69897],[135.48349,34.69864],[135.48327,34.69831],[135.48303,34.69797],[135.48285,34.69769],[135.48284,34.69768],[135.48263,34.69725],[135.48255,34.6971],[135.48252,34.69702],[135.48248,34.69695],[135.48209,34.69614],[135.48199,34.69613],[135.48176,34.69608],[135.4815,34.69602],[135.48127,34.69596],[135.48097,34.69589],[135.48067,34.69583],[135.48062,34.69604],[135.48061,34.69605],[135.48054,34.6963],[135.4805,34.69657],[135.48045,34.69684],[135.48042,34.69708],[135.48037,34.69734],[135.48033,34.69761],[135.48029,34.69784],[135.48024,34.69807],[135.48024,34.69808],[135.48022,34.69815],[135.48078,34.6985],[135.48085,34.69855],[135.4814,34.6989],[135.48194,34.69925],[135.48281,34.6998],[135.48293,34.69976]]]}},{"type":"Feature","properties":{"name":"鷺洲三丁目","setai":2136,"jinko":4459,"key":"27103006003","units":1,"m":2044,"f":2415,"gk":81,"a0":656,"a1":2973,"a2":821,"a75":387,"ag":[243,220,193,144,162,269,312,364,411,477,333,294,207,210,224,149,120,79,33,6,0],"nf":9},"geometry":{"type":"Polygon","coordinates":[[[135.47669,34.69816],[135.47707,34.69816],[135.47715,34.69816],[135.47718,34.69816],[135.47749,34.69815],[135.47772,34.69816],[135.47775,34.69815],[135.47829,34.69813],[135.47862,34.69813],[135.47862,34.69813],[135.47914,34.69811],[135.47965,34.69809],[135.48014,34.69809],[135.48024,34.69808],[135.48024,34.69807],[135.48029,34.69784],[135.48033,34.69761],[135.48037,34.69734],[135.48042,34.69708],[135.48045,34.69684],[135.4805,34.69657],[135.48054,34.6963],[135.48061,34.69605],[135.48062,34.69604],[135.48067,34.69583],[135.48019,34.69571],[135.47966,34.69565],[135.47929,34.6956],[135.47906,34.69558],[135.47862,34.69553],[135.47821,34.69549],[135.47819,34.69549],[135.47734,34.69541],[135.4773,34.6956],[135.4772,34.69606],[135.47714,34.69632],[135.4771,34.69652],[135.47708,34.69661],[135.477,34.69698],[135.47697,34.69711],[135.47694,34.69724],[135.47669,34.69816]]]}},{"type":"Feature","properties":{"name":"鷺洲四丁目","setai":641,"jinko":1024,"key":"27103006004","units":1,"m":478,"f":546,"gk":9,"a0":95,"a1":709,"a2":220,"a75":106,"ag":[29,33,33,23,97,157,92,67,73,56,61,45,38,36,78,45,29,24,6,2,0]},"geometry":{"type":"Polygon","coordinates":[[[135.48078,34.6985],[135.48022,34.69815],[135.48016,34.69852],[135.48013,34.69867],[135.48012,34.69875],[135.48007,34.69902],[135.47996,34.69961],[135.47988,34.70005],[135.47987,34.7001],[135.47969,34.70107],[135.47967,34.70121],[135.48004,34.70099],[135.48051,34.70076],[135.48106,34.70051],[135.48115,34.70048],[135.48121,34.70045],[135.48172,34.70025],[135.48229,34.70002],[135.48281,34.6998],[135.48194,34.69925],[135.4814,34.6989],[135.48085,34.69855],[135.48078,34.6985]]]}},{"type":"Feature","properties":{"name":"鷺洲五丁目","setai":1760,"jinko":4345,"key":"27103006005","units":1,"m":2123,"f":2222,"gk":141,"a0":1013,"a1":2983,"a2":347,"a75":135,"ag":[609,274,130,106,125,238,634,634,441,268,207,163,167,116,96,61,33,26,14,1,0],"nf":2},"geometry":{"type":"Polygon","coordinates":[[[135.47996,34.69961],[135.48007,34.69902],[135.48012,34.69875],[135.48013,34.69867],[135.48016,34.69852],[135.48022,34.69815],[135.48024,34.69808],[135.48014,34.69809],[135.47965,34.69809],[135.47914,34.69811],[135.47862,34.69813],[135.47862,34.69813],[135.47829,34.69813],[135.47775,34.69815],[135.47772,34.69816],[135.47749,34.69815],[135.47718,34.69816],[135.47715,34.69816],[135.47707,34.69816],[135.47669,34.69816],[135.47637,34.69817],[135.47632,34.69823],[135.47608,34.69856],[135.47602,34.69864],[135.47597,34.69883],[135.4759,34.69909],[135.47585,34.69925],[135.47586,34.69925],[135.47585,34.69929],[135.47582,34.69942],[135.47582,34.69942],[135.47579,34.69952],[135.47578,34.69958],[135.47578,34.69958],[135.47571,34.69984],[135.47563,34.70017],[135.47562,34.70019],[135.4762,34.70033],[135.47642,34.70039],[135.47679,34.70048],[135.4769,34.7005],[135.47736,34.7006],[135.47754,34.70065],[135.47773,34.7007],[135.47798,34.70075],[135.47854,34.70089],[135.47878,34.70093],[135.47893,34.70095],[135.47938,34.70099],[135.47969,34.70107],[135.47987,34.7001],[135.47988,34.70005],[135.47996,34.69961]]]}},{"type":"Feature","properties":{"name":"鷺洲六丁目","setai":512,"jinko":783,"key":"27103006006","units":1,"m":371,"f":412,"gk":41,"a0":81,"a1":540,"a2":160,"a75":69,"ag":[32,27,22,14,16,65,57,79,78,65,54,66,46,50,41,26,15,25,3,0,0],"nf":2},"geometry":{"type":"Polygon","coordinates":[[[135.47893,34.70174],[135.47961,34.70125],[135.47967,34.70121],[135.47969,34.70107],[135.47938,34.70099],[135.47893,34.70095],[135.47878,34.70093],[135.47854,34.70089],[135.47798,34.70075],[135.47773,34.7007],[135.47754,34.70065],[135.47736,34.7006],[135.47714,34.70123],[135.47701,34.70161],[135.47689,34.70158],[135.47666,34.70152],[135.47651,34.70148],[135.47642,34.70146],[135.47632,34.70168],[135.4763,34.70171],[135.47631,34.70188],[135.47631,34.70198],[135.47639,34.70213],[135.47631,34.70241],[135.4763,34.70244],[135.47637,34.70248],[135.47649,34.70256],[135.4765,34.70256],[135.4767,34.70269],[135.47689,34.70281],[135.47704,34.7029],[135.47742,34.70311],[135.47797,34.70253],[135.47841,34.70215],[135.47879,34.70185],[135.47893,34.70174]]]}},{"type":"Feature","properties":{"name":"海老江一丁目","setai":1771,"jinko":3519,"key":"27103007001","units":1,"m":1630,"f":1889,"gk":65,"a0":466,"a1":2442,"a2":543,"a75":246,"ag":[266,115,85,84,119,308,412,392,346,255,195,185,146,141,156,82,69,45,40,7,3],"nf":68},"geometry":{"type":"Polygon","coordinates":[[[135.47632,34.70168],[135.47642,34.70146],[135.47651,34.70148],[135.47666,34.70152],[135.47689,34.70158],[135.47701,34.70161],[135.47714,34.70123],[135.47736,34.7006],[135.4769,34.7005],[135.47679,34.70048],[135.47642,34.70039],[135.4762,34.70033],[135.47562,34.70019],[135.47563,34.70017],[135.47571,34.69984],[135.47578,34.69958],[135.47578,34.69958],[135.47579,34.69952],[135.47582,34.69942],[135.47582,34.69942],[135.47585,34.69929],[135.47586,34.69925],[135.47585,34.69925],[135.4759,34.69909],[135.47597,34.69883],[135.47602,34.69864],[135.47608,34.69856],[135.47632,34.69823],[135.47637,34.69817],[135.47669,34.69816],[135.47694,34.69724],[135.47697,34.69711],[135.477,34.69698],[135.47708,34.69661],[135.4771,34.69652],[135.47714,34.69632],[135.4772,34.69606],[135.4773,34.6956],[135.47734,34.69541],[135.47703,34.69494],[135.47697,34.69486],[135.47692,34.69482],[135.47658,34.69453],[135.4766,34.69418],[135.4764,34.69419],[135.47567,34.6942],[135.47564,34.69424],[135.47489,34.69428],[135.47479,34.69432],[135.47468,34.69443],[135.47463,34.69449],[135.47465,34.69459],[135.47477,34.69473],[135.47477,34.69493],[135.47477,34.69598],[135.47478,34.69631],[135.47478,34.69648],[135.47478,34.69648],[135.47478,34.69665],[135.47478,34.69679],[135.47478,34.69719],[135.47478,34.69735],[135.47478,34.69832],[135.47478,34.69864],[135.47478,34.69932],[135.47478,34.69948],[135.47478,34.6995],[135.47478,34.69982],[135.47478,34.69998],[135.47478,34.70003],[135.47478,34.70071],[135.47478,34.70115],[135.47483,34.70136],[135.47492,34.70152],[135.47494,34.70155],[135.47506,34.70162],[135.47631,34.70241],[135.47639,34.70213],[135.47631,34.70198],[135.47631,34.70188],[135.4763,34.70171],[135.47632,34.70168]]]}},{"type":"Feature","properties":{"name":"海老江二丁目","setai":1186,"jinko":2188,"key":"27103007002","units":1,"m":998,"f":1190,"gk":51,"a0":209,"a1":1332,"a2":446,"a75":260,"ag":[76,49,84,91,100,164,158,131,137,212,142,122,75,103,83,74,76,63,31,13,3],"nf":201},"geometry":{"type":"Polygon","coordinates":[[[135.47477,34.69493],[135.47477,34.69473],[135.4746,34.69493],[135.47423,34.69536],[135.47418,34.69541],[135.47375,34.69592],[135.47328,34.69646],[135.47321,34.69653],[135.47277,34.69703],[135.47272,34.69708],[135.47256,34.69726],[135.47219,34.69767],[135.47279,34.69797],[135.47296,34.69805],[135.47302,34.69808],[135.47307,34.69811],[135.47323,34.69818],[135.47353,34.69829],[135.47371,34.69831],[135.47391,34.69833],[135.47392,34.69833],[135.47416,34.69834],[135.47478,34.69832],[135.47478,34.69735],[135.47478,34.69719],[135.47478,34.69679],[135.47478,34.69665],[135.47478,34.69648],[135.47478,34.69648],[135.47478,34.69631],[135.47477,34.69598],[135.47477,34.69493]]]}},{"type":"Feature","properties":{"name":"海老江三丁目","setai":726,"jinko":1553,"key":"27103007003","units":1,"m":748,"f":805,"gk":9,"a0":168,"a1":918,"a2":465,"a75":292,"ag":[40,63,65,69,87,98,94,95,102,145,85,77,66,79,94,94,86,76,29,7,0],"nf":2},"geometry":{"type":"Polygon","coordinates":[[[135.47478,34.69864],[135.47478,34.69832],[135.47416,34.69834],[135.47392,34.69833],[135.47391,34.69833],[135.47371,34.69831],[135.47323,34.69895],[135.47322,34.69897],[135.47326,34.69898],[135.47313,34.69907],[135.47282,34.69929],[135.4728,34.69931],[135.4726,34.69946],[135.47249,34.69954],[135.47222,34.69973],[135.47201,34.6999],[135.47197,34.69993],[135.47182,34.70004],[135.47141,34.70017],[135.47109,34.70028],[135.47076,34.7004],[135.46829,34.70328],[135.46843,34.70336],[135.46866,34.7035],[135.46938,34.70392],[135.4696,34.70406],[135.46979,34.70417],[135.47004,34.70433],[135.47065,34.7047],[135.47094,34.70488],[135.47126,34.70508],[135.47152,34.70524],[135.47208,34.70558],[135.47251,34.70585],[135.47265,34.70593],[135.47296,34.70612],[135.47341,34.7064],[135.47385,34.70667],[135.47404,34.70678],[135.47449,34.7063],[135.4761,34.70453],[135.47624,34.70439],[135.47654,34.70406],[135.47703,34.70351],[135.47742,34.70311],[135.47704,34.7029],[135.47689,34.70281],[135.4767,34.70269],[135.4765,34.70256],[135.47649,34.70256],[135.47637,34.70248],[135.4763,34.70244],[135.47631,34.70241],[135.47506,34.70162],[135.47494,34.70155],[135.47492,34.70152],[135.47483,34.70136],[135.47478,34.70115],[135.47478,34.70071],[135.47478,34.70003],[135.47478,34.69998],[135.47478,34.69982],[135.47478,34.6995],[135.47478,34.69948],[135.47478,34.69932],[135.47478,34.69864]]]}},{"type":"Feature","properties":{"name":"海老江四丁目","setai":467,"jinko":975,"key":"27103007004","units":1,"m":474,"f":501,"gk":4,"a0":114,"a1":582,"a2":245,"a75":135,"ag":[43,35,36,34,25,90,86,83,61,65,41,60,37,42,68,57,31,31,12,4,0],"nf":34},"geometry":{"type":"Polygon","coordinates":[[[135.47279,34.69797],[135.47219,34.69767],[135.47185,34.69803],[135.4716,34.69828],[135.47158,34.69831],[135.47124,34.69866],[135.47119,34.69872],[135.47113,34.69877],[135.47121,34.69891],[135.47117,34.69897],[135.47094,34.69911],[135.47051,34.69931],[135.47051,34.69931],[135.47038,34.69938],[135.47015,34.69955],[135.46982,34.69978],[135.46731,34.70269],[135.46777,34.70297],[135.4678,34.70298],[135.46829,34.70328],[135.47076,34.7004],[135.47109,34.70028],[135.47141,34.70017],[135.47182,34.70004],[135.47197,34.69993],[135.47201,34.6999],[135.47222,34.69973],[135.47249,34.69954],[135.4726,34.69946],[135.4728,34.69931],[135.47282,34.69929],[135.47313,34.69907],[135.47326,34.69898],[135.47322,34.69897],[135.47323,34.69895],[135.47371,34.69831],[135.47353,34.69829],[135.47323,34.69818],[135.47307,34.69811],[135.47302,34.69808],[135.47296,34.69805],[135.47279,34.69797]]]}},{"type":"Feature","properties":{"name":"海老江五丁目","setai":536,"jinko":664,"key":"27103007005","units":1,"m":283,"f":381,"gk":12,"a0":26,"a1":499,"a2":80,"a75":47,"ag":[8,10,8,6,64,118,84,64,56,39,30,20,18,14,19,19,20,5,2,1,0],"nf":59},"geometry":{"type":"Polygon","coordinates":[[[135.47463,34.69449],[135.47468,34.69443],[135.47425,34.69445],[135.47405,34.69467],[135.47374,34.69493],[135.47364,34.69501],[135.47339,34.69523],[135.47295,34.69561],[135.47283,34.69572],[135.47249,34.696],[135.47244,34.69604],[135.47228,34.69619],[135.47183,34.69656],[135.4718,34.6966],[135.47178,34.69662],[135.47147,34.69688],[135.47117,34.69714],[135.47136,34.69725],[135.47171,34.69743],[135.47172,34.69744],[135.47216,34.69765],[135.47219,34.69767],[135.47256,34.69726],[135.47272,34.69708],[135.47277,34.69703],[135.47321,34.69653],[135.47328,34.69646],[135.47375,34.69592],[135.47418,34.69541],[135.47423,34.69536],[135.4746,34.69493],[135.47477,34.69473],[135.47465,34.69459],[135.47463,34.69449]]]}},{"type":"Feature","properties":{"name":"海老江六丁目","setai":206,"jinko":370,"key":"27103007006","units":1,"m":186,"f":184,"gk":4,"a0":32,"a1":225,"a2":97,"a75":51,"ag":[9,10,13,12,20,27,31,25,11,23,23,27,26,29,17,12,22,9,8,0,0],"nf":16},"geometry":{"type":"Polygon","coordinates":[[[135.47136,34.69725],[135.47117,34.69714],[135.47093,34.69734],[135.47025,34.69791],[135.4701,34.69804],[135.46967,34.69842],[135.46963,34.69846],[135.46926,34.69884],[135.46925,34.69887],[135.46883,34.69934],[135.46776,34.70062],[135.46646,34.7022],[135.46665,34.7023],[135.46701,34.70251],[135.46731,34.70269],[135.46982,34.69978],[135.47015,34.69955],[135.47038,34.69938],[135.47051,34.69931],[135.47051,34.69931],[135.47094,34.69911],[135.47117,34.69897],[135.47121,34.69891],[135.47113,34.69877],[135.47119,34.69872],[135.47124,34.69866],[135.47158,34.69831],[135.4716,34.69828],[135.47185,34.69803],[135.47219,34.69767],[135.47216,34.69765],[135.47172,34.69744],[135.47171,34.69743],[135.47136,34.69725]]]}},{"type":"Feature","properties":{"name":"海老江七丁目","setai":1328,"jinko":2094,"key":"27103007007","units":1,"m":980,"f":1114,"gk":34,"a0":123,"a1":1360,"a2":513,"a75":301,"ag":[40,32,51,55,127,224,173,145,126,186,138,99,87,87,125,113,103,65,17,3,0],"nf":98},"geometry":{"type":"Polygon","coordinates":[[[135.47405,34.69467],[135.47425,34.69445],[135.4742,34.69445],[135.47246,34.69452],[135.47228,34.69453],[135.47115,34.6946],[135.47105,34.69461],[135.47057,34.69464],[135.47033,34.69465],[135.4697,34.6947],[135.46913,34.69474],[135.46876,34.69478],[135.46824,34.69482],[135.46823,34.69484],[135.46823,34.69491],[135.46823,34.69502],[135.46824,34.69512],[135.46828,34.69525],[135.46875,34.69597],[135.46878,34.69602],[135.4692,34.69628],[135.46954,34.69649],[135.46966,34.69655],[135.46985,34.69664],[135.47005,34.69671],[135.47049,34.69687],[135.47082,34.69699],[135.47117,34.69714],[135.47147,34.69688],[135.47178,34.69662],[135.4718,34.6966],[135.47183,34.69656],[135.47228,34.69619],[135.47244,34.69604],[135.47249,34.696],[135.47283,34.69572],[135.47295,34.69561],[135.47339,34.69523],[135.47364,34.69501],[135.47374,34.69493],[135.47405,34.69467]]]}},{"type":"Feature","properties":{"name":"海老江八丁目","setai":1098,"jinko":2048,"key":"27103007008","units":1,"m":1006,"f":1042,"gk":44,"a0":280,"a1":1389,"a2":323,"a75":166,"ag":[140,80,60,42,115,216,246,225,167,121,111,73,73,66,91,61,53,34,11,7,0],"nf":56},"geometry":{"type":"Polygon","coordinates":[[[135.46823,34.69491],[135.46823,34.69484],[135.46785,34.6949],[135.46748,34.69501],[135.46691,34.69521],[135.4665,34.69537],[135.46617,34.69553],[135.46613,34.69555],[135.46573,34.69578],[135.46554,34.69588],[135.46526,34.69606],[135.46501,34.69626],[135.46474,34.69655],[135.46453,34.69683],[135.46427,34.69716],[135.46377,34.69778],[135.46314,34.69856],[135.46208,34.6997],[135.4621,34.69971],[135.4626,34.69999],[135.46279,34.7001],[135.46304,34.70024],[135.46318,34.70033],[135.46333,34.70042],[135.46334,34.70043],[135.46346,34.7005],[135.46374,34.70066],[135.46382,34.7007],[135.46422,34.70093],[135.46521,34.7015],[135.46575,34.7018],[135.46614,34.70202],[135.46637,34.70215],[135.46646,34.7022],[135.46776,34.70062],[135.46883,34.69934],[135.46925,34.69887],[135.46926,34.69884],[135.46963,34.69846],[135.46967,34.69842],[135.4701,34.69804],[135.47025,34.69791],[135.47093,34.69734],[135.47117,34.69714],[135.47082,34.69699],[135.47049,34.69687],[135.47005,34.69671],[135.46985,34.69664],[135.46966,34.69655],[135.46954,34.69649],[135.4692,34.69628],[135.46878,34.69602],[135.46875,34.69597],[135.46828,34.69525],[135.46824,34.69512],[135.46823,34.69502],[135.46823,34.69491]]]}}]}