{"type":"FeatureCollection","features":[{"type":"Feature","properties":{"name":"和泉本町一丁目","setai":3109,"jinko":6489,"key":"13219001001","units":1,"m":3023,"f":3466,"gk":91,"a0":996,"a1":4070,"a2":1258,"a75":632,"ag":[363,388,245,215,311,291,320,564,650,535,476,352,356,315,311,279,157,126,56,13,1],"nf":165},"geometry":{"type":"Polygon","coordinates":[[[139.58013,35.63475],[139.58029,35.63472],[139.58034,35.63473],[139.58036,35.63473],[139.58047,35.63469],[139.58057,35.63463],[139.58071,35.63436],[139.57989,35.63394],[139.57972,35.63383],[139.57916,35.63351],[139.57915,35.6335],[139.57848,35.63395],[139.57844,35.63397],[139.57811,35.6342],[139.57785,35.63441],[139.5778,35.63444],[139.57763,35.63461],[139.57744,35.63487],[139.57738,35.63495],[139.57725,35.63515],[139.57716,35.6353],[139.57693,35.63556],[139.57671,35.6358],[139.57667,35.63587],[139.57656,35.63599],[139.57582,35.63673],[139.57579,35.63677],[139.57558,35.63697],[139.57527,35.63724],[139.57511,35.63736],[139.57508,35.63737],[139.57447,35.63782],[139.5747,35.63839],[139.57489,35.63887],[139.57491,35.63892],[139.57511,35.63939],[139.5751,35.63941],[139.57522,35.63965],[139.57527,35.6398],[139.57536,35.64005],[139.57546,35.64029],[139.57552,35.64043],[139.57556,35.64053],[139.57583,35.64121],[139.57637,35.64091],[139.57663,35.64073],[139.57693,35.64055],[139.57698,35.64051],[139.57733,35.6403],[139.57767,35.64006],[139.57798,35.63983],[139.57871,35.63931],[139.57891,35.63916],[139.57931,35.6389],[139.57939,35.63885],[139.57942,35.63883],[139.57994,35.63858],[139.57991,35.63836],[139.57988,35.63811],[139.57987,35.63809],[139.57983,35.63742],[139.57983,35.6374],[139.57977,35.63672],[139.57975,35.63636],[139.57974,35.63625],[139.57972,35.63594],[139.57972,35.63593],[139.5797,35.63568],[139.57967,35.63535],[139.57967,35.6351],[139.57968,35.63497],[139.57974,35.63487],[139.57984,35.63484],[139.57996,35.63479],[139.58013,35.63475]]]}},{"type":"Feature","properties":{"name":"和泉本町二丁目","setai":708,"jinko":1484,"key":"13219001002","units":1,"m":719,"f":765,"gk":15,"a0":161,"a1":888,"a2":390,"a75":234,"ag":[33,59,69,64,85,75,56,84,89,103,108,124,100,68,88,60,74,59,34,7,0],"nf":45},"geometry":{"type":"Polygon","coordinates":[[[139.57855,35.64297],[139.5787,35.64297],[139.57885,35.643],[139.57891,35.64299],[139.57904,35.64295],[139.57924,35.64264],[139.57936,35.64248],[139.57959,35.64229],[139.57976,35.64221],[139.57993,35.64214],[139.58011,35.64209],[139.58033,35.64201],[139.58048,35.64198],[139.58061,35.64198],[139.58071,35.64185],[139.58082,35.64171],[139.58105,35.64154],[139.58113,35.64144],[139.58112,35.64136],[139.58107,35.64107],[139.58093,35.6409],[139.58076,35.64061],[139.58051,35.6403],[139.58037,35.64007],[139.58023,35.6399],[139.58011,35.63973],[139.58002,35.63959],[139.58002,35.63951],[139.58001,35.63943],[139.57997,35.639],[139.57994,35.63862],[139.57994,35.63858],[139.57942,35.63883],[139.57939,35.63885],[139.57931,35.6389],[139.57891,35.63916],[139.57871,35.63931],[139.57798,35.63983],[139.57767,35.64006],[139.57733,35.6403],[139.57698,35.64051],[139.57693,35.64055],[139.57663,35.64073],[139.57637,35.64091],[139.57583,35.64121],[139.57608,35.6418],[139.57616,35.64201],[139.57619,35.64207],[139.57639,35.64259],[139.57652,35.64289],[139.57664,35.6432],[139.57684,35.64367],[139.57687,35.64374],[139.57695,35.64399],[139.57707,35.64386],[139.57724,35.64373],[139.5775,35.64353],[139.57766,35.64343],[139.57788,35.64339],[139.57802,35.64334],[139.57821,35.64321],[139.57843,35.64307],[139.57855,35.64297]]]}},{"type":"Feature","properties":{"name":"和泉本町三丁目","setai":1138,"jinko":2685,"key":"13219001003","units":1,"m":1304,"f":1381,"gk":20,"a0":380,"a1":1678,"a2":576,"a75":368,"ag":[122,125,133,127,139,111,160,204,213,235,202,149,138,95,113,113,102,71,64,17,1],"nf":51},"geometry":{"type":"Polygon","coordinates":[[[139.57669,35.6439],[139.57687,35.64374],[139.57684,35.64367],[139.57664,35.6432],[139.57652,35.64289],[139.57639,35.64259],[139.57619,35.64207],[139.57616,35.64201],[139.57608,35.6418],[139.57583,35.64121],[139.57556,35.64053],[139.57552,35.64043],[139.57546,35.64029],[139.57536,35.64005],[139.57527,35.6398],[139.57522,35.63965],[139.5751,35.63941],[139.57511,35.63939],[139.57491,35.63892],[139.57489,35.63887],[139.5747,35.63839],[139.57447,35.63782],[139.57444,35.63784],[139.57409,35.6381],[139.574,35.63817],[139.57367,35.63841],[139.57364,35.63844],[139.57332,35.63869],[139.57331,35.6387],[139.57309,35.63887],[139.57285,35.63902],[139.57257,35.63915],[139.57253,35.63918],[139.57219,35.63936],[139.57206,35.63942],[139.57183,35.63955],[139.57182,35.63956],[139.57152,35.63973],[139.57123,35.63991],[139.57107,35.64001],[139.57076,35.64021],[139.57052,35.64039],[139.57051,35.6404],[139.57099,35.64073],[139.57117,35.64086],[139.57142,35.64104],[139.5717,35.64132],[139.57187,35.64153],[139.57197,35.64167],[139.57209,35.64186],[139.57227,35.64215],[139.57239,35.64233],[139.5725,35.64243],[139.57268,35.64267],[139.57285,35.64285],[139.57287,35.64288],[139.573,35.64312],[139.573,35.64313],[139.57305,35.6433],[139.57309,35.64338],[139.5732,35.6436],[139.57321,35.64361],[139.57359,35.64359],[139.57374,35.64359],[139.57399,35.64358],[139.57439,35.64361],[139.57447,35.64362],[139.57468,35.64369],[139.57478,35.6437],[139.57481,35.64371],[139.57507,35.64379],[139.5753,35.64389],[139.57541,35.6439],[139.57579,35.64388],[139.57602,35.64387],[139.57626,35.64386],[139.57632,35.64384],[139.57647,35.6438],[139.57659,35.64384],[139.57669,35.6439]]]}},{"type":"Feature","properties":{"name":"和泉本町四丁目","setai":2003,"jinko":3444,"key":"13219001004","units":1,"m":1483,"f":1961,"gk":17,"a0":172,"a1":1392,"a2":1879,"a75":1202,"ag":[32,58,82,128,129,81,64,94,119,180,247,205,145,265,412,455,450,227,62,5,3],"nf":1},"geometry":{"type":"Polygon","coordinates":[[[139.56807,35.64746],[139.5682,35.6474],[139.56819,35.64751],[139.56822,35.64751],[139.56822,35.64747],[139.56823,35.64718],[139.56823,35.64707],[139.56823,35.64688],[139.56823,35.6468],[139.56823,35.6468],[139.56824,35.64677],[139.56824,35.64665],[139.56824,35.64662],[139.56824,35.64657],[139.56824,35.64655],[139.56824,35.64643],[139.56822,35.64638],[139.56821,35.64637],[139.56816,35.64628],[139.56806,35.64608],[139.56804,35.64604],[139.56795,35.64585],[139.56782,35.6456],[139.56784,35.64558],[139.569,35.645],[139.56927,35.64486],[139.56969,35.64464],[139.56986,35.64454],[139.57052,35.64419],[139.57073,35.64407],[139.57094,35.64397],[139.57101,35.64395],[139.57115,35.64393],[139.57143,35.64389],[139.5717,35.64386],[139.57203,35.64381],[139.5729,35.6437],[139.57294,35.64369],[139.57315,35.64362],[139.5732,35.6436],[139.57309,35.64338],[139.57305,35.6433],[139.573,35.64313],[139.573,35.64312],[139.57287,35.64288],[139.57285,35.64285],[139.57268,35.64267],[139.5725,35.64243],[139.57239,35.64233],[139.57227,35.64215],[139.57209,35.64186],[139.57197,35.64167],[139.57187,35.64153],[139.5717,35.64132],[139.57142,35.64104],[139.57117,35.64086],[139.57099,35.64073],[139.57051,35.6404],[139.57052,35.64039],[139.57048,35.64039],[139.57026,35.64051],[139.57,35.64066],[139.5697,35.64083],[139.56936,35.64113],[139.56918,35.64131],[139.56902,35.6415],[139.56893,35.64162],[139.56878,35.64187],[139.56867,35.64201],[139.56851,35.64222],[139.56835,35.64235],[139.56821,35.64244],[139.56804,35.64255],[139.56756,35.64287],[139.56738,35.64298],[139.567,35.64321],[139.56682,35.64333],[139.56668,35.64349],[139.56639,35.64371],[139.5661,35.64396],[139.5659,35.64412],[139.56576,35.64426],[139.56548,35.64452],[139.56533,35.64464],[139.56485,35.64487],[139.5651,35.64526],[139.56512,35.64525],[139.56528,35.64517],[139.56538,35.64529],[139.56538,35.6453],[139.56546,35.64526],[139.56551,35.64533],[139.56523,35.64546],[139.56535,35.64564],[139.56538,35.64569],[139.56532,35.64572],[139.5654,35.64583],[139.56541,35.64585],[139.5656,35.64612],[139.56565,35.64609],[139.56568,35.64608],[139.56574,35.64616],[139.56575,35.64617],[139.56582,35.64613],[139.56594,35.64632],[139.56629,35.64687],[139.5663,35.64688],[139.56632,35.64692],[139.56633,35.64693],[139.56637,35.64698],[139.56659,35.64731],[139.5666,35.6473],[139.56677,35.64722],[139.56699,35.64712],[139.56727,35.64699],[139.56727,35.64699],[139.56742,35.64722],[139.56755,35.64743],[139.56769,35.64763],[139.5677,35.64763],[139.56799,35.6475],[139.56807,35.64746]]]}},{"type":"Feature","properties":{"name":"中和泉一丁目","setai":1152,"jinko":2101,"key":"13219002001","units":1,"m":1019,"f":1082,"gk":43,"a0":220,"a1":1410,"a2":383,"a75":195,"ag":[88,79,53,73,135,179,157,166,168,159,154,127,92,96,92,86,46,38,20,5,0],"nf":88},"geometry":{"type":"Polygon","coordinates":[[[139.57658,35.63359],[139.5763,35.63355],[139.57626,35.63356],[139.57577,35.63351],[139.57562,35.63349],[139.57541,35.63344],[139.57521,35.63338],[139.57497,35.63329],[139.57452,35.63315],[139.57408,35.63304],[139.57374,35.63299],[139.57334,35.63298],[139.57274,35.63302],[139.57264,35.63304],[139.57263,35.63306],[139.57269,35.63337],[139.57271,35.63346],[139.57272,35.63352],[139.57274,35.63366],[139.57282,35.63388],[139.57291,35.63408],[139.57314,35.63465],[139.57317,35.6347],[139.57362,35.63586],[139.57363,35.63587],[139.57386,35.63646],[139.57392,35.6366],[139.57416,35.63718],[139.57419,35.63724],[139.57444,35.63784],[139.57447,35.63782],[139.57508,35.63737],[139.57511,35.63736],[139.57527,35.63724],[139.57558,35.63697],[139.57579,35.63677],[139.57582,35.63673],[139.57656,35.63599],[139.57667,35.63587],[139.57671,35.6358],[139.57693,35.63556],[139.57716,35.6353],[139.57725,35.63515],[139.57738,35.63495],[139.57744,35.63487],[139.57763,35.63461],[139.5778,35.63444],[139.57785,35.63441],[139.57811,35.6342],[139.57844,35.63397],[139.57848,35.63395],[139.57815,35.63371],[139.57811,35.63369],[139.57718,35.63364],[139.57683,35.63361],[139.57658,35.63359]]]}},{"type":"Feature","properties":{"name":"中和泉二丁目","setai":967,"jinko":2009,"key":"13219002002","units":1,"m":1019,"f":990,"gk":29,"a0":263,"a1":1328,"a2":359,"a75":195,"ag":[91,80,92,75,123,127,143,153,158,161,155,140,93,84,80,60,62,46,21,6,0],"nf":59},"geometry":{"type":"Polygon","coordinates":[[[139.57386,35.63646],[139.57363,35.63587],[139.57288,35.63623],[139.57269,35.63631],[139.57227,35.63651],[139.5718,35.6367],[139.57162,35.63677],[139.5711,35.63699],[139.57091,35.63707],[139.57022,35.63736],[139.56988,35.63751],[139.56939,35.63774],[139.56843,35.63816],[139.56866,35.6385],[139.56916,35.63919],[139.56924,35.6393],[139.56941,35.63953],[139.56942,35.63955],[139.56999,35.64003],[139.57016,35.64013],[139.57048,35.64039],[139.57052,35.64039],[139.57076,35.64021],[139.57107,35.64001],[139.57123,35.63991],[139.57152,35.63973],[139.57182,35.63956],[139.57183,35.63955],[139.57206,35.63942],[139.57219,35.63936],[139.57253,35.63918],[139.57257,35.63915],[139.57285,35.63902],[139.57309,35.63887],[139.57331,35.6387],[139.57332,35.63869],[139.57364,35.63844],[139.57367,35.63841],[139.574,35.63817],[139.57409,35.6381],[139.57444,35.63784],[139.57419,35.63724],[139.57416,35.63718],[139.57392,35.6366],[139.57386,35.63646]]]}},{"type":"Feature","properties":{"name":"中和泉三丁目","setai":1505,"jinko":2908,"key":"13219002003","units":1,"m":1452,"f":1456,"gk":28,"a0":352,"a1":1929,"a2":505,"a75":247,"ag":[119,114,119,132,197,195,214,205,227,228,225,172,134,120,138,90,81,54,19,3,0],"nf":122},"geometry":{"type":"Polygon","coordinates":[[[139.57274,35.63366],[139.57272,35.63352],[139.57271,35.63346],[139.57269,35.63337],[139.57263,35.63306],[139.57264,35.63304],[139.57247,35.63304],[139.57226,35.63305],[139.57173,35.63305],[139.57157,35.63305],[139.57129,35.63307],[139.57065,35.63319],[139.5706,35.6332],[139.57021,35.63327],[139.56983,35.63332],[139.56959,35.63332],[139.56926,35.63329],[139.569,35.63325],[139.56881,35.63326],[139.56871,35.6333],[139.56862,35.6333],[139.56841,35.63336],[139.56835,35.63337],[139.56826,35.63339],[139.56825,35.6334],[139.56802,35.63345],[139.56746,35.63355],[139.56738,35.63356],[139.5671,35.63359],[139.56686,35.63359],[139.56667,35.63357],[139.56657,35.63359],[139.56634,35.63368],[139.56654,35.63405],[139.56678,35.63447],[139.56686,35.63462],[139.56692,35.63477],[139.56698,35.63499],[139.56705,35.63525],[139.56709,35.63545],[139.56715,35.63566],[139.56718,35.63584],[139.56724,35.63598],[139.56731,35.63618],[139.56738,35.63642],[139.56744,35.63665],[139.56748,35.63677],[139.56754,35.63686],[139.5676,35.63695],[139.56791,35.63728],[139.56805,35.63742],[139.56825,35.63766],[139.56843,35.63816],[139.56939,35.63774],[139.56988,35.63751],[139.57022,35.63736],[139.57091,35.63707],[139.5711,35.63699],[139.57162,35.63677],[139.5718,35.6367],[139.57227,35.63651],[139.57269,35.63631],[139.57288,35.63623],[139.57363,35.63587],[139.57362,35.63586],[139.57317,35.6347],[139.57314,35.63465],[139.57291,35.63408],[139.57282,35.63388],[139.57274,35.63366]]]}},{"type":"Feature","properties":{"name":"中和泉四丁目","setai":658,"jinko":1409,"key":"13219002004","units":1,"m":698,"f":711,"gk":15,"a0":214,"a1":893,"a2":261,"a75":130,"ag":[50,82,82,51,75,79,79,109,106,117,115,98,64,58,73,55,39,25,7,3,1],"nf":41},"geometry":{"type":"Polygon","coordinates":[[[139.56654,35.63405],[139.56634,35.63368],[139.5662,35.63372],[139.56582,35.63385],[139.56546,35.63395],[139.5653,35.63397],[139.56511,35.63397],[139.56478,35.63414],[139.56453,35.6343],[139.56403,35.63462],[139.56347,35.63499],[139.56424,35.63601],[139.56447,35.6363],[139.56467,35.63658],[139.56491,35.63689],[139.5653,35.63739],[139.56543,35.63757],[139.56564,35.63787],[139.56569,35.63796],[139.56578,35.63814],[139.56587,35.63839],[139.56592,35.63871],[139.566,35.63907],[139.56642,35.63899],[139.56655,35.63872],[139.56659,35.63868],[139.5668,35.63858],[139.56697,35.63851],[139.56715,35.63847],[139.56737,35.63844],[139.56744,35.63844],[139.56765,35.63842],[139.56787,35.63838],[139.56806,35.63829],[139.56843,35.63816],[139.56825,35.63766],[139.56805,35.63742],[139.56791,35.63728],[139.5676,35.63695],[139.56754,35.63686],[139.56748,35.63677],[139.56744,35.63665],[139.56738,35.63642],[139.56731,35.63618],[139.56724,35.63598],[139.56718,35.63584],[139.56715,35.63566],[139.56709,35.63545],[139.56705,35.63525],[139.56698,35.63499],[139.56692,35.63477],[139.56686,35.63462],[139.56678,35.63447],[139.56654,35.63405]]]}},{"type":"Feature","properties":{"name":"中和泉五丁目","setai":1807,"jinko":3648,"key":"13219002005","units":1,"m":1861,"f":1787,"gk":49,"a0":432,"a1":2366,"a2":781,"a75":414,"ag":[133,156,143,170,219,205,199,216,269,324,339,224,201,160,207,158,119,97,34,5,1],"nf":69},"geometry":{"type":"Polygon","coordinates":[[[139.56866,35.6385],[139.56843,35.63816],[139.56806,35.63829],[139.56787,35.63838],[139.56765,35.63842],[139.56744,35.63844],[139.56737,35.63844],[139.56715,35.63847],[139.56697,35.63851],[139.5668,35.63858],[139.56659,35.63868],[139.56655,35.63872],[139.56642,35.63899],[139.566,35.63907],[139.56597,35.63934],[139.56592,35.6396],[139.56573,35.64006],[139.5657,35.64015],[139.56555,35.64042],[139.56532,35.64063],[139.56511,35.64083],[139.56481,35.64107],[139.56445,35.6413],[139.56418,35.64144],[139.56404,35.6415],[139.56361,35.64172],[139.56351,35.64176],[139.56337,35.64179],[139.56347,35.64199],[139.56362,35.64234],[139.5638,35.64273],[139.56387,35.64291],[139.56389,35.64296],[139.56399,35.64319],[139.56412,35.6435],[139.56421,35.64368],[139.56439,35.64402],[139.56444,35.64411],[139.56462,35.64445],[139.56463,35.64447],[139.56485,35.64487],[139.56533,35.64464],[139.56548,35.64452],[139.56576,35.64426],[139.5659,35.64412],[139.5661,35.64396],[139.56639,35.64371],[139.56668,35.64349],[139.56682,35.64333],[139.567,35.64321],[139.56738,35.64298],[139.56756,35.64287],[139.56804,35.64255],[139.56821,35.64244],[139.56835,35.64235],[139.56851,35.64222],[139.56867,35.64201],[139.56878,35.64187],[139.56893,35.64162],[139.56902,35.6415],[139.56918,35.64131],[139.56936,35.64113],[139.5697,35.64083],[139.57,35.64066],[139.57026,35.64051],[139.57048,35.64039],[139.57016,35.64013],[139.56999,35.64003],[139.56942,35.63955],[139.56941,35.63953],[139.56924,35.6393],[139.56916,35.63919],[139.56866,35.6385]]]}},{"type":"Feature","properties":{"name":"西和泉一丁目","setai":758,"jinko":1124,"key":"13219003001","units":1,"m":572,"f":552,"gk":7,"a0":23,"a1":524,"a2":573,"a75":360,"ag":[10,5,8,16,20,19,24,31,55,111,96,75,77,77,136,153,130,61,13,3,0],"nf":4},"geometry":{"type":"Polygon","coordinates":[[[139.56592,35.63871],[139.56587,35.63839],[139.56578,35.63814],[139.5657,35.63818],[139.56556,35.63831],[139.56549,35.63832],[139.56543,35.63828],[139.56509,35.6383],[139.56503,35.63834],[139.56452,35.63835],[139.56422,35.63835],[139.56363,35.63846],[139.56314,35.63856],[139.56305,35.63851],[139.56298,35.63864],[139.56297,35.6388],[139.563,35.63902],[139.56304,35.63932],[139.56305,35.63942],[139.56307,35.63963],[139.56311,35.63994],[139.56312,35.64002],[139.56318,35.64032],[139.56324,35.64082],[139.56325,35.64093],[139.56328,35.64111],[139.56333,35.64149],[139.56337,35.64179],[139.56351,35.64176],[139.56361,35.64172],[139.56404,35.6415],[139.56418,35.64144],[139.56445,35.6413],[139.56481,35.64107],[139.56511,35.64083],[139.56532,35.64063],[139.56555,35.64042],[139.5657,35.64015],[139.56573,35.64006],[139.56592,35.6396],[139.56597,35.63934],[139.566,35.63907],[139.56592,35.63871]]]}},{"type":"Feature","properties":{"name":"西和泉二丁目","setai":472,"jinko":916,"key":"13219003002","units":1,"m":411,"f":505,"gk":13,"a0":75,"a1":445,"a2":377,"a75":241,"ag":[21,21,33,36,25,20,30,42,50,89,65,53,35,57,79,88,80,57,13,3,0],"nf":19},"geometry":{"type":"Polygon","coordinates":[[[139.56509,35.6383],[139.56543,35.63828],[139.56549,35.63832],[139.56556,35.63831],[139.5657,35.63818],[139.56578,35.63814],[139.56569,35.63796],[139.56564,35.63787],[139.56543,35.63757],[139.5653,35.63739],[139.56491,35.63689],[139.56467,35.63658],[139.56447,35.6363],[139.56424,35.63601],[139.56347,35.63499],[139.56278,35.6354],[139.56287,35.63611],[139.56291,35.63644],[139.56292,35.63657],[139.56295,35.63674],[139.56299,35.63707],[139.56304,35.63747],[139.56306,35.63765],[139.56308,35.63776],[139.5631,35.63796],[139.56311,35.63808],[139.56311,35.63824],[139.5631,35.63834],[139.56305,35.63851],[139.56314,35.63856],[139.56363,35.63846],[139.56422,35.63835],[139.56452,35.63835],[139.56503,35.63834],[139.56509,35.6383]]]}},{"type":"Feature","properties":{"name":"元和泉一丁目","setai":744,"jinko":1286,"key":"13219004001","units":1,"m":622,"f":664,"gk":16,"a0":99,"a1":921,"a2":198,"a75":95,"ag":[40,29,30,70,152,145,100,94,84,71,88,68,49,51,52,35,31,12,11,5,1],"nf":68},"geometry":{"type":"Polygon","coordinates":[[[139.57848,35.63395],[139.57915,35.6335],[139.57885,35.6333],[139.57872,35.63321],[139.57837,35.63295],[139.57804,35.63269],[139.57794,35.6326],[139.57788,35.6325],[139.57776,35.6324],[139.57733,35.63202],[139.57702,35.63173],[139.57675,35.63149],[139.57653,35.63128],[139.57652,35.63125],[139.57637,35.63108],[139.57617,35.63085],[139.57599,35.63063],[139.57572,35.63026],[139.57538,35.62977],[139.57511,35.62936],[139.57495,35.62914],[139.57459,35.62861],[139.57432,35.62859],[139.57424,35.62865],[139.57417,35.62876],[139.57408,35.62886],[139.57395,35.62908],[139.57392,35.62913],[139.57387,35.6292],[139.57382,35.62948],[139.57378,35.62972],[139.57377,35.6298],[139.5737,35.62997],[139.57345,35.63039],[139.57323,35.63054],[139.57302,35.63071],[139.57291,35.63078],[139.57289,35.63081],[139.5731,35.63102],[139.57314,35.63112],[139.57317,35.63119],[139.57319,35.63135],[139.57325,35.63152],[139.57325,35.63169],[139.57319,35.63175],[139.57308,35.6318],[139.57294,35.63191],[139.57293,35.63197],[139.573,35.63206],[139.57305,35.63216],[139.57304,35.63234],[139.57306,35.63251],[139.57308,35.63254],[139.57323,35.63283],[139.57295,35.6329],[139.57274,35.63302],[139.57334,35.63298],[139.57374,35.63299],[139.57408,35.63304],[139.57452,35.63315],[139.57497,35.63329],[139.57521,35.63338],[139.57541,35.63344],[139.57562,35.63349],[139.57577,35.63351],[139.57626,35.63356],[139.5763,35.63355],[139.57658,35.63359],[139.57683,35.63361],[139.57718,35.63364],[139.57811,35.63369],[139.57815,35.63371],[139.57848,35.63395]]]}},{"type":"Feature","properties":{"name":"元和泉二丁目","setai":745,"jinko":1489,"key":"13219004002","units":1,"m":736,"f":753,"gk":17,"a0":149,"a1":946,"a2":359,"a75":201,"ag":[52,46,51,56,97,92,77,83,105,120,120,111,85,76,82,82,55,43,15,6,0],"nf":35},"geometry":{"type":"Polygon","coordinates":[[[139.56657,35.63359],[139.56667,35.63357],[139.56686,35.63359],[139.5671,35.63359],[139.56738,35.63356],[139.56746,35.63355],[139.56802,35.63345],[139.56825,35.6334],[139.56826,35.63339],[139.56835,35.63337],[139.56841,35.63336],[139.56862,35.6333],[139.56871,35.6333],[139.56881,35.63326],[139.569,35.63325],[139.56926,35.63329],[139.56959,35.63332],[139.56983,35.63332],[139.57021,35.63327],[139.5706,35.6332],[139.57065,35.63319],[139.57129,35.63307],[139.57157,35.63305],[139.57173,35.63305],[139.57226,35.63305],[139.57247,35.63304],[139.57264,35.63304],[139.57274,35.63302],[139.57295,35.6329],[139.57323,35.63283],[139.57308,35.63254],[139.57306,35.63251],[139.57304,35.63234],[139.57305,35.63216],[139.573,35.63206],[139.57293,35.63197],[139.57294,35.63191],[139.57308,35.6318],[139.57319,35.63175],[139.57325,35.63169],[139.57325,35.63152],[139.57319,35.63135],[139.57317,35.63119],[139.57314,35.63112],[139.5731,35.63102],[139.57289,35.63081],[139.57291,35.63078],[139.57302,35.63071],[139.57323,35.63054],[139.57345,35.63039],[139.5737,35.62997],[139.57377,35.6298],[139.57378,35.62972],[139.57382,35.62948],[139.57387,35.6292],[139.57392,35.62913],[139.57395,35.62908],[139.57347,35.62909],[139.5733,35.6291],[139.57319,35.62912],[139.57281,35.62927],[139.57254,35.62942],[139.57204,35.62971],[139.57162,35.62994],[139.57113,35.6302],[139.57104,35.63023],[139.571,35.63026],[139.57077,35.63039],[139.57005,35.63078],[139.56968,35.63094],[139.56939,35.63109],[139.56894,35.63131],[139.56878,35.63137],[139.5686,35.63147],[139.56808,35.63168],[139.5678,35.63176],[139.56756,35.63178],[139.56749,35.6318],[139.56732,35.63184],[139.56722,35.63189],[139.56713,35.63198],[139.5669,35.63218],[139.56655,35.63236],[139.56534,35.63335],[139.5649,35.63371],[139.56511,35.63397],[139.5653,35.63397],[139.56546,35.63395],[139.56582,35.63385],[139.5662,35.63372],[139.56634,35.63368],[139.56657,35.63359]]]}},{"type":"Feature","properties":{"name":"元和泉三丁目","setai":542,"jinko":865,"key":"13219004003","units":1,"m":426,"f":439,"gk":15,"a0":75,"a1":580,"a2":157,"a75":84,"ag":[33,29,13,17,64,87,91,88,50,46,53,52,32,29,44,34,23,17,10,0,0],"nf":53},"geometry":{"type":"Polygon","coordinates":[[[139.56894,35.63131],[139.56939,35.63109],[139.56968,35.63094],[139.57005,35.63078],[139.57077,35.63039],[139.571,35.63026],[139.57104,35.63023],[139.57113,35.6302],[139.57162,35.62994],[139.57204,35.62971],[139.57254,35.62942],[139.57281,35.62927],[139.57319,35.62912],[139.5733,35.6291],[139.57347,35.62909],[139.57395,35.62908],[139.57408,35.62886],[139.57417,35.62876],[139.57424,35.62865],[139.57432,35.62859],[139.57412,35.62857],[139.57386,35.62853],[139.57366,35.62847],[139.57343,35.62837],[139.57322,35.62827],[139.573,35.62812],[139.57286,35.62802],[139.5728,35.62798],[139.57241,35.62764],[139.57189,35.62722],[139.57185,35.6272],[139.57138,35.62682],[139.57086,35.62643],[139.57051,35.62618],[139.57044,35.62623],[139.57014,35.62651],[139.56987,35.62703],[139.56955,35.62773],[139.56919,35.6286],[139.56892,35.62919],[139.56841,35.63031],[139.56822,35.63069],[139.56818,35.63072],[139.56789,35.63116],[139.56801,35.63115],[139.56786,35.63151],[139.56779,35.63161],[139.56769,35.63172],[139.56756,35.63178],[139.5678,35.63176],[139.56808,35.63168],[139.5686,35.63147],[139.56878,35.63137],[139.56894,35.63131]]]}},{"type":"Feature","properties":{"name":"東和泉一丁目","setai":2119,"jinko":3251,"key":"13219005001","units":1,"m":1466,"f":1785,"gk":31,"a0":241,"a1":2226,"a2":611,"a75":285,"ag":[96,84,61,65,218,310,289,291,222,267,221,204,139,166,160,126,80,53,22,4,0],"nf":173},"geometry":{"type":"Polygon","coordinates":[[[139.57524,35.62866],[139.57459,35.62861],[139.57495,35.62914],[139.57511,35.62936],[139.57538,35.62977],[139.57572,35.63026],[139.57599,35.63063],[139.57617,35.63085],[139.57637,35.63108],[139.57652,35.63125],[139.57653,35.63128],[139.57675,35.63149],[139.57702,35.63173],[139.57733,35.63202],[139.57776,35.6324],[139.57788,35.6325],[139.57794,35.6326],[139.57804,35.63269],[139.57837,35.63295],[139.57872,35.63321],[139.57885,35.6333],[139.57915,35.6335],[139.57916,35.63351],[139.57972,35.63383],[139.57989,35.63394],[139.58071,35.63436],[139.58082,35.63413],[139.58095,35.634],[139.58106,35.63396],[139.5811,35.63391],[139.58108,35.63383],[139.58096,35.63372],[139.58062,35.63342],[139.58066,35.63339],[139.58075,35.63332],[139.58132,35.63289],[139.58134,35.63288],[139.58207,35.63236],[139.58209,35.63235],[139.58282,35.63183],[139.58219,35.63151],[139.58206,35.63145],[139.58183,35.63135],[139.58134,35.63115],[139.58074,35.63089],[139.58066,35.63085],[139.58031,35.6307],[139.58019,35.63066],[139.57949,35.63036],[139.57932,35.63031],[139.5792,35.63025],[139.57909,35.63021],[139.57885,35.63011],[139.57849,35.62997],[139.57797,35.62975],[139.57778,35.62967],[139.57764,35.62961],[139.57729,35.62946],[139.57723,35.62943],[139.57696,35.62932],[139.57646,35.62911],[139.57604,35.62895],[139.57588,35.62887],[139.57569,35.62877],[139.57547,35.62872],[139.57524,35.62866]]]}},{"type":"Feature","properties":{"name":"東和泉二丁目","setai":798,"jinko":1341,"key":"13219005002","units":1,"m":623,"f":718,"gk":21,"a0":135,"a1":919,"a2":273,"a75":128,"ag":[69,40,26,29,116,132,142,105,92,89,78,71,65,68,77,51,39,22,11,4,1],"nf":14},"geometry":{"type":"Polygon","coordinates":[[[139.58049,35.62903],[139.58041,35.62903],[139.58003,35.62901],[139.57992,35.62902],[139.57962,35.62903],[139.57938,35.62903],[139.57924,35.629],[139.57874,35.62887],[139.5786,35.62831],[139.57856,35.6283],[139.57844,35.62829],[139.57816,35.62825],[139.57798,35.62824],[139.57775,35.62821],[139.57767,35.6282],[139.57702,35.62824],[139.57701,35.62824],[139.5766,35.62822],[139.57565,35.62817],[139.57564,35.62819],[139.57564,35.6282],[139.57569,35.62834],[139.57578,35.62869],[139.57588,35.62887],[139.57604,35.62895],[139.57646,35.62911],[139.57696,35.62932],[139.57723,35.62943],[139.57729,35.62946],[139.57764,35.62961],[139.57778,35.62967],[139.57797,35.62975],[139.57849,35.62997],[139.57885,35.63011],[139.57909,35.63021],[139.5792,35.63025],[139.57932,35.63031],[139.57949,35.63036],[139.58019,35.63066],[139.58031,35.6307],[139.58066,35.63085],[139.58074,35.63089],[139.58134,35.63115],[139.58183,35.63135],[139.58206,35.63145],[139.58219,35.63151],[139.58282,35.63183],[139.58307,35.63192],[139.58309,35.63185],[139.58307,35.63178],[139.58297,35.63167],[139.58265,35.63127],[139.58249,35.6311],[139.58226,35.63093],[139.58204,35.63072],[139.58202,35.63058],[139.58202,35.63036],[139.58198,35.63028],[139.58188,35.63023],[139.58165,35.63016],[139.58163,35.62988],[139.58167,35.62987],[139.58163,35.62983],[139.58163,35.62981],[139.58164,35.62971],[139.58162,35.62968],[139.58106,35.62932],[139.58102,35.62929],[139.58076,35.62908],[139.58057,35.62904],[139.58049,35.62903]]]}},{"type":"Feature","properties":{"name":"東和泉三丁目","setai":974,"jinko":1711,"key":"13219005003","units":1,"m":805,"f":906,"gk":24,"a0":167,"a1":1092,"a2":379,"a75":181,"ag":[66,54,47,42,103,106,141,120,101,123,123,133,100,105,93,73,42,45,15,5,1],"nf":73},"geometry":{"type":"Polygon","coordinates":[[[139.57564,35.62819],[139.57556,35.62771],[139.57555,35.62766],[139.57545,35.62719],[139.57542,35.62706],[139.57539,35.62693],[139.57532,35.62656],[139.57531,35.62656],[139.57519,35.62611],[139.57515,35.62597],[139.57505,35.62557],[139.57496,35.62522],[139.57491,35.62511],[139.57476,35.62499],[139.57456,35.6249],[139.57448,35.62488],[139.5741,35.62476],[139.57395,35.62473],[139.57379,35.62465],[139.57372,35.62462],[139.57358,35.62463],[139.57337,35.6247],[139.5723,35.62517],[139.57276,35.62589],[139.57299,35.62624],[139.57308,35.62638],[139.57315,35.62648],[139.5731,35.62661],[139.57313,35.62667],[139.57327,35.62662],[139.57332,35.62669],[139.57337,35.62674],[139.57389,35.62749],[139.57415,35.6279],[139.57416,35.62792],[139.57417,35.62792],[139.57447,35.62842],[139.57459,35.62861],[139.57524,35.62866],[139.57547,35.62872],[139.57569,35.62877],[139.57588,35.62887],[139.57578,35.62869],[139.57569,35.62834],[139.57564,35.6282],[139.57564,35.62819]]]}},{"type":"Feature","properties":{"name":"東和泉四丁目","setai":466,"jinko":673,"key":"13219005004","units":1,"m":337,"f":336,"gk":18,"a0":42,"a1":489,"a2":85,"a75":46,"ag":[23,10,9,15,66,85,69,46,37,41,46,36,48,15,24,11,15,13,4,3,0],"nf":57},"geometry":{"type":"Polygon","coordinates":[[[139.57447,35.62842],[139.57417,35.62792],[139.57416,35.62792],[139.57415,35.6279],[139.57389,35.62749],[139.57337,35.62674],[139.57332,35.62669],[139.57327,35.62662],[139.57313,35.62667],[139.5731,35.62661],[139.57315,35.62648],[139.57308,35.62638],[139.57299,35.62624],[139.57276,35.62589],[139.5723,35.62517],[139.57207,35.62527],[139.57166,35.62548],[139.57099,35.62584],[139.57051,35.62618],[139.57086,35.62643],[139.57138,35.62682],[139.57185,35.6272],[139.57189,35.62722],[139.57241,35.62764],[139.5728,35.62798],[139.57286,35.62802],[139.573,35.62812],[139.57322,35.62827],[139.57343,35.62837],[139.57366,35.62847],[139.57386,35.62853],[139.57412,35.62857],[139.57432,35.62859],[139.57459,35.62861],[139.57447,35.62842]]]}},{"type":"Feature","properties":{"name":"猪方一丁目","setai":620,"jinko":1123,"key":"13219006001","units":1,"m":571,"f":552,"gk":31,"a0":100,"a1":787,"a2":174,"a75":100,"ag":[28,36,36,48,100,116,66,72,85,94,80,74,52,26,48,36,36,21,5,2,0],"nf":62},"geometry":{"type":"Polygon","coordinates":[[[139.58244,35.62912],[139.58248,35.62898],[139.58255,35.6289],[139.58268,35.62883],[139.58272,35.62881],[139.58292,35.62875],[139.58301,35.62873],[139.58323,35.62875],[139.58334,35.62878],[139.58351,35.62888],[139.58362,35.62898],[139.58377,35.62903],[139.58445,35.62879],[139.58453,35.62875],[139.58467,35.62867],[139.58471,35.62864],[139.58492,35.62844],[139.58528,35.62826],[139.58583,35.62821],[139.58609,35.62808],[139.58622,35.62804],[139.58622,35.62804],[139.5862,35.62797],[139.58626,35.62788],[139.5861,35.62761],[139.58605,35.62763],[139.58585,35.62723],[139.58554,35.6273],[139.58542,35.6274],[139.58531,35.62715],[139.5853,35.62712],[139.5848,35.62722],[139.58457,35.62727],[139.58351,35.62748],[139.58303,35.62758],[139.5827,35.6276],[139.58236,35.62766],[139.58173,35.62775],[139.58076,35.62789],[139.57958,35.6281],[139.57844,35.62829],[139.57856,35.6283],[139.5786,35.62831],[139.57874,35.62887],[139.57924,35.629],[139.57938,35.62903],[139.57962,35.62903],[139.57992,35.62902],[139.58003,35.62901],[139.58041,35.62903],[139.58049,35.62903],[139.58057,35.62904],[139.58076,35.62908],[139.58102,35.62929],[139.58106,35.62932],[139.58162,35.62968],[139.58164,35.62971],[139.58163,35.62981],[139.58163,35.62983],[139.58167,35.62987],[139.58181,35.62985],[139.58195,35.62978],[139.58202,35.62975],[139.5821,35.62965],[139.58226,35.6295],[139.58231,35.62942],[139.58242,35.62933],[139.58244,35.62924],[139.58244,35.62912]]]}},{"type":"Feature","properties":{"name":"猪方二丁目","setai":751,"jinko":1612,"key":"13219006002","units":1,"m":825,"f":787,"gk":39,"a0":243,"a1":1049,"a2":293,"a75":163,"ag":[109,68,66,61,96,110,134,136,143,108,99,93,69,53,77,56,48,36,17,6,0],"nf":27},"geometry":{"type":"Polygon","coordinates":[[[139.5828,35.6242],[139.58284,35.62404],[139.5825,35.62394],[139.58216,35.62413],[139.58215,35.62412],[139.58212,35.62414],[139.58196,35.6242],[139.58158,35.62427],[139.58122,35.6243],[139.58119,35.6245],[139.58118,35.62457],[139.58114,35.62483],[139.58103,35.62498],[139.58083,35.62522],[139.58078,35.62535],[139.58066,35.62544],[139.58064,35.62546],[139.5806,35.62562],[139.58059,35.62578],[139.58043,35.62606],[139.58023,35.62642],[139.58013,35.62655],[139.58007,35.62666],[139.57988,35.62703],[139.57972,35.62746],[139.57964,35.62774],[139.57958,35.6281],[139.58076,35.62789],[139.58173,35.62775],[139.58236,35.62766],[139.5827,35.6276],[139.58303,35.62758],[139.58351,35.62748],[139.58457,35.62727],[139.5848,35.62722],[139.5853,35.62712],[139.58523,35.62696],[139.58515,35.62689],[139.58486,35.6267],[139.5848,35.6266],[139.58477,35.62653],[139.58473,35.62638],[139.5848,35.62611],[139.58432,35.62607],[139.58427,35.62607],[139.58427,35.62587],[139.58404,35.62569],[139.58392,35.62558],[139.58355,35.62532],[139.58361,35.62532],[139.58364,35.62532],[139.58367,35.62518],[139.58309,35.62505],[139.58318,35.62475],[139.58304,35.6247],[139.58303,35.6247],[139.58314,35.62442],[139.58319,35.6243],[139.5828,35.6242]]]}},{"type":"Feature","properties":{"name":"猪方三丁目","setai":1405,"jinko":2779,"key":"13219006003","units":1,"m":1355,"f":1424,"gk":30,"a0":295,"a1":1712,"a2":671,"a75":411,"ag":[103,108,84,91,168,162,153,171,185,201,229,187,165,113,147,129,104,96,60,19,3],"nf":101},"geometry":{"type":"Polygon","coordinates":[[[139.57844,35.62829],[139.57958,35.6281],[139.57964,35.62774],[139.57972,35.62746],[139.57988,35.62703],[139.58007,35.62666],[139.58013,35.62655],[139.58023,35.62642],[139.58043,35.62606],[139.58059,35.62578],[139.5806,35.62562],[139.58064,35.62546],[139.58066,35.62544],[139.58078,35.62535],[139.58083,35.62522],[139.58103,35.62498],[139.58114,35.62483],[139.58118,35.62457],[139.58119,35.6245],[139.58122,35.6243],[139.58051,35.62428],[139.57984,35.62425],[139.57978,35.62425],[139.57925,35.62416],[139.57864,35.62403],[139.5784,35.62399],[139.57814,35.62395],[139.57787,35.62398],[139.57771,35.62399],[139.57754,35.62403],[139.57736,35.62409],[139.57702,35.62423],[139.57658,35.62442],[139.57628,35.62452],[139.57615,35.62456],[139.57585,35.62457],[139.57559,35.62458],[139.57546,35.6246],[139.57522,35.62468],[139.575,35.62479],[139.57476,35.62499],[139.57491,35.62511],[139.57496,35.62522],[139.57505,35.62557],[139.57515,35.62597],[139.57519,35.62611],[139.57531,35.62656],[139.57532,35.62656],[139.57539,35.62693],[139.57542,35.62706],[139.57545,35.62719],[139.57555,35.62766],[139.57556,35.62771],[139.57564,35.62819],[139.57565,35.62817],[139.5766,35.62822],[139.57701,35.62824],[139.57702,35.62824],[139.57767,35.6282],[139.57775,35.62821],[139.57798,35.62824],[139.57816,35.62825],[139.57844,35.62829]]]}},{"type":"Feature","properties":{"name":"猪方四丁目","setai":726,"jinko":1351,"key":"13219006004","units":1,"m":675,"f":676,"gk":26,"a0":158,"a1":928,"a2":208,"a75":91,"ag":[39,40,79,86,107,84,58,67,76,166,129,86,69,57,60,35,27,20,8,1,0],"nf":57},"geometry":{"type":"Polygon","coordinates":[[[139.56786,35.63151],[139.56801,35.63115],[139.56789,35.63116],[139.56818,35.63072],[139.56822,35.63069],[139.56841,35.63031],[139.56892,35.62919],[139.56919,35.6286],[139.56955,35.62773],[139.56987,35.62703],[139.57014,35.62651],[139.57044,35.62623],[139.57051,35.62618],[139.57099,35.62584],[139.57166,35.62548],[139.57207,35.62527],[139.5723,35.62517],[139.57337,35.6247],[139.57358,35.62463],[139.57372,35.62462],[139.57379,35.62465],[139.57395,35.62473],[139.5741,35.62476],[139.57448,35.62488],[139.57456,35.6249],[139.57476,35.62499],[139.575,35.62479],[139.57522,35.62468],[139.57546,35.6246],[139.57559,35.62458],[139.57585,35.62457],[139.57615,35.62456],[139.57628,35.62452],[139.57658,35.62442],[139.57702,35.62423],[139.57736,35.62409],[139.57754,35.62403],[139.57771,35.62399],[139.57787,35.62398],[139.57814,35.62395],[139.5784,35.62399],[139.57864,35.62403],[139.57925,35.62416],[139.57978,35.62425],[139.57984,35.62425],[139.58051,35.62428],[139.58122,35.6243],[139.58158,35.62427],[139.58196,35.6242],[139.58212,35.62414],[139.58215,35.62412],[139.58192,35.6238],[139.58188,35.62375],[139.58165,35.62345],[139.58162,35.62342],[139.58135,35.62313],[139.58129,35.62307],[139.58106,35.62286],[139.58103,35.62283],[139.58143,35.62274],[139.58172,35.62266],[139.58214,35.62254],[139.58265,35.6224],[139.58309,35.62225],[139.58387,35.62196],[139.58509,35.62151],[139.58516,35.62149],[139.58552,35.62132],[139.58561,35.62126],[139.58589,35.62115],[139.58647,35.62099],[139.5869,35.62088],[139.58739,35.62078],[139.58746,35.62076],[139.58792,35.62078],[139.58844,35.6208],[139.58889,35.62084],[139.5894,35.6209],[139.58943,35.6208],[139.58997,35.6193],[139.59002,35.61911],[139.59001,35.61854],[139.589,35.61917],[139.58803,35.61975],[139.58723,35.62014],[139.58653,35.62037],[139.58436,35.62124],[139.58338,35.62152],[139.58214,35.62175],[139.58092,35.62191],[139.57996,35.62205],[139.57869,35.62188],[139.57752,35.62171],[139.57643,35.62189],[139.57571,35.62222],[139.57464,35.6226],[139.57386,35.62298],[139.57277,35.62345],[139.5714,35.62404],[139.57046,35.62472],[139.56985,35.6254],[139.56899,35.6261],[139.56817,35.6266],[139.56698,35.62714],[139.56589,35.62762],[139.56627,35.62854],[139.56666,35.62947],[139.56479,35.63034],[139.56304,35.63112],[139.56299,35.63203],[139.56217,35.63245],[139.5618,35.63269],[139.56194,35.63294],[139.56207,35.63335],[139.56212,35.63349],[139.56224,35.6338],[139.56232,35.63406],[139.56253,35.63462],[139.56258,35.6349],[139.56267,35.63518],[139.56278,35.63537],[139.56278,35.6354],[139.56347,35.63499],[139.56403,35.63462],[139.56453,35.6343],[139.56478,35.63414],[139.56511,35.63397],[139.5649,35.63371],[139.56534,35.63335],[139.56655,35.63236],[139.5669,35.63218],[139.56713,35.63198],[139.56722,35.63189],[139.56732,35.63184],[139.56749,35.6318],[139.56756,35.63178],[139.56769,35.63172],[139.56779,35.63161],[139.56786,35.63151]]]}},{"type":"Feature","properties":{"name":"駒井町一丁目","setai":750,"jinko":1618,"key":"13219007001","units":1,"m":807,"f":811,"gk":21,"a0":225,"a1":950,"a2":425,"a75":232,"ag":[57,92,76,68,71,82,76,112,123,117,127,100,74,97,96,86,62,55,24,4,1],"nf":18},"geometry":{"type":"Polygon","coordinates":[[[139.58668,35.62795],[139.58674,35.62793],[139.58688,35.62794],[139.58696,35.62794],[139.58772,35.62778],[139.58772,35.62779],[139.58774,35.62775],[139.58772,35.62724],[139.58772,35.62722],[139.58787,35.62713],[139.58794,35.62697],[139.58804,35.62658],[139.58809,35.62633],[139.58794,35.62628],[139.58766,35.62621],[139.58742,35.62621],[139.58709,35.62617],[139.58706,35.62593],[139.58694,35.62565],[139.58681,35.62538],[139.58676,35.62531],[139.58669,35.62527],[139.58646,35.62522],[139.58639,35.62514],[139.58635,35.62507],[139.58613,35.62447],[139.58604,35.62416],[139.586,35.62402],[139.5859,35.62386],[139.58585,35.62373],[139.58585,35.62367],[139.58573,35.62302],[139.58496,35.62295],[139.58428,35.62291],[139.58362,35.62286],[139.58322,35.62325],[139.58289,35.62354],[139.58285,35.62357],[139.5825,35.62394],[139.58284,35.62404],[139.5828,35.6242],[139.58319,35.6243],[139.58314,35.62442],[139.58303,35.6247],[139.58304,35.6247],[139.58318,35.62475],[139.58309,35.62505],[139.58367,35.62518],[139.58364,35.62532],[139.58361,35.62532],[139.58355,35.62532],[139.58392,35.62558],[139.58404,35.62569],[139.58427,35.62587],[139.58427,35.62607],[139.58432,35.62607],[139.5848,35.62611],[139.58473,35.62638],[139.58477,35.62653],[139.5848,35.6266],[139.58486,35.6267],[139.58515,35.62689],[139.58523,35.62696],[139.5853,35.62712],[139.58531,35.62715],[139.58542,35.6274],[139.58554,35.6273],[139.58585,35.62723],[139.58605,35.62763],[139.5861,35.62761],[139.58626,35.62788],[139.5862,35.62797],[139.58622,35.62804],[139.5865,35.62809],[139.58668,35.62795]]]}},{"type":"Feature","properties":{"name":"駒井町二丁目","setai":512,"jinko":1274,"key":"13219007002","units":1,"m":626,"f":648,"gk":24,"a0":219,"a1":754,"a2":291,"a75":154,"ag":[79,76,64,69,54,61,50,83,126,104,92,60,55,62,75,73,39,30,10,2,0],"nf":10},"geometry":{"type":"Polygon","coordinates":[[[139.5896,35.62362],[139.58942,35.62321],[139.58889,35.62321],[139.5887,35.62322],[139.58852,35.62324],[139.58829,35.62327],[139.58826,35.62327],[139.58798,35.62325],[139.58748,35.62315],[139.58707,35.62311],[139.58686,35.62311],[139.58573,35.62302],[139.58585,35.62367],[139.58585,35.62373],[139.5859,35.62386],[139.586,35.62402],[139.58604,35.62416],[139.58613,35.62447],[139.58635,35.62507],[139.58639,35.62514],[139.58646,35.62522],[139.58669,35.62527],[139.58676,35.62531],[139.58681,35.62538],[139.58694,35.62565],[139.58706,35.62593],[139.58709,35.62617],[139.58742,35.62621],[139.58766,35.62621],[139.58794,35.62628],[139.58809,35.62633],[139.58804,35.62658],[139.58794,35.62697],[139.58787,35.62713],[139.58772,35.62722],[139.58772,35.62724],[139.58774,35.62775],[139.58779,35.62768],[139.58802,35.62765],[139.58834,35.62753],[139.58861,35.62741],[139.58888,35.62727],[139.58904,35.62714],[139.5892,35.627],[139.58937,35.62679],[139.58965,35.62644],[139.58975,35.62632],[139.58981,35.62621],[139.58982,35.626],[139.58982,35.62598],[139.5898,35.62588],[139.58975,35.62578],[139.58966,35.62569],[139.58954,35.6255],[139.58945,35.62532],[139.58946,35.62527],[139.58948,35.62518],[139.58947,35.62513],[139.58946,35.62502],[139.58956,35.62498],[139.58964,35.62492],[139.58985,35.6247],[139.58986,35.62469],[139.58986,35.62469],[139.58969,35.62455],[139.58966,35.62422],[139.58964,35.62381],[139.5896,35.62362]]]}},{"type":"Feature","properties":{"name":"駒井町三丁目","setai":691,"jinko":1585,"key":"13219007003","units":1,"m":810,"f":775,"gk":16,"a0":206,"a1":995,"a2":375,"a75":202,"ag":[66,67,73,78,76,71,85,103,129,144,124,96,89,86,87,80,76,36,8,2,0],"nf":9},"geometry":{"type":"Polygon","coordinates":[[[139.58322,35.62325],[139.58362,35.62286],[139.58428,35.62291],[139.58496,35.62295],[139.58573,35.62302],[139.58686,35.62311],[139.58707,35.62311],[139.58748,35.62315],[139.58798,35.62325],[139.58826,35.62327],[139.58829,35.62327],[139.58852,35.62324],[139.5887,35.62322],[139.58889,35.62321],[139.58942,35.62321],[139.58949,35.62321],[139.58966,35.62321],[139.58976,35.62264],[139.5898,35.62243],[139.58982,35.62227],[139.58985,35.62197],[139.58985,35.62169],[139.58962,35.62159],[139.58941,35.62149],[139.58922,35.62141],[139.58935,35.62105],[139.5894,35.6209],[139.58889,35.62084],[139.58844,35.6208],[139.58792,35.62078],[139.58746,35.62076],[139.58739,35.62078],[139.5869,35.62088],[139.58647,35.62099],[139.58589,35.62115],[139.58561,35.62126],[139.58552,35.62132],[139.58516,35.62149],[139.58509,35.62151],[139.58387,35.62196],[139.58309,35.62225],[139.58265,35.6224],[139.58214,35.62254],[139.58172,35.62266],[139.58143,35.62274],[139.58103,35.62283],[139.58106,35.62286],[139.58129,35.62307],[139.58135,35.62313],[139.58162,35.62342],[139.58165,35.62345],[139.58188,35.62375],[139.58192,35.6238],[139.58215,35.62412],[139.58216,35.62413],[139.5825,35.62394],[139.58285,35.62357],[139.58289,35.62354],[139.58322,35.62325]]]}},{"type":"Feature","properties":{"name":"岩戸南一丁目","setai":1255,"jinko":2566,"key":"13219008001","units":1,"m":1239,"f":1327,"gk":49,"a0":310,"a1":1659,"a2":530,"a75":270,"ag":[80,118,112,118,152,99,142,154,215,224,243,154,158,120,140,116,77,55,16,5,1],"nf":67},"geometry":{"type":"Polygon","coordinates":[[[139.5857,35.63071],[139.5856,35.63017],[139.5853,35.63023],[139.58511,35.63003],[139.58506,35.62998],[139.58506,35.62978],[139.58495,35.62936],[139.58494,35.62933],[139.58488,35.62914],[139.58488,35.62913],[139.58486,35.62908],[139.58477,35.62881],[139.58471,35.62864],[139.58467,35.62867],[139.58453,35.62875],[139.58445,35.62879],[139.58377,35.62903],[139.58362,35.62898],[139.58351,35.62888],[139.58334,35.62878],[139.58323,35.62875],[139.58301,35.62873],[139.58292,35.62875],[139.58272,35.62881],[139.58268,35.62883],[139.58255,35.6289],[139.58248,35.62898],[139.58244,35.62912],[139.58244,35.62924],[139.58242,35.62933],[139.58231,35.62942],[139.58226,35.6295],[139.5821,35.62965],[139.58202,35.62975],[139.58195,35.62978],[139.58181,35.62985],[139.58167,35.62987],[139.58163,35.62988],[139.58165,35.63016],[139.58188,35.63023],[139.58198,35.63028],[139.58202,35.63036],[139.58202,35.63058],[139.58204,35.63072],[139.58226,35.63093],[139.58249,35.6311],[139.58265,35.63127],[139.58297,35.63167],[139.58307,35.63178],[139.58309,35.63185],[139.58307,35.63192],[139.58335,35.63207],[139.58342,35.63211],[139.58349,35.63215],[139.58397,35.63238],[139.58426,35.63252],[139.58451,35.63263],[139.58476,35.63267],[139.58502,35.6327],[139.58513,35.63272],[139.58526,35.63273],[139.58544,35.6327],[139.58568,35.63263],[139.58573,35.6325],[139.58591,35.63219],[139.58597,35.63205],[139.58599,35.63168],[139.58599,35.63163],[139.58598,35.63161],[139.58596,35.6315],[139.58578,35.63111],[139.5857,35.63071]]]}},{"type":"Feature","properties":{"name":"岩戸南二丁目","setai":1216,"jinko":2411,"key":"13219008002","units":1,"m":1153,"f":1258,"gk":44,"a0":233,"a1":1462,"a2":670,"a75":392,"ag":[95,77,61,68,151,163,170,147,150,178,160,148,127,135,143,113,89,95,76,16,3],"nf":46},"geometry":{"type":"Polygon","coordinates":[[[139.58922,35.63265],[139.58922,35.63248],[139.58912,35.63223],[139.58903,35.63208],[139.58898,35.63185],[139.58897,35.6318],[139.58893,35.63166],[139.58884,35.63143],[139.58872,35.63121],[139.58869,35.63112],[139.58848,35.63073],[139.5889,35.63051],[139.5888,35.63],[139.58952,35.6298],[139.58932,35.62949],[139.58917,35.62946],[139.58902,35.62948],[139.58888,35.62951],[139.58859,35.62939],[139.58801,35.6293],[139.58786,35.62933],[139.58779,35.62933],[139.58772,35.62926],[139.58767,35.629],[139.58766,35.62897],[139.58764,35.62876],[139.58768,35.62854],[139.58779,35.62838],[139.58782,35.6283],[139.58772,35.62779],[139.58772,35.62778],[139.58696,35.62794],[139.58688,35.62794],[139.58674,35.62793],[139.58668,35.62795],[139.5865,35.62809],[139.58622,35.62804],[139.58622,35.62804],[139.58609,35.62808],[139.58583,35.62821],[139.58528,35.62826],[139.58492,35.62844],[139.58471,35.62864],[139.58477,35.62881],[139.58486,35.62908],[139.58488,35.62913],[139.58488,35.62914],[139.58494,35.62933],[139.58495,35.62936],[139.58506,35.62978],[139.58506,35.62998],[139.58511,35.63003],[139.5853,35.63023],[139.5856,35.63017],[139.5857,35.63071],[139.58578,35.63111],[139.58596,35.6315],[139.58598,35.63161],[139.58599,35.63163],[139.58599,35.63168],[139.58597,35.63205],[139.58591,35.63219],[139.58573,35.6325],[139.58568,35.63263],[139.58571,35.63264],[139.586,35.63263],[139.5862,35.63267],[139.58674,35.63273],[139.58739,35.63276],[139.58747,35.63277],[139.5875,35.63277],[139.58785,35.63281],[139.58828,35.63287],[139.58905,35.63299],[139.5891,35.633],[139.58922,35.63265]]]}},{"type":"Feature","properties":{"name":"岩戸南三丁目","setai":1351,"jinko":2684,"key":"13219008003","units":1,"m":1310,"f":1374,"gk":37,"a0":278,"a1":1680,"a2":638,"a75":310,"ag":[105,95,78,101,161,148,142,174,208,195,194,203,154,148,180,124,83,59,30,13,1],"nf":88},"geometry":{"type":"Polygon","coordinates":[[[139.59118,35.63293],[139.59132,35.63291],[139.59144,35.63291],[139.5915,35.6329],[139.59133,35.63232],[139.5913,35.63222],[139.59128,35.63208],[139.59138,35.63201],[139.59153,35.63196],[139.59158,35.63191],[139.5916,35.63189],[139.5916,35.63188],[139.59118,35.63099],[139.59131,35.63089],[139.59174,35.6307],[139.59198,35.63059],[139.5923,35.63042],[139.5924,35.63034],[139.5924,35.63031],[139.59242,35.63022],[139.59254,35.62999],[139.59258,35.62974],[139.59281,35.6296],[139.5926,35.62934],[139.59223,35.62885],[139.59218,35.62875],[139.59237,35.62843],[139.59242,35.62829],[139.5924,35.62823],[139.59225,35.62778],[139.59219,35.62751],[139.59227,35.62743],[139.59254,35.62727],[139.59257,35.62731],[139.59265,35.62744],[139.59274,35.62744],[139.59286,35.62767],[139.59295,35.62766],[139.59348,35.62759],[139.59355,35.62756],[139.59384,35.62734],[139.59384,35.6273],[139.59415,35.62707],[139.59376,35.62666],[139.59361,35.62672],[139.59353,35.62666],[139.59348,35.62676],[139.59338,35.62677],[139.59332,35.62668],[139.59325,35.62653],[139.59314,35.62648],[139.59268,35.62656],[139.59226,35.62633],[139.5922,35.62629],[139.59216,35.62628],[139.59156,35.62646],[139.59119,35.62645],[139.59114,35.62649],[139.59118,35.62662],[139.59117,35.6268],[139.59113,35.62704],[139.59104,35.62718],[139.59089,35.62729],[139.59061,35.6274],[139.59055,35.62758],[139.59049,35.62765],[139.59042,35.62768],[139.59029,35.6277],[139.59019,35.62774],[139.59009,35.62785],[139.58987,35.62811],[139.58995,35.6283],[139.58992,35.62835],[139.58976,35.62845],[139.58961,35.62867],[139.58954,35.62875],[139.58944,35.62877],[139.58931,35.62873],[139.58911,35.62864],[139.58904,35.6286],[139.58897,35.62859],[139.58875,35.6287],[139.58852,35.62882],[139.58838,35.6288],[139.58817,35.62889],[139.58808,35.62889],[139.58787,35.62881],[139.5878,35.62883],[139.58767,35.629],[139.58772,35.62926],[139.58779,35.62933],[139.58786,35.62933],[139.58801,35.6293],[139.58859,35.62939],[139.58888,35.62951],[139.58902,35.62948],[139.58917,35.62946],[139.58932,35.62949],[139.58952,35.6298],[139.5888,35.63],[139.5889,35.63051],[139.58848,35.63073],[139.58869,35.63112],[139.58872,35.63121],[139.58884,35.63143],[139.58893,35.63166],[139.58897,35.6318],[139.58898,35.63185],[139.58903,35.63208],[139.58912,35.63223],[139.58922,35.63248],[139.58922,35.63265],[139.5891,35.633],[139.58935,35.63304],[139.58955,35.63307],[139.58982,35.63312],[139.59002,35.63316],[139.59033,35.63321],[139.59072,35.63334],[139.59089,35.63339],[139.59094,35.63341],[139.59101,35.63343],[139.59096,35.63353],[139.59109,35.63349],[139.59111,35.63342],[139.59112,35.63332],[139.59112,35.63331],[139.59118,35.63293]]]}},{"type":"Feature","properties":{"name":"岩戸南四丁目","setai":794,"jinko":2027,"key":"13219008004","units":1,"m":1002,"f":1025,"gk":17,"a0":259,"a1":1174,"a2":565,"a75":340,"ag":[79,103,77,104,117,83,68,97,132,165,190,123,95,96,129,113,107,78,31,10,1],"nf":29},"geometry":{"type":"Polygon","coordinates":[[[139.5878,35.62883],[139.58787,35.62881],[139.58808,35.62889],[139.58817,35.62889],[139.58838,35.6288],[139.58852,35.62882],[139.58875,35.6287],[139.58897,35.62859],[139.58904,35.6286],[139.58911,35.62864],[139.58931,35.62873],[139.58944,35.62877],[139.58954,35.62875],[139.58961,35.62867],[139.58976,35.62845],[139.58992,35.62835],[139.58995,35.6283],[139.58987,35.62811],[139.59009,35.62785],[139.59019,35.62774],[139.59029,35.6277],[139.59042,35.62768],[139.59049,35.62765],[139.59055,35.62758],[139.59061,35.6274],[139.59089,35.62729],[139.59104,35.62718],[139.59113,35.62704],[139.59117,35.6268],[139.59118,35.62662],[139.59114,35.62649],[139.59119,35.62645],[139.59156,35.62646],[139.59216,35.62628],[139.5922,35.62629],[139.59226,35.62633],[139.59268,35.62656],[139.59314,35.62648],[139.59325,35.62653],[139.59332,35.62668],[139.59338,35.62677],[139.59348,35.62676],[139.59353,35.62666],[139.59349,35.62664],[139.59354,35.62644],[139.59375,35.62624],[139.5936,35.62617],[139.59348,35.62609],[139.59333,35.62594],[139.59311,35.62553],[139.59285,35.62507],[139.59252,35.62448],[139.59241,35.62434],[139.59236,35.62426],[139.5923,35.62416],[139.59241,35.62373],[139.59192,35.62381],[139.59185,35.62357],[139.59135,35.62367],[139.59118,35.62379],[139.59098,35.6239],[139.59103,35.624],[139.59093,35.62402],[139.59088,35.62407],[139.59079,35.62401],[139.59073,35.62406],[139.59076,35.62409],[139.59061,35.62413],[139.58986,35.62469],[139.58985,35.6247],[139.58964,35.62492],[139.58956,35.62498],[139.58946,35.62502],[139.58947,35.62513],[139.58948,35.62518],[139.58946,35.62527],[139.58945,35.62532],[139.58954,35.6255],[139.58966,35.62569],[139.58975,35.62578],[139.5898,35.62588],[139.58982,35.62598],[139.58982,35.626],[139.58981,35.62621],[139.58975,35.62632],[139.58965,35.62644],[139.58937,35.62679],[139.5892,35.627],[139.58904,35.62714],[139.58888,35.62727],[139.58861,35.62741],[139.58834,35.62753],[139.58802,35.62765],[139.58779,35.62768],[139.58774,35.62775],[139.58772,35.62779],[139.58782,35.6283],[139.58779,35.62838],[139.58768,35.62854],[139.58764,35.62876],[139.58766,35.62897],[139.58767,35.629],[139.5878,35.62883]]]}},{"type":"Feature","properties":{"name":"岩戸北一丁目","setai":1032,"jinko":2055,"key":"13219009001","units":1,"m":994,"f":1061,"gk":42,"a0":258,"a1":1343,"a2":394,"a75":208,"ag":[102,85,71,71,113,153,123,157,169,161,163,131,102,86,100,86,55,41,22,3,1],"nf":60},"geometry":{"type":"Polygon","coordinates":[[[139.58185,35.63485],[139.58125,35.6346],[139.58122,35.63458],[139.58119,35.63457],[139.58071,35.63436],[139.58057,35.63463],[139.58047,35.63469],[139.58036,35.63473],[139.58034,35.63473],[139.58029,35.63472],[139.58013,35.63475],[139.57996,35.63479],[139.57984,35.63484],[139.57974,35.63487],[139.57968,35.63497],[139.57967,35.6351],[139.57967,35.63535],[139.5797,35.63568],[139.57972,35.63593],[139.57972,35.63594],[139.57974,35.63625],[139.57975,35.63636],[139.57977,35.63672],[139.57983,35.6374],[139.57983,35.63742],[139.57987,35.63809],[139.57988,35.63811],[139.57991,35.63836],[139.57994,35.63858],[139.57994,35.63862],[139.58035,35.63842],[139.58057,35.63832],[139.58071,35.63824],[139.58099,35.63811],[139.58114,35.63802],[139.58142,35.63784],[139.58167,35.63771],[139.58192,35.63758],[139.58203,35.63753],[139.58261,35.63727],[139.58345,35.63685],[139.58397,35.63657],[139.58426,35.63644],[139.58457,35.63633],[139.58507,35.63619],[139.58513,35.63611],[139.58509,35.63587],[139.58431,35.63565],[139.58393,35.63554],[139.58378,35.6355],[139.58369,35.63547],[139.58332,35.63536],[139.583,35.63526],[139.58294,35.63524],[139.58236,35.63506],[139.58185,35.63485]]]}},{"type":"Feature","properties":{"name":"岩戸北二丁目","setai":1075,"jinko":2199,"key":"13219009002","units":1,"m":1060,"f":1139,"gk":45,"a0":360,"a1":1439,"a2":316,"a75":144,"ag":[219,94,47,65,126,142,226,265,199,142,111,84,79,66,106,61,45,22,12,4,0],"nf":84},"geometry":{"type":"Polygon","coordinates":[[[139.58522,35.6388],[139.58548,35.63808],[139.58561,35.63779],[139.58566,35.63768],[139.5859,35.63731],[139.58602,35.63712],[139.58609,35.637],[139.58627,35.63676],[139.5863,35.63671],[139.58649,35.63644],[139.58661,35.63629],[139.58536,35.63594],[139.58515,35.63588],[139.58509,35.63587],[139.58513,35.63611],[139.58507,35.63619],[139.58457,35.63633],[139.58426,35.63644],[139.58397,35.63657],[139.58345,35.63685],[139.58261,35.63727],[139.58203,35.63753],[139.58192,35.63758],[139.58167,35.63771],[139.58142,35.63784],[139.58114,35.63802],[139.58099,35.63811],[139.58071,35.63824],[139.58057,35.63832],[139.58035,35.63842],[139.57994,35.63862],[139.57997,35.639],[139.58001,35.63943],[139.5804,35.63941],[139.58041,35.63943],[139.58046,35.63957],[139.58045,35.6397],[139.58052,35.63985],[139.58071,35.63979],[139.58098,35.63967],[139.58128,35.63954],[139.58129,35.63953],[139.58142,35.63948],[139.58154,35.63941],[139.58166,35.63932],[139.58191,35.63919],[139.58195,35.63917],[139.58221,35.63896],[139.5823,35.63888],[139.58269,35.63875],[139.58286,35.63899],[139.58299,35.6391],[139.583,35.6391],[139.58304,35.63912],[139.58348,35.63932],[139.58363,35.63942],[139.58366,35.63949],[139.58373,35.63967],[139.58384,35.63996],[139.58387,35.64004],[139.58387,35.64013],[139.58387,35.64029],[139.58391,35.64058],[139.58413,35.64113],[139.58423,35.64117],[139.58429,35.641],[139.58435,35.64087],[139.58464,35.6404],[139.58471,35.64024],[139.58478,35.64005],[139.5849,35.63975],[139.58491,35.63972],[139.58507,35.6393],[139.58522,35.6388]]]}},{"type":"Feature","properties":{"name":"岩戸北三丁目","setai":1761,"jinko":3113,"key":"13219009003","units":1,"m":1461,"f":1652,"gk":37,"a0":281,"a1":1947,"a2":748,"a75":441,"ag":[100,100,81,84,186,224,202,197,222,264,221,187,160,145,162,142,120,101,60,16,2],"nf":137},"geometry":{"type":"Polygon","coordinates":[[[139.58568,35.63284],[139.58571,35.63264],[139.58568,35.63263],[139.58544,35.6327],[139.58526,35.63273],[139.58513,35.63272],[139.58502,35.6327],[139.58476,35.63267],[139.58451,35.63263],[139.58426,35.63252],[139.58397,35.63238],[139.58349,35.63215],[139.58342,35.63211],[139.58335,35.63207],[139.58307,35.63192],[139.58282,35.63183],[139.58209,35.63235],[139.58207,35.63236],[139.58134,35.63288],[139.58132,35.63289],[139.58075,35.63332],[139.58066,35.63339],[139.58062,35.63342],[139.58096,35.63372],[139.58108,35.63383],[139.5811,35.63391],[139.58106,35.63396],[139.58095,35.634],[139.58082,35.63413],[139.58071,35.63436],[139.58119,35.63457],[139.58122,35.63458],[139.58125,35.6346],[139.58185,35.63485],[139.58236,35.63506],[139.58294,35.63524],[139.583,35.63526],[139.58332,35.63536],[139.58369,35.63547],[139.58378,35.6355],[139.58393,35.63554],[139.58431,35.63565],[139.58509,35.63587],[139.58503,35.63549],[139.585,35.63528],[139.58502,35.63513],[139.58508,35.63495],[139.58535,35.63462],[139.58536,35.63461],[139.58552,35.63437],[139.58556,35.63404],[139.58555,35.63399],[139.58562,35.6334],[139.58565,35.63311],[139.58568,35.63284]]]}},{"type":"Feature","properties":{"name":"岩戸北四丁目","setai":1215,"jinko":1942,"key":"13219009004","units":1,"m":930,"f":1012,"gk":34,"a0":110,"a1":1361,"a2":330,"a75":194,"ag":[50,27,33,76,181,221,161,130,125,113,150,113,91,65,71,62,42,48,32,9,1],"nf":141},"geometry":{"type":"Polygon","coordinates":[[[139.58753,35.63517],[139.58755,35.63514],[139.58772,35.63522],[139.58773,35.63521],[139.58778,35.63516],[139.58815,35.635],[139.58862,35.6348],[139.58878,35.63473],[139.58884,35.63476],[139.58894,35.63477],[139.58922,35.63473],[139.58924,35.6348],[139.58934,35.63478],[139.5896,35.63464],[139.58979,35.63448],[139.5899,35.63439],[139.59007,35.63425],[139.59043,35.63395],[139.59096,35.63353],[139.59101,35.63343],[139.59094,35.63341],[139.59089,35.63339],[139.59072,35.63334],[139.59033,35.63321],[139.59002,35.63316],[139.58982,35.63312],[139.58955,35.63307],[139.58935,35.63304],[139.5891,35.633],[139.58905,35.63299],[139.58828,35.63287],[139.58785,35.63281],[139.5875,35.63277],[139.58747,35.63277],[139.58739,35.63276],[139.58674,35.63273],[139.5862,35.63267],[139.586,35.63263],[139.58571,35.63264],[139.58568,35.63284],[139.58565,35.63311],[139.58562,35.6334],[139.58555,35.63399],[139.58556,35.63404],[139.58552,35.63437],[139.58536,35.63461],[139.58535,35.63462],[139.58508,35.63495],[139.58502,35.63513],[139.585,35.63528],[139.58503,35.63549],[139.58509,35.63587],[139.58515,35.63588],[139.58536,35.63594],[139.58661,35.63629],[139.58701,35.63582],[139.58723,35.63556],[139.58746,35.63528],[139.58753,35.63517]]]}},{"type":"Feature","properties":{"name":"東野川一丁目","setai":955,"jinko":2010,"key":"13219010001","units":1,"m":980,"f":1030,"gk":22,"a0":240,"a1":1187,"a2":549,"a75":331,"ag":[90,85,65,72,104,97,107,125,145,158,137,133,109,96,122,93,92,79,47,17,3],"nf":34},"geometry":{"type":"Polygon","coordinates":[[[139.58384,35.63996],[139.58373,35.63967],[139.58366,35.63949],[139.58363,35.63942],[139.58348,35.63932],[139.58304,35.63912],[139.583,35.6391],[139.58299,35.6391],[139.58286,35.63899],[139.58269,35.63875],[139.5823,35.63888],[139.58221,35.63896],[139.58195,35.63917],[139.58191,35.63919],[139.58166,35.63932],[139.58154,35.63941],[139.58142,35.63948],[139.58129,35.63953],[139.58128,35.63954],[139.58098,35.63967],[139.58071,35.63979],[139.58052,35.63985],[139.58045,35.6397],[139.58046,35.63957],[139.58041,35.63943],[139.5804,35.63941],[139.58001,35.63943],[139.58002,35.63951],[139.58002,35.63959],[139.58011,35.63973],[139.58023,35.6399],[139.58037,35.64007],[139.58051,35.6403],[139.58076,35.64061],[139.58093,35.6409],[139.58107,35.64107],[139.58112,35.64136],[139.58113,35.64144],[139.58105,35.64154],[139.58082,35.64171],[139.58071,35.64185],[139.58061,35.64198],[139.58048,35.64198],[139.58033,35.64201],[139.58011,35.64209],[139.58016,35.64228],[139.58021,35.64252],[139.58025,35.64266],[139.58024,35.64279],[139.58043,35.64364],[139.58065,35.6441],[139.58072,35.64422],[139.58081,35.64445],[139.58086,35.64466],[139.58093,35.64489],[139.58096,35.64505],[139.58125,35.64487],[139.58144,35.64482],[139.58161,35.64475],[139.58172,35.64468],[139.58184,35.64462],[139.58212,35.64448],[139.58254,35.6443],[139.58262,35.64426],[139.58276,35.64424],[139.58288,35.64418],[139.58297,35.64415],[139.58318,35.644],[139.58336,35.64384],[139.58353,35.64361],[139.5836,35.6434],[139.58364,35.64321],[139.58365,35.64287],[139.58365,35.64276],[139.58375,35.6426],[139.58383,35.64249],[139.58385,35.64247],[139.58399,35.64229],[139.58406,35.64215],[139.58411,35.64179],[139.58414,35.64156],[139.58422,35.64134],[139.58424,35.64121],[139.58424,35.6412],[139.58423,35.64117],[139.58413,35.64113],[139.58391,35.64058],[139.58387,35.64029],[139.58387,35.64013],[139.58387,35.64004],[139.58384,35.63996]]]}},{"type":"Feature","properties":{"name":"東野川二丁目","setai":663,"jinko":1626,"key":"13219010002","units":1,"m":817,"f":809,"gk":20,"a0":256,"a1":1048,"a2":303,"a75":143,"ag":[66,101,89,97,91,71,77,107,121,157,141,104,82,77,83,62,32,35,13,1,0],"nf":19},"geometry":{"type":"Polygon","coordinates":[[[139.58043,35.64364],[139.58024,35.64279],[139.58025,35.64266],[139.58021,35.64252],[139.58016,35.64228],[139.58011,35.64209],[139.57993,35.64214],[139.57976,35.64221],[139.57959,35.64229],[139.57936,35.64248],[139.57924,35.64264],[139.57904,35.64295],[139.57891,35.64299],[139.57885,35.643],[139.5787,35.64297],[139.57855,35.64297],[139.57843,35.64307],[139.57821,35.64321],[139.57802,35.64334],[139.57788,35.64339],[139.57766,35.64343],[139.5775,35.64353],[139.57724,35.64373],[139.57707,35.64386],[139.57695,35.64399],[139.57696,35.64401],[139.57703,35.64411],[139.57765,35.64569],[139.57767,35.64576],[139.57775,35.64594],[139.5781,35.64673],[139.57819,35.64679],[139.57823,35.64686],[139.57855,35.64677],[139.57878,35.64661],[139.57891,35.64652],[139.57902,35.64646],[139.57918,35.64639],[139.5794,35.64631],[139.57963,35.64625],[139.57972,35.64623],[139.57983,35.64617],[139.58028,35.64601],[139.58042,35.64596],[139.5805,35.64593],[139.58054,35.64553],[139.58061,35.64542],[139.58074,35.64528],[139.58087,35.64517],[139.58096,35.64505],[139.58093,35.64489],[139.58086,35.64466],[139.58081,35.64445],[139.58072,35.64422],[139.58065,35.6441],[139.58043,35.64364]]]}},{"type":"Feature","properties":{"name":"東野川三丁目","setai":1132,"jinko":2572,"key":"13219010003","units":1,"m":1261,"f":1311,"gk":18,"a0":364,"a1":1424,"a2":749,"a75":427,"ag":[142,134,88,80,96,102,121,172,184,191,197,160,121,120,202,169,135,99,19,4,1],"nf":35},"geometry":{"type":"Polygon","coordinates":[[[139.58389,35.64839],[139.58375,35.64834],[139.58375,35.64834],[139.5838,35.64822],[139.58391,35.64806],[139.58396,35.64801],[139.58408,35.64778],[139.58413,35.64769],[139.58415,35.64742],[139.58415,35.64726],[139.58408,35.64705],[139.58403,35.64693],[139.58404,35.64691],[139.5844,35.64676],[139.58452,35.64668],[139.58464,35.6466],[139.58472,35.6465],[139.58488,35.64636],[139.58495,35.64633],[139.58521,35.64623],[139.58522,35.64622],[139.58528,35.64611],[139.58535,35.64597],[139.58537,35.64593],[139.58564,35.64604],[139.58566,35.64605],[139.58567,35.64602],[139.58589,35.64567],[139.58593,35.64569],[139.58598,35.64571],[139.58566,35.64545],[139.58556,35.64537],[139.58544,35.64548],[139.58529,35.64566],[139.58513,35.64584],[139.58507,35.64585],[139.58461,35.64581],[139.58431,35.64577],[139.58393,35.64572],[139.58349,35.64565],[139.5828,35.64556],[139.58266,35.64554],[139.58262,35.64554],[139.58253,35.64554],[139.58201,35.64555],[139.58165,35.64568],[139.58151,35.6457],[139.58118,35.64572],[139.58101,35.64575],[139.58072,35.64586],[139.5805,35.64593],[139.58042,35.64596],[139.58028,35.64601],[139.57983,35.64617],[139.57972,35.64623],[139.57963,35.64625],[139.5794,35.64631],[139.57918,35.64639],[139.57902,35.64646],[139.57891,35.64652],[139.57878,35.64661],[139.57855,35.64677],[139.57823,35.64686],[139.57851,35.64736],[139.57869,35.64757],[139.57874,35.64762],[139.57887,35.64773],[139.5793,35.64811],[139.57995,35.64793],[139.58008,35.64789],[139.58009,35.64789],[139.58026,35.64784],[139.58045,35.6477],[139.58036,35.64758],[139.58095,35.64736],[139.58105,35.64738],[139.58108,35.64737],[139.58113,35.64736],[139.58127,35.64734],[139.58144,35.64746],[139.58154,35.64744],[139.58192,35.64738],[139.58195,35.64737],[139.58213,35.64735],[139.58227,35.64736],[139.58239,35.64731],[139.58291,35.6471],[139.58293,35.64716],[139.58287,35.64728],[139.58267,35.6475],[139.58269,35.64755],[139.5827,35.6476],[139.58271,35.64768],[139.58266,35.64771],[139.582,35.64807],[139.58197,35.64819],[139.58196,35.64835],[139.58191,35.64839],[139.58204,35.64856],[139.58206,35.64855],[139.58225,35.64841],[139.58278,35.64813],[139.58323,35.6485],[139.58336,35.64839],[139.58337,35.64838],[139.58337,35.64838],[139.58342,35.64843],[139.58344,35.64845],[139.58356,35.64856],[139.58364,35.64856],[139.58367,35.64857],[139.5839,35.64864],[139.58401,35.64843],[139.58389,35.64839]]]}},{"type":"Feature","properties":{"name":"東野川四丁目","setai":902,"jinko":1967,"key":"13219010004","units":1,"m":990,"f":977,"gk":52,"a0":272,"a1":1214,"a2":425,"a75":197,"ag":[84,93,95,77,89,79,119,141,147,154,169,128,111,112,116,73,55,50,14,3,2],"nf":56},"geometry":{"type":"Polygon","coordinates":[[[139.58753,35.64649],[139.58752,35.64632],[139.58749,35.64626],[139.58766,35.64612],[139.588,35.64587],[139.58806,35.64577],[139.58803,35.64574],[139.58798,35.64572],[139.58797,35.64575],[139.58784,35.64583],[139.58786,35.64586],[139.58771,35.64595],[139.58772,35.64598],[139.58757,35.64607],[139.58758,35.6461],[139.58743,35.64618],[139.58741,35.64616],[139.58737,35.64615],[139.58735,35.64614],[139.58735,35.64611],[139.58736,35.64609],[139.58734,35.64607],[139.58746,35.64595],[139.58778,35.64576],[139.58782,35.6458],[139.58794,35.64573],[139.58794,35.6457],[139.58782,35.64563],[139.58782,35.64568],[139.58759,35.64575],[139.58736,35.64586],[139.58718,35.64605],[139.58706,35.64627],[139.58695,35.64623],[139.58697,35.64618],[139.58693,35.64616],[139.58704,35.64594],[139.58724,35.64574],[139.58752,35.6456],[139.58769,35.64555],[139.58751,35.64546],[139.58728,35.64544],[139.5872,35.64543],[139.58709,35.64538],[139.58697,35.64482],[139.58728,35.64426],[139.58724,35.64413],[139.5872,35.64396],[139.58714,35.64397],[139.58707,35.64389],[139.58701,35.64371],[139.58687,35.64373],[139.58681,35.64352],[139.58659,35.64356],[139.58657,35.64346],[139.58648,35.64324],[139.58648,35.64318],[139.58648,35.64298],[139.58642,35.64272],[139.58613,35.64273],[139.58608,35.64274],[139.58577,35.64275],[139.58576,35.64247],[139.58588,35.64201],[139.58572,35.64192],[139.58567,35.64194],[139.58556,35.64205],[139.58529,35.64193],[139.58463,35.64163],[139.58448,35.64158],[139.58458,35.64132],[139.58424,35.6412],[139.58424,35.64121],[139.58422,35.64134],[139.58414,35.64156],[139.58411,35.64179],[139.58406,35.64215],[139.58399,35.64229],[139.58385,35.64247],[139.58383,35.64249],[139.58375,35.6426],[139.58365,35.64276],[139.58365,35.64287],[139.58364,35.64321],[139.5836,35.6434],[139.58353,35.64361],[139.58336,35.64384],[139.58318,35.644],[139.58297,35.64415],[139.58288,35.64418],[139.58276,35.64424],[139.58262,35.64426],[139.58254,35.6443],[139.58212,35.64448],[139.58184,35.64462],[139.58172,35.64468],[139.58161,35.64475],[139.58144,35.64482],[139.58125,35.64487],[139.58096,35.64505],[139.58087,35.64517],[139.58074,35.64528],[139.58061,35.64542],[139.58054,35.64553],[139.5805,35.64593],[139.58072,35.64586],[139.58101,35.64575],[139.58118,35.64572],[139.58151,35.6457],[139.58165,35.64568],[139.58201,35.64555],[139.58253,35.64554],[139.58262,35.64554],[139.58266,35.64554],[139.5828,35.64556],[139.58349,35.64565],[139.58393,35.64572],[139.58431,35.64577],[139.58461,35.64581],[139.58507,35.64585],[139.58513,35.64584],[139.58529,35.64566],[139.58544,35.64548],[139.58556,35.64537],[139.58566,35.64545],[139.58598,35.64571],[139.58603,35.64573],[139.58605,35.64574],[139.58619,35.64582],[139.58636,35.64592],[139.58662,35.64607],[139.58676,35.64617],[139.58669,35.64628],[139.5867,35.64635],[139.58679,35.6464],[139.58684,35.64641],[139.58684,35.64643],[139.58691,35.64643],[139.58702,35.64649],[139.58722,35.64659],[139.58733,35.64653],[139.58751,35.64649],[139.58753,35.64649]]]}},{"type":"Feature","properties":{"name":"西野川一丁目","setai":846,"jinko":1852,"key":"13219011001","units":1,"m":897,"f":955,"gk":34,"a0":214,"a1":1147,"a2":443,"a75":292,"ag":[73,74,67,97,100,102,82,110,144,142,142,137,91,66,85,78,79,91,37,6,1],"nf":48},"geometry":{"type":"Polygon","coordinates":[[[139.57603,35.65039],[139.57624,35.65029],[139.57642,35.65033],[139.57661,35.65033],[139.57665,35.65026],[139.57668,35.65008],[139.57677,35.64994],[139.57682,35.64983],[139.57687,35.64968],[139.57689,35.64962],[139.57698,35.64958],[139.57707,35.64947],[139.5772,35.64929],[139.57729,35.64927],[139.57733,35.64926],[139.57854,35.64908],[139.57857,35.64907],[139.5786,35.64888],[139.57892,35.64874],[139.57896,35.64872],[139.57922,35.64874],[139.57924,35.64892],[139.57941,35.64914],[139.57971,35.64899],[139.57998,35.64911],[139.58015,35.6492],[139.58036,35.64909],[139.5804,35.64912],[139.58049,35.6492],[139.58078,35.64946],[139.58079,35.64946],[139.5808,35.64944],[139.58087,35.64922],[139.58083,35.64918],[139.58065,35.649],[139.58041,35.6491],[139.58029,35.649],[139.58003,35.6488],[139.5799,35.64879],[139.5795,35.64867],[139.57935,35.64859],[139.57933,35.64855],[139.57929,35.6485],[139.57906,35.64816],[139.5793,35.64811],[139.57887,35.64773],[139.57874,35.64762],[139.57869,35.64757],[139.57851,35.64736],[139.57823,35.64686],[139.57819,35.64679],[139.5781,35.64673],[139.57775,35.64594],[139.57767,35.64576],[139.57765,35.64569],[139.57703,35.64411],[139.57696,35.64401],[139.57695,35.64399],[139.57663,35.64422],[139.57641,35.64449],[139.57628,35.64464],[139.57605,35.64468],[139.57577,35.64475],[139.57583,35.64505],[139.57582,35.64517],[139.57566,35.64531],[139.57553,35.64553],[139.57553,35.6456],[139.5757,35.64589],[139.57566,35.64592],[139.57541,35.64599],[139.57536,35.64601],[139.57534,35.64608],[139.57534,35.64614],[139.57538,35.64617],[139.57541,35.6462],[139.57538,35.64639],[139.57533,35.64644],[139.57528,35.64664],[139.57518,35.6467],[139.57535,35.64682],[139.57536,35.64685],[139.57536,35.64687],[139.57536,35.64719],[139.57538,35.64724],[139.57562,35.64742],[139.57567,35.64748],[139.5757,35.64762],[139.57578,35.64772],[139.57587,35.6478],[139.57591,35.64785],[139.57582,35.6481],[139.57582,35.64812],[139.57582,35.64822],[139.57591,35.64833],[139.57595,35.64845],[139.57604,35.64873],[139.57607,35.64905],[139.57607,35.64935],[139.57608,35.64969],[139.5761,35.6498],[139.57609,35.64994],[139.57606,35.64999],[139.5758,35.65027],[139.57582,35.65032],[139.57589,35.65046],[139.5759,35.65049],[139.576,35.65048],[139.57603,35.65039]]]}},{"type":"Feature","properties":{"name":"西野川二丁目","setai":662,"jinko":1718,"key":"13219011002","units":1,"m":787,"f":931,"gk":19,"a0":235,"a1":1016,"a2":449,"a75":312,"ag":[86,78,71,84,101,57,78,103,131,134,135,122,71,57,80,74,58,100,58,20,2],"nf":18},"geometry":{"type":"Polygon","coordinates":[[[139.57695,35.64399],[139.57687,35.64374],[139.57669,35.6439],[139.57659,35.64384],[139.57647,35.6438],[139.57632,35.64384],[139.57626,35.64386],[139.57602,35.64387],[139.57579,35.64388],[139.57541,35.6439],[139.5753,35.64389],[139.57507,35.64379],[139.57481,35.64371],[139.57478,35.6437],[139.57468,35.64369],[139.57447,35.64362],[139.57439,35.64361],[139.57399,35.64358],[139.57374,35.64359],[139.57359,35.64359],[139.57321,35.64361],[139.5732,35.6436],[139.57315,35.64362],[139.57294,35.64369],[139.5729,35.6437],[139.57294,35.64415],[139.57295,35.64462],[139.57299,35.64486],[139.57301,35.64509],[139.57305,35.64561],[139.57305,35.64593],[139.57307,35.64611],[139.57313,35.64628],[139.57318,35.64658],[139.57325,35.64687],[139.5733,35.64702],[139.57335,35.64709],[139.57338,35.64717],[139.57345,35.64727],[139.57367,35.64749],[139.57393,35.64772],[139.57399,35.64778],[139.57423,35.64788],[139.57432,35.64802],[139.5744,35.6482],[139.57441,35.64823],[139.57446,35.64839],[139.57452,35.64862],[139.57454,35.64882],[139.57457,35.64933],[139.57457,35.64978],[139.57457,35.64982],[139.57455,35.65027],[139.57452,35.65088],[139.5746,35.65086],[139.57486,35.65073],[139.57497,35.65069],[139.57527,35.65064],[139.57567,35.65054],[139.57575,35.65052],[139.57589,35.65049],[139.5759,35.65049],[139.57589,35.65046],[139.57582,35.65032],[139.5758,35.65027],[139.57606,35.64999],[139.57609,35.64994],[139.5761,35.6498],[139.57608,35.64969],[139.57607,35.64935],[139.57607,35.64905],[139.57604,35.64873],[139.57595,35.64845],[139.57591,35.64833],[139.57582,35.64822],[139.57582,35.64812],[139.57582,35.6481],[139.57591,35.64785],[139.57587,35.6478],[139.57578,35.64772],[139.5757,35.64762],[139.57567,35.64748],[139.57562,35.64742],[139.57538,35.64724],[139.57536,35.64719],[139.57536,35.64687],[139.57536,35.64685],[139.57535,35.64682],[139.57518,35.6467],[139.57528,35.64664],[139.57533,35.64644],[139.57538,35.64639],[139.57541,35.6462],[139.57538,35.64617],[139.57534,35.64614],[139.57534,35.64608],[139.57536,35.64601],[139.57541,35.64599],[139.57566,35.64592],[139.5757,35.64589],[139.57553,35.6456],[139.57553,35.64553],[139.57566,35.64531],[139.57582,35.64517],[139.57583,35.64505],[139.57577,35.64475],[139.57605,35.64468],[139.57628,35.64464],[139.57641,35.64449],[139.57663,35.64422],[139.57695,35.64399]]]}},{"type":"Feature","properties":{"name":"西野川三丁目","setai":343,"jinko":815,"key":"13219011003","units":1,"m":364,"f":451,"gk":7,"a0":86,"a1":501,"a2":216,"a75":141,"ag":[16,38,32,54,48,39,32,45,43,74,73,46,47,42,33,38,38,33,25,7,0],"nf":12},"geometry":{"type":"Polygon","coordinates":[[[139.57257,35.64587],[139.57276,35.64587],[139.57292,35.64589],[139.57305,35.64593],[139.57305,35.64561],[139.57301,35.64509],[139.57299,35.64486],[139.57295,35.64462],[139.57294,35.64415],[139.5729,35.6437],[139.57203,35.64381],[139.5717,35.64386],[139.57143,35.64389],[139.57115,35.64393],[139.57101,35.64395],[139.57094,35.64397],[139.57073,35.64407],[139.57052,35.64419],[139.56986,35.64454],[139.56969,35.64464],[139.56927,35.64486],[139.569,35.645],[139.56784,35.64558],[139.56782,35.6456],[139.56795,35.64585],[139.56804,35.64604],[139.56806,35.64608],[139.56816,35.64628],[139.56821,35.64637],[139.56824,35.64636],[139.56824,35.64636],[139.56854,35.64635],[139.56869,35.64634],[139.56915,35.64631],[139.56933,35.6463],[139.5695,35.64629],[139.57009,35.64623],[139.57045,35.64619],[139.5712,35.64609],[139.57172,35.64602],[139.57192,35.64599],[139.572,35.64597],[139.57209,35.64595],[139.57257,35.64587]]]}},{"type":"Feature","properties":{"name":"西野川四丁目","setai":1294,"jinko":3040,"key":"13219011004","units":1,"m":1553,"f":1487,"gk":26,"a0":338,"a1":1826,"a2":795,"a75":463,"ag":[110,115,113,177,187,176,158,162,180,221,229,185,151,157,175,142,144,103,56,12,6],"nf":81},"geometry":{"type":"Polygon","coordinates":[[[139.57452,35.65088],[139.57455,35.65027],[139.57457,35.64982],[139.57457,35.64978],[139.57457,35.64933],[139.57454,35.64882],[139.57452,35.64862],[139.57446,35.64839],[139.57441,35.64823],[139.5744,35.6482],[139.57432,35.64802],[139.57423,35.64788],[139.57399,35.64778],[139.57393,35.64772],[139.57367,35.64749],[139.57345,35.64727],[139.57338,35.64717],[139.57335,35.64709],[139.5733,35.64702],[139.57325,35.64687],[139.57318,35.64658],[139.57313,35.64628],[139.57307,35.64611],[139.57305,35.64593],[139.57292,35.64589],[139.57276,35.64587],[139.57257,35.64587],[139.57209,35.64595],[139.572,35.64597],[139.57192,35.64599],[139.57172,35.64602],[139.5712,35.64609],[139.57045,35.64619],[139.57009,35.64623],[139.5695,35.64629],[139.56933,35.6463],[139.56915,35.64631],[139.56869,35.64634],[139.56854,35.64635],[139.56824,35.64636],[139.56824,35.64636],[139.56821,35.64637],[139.56822,35.64638],[139.56824,35.64643],[139.56824,35.64655],[139.56824,35.64657],[139.56824,35.64662],[139.56824,35.64665],[139.56824,35.64677],[139.56823,35.6468],[139.56823,35.6468],[139.56823,35.64688],[139.56823,35.64707],[139.56823,35.64718],[139.56822,35.64747],[139.56822,35.64751],[139.56826,35.64752],[139.56862,35.64756],[139.56863,35.64743],[139.56869,35.64745],[139.56887,35.64751],[139.56906,35.64757],[139.56958,35.64776],[139.56967,35.64785],[139.56959,35.6482],[139.56962,35.64821],[139.56958,35.64838],[139.56953,35.64859],[139.56946,35.64886],[139.56951,35.64888],[139.56967,35.64896],[139.56975,35.64903],[139.56981,35.6491],[139.56993,35.64917],[139.5703,35.64927],[139.5705,35.64934],[139.57098,35.64934],[139.57118,35.64934],[139.57143,35.64935],[139.57158,35.64938],[139.57163,35.64942],[139.57174,35.64951],[139.5718,35.64958],[139.57191,35.64965],[139.57203,35.6497],[139.57209,35.64975],[139.57213,35.64997],[139.5723,35.65019],[139.57268,35.65025],[139.57275,35.65037],[139.57312,35.65047],[139.57334,35.65052],[139.57341,35.65056],[139.57357,35.65056],[139.57383,35.65061],[139.57394,35.65073],[139.574,35.65079],[139.5742,35.65076],[139.57438,35.65081],[139.57452,35.65088]]]}}]}