{"type":"FeatureCollection","features":[{"type":"Feature","properties":{"name":"大字三ツ木","setai":0,"jinko":0,"key":"132230010","units":1},"geometry":{"type":"Polygon","coordinates":[[[139.36849,35.74657],[139.36894,35.74641],[139.36947,35.74603],[139.36974,35.74569],[139.36972,35.74565],[139.36979,35.74549],[139.36962,35.74516],[139.3695,35.7449],[139.36946,35.74483],[139.36947,35.74401],[139.36933,35.74349],[139.36922,35.74323],[139.36905,35.74272],[139.36903,35.74257],[139.36899,35.74249],[139.36904,35.74237],[139.36946,35.74211],[139.3697,35.74195],[139.37044,35.74148],[139.37047,35.74142],[139.37065,35.74122],[139.37099,35.74122],[139.37102,35.74118],[139.37102,35.741],[139.37096,35.74084],[139.37093,35.74059],[139.37084,35.73987],[139.3706,35.73956],[139.37033,35.73916],[139.37012,35.73885],[139.36993,35.7386],[139.36984,35.73846],[139.36972,35.73818],[139.36962,35.7377],[139.36955,35.73743],[139.36933,35.73696],[139.36915,35.73671],[139.36891,35.7364],[139.36879,35.73622],[139.36879,35.73621],[139.3682,35.73654],[139.36763,35.73689],[139.36719,35.73715],[139.36636,35.73767],[139.36591,35.73795],[139.36317,35.73944],[139.36317,35.73945],[139.36341,35.7409],[139.36366,35.7427],[139.36517,35.74271],[139.3652,35.74303],[139.36496,35.7431],[139.36492,35.74315],[139.3649,35.74324],[139.36497,35.74334],[139.36506,35.74336],[139.36522,35.74338],[139.3653,35.74423],[139.36549,35.74474],[139.36538,35.7448],[139.36536,35.74492],[139.36555,35.7451],[139.36576,35.74506],[139.366,35.74551],[139.36659,35.74608],[139.36687,35.7463],[139.36687,35.74634],[139.36708,35.74646],[139.36753,35.74664],[139.36797,35.74666],[139.36849,35.74657]]]}},{"type":"Feature","properties":{"name":"大字岸","setai":0,"jinko":0,"key":"132230020","units":1},"geometry":{"type":"Polygon","coordinates":[[[139.35717,35.75004],[139.35725,35.74954],[139.35736,35.74904],[139.35746,35.74854],[139.35757,35.74806],[139.35768,35.74755],[139.35781,35.7469],[139.35787,35.74685],[139.358,35.74687],[139.35887,35.74706],[139.36044,35.74739],[139.36222,35.74778],[139.36227,35.74776],[139.36239,35.74767],[139.36245,35.74745],[139.36193,35.7427],[139.36366,35.7427],[139.36341,35.7409],[139.36317,35.73945],[139.36317,35.73944],[139.3629,35.73919],[139.36163,35.73948],[139.3605,35.73974],[139.35987,35.73994],[139.35982,35.73992],[139.35917,35.74102],[139.35914,35.74106],[139.35865,35.74116],[139.35867,35.74136],[139.35884,35.74198],[139.35607,35.74247],[139.35576,35.74257],[139.35473,35.74294],[139.35446,35.74305],[139.35554,35.74538],[139.35538,35.74544],[139.35462,35.7458],[139.35461,35.74581],[139.3564,35.74663],[139.35641,35.74666],[139.35643,35.74668],[139.35651,35.74748],[139.35651,35.7475],[139.35592,35.74748],[139.35586,35.74748],[139.35581,35.74754],[139.35573,35.74764],[139.35528,35.74742],[139.35521,35.74752],[139.35518,35.74755],[139.3552,35.74766],[139.3552,35.74769],[139.3553,35.74793],[139.35531,35.74795],[139.35555,35.74835],[139.35574,35.74835],[139.35575,35.7484],[139.35588,35.74879],[139.35588,35.74879],[139.3559,35.74888],[139.35597,35.74912],[139.35604,35.74934],[139.35656,35.75051],[139.35658,35.75051],[139.35659,35.75051],[139.35707,35.75039],[139.35713,35.75003],[139.35715,35.75004],[139.35717,35.75004]],[[139.35651,35.74545],[139.35625,35.74511],[139.35626,35.7451],[139.35626,35.74509],[139.35712,35.74479],[139.35769,35.74461],[139.35815,35.74446],[139.35815,35.74447],[139.35817,35.74451],[139.35858,35.74534],[139.35859,35.74536],[139.3568,35.74584],[139.35678,35.74582],[139.35675,35.74583],[139.35651,35.74545]]]}},{"type":"Feature","properties":{"name":"大南一丁目","setai":1542,"jinko":3720,"key":"13223003001","units":1},"geometry":{"type":"Polygon","coordinates":[[[139.3994,35.73845],[139.39928,35.73809],[139.39927,35.73809],[139.39914,35.73732],[139.399,35.73651],[139.39897,35.7363],[139.39863,35.73631],[139.39858,35.73626],[139.3985,35.73609],[139.39838,35.73585],[139.39827,35.73562],[139.39819,35.73538],[139.39806,35.73513],[139.39784,35.73481],[139.39782,35.73479],[139.39771,35.73467],[139.39767,35.73454],[139.39766,35.7345],[139.39717,35.73442],[139.3966,35.73428],[139.39642,35.7345],[139.39629,35.73478],[139.39611,35.73523],[139.39609,35.73528],[139.39596,35.7356],[139.39584,35.73594],[139.39575,35.73611],[139.39574,35.73613],[139.3954,35.73686],[139.39529,35.73708],[139.39525,35.73717],[139.39499,35.73768],[139.39469,35.73831],[139.39449,35.73873],[139.39431,35.73909],[139.3942,35.73935],[139.39414,35.73953],[139.39405,35.73968],[139.39392,35.73998],[139.39368,35.74044],[139.39356,35.74071],[139.39342,35.74101],[139.3933,35.74126],[139.39329,35.74129],[139.39309,35.74168],[139.39288,35.74212],[139.39276,35.74239],[139.39276,35.7424],[139.39248,35.74307],[139.39423,35.7429],[139.39537,35.74279],[139.39714,35.74262],[139.3978,35.74256],[139.39792,35.74206],[139.39818,35.74174],[139.39836,35.74151],[139.39857,35.74132],[139.39865,35.74126],[139.39904,35.74106],[139.39912,35.74103],[139.39914,35.74102],[139.39926,35.74087],[139.3993,35.74071],[139.39938,35.74019],[139.39943,35.73992],[139.39946,35.73974],[139.39949,35.73931],[139.39949,35.73925],[139.3995,35.7391],[139.39945,35.73869],[139.3994,35.73845]]]}},{"type":"Feature","properties":{"name":"大南二丁目","setai":1200,"jinko":2876,"key":"13223003002","units":1},"geometry":{"type":"Polygon","coordinates":[[[139.40602,35.73765],[139.40592,35.73717],[139.40591,35.73717],[139.40503,35.73729],[139.40441,35.73737],[139.40427,35.73739],[139.40395,35.73744],[139.40384,35.73745],[139.40347,35.73749],[139.4029,35.73757],[139.40246,35.73763],[139.40135,35.73778],[139.40135,35.73784],[139.39927,35.73808],[139.39928,35.73809],[139.3994,35.73845],[139.39945,35.73869],[139.3995,35.7391],[139.39949,35.73925],[139.39949,35.73931],[139.39946,35.73974],[139.39943,35.73992],[139.39938,35.74019],[139.3993,35.74071],[139.39926,35.74087],[139.39914,35.74102],[139.39912,35.74103],[139.39904,35.74106],[139.39865,35.74126],[139.39857,35.74132],[139.39836,35.74151],[139.39818,35.74174],[139.39792,35.74206],[139.3978,35.74256],[139.39779,35.74257],[139.39861,35.74251],[139.39918,35.74245],[139.39998,35.74238],[139.40029,35.74235],[139.4008,35.74229],[139.4012,35.74224],[139.4013,35.74222],[139.4014,35.74219],[139.40175,35.74212],[139.40189,35.74208],[139.40211,35.74204],[139.40231,35.74199],[139.40333,35.74175],[139.40352,35.74171],[139.4047,35.74143],[139.4046,35.74115],[139.40457,35.74105],[139.40454,35.74097],[139.40449,35.74081],[139.40445,35.74072],[139.40418,35.73997],[139.40442,35.73991],[139.40467,35.73986],[139.40488,35.73984],[139.40491,35.73983],[139.40607,35.73958],[139.4064,35.7395],[139.4063,35.73903],[139.4062,35.73853],[139.40609,35.73799],[139.40608,35.73795],[139.40602,35.73765]]]}},{"type":"Feature","properties":{"name":"大南三丁目","setai":1593,"jinko":3524,"key":"13223003003","units":1},"geometry":{"type":"Polygon","coordinates":[[[139.40578,35.73647],[139.40573,35.73624],[139.4057,35.73606],[139.40562,35.73569],[139.40558,35.73544],[139.40588,35.7354],[139.40665,35.73531],[139.40652,35.73468],[139.40651,35.73465],[139.40636,35.73391],[139.4058,35.73365],[139.40572,35.73367],[139.40566,35.7337],[139.40521,35.73377],[139.40494,35.73381],[139.40431,35.73391],[139.40407,35.73395],[139.40298,35.73412],[139.40262,35.73417],[139.40261,35.73417],[139.40246,35.73419],[139.40245,35.73418],[139.40223,35.73384],[139.40209,35.73365],[139.40204,35.73361],[139.40189,35.73358],[139.40154,35.73365],[139.40145,35.73367],[139.40011,35.73393],[139.40004,35.73416],[139.39995,35.73452],[139.39981,35.73501],[139.39881,35.73521],[139.39875,35.73523],[139.39874,35.7352],[139.39873,35.7352],[139.3984,35.73528],[139.3984,35.73528],[139.39838,35.73527],[139.39838,35.73525],[139.39833,35.7352],[139.39832,35.73519],[139.39809,35.73492],[139.39801,35.73483],[139.398,35.73477],[139.39791,35.73478],[139.39783,35.73479],[139.39782,35.73479],[139.39784,35.73481],[139.39806,35.73513],[139.39819,35.73538],[139.39827,35.73562],[139.39838,35.73585],[139.3985,35.73609],[139.39858,35.73626],[139.39863,35.73631],[139.39897,35.7363],[139.399,35.73651],[139.39914,35.73732],[139.39927,35.73809],[139.39928,35.73809],[139.39927,35.73808],[139.40135,35.73784],[139.40135,35.73778],[139.40246,35.73763],[139.4029,35.73757],[139.40347,35.73749],[139.40384,35.73745],[139.40395,35.73744],[139.40427,35.73739],[139.40441,35.73737],[139.40503,35.73729],[139.40591,35.73717],[139.40578,35.73647]]]}},{"type":"Feature","properties":{"name":"大南四丁目","setai":867,"jinko":1735,"key":"13223003004","units":1},"geometry":{"type":"Polygon","coordinates":[[[139.4141,35.73628],[139.41431,35.73574],[139.41445,35.73545],[139.41451,35.73535],[139.41426,35.73529],[139.41411,35.73525],[139.41475,35.73327],[139.4148,35.73305],[139.41486,35.73297],[139.41482,35.73299],[139.41438,35.73296],[139.4119,35.7328],[139.41145,35.73277],[139.41114,35.73275],[139.41085,35.73274],[139.41027,35.73266],[139.40942,35.73255],[139.40897,35.73324],[139.40875,35.73359],[139.40943,35.73389],[139.40934,35.73404],[139.40928,35.73414],[139.40856,35.73382],[139.40825,35.73369],[139.40821,35.73369],[139.40796,35.73369],[139.40773,35.73373],[139.40763,35.73371],[139.40725,35.73363],[139.40725,35.73363],[139.40725,35.73363],[139.40726,35.73368],[139.40712,35.73368],[139.40707,35.73366],[139.407,35.73344],[139.4058,35.73365],[139.40636,35.73391],[139.40651,35.73465],[139.40652,35.73468],[139.40665,35.73531],[139.40723,35.73523],[139.40739,35.73521],[139.40762,35.73518],[139.40827,35.7351],[139.40883,35.73508],[139.40934,35.735],[139.4094,35.735],[139.40973,35.73501],[139.40988,35.73502],[139.40991,35.73477],[139.40991,35.73468],[139.40993,35.73433],[139.41016,35.73444],[139.41065,35.73479],[139.41097,35.73504],[139.41122,35.73523],[139.41192,35.73577],[139.41241,35.73615],[139.41263,35.73628],[139.41275,35.73608],[139.41366,35.73639],[139.41366,35.73641],[139.41403,35.7365],[139.4141,35.73628]]]}},{"type":"Feature","properties":{"name":"大南五丁目","setai":971,"jinko":2418,"key":"13223003005","units":1},"geometry":{"type":"Polygon","coordinates":[[[139.41095,35.74118],[139.41103,35.7408],[139.41111,35.74081],[139.41123,35.74083],[139.41129,35.74085],[139.41129,35.74084],[139.4113,35.74084],[139.4113,35.74031],[139.4113,35.74028],[139.41134,35.73992],[139.41167,35.73983],[139.41166,35.73978],[139.41156,35.73931],[139.41175,35.73927],[139.41202,35.73925],[139.41202,35.73922],[139.41192,35.73872],[139.41191,35.73869],[139.41197,35.73867],[139.41221,35.73861],[139.41216,35.73839],[139.41206,35.73817],[139.41193,35.73819],[139.41175,35.73779],[139.41132,35.73792],[139.41122,35.73758],[139.41121,35.73747],[139.41138,35.73742],[139.41136,35.73734],[139.41197,35.73704],[139.41204,35.73713],[139.41227,35.73704],[139.41235,35.73703],[139.41238,35.73705],[139.4125,35.73726],[139.41254,35.7373],[139.41292,35.73717],[139.413,35.73715],[139.41297,35.73703],[139.41308,35.737],[139.41306,35.73692],[139.41281,35.73692],[139.41261,35.73645],[139.41263,35.73628],[139.41241,35.73615],[139.41192,35.73577],[139.41122,35.73523],[139.41097,35.73504],[139.41065,35.73479],[139.41016,35.73444],[139.40993,35.73433],[139.40991,35.73468],[139.40991,35.73477],[139.40988,35.73502],[139.40973,35.73501],[139.4094,35.735],[139.40934,35.735],[139.40883,35.73508],[139.40827,35.7351],[139.40762,35.73518],[139.40739,35.73521],[139.40723,35.73523],[139.40665,35.73531],[139.40588,35.7354],[139.40558,35.73544],[139.40562,35.73569],[139.4057,35.73606],[139.40573,35.73624],[139.40578,35.73647],[139.40591,35.73717],[139.40592,35.73717],[139.40602,35.73765],[139.40608,35.73795],[139.40924,35.73752],[139.41025,35.73741],[139.41044,35.73825],[139.41075,35.7396],[139.41079,35.73979],[139.41077,35.74002],[139.41077,35.74006],[139.4107,35.74055],[139.4107,35.74057],[139.41067,35.74096],[139.41066,35.74107],[139.41065,35.74116],[139.41095,35.74118]]]}},{"type":"Feature","properties":{"name":"学園一丁目","setai":953,"jinko":2420,"key":"13223004001","units":1},"geometry":{"type":"Polygon","coordinates":[[[139.39293,35.74558],[139.39157,35.74537],[139.39118,35.74625],[139.39097,35.74673],[139.39022,35.74833],[139.38968,35.74938],[139.38899,35.75067],[139.38927,35.75092],[139.3901,35.75072],[139.39174,35.75033],[139.39171,35.75031],[139.39343,35.7499],[139.3942,35.74972],[139.39511,35.74952],[139.39515,35.74951],[139.39574,35.74944],[139.39704,35.74933],[139.39735,35.7493],[139.39733,35.74926],[139.39728,35.74901],[139.39722,35.74867],[139.39721,35.74832],[139.39711,35.74815],[139.39708,35.74808],[139.39689,35.74783],[139.39676,35.74762],[139.39669,35.74758],[139.39684,35.74682],[139.39695,35.74619],[139.39629,35.74609],[139.39587,35.74602],[139.39385,35.74572],[139.39295,35.74558],[139.39293,35.74558]]]}},{"type":"Feature","properties":{"name":"学園二丁目","setai":375,"jinko":1095,"key":"13223004002","units":1},"geometry":{"type":"Polygon","coordinates":[[[139.39781,35.7457],[139.39709,35.7456],[139.39695,35.74619],[139.39684,35.74682],[139.39669,35.74758],[139.39676,35.74762],[139.39689,35.74783],[139.39708,35.74808],[139.39711,35.74815],[139.39721,35.74832],[139.39722,35.74867],[139.39728,35.74901],[139.39733,35.74926],[139.39877,35.74913],[139.40075,35.74897],[139.40133,35.74892],[139.40315,35.74878],[139.40328,35.74877],[139.40323,35.74858],[139.40323,35.74854],[139.4032,35.74843],[139.40333,35.74791],[139.40339,35.7476],[139.40349,35.74719],[139.40356,35.74686],[139.40363,35.74658],[139.4028,35.74645],[139.40207,35.74635],[139.40128,35.74623],[139.40056,35.74612],[139.39921,35.74592],[139.39833,35.74578],[139.39781,35.7457]]]}},{"type":"Feature","properties":{"name":"学園三丁目","setai":671,"jinko":1461,"key":"13223004003","units":1},"geometry":{"type":"Polygon","coordinates":[[[139.40473,35.74148],[139.4047,35.74143],[139.40352,35.74171],[139.40363,35.74222],[139.40358,35.74255],[139.4035,35.74311],[139.40343,35.74346],[139.40331,35.744],[139.40328,35.74407],[139.40321,35.74436],[139.40418,35.7445],[139.40409,35.74485],[139.40397,35.74532],[139.40367,35.74652],[139.40364,35.74656],[139.40363,35.74658],[139.40356,35.74686],[139.40349,35.74719],[139.40339,35.7476],[139.40333,35.74791],[139.4032,35.74843],[139.40323,35.74854],[139.40323,35.74858],[139.40328,35.74877],[139.40572,35.74861],[139.40574,35.74861],[139.40712,35.74851],[139.4073,35.74849],[139.40721,35.74825],[139.40704,35.74775],[139.40692,35.74743],[139.40669,35.7468],[139.40664,35.74666],[139.40644,35.74608],[139.40626,35.74559],[139.40615,35.74529],[139.40604,35.74498],[139.40603,35.74496],[139.40594,35.74471],[139.40584,35.74445],[139.40583,35.74442],[139.40574,35.74419],[139.40566,35.74396],[139.40558,35.74375],[139.40554,35.74365],[139.4055,35.74353],[139.40542,35.74334],[139.40535,35.74314],[139.40519,35.74274],[139.40512,35.74255],[139.40504,35.74233],[139.40489,35.74192],[139.40486,35.74183],[139.40473,35.74148]]]}},{"type":"Feature","properties":{"name":"学園四丁目","setai":614,"jinko":1705,"key":"13223004004","units":1},"geometry":{"type":"Polygon","coordinates":[[[139.40363,35.74222],[139.40352,35.74171],[139.40333,35.74175],[139.40231,35.74199],[139.40211,35.74204],[139.40189,35.74208],[139.40175,35.74212],[139.4014,35.74219],[139.4013,35.74222],[139.4012,35.74224],[139.4008,35.74229],[139.40029,35.74235],[139.39998,35.74238],[139.39918,35.74245],[139.39861,35.74251],[139.39779,35.74257],[139.39779,35.74258],[139.39778,35.74263],[139.39757,35.74353],[139.39739,35.74432],[139.39725,35.74492],[139.39717,35.74527],[139.39711,35.7455],[139.39709,35.7456],[139.39781,35.7457],[139.39833,35.74578],[139.39921,35.74592],[139.40056,35.74612],[139.40128,35.74623],[139.40207,35.74635],[139.4028,35.74645],[139.40363,35.74658],[139.40364,35.74656],[139.40367,35.74652],[139.40397,35.74532],[139.40409,35.74485],[139.40418,35.7445],[139.40321,35.74436],[139.40328,35.74407],[139.40331,35.744],[139.40343,35.74346],[139.4035,35.74311],[139.40358,35.74255],[139.40363,35.74222]]]}},{"type":"Feature","properties":{"name":"学園五丁目","setai":217,"jinko":497,"key":"13223004005","units":1},"geometry":{"type":"Polygon","coordinates":[[[139.39779,35.74257],[139.3978,35.74256],[139.39714,35.74262],[139.39537,35.74279],[139.39423,35.7429],[139.39248,35.74307],[139.39245,35.74313],[139.39206,35.74414],[139.39173,35.74496],[139.39164,35.7452],[139.39163,35.74524],[139.39157,35.74537],[139.39293,35.74558],[139.39295,35.74558],[139.39385,35.74572],[139.39587,35.74602],[139.39629,35.74609],[139.39695,35.74619],[139.39709,35.7456],[139.39711,35.7455],[139.39717,35.74527],[139.39725,35.74492],[139.39739,35.74432],[139.39757,35.74353],[139.39778,35.74263],[139.39779,35.74258],[139.39779,35.74257]]]}},{"type":"Feature","properties":{"name":"榎一丁目","setai":11,"jinko":81,"key":"13223005001","units":1},"geometry":{"type":"Polygon","coordinates":[[[139.39022,35.74655],[139.39048,35.74652],[139.39079,35.74654],[139.38966,35.74532],[139.38929,35.74492],[139.38919,35.7448],[139.3889,35.74413],[139.38863,35.74351],[139.38861,35.74347],[139.38858,35.74334],[139.38859,35.74319],[139.38885,35.74199],[139.38896,35.74147],[139.38888,35.74099],[139.38886,35.74085],[139.38943,35.74084],[139.39015,35.74081],[139.39088,35.74079],[139.39154,35.74078],[139.39356,35.74071],[139.39368,35.74044],[139.39392,35.73998],[139.39405,35.73968],[139.39414,35.73953],[139.3942,35.73935],[139.39431,35.73909],[139.39449,35.73873],[139.39469,35.73831],[139.39499,35.73768],[139.39525,35.73717],[139.39529,35.73708],[139.3954,35.73686],[139.39574,35.73613],[139.39575,35.73611],[139.39584,35.73594],[139.39596,35.7356],[139.39609,35.73528],[139.39611,35.73523],[139.39629,35.73478],[139.39642,35.7345],[139.3966,35.73428],[139.39666,35.73422],[139.39661,35.7342],[139.39643,35.73413],[139.39627,35.73409],[139.39613,35.73407],[139.39598,35.73397],[139.39574,35.73377],[139.39561,35.73382],[139.3954,35.73389],[139.39475,35.73417],[139.39475,35.73422],[139.3946,35.73423],[139.39413,35.7344],[139.39383,35.73462],[139.39361,35.73479],[139.39297,35.73525],[139.39201,35.73602],[139.39102,35.73687],[139.39089,35.73702],[139.39079,35.73714],[139.39059,35.73726],[139.38903,35.7385],[139.38908,35.73855],[139.38868,35.73877],[139.38843,35.73894],[139.38814,35.73925],[139.38807,35.73934],[139.38802,35.73947],[139.38754,35.73931],[139.38726,35.73984],[139.38692,35.74044],[139.38661,35.74099],[139.38635,35.74146],[139.38616,35.74169],[139.38607,35.74177],[139.38587,35.74182],[139.38594,35.74192],[139.38587,35.74199],[139.38555,35.7424],[139.3854,35.7426],[139.38517,35.74298],[139.38491,35.74281],[139.38468,35.74275],[139.38414,35.74338],[139.38378,35.7437],[139.38323,35.74416],[139.38365,35.74465],[139.38302,35.74533],[139.38298,35.74433],[139.38303,35.7442],[139.38311,35.74406],[139.38316,35.74386],[139.38316,35.7429],[139.38344,35.74311],[139.38351,35.74313],[139.38352,35.74292],[139.38396,35.74246],[139.3841,35.74229],[139.38421,35.74199],[139.38428,35.74185],[139.38435,35.74176],[139.38443,35.74169],[139.38473,35.74156],[139.38512,35.74111],[139.38499,35.74098],[139.3849,35.74088],[139.38477,35.74071],[139.3844,35.7402],[139.38513,35.73952],[139.38515,35.73947],[139.38522,35.73908],[139.38526,35.7389],[139.38525,35.73883],[139.385,35.7379],[139.38551,35.73766],[139.38543,35.73736],[139.38566,35.73726],[139.38582,35.73751],[139.38634,35.73725],[139.38658,35.73752],[139.38714,35.73698],[139.38725,35.73683],[139.38735,35.73662],[139.38756,35.73626],[139.38762,35.73623],[139.38841,35.73592],[139.38865,35.7358],[139.38923,35.73547],[139.38952,35.73577],[139.3897,35.7352],[139.38974,35.73513],[139.39021,35.73479],[139.39047,35.73458],[139.39062,35.73442],[139.39078,35.73452],[139.39114,35.73414],[139.39134,35.7339],[139.39134,35.73382],[139.39131,35.73375],[139.3912,35.73358],[139.38986,35.73356],[139.38926,35.73413],[139.3886,35.73378],[139.38823,35.73406],[139.38797,35.73424],[139.38763,35.73442],[139.38731,35.73456],[139.3868,35.73474],[139.38659,35.73479],[139.38645,35.73482],[139.38632,35.73482],[139.38618,35.73474],[139.38478,35.73553],[139.38455,35.73562],[139.38364,35.73579],[139.38342,35.73539],[139.38493,35.73415],[139.38351,35.73343],[139.38319,35.7337],[139.38307,35.73377],[139.38307,35.73577],[139.38305,35.73579],[139.38293,35.73637],[139.38293,35.73669],[139.3829,35.73796],[139.38286,35.7394],[139.38286,35.73942],[139.38286,35.74097],[139.38285,35.74136],[139.38284,35.74201],[139.38282,35.74201],[139.38283,35.74598],[139.38283,35.74611],[139.3828,35.74783],[139.3828,35.7482],[139.3837,35.74844],[139.38382,35.74846],[139.3854,35.74845],[139.38559,35.74839],[139.38655,35.74776],[139.38713,35.74758],[139.38868,35.74703],[139.38906,35.74691],[139.38938,35.7468],[139.38956,35.74676],[139.39022,35.74655]]]}},{"type":"Feature","properties":{"name":"榎二丁目","setai":713,"jinko":1566,"key":"13223005002","units":1},"geometry":{"type":"Polygon","coordinates":[[[139.39342,35.74101],[139.39356,35.74071],[139.39154,35.74078],[139.39088,35.74079],[139.39015,35.74081],[139.38943,35.74084],[139.38886,35.74085],[139.38888,35.74099],[139.38896,35.74147],[139.38885,35.74199],[139.38859,35.74319],[139.38858,35.74334],[139.38861,35.74347],[139.38863,35.74351],[139.3889,35.74413],[139.38919,35.7448],[139.38929,35.74492],[139.38966,35.74532],[139.39079,35.74654],[139.39097,35.74673],[139.39118,35.74625],[139.39157,35.74537],[139.39163,35.74524],[139.39164,35.7452],[139.39173,35.74496],[139.39206,35.74414],[139.39245,35.74313],[139.39248,35.74307],[139.39276,35.7424],[139.39276,35.74239],[139.39288,35.74212],[139.39309,35.74168],[139.39329,35.74129],[139.3933,35.74126],[139.39342,35.74101]]]}},{"type":"Feature","properties":{"name":"榎三丁目","setai":462,"jinko":950,"key":"13223005003","units":1},"geometry":{"type":"Polygon","coordinates":[[[139.38968,35.74938],[139.39022,35.74833],[139.39097,35.74673],[139.39079,35.74654],[139.39048,35.74652],[139.39022,35.74655],[139.38956,35.74676],[139.38938,35.7468],[139.38906,35.74691],[139.38868,35.74703],[139.38713,35.74758],[139.38655,35.74776],[139.38559,35.74839],[139.3854,35.74845],[139.38382,35.74846],[139.3837,35.74844],[139.3828,35.7482],[139.38281,35.749],[139.38286,35.75019],[139.38295,35.75056],[139.38307,35.75093],[139.38318,35.75125],[139.38369,35.75224],[139.38511,35.7519],[139.38521,35.75187],[139.38741,35.75132],[139.38881,35.75099],[139.38899,35.75067],[139.38968,35.74938]]]}},{"type":"Feature","properties":{"name":"伊奈平一丁目","setai":173,"jinko":341,"key":"13223006001","units":1},"geometry":{"type":"Polygon","coordinates":[[[139.38053,35.74681],[139.38062,35.74673],[139.38076,35.74674],[139.38083,35.74675],[139.38126,35.7466],[139.38283,35.74611],[139.38283,35.74598],[139.38282,35.74201],[139.38178,35.74211],[139.38127,35.74216],[139.38075,35.7422],[139.38011,35.74225],[139.37929,35.74229],[139.37823,35.74234],[139.37755,35.74237],[139.37555,35.74245],[139.37555,35.74246],[139.37542,35.74282],[139.37503,35.74394],[139.37475,35.74471],[139.37539,35.74461],[139.37587,35.74452],[139.37688,35.74426],[139.37719,35.74494],[139.37734,35.74547],[139.37746,35.74666],[139.37747,35.74669],[139.37761,35.74744],[139.37766,35.74765],[139.37864,35.74738],[139.38053,35.74681]]]}},{"type":"Feature","properties":{"name":"伊奈平二丁目","setai":137,"jinko":321,"key":"13223006002","units":1},"geometry":{"type":"Polygon","coordinates":[[[139.38293,35.73637],[139.38305,35.73579],[139.38293,35.73588],[139.38142,35.73713],[139.38021,35.73733],[139.37715,35.73783],[139.37653,35.73948],[139.37618,35.74043],[139.37617,35.74046],[139.37601,35.74095],[139.37575,35.74174],[139.37552,35.74244],[139.37555,35.74246],[139.37555,35.74245],[139.37755,35.74237],[139.37823,35.74234],[139.37929,35.74229],[139.38011,35.74225],[139.38075,35.7422],[139.38127,35.74216],[139.38178,35.74211],[139.38282,35.74201],[139.38284,35.74201],[139.38285,35.74136],[139.38286,35.74097],[139.38286,35.73942],[139.38286,35.7394],[139.3829,35.73796],[139.38293,35.73669],[139.38293,35.73637]]]}},{"type":"Feature","properties":{"name":"伊奈平三丁目","setai":137,"jinko":321,"key":"13223006003","units":1},"geometry":{"type":"Polygon","coordinates":[[[139.38307,35.73577],[139.38307,35.73377],[139.38256,35.7342],[139.38154,35.73506],[139.38062,35.73453],[139.38052,35.73447],[139.37904,35.73362],[139.37887,35.73352],[139.37875,35.73345],[139.37875,35.73351],[139.3783,35.73468],[139.37821,35.73491],[139.37814,35.73494],[139.378,35.73533],[139.37789,35.73568],[139.37767,35.73633],[139.37745,35.73697],[139.37715,35.73783],[139.38021,35.73733],[139.38142,35.73713],[139.38293,35.73588],[139.38305,35.73579],[139.38307,35.73577]]]}},{"type":"Feature","properties":{"name":"伊奈平四丁目","setai":336,"jinko":872,"key":"13223006004","units":1},"geometry":{"type":"Polygon","coordinates":[[[139.37704,35.73781],[139.37715,35.7378],[139.37715,35.73783],[139.37745,35.73697],[139.37767,35.73633],[139.37789,35.73568],[139.378,35.73533],[139.37814,35.73494],[139.37768,35.73512],[139.37667,35.73553],[139.37649,35.7356],[139.37475,35.73627],[139.37391,35.73659],[139.37375,35.73664],[139.37364,35.73666],[139.37258,35.73684],[139.37208,35.73692],[139.37181,35.73693],[139.37136,35.73702],[139.37092,35.73709],[139.3708,35.73712],[139.37072,35.73714],[139.37065,35.73717],[139.37016,35.73733],[139.3697,35.73645],[139.36954,35.7362],[139.36928,35.73588],[139.3688,35.73621],[139.36879,35.7362],[139.36879,35.73621],[139.36879,35.73622],[139.36891,35.7364],[139.36915,35.73671],[139.36933,35.73696],[139.36955,35.73743],[139.36962,35.7377],[139.36972,35.73818],[139.36984,35.73846],[139.36993,35.7386],[139.37012,35.73885],[139.37033,35.73916],[139.37091,35.73904],[139.37386,35.73847],[139.37492,35.73825],[139.37513,35.7382],[139.37595,35.73803],[139.37704,35.73781]]]}},{"type":"Feature","properties":{"name":"伊奈平五丁目","setai":690,"jinko":1754,"key":"13223006005","units":1},"geometry":{"type":"Polygon","coordinates":[[[139.36906,35.74255],[139.36984,35.74255],[139.37112,35.74256],[139.37136,35.74257],[139.37198,35.74254],[139.37249,35.74253],[139.3725,35.74253],[139.37298,35.74251],[139.3741,35.74248],[139.37411,35.74248],[139.37488,35.74245],[139.37552,35.74244],[139.37575,35.74174],[139.37601,35.74095],[139.37617,35.74046],[139.37618,35.74043],[139.37653,35.73948],[139.37715,35.73783],[139.37715,35.7378],[139.37704,35.73781],[139.37595,35.73803],[139.37513,35.7382],[139.37492,35.73825],[139.37386,35.73847],[139.37091,35.73904],[139.37033,35.73916],[139.3706,35.73956],[139.37084,35.73987],[139.37093,35.74059],[139.37096,35.74084],[139.37102,35.741],[139.37102,35.74118],[139.37099,35.74122],[139.37065,35.74122],[139.37047,35.74142],[139.37044,35.74148],[139.3697,35.74195],[139.36946,35.74211],[139.36904,35.74237],[139.36899,35.74249],[139.36903,35.74257],[139.36906,35.74255]]]}},{"type":"Feature","properties":{"name":"伊奈平六丁目","setai":529,"jinko":1287,"key":"13223006006","units":1},"geometry":{"type":"Polygon","coordinates":[[[139.37277,35.74491],[139.37274,35.74459],[139.37323,35.74449],[139.37356,35.74454],[139.37412,35.74464],[139.37418,35.74465],[139.37461,35.74473],[139.37475,35.74471],[139.37475,35.74471],[139.37503,35.74394],[139.37542,35.74282],[139.37555,35.74246],[139.37552,35.74244],[139.37488,35.74245],[139.37411,35.74248],[139.3741,35.74248],[139.37298,35.74251],[139.3725,35.74253],[139.37249,35.74253],[139.37198,35.74254],[139.37136,35.74257],[139.37112,35.74256],[139.36984,35.74255],[139.36906,35.74255],[139.36903,35.74257],[139.36905,35.74272],[139.36922,35.74323],[139.36933,35.74349],[139.36947,35.74401],[139.36946,35.74483],[139.3695,35.7449],[139.36962,35.74516],[139.37033,35.74501],[139.37063,35.74496],[139.37132,35.74483],[139.37134,35.74481],[139.37196,35.74466],[139.3722,35.74547],[139.37224,35.74562],[139.37277,35.74491]]]}},{"type":"Feature","properties":{"name":"残堀一丁目","setai":391,"jinko":979,"key":"13223007001","units":1},"geometry":{"type":"Polygon","coordinates":[[[139.37577,35.74958],[139.37591,35.74951],[139.37605,35.74951],[139.37638,35.74934],[139.37667,35.74919],[139.3776,35.74869],[139.37784,35.74855],[139.37784,35.74853],[139.37779,35.74826],[139.37765,35.74765],[139.37766,35.74765],[139.37761,35.74744],[139.37747,35.74669],[139.37746,35.74666],[139.37734,35.74547],[139.37719,35.74494],[139.37688,35.74426],[139.37587,35.74452],[139.37539,35.74461],[139.37475,35.74471],[139.37475,35.74471],[139.37457,35.74522],[139.37448,35.74549],[139.37402,35.74682],[139.37389,35.74715],[139.37377,35.74755],[139.37369,35.74791],[139.37366,35.74809],[139.37362,35.74884],[139.37357,35.74886],[139.37357,35.74891],[139.37361,35.74942],[139.37375,35.75025],[139.37378,35.75037],[139.37399,35.75135],[139.37423,35.75094],[139.37444,35.75062],[139.37463,35.75041],[139.37485,35.75022],[139.37534,35.74991],[139.37543,35.74974],[139.37556,35.74964],[139.37567,35.7496],[139.37577,35.74958]]]}},{"type":"Feature","properties":{"name":"残堀二丁目","setai":437,"jinko":1034,"key":"13223007002","units":1},"geometry":{"type":"Polygon","coordinates":[[[139.37097,35.7499],[139.37102,35.74989],[139.3711,35.7499],[139.37222,35.74945],[139.37224,35.74944],[139.37256,35.7493],[139.37315,35.74908],[139.3732,35.74908],[139.37357,35.74891],[139.37357,35.74886],[139.37362,35.74884],[139.37366,35.74809],[139.37369,35.74791],[139.37377,35.74755],[139.37389,35.74715],[139.37402,35.74682],[139.37448,35.74549],[139.37457,35.74522],[139.37475,35.74471],[139.37461,35.74473],[139.37418,35.74465],[139.37412,35.74464],[139.37356,35.74454],[139.37323,35.74449],[139.37274,35.74459],[139.37277,35.74491],[139.37224,35.74562],[139.3722,35.74547],[139.37196,35.74466],[139.37134,35.74481],[139.37132,35.74483],[139.37063,35.74496],[139.37033,35.74501],[139.36962,35.74516],[139.36979,35.74549],[139.36972,35.74565],[139.36974,35.74569],[139.37017,35.74639],[139.37028,35.74656],[139.37052,35.74694],[139.37095,35.74763],[139.37127,35.74815],[139.37113,35.74895],[139.37097,35.7499]]]}},{"type":"Feature","properties":{"name":"残堀三丁目","setai":0,"jinko":0,"key":"13223007003","units":1},"geometry":{"type":"Polygon","coordinates":[[[139.3661,35.74923],[139.36614,35.74874],[139.36627,35.74874],[139.36641,35.7486],[139.36631,35.74849],[139.36685,35.7482],[139.36679,35.74814],[139.36724,35.74758],[139.36741,35.74707],[139.36748,35.74701],[139.36776,35.74677],[139.36775,35.74672],[139.36797,35.74666],[139.36753,35.74664],[139.36708,35.74646],[139.36687,35.74634],[139.36687,35.7463],[139.36659,35.74608],[139.366,35.74551],[139.36576,35.74506],[139.36555,35.7451],[139.36536,35.74492],[139.36538,35.7448],[139.36549,35.74474],[139.3653,35.74423],[139.36522,35.74338],[139.36506,35.74336],[139.36497,35.74334],[139.3649,35.74324],[139.36492,35.74315],[139.36496,35.7431],[139.3652,35.74303],[139.36517,35.74271],[139.36366,35.7427],[139.36193,35.7427],[139.36245,35.74745],[139.36249,35.74781],[139.36257,35.74787],[139.3638,35.74817],[139.36505,35.74875],[139.36589,35.74913],[139.3661,35.74923]]]}},{"type":"Feature","properties":{"name":"残堀四丁目","setai":701,"jinko":1697,"key":"13223007004","units":1},"geometry":{"type":"Polygon","coordinates":[[[139.36692,35.75159],[139.3679,35.75118],[139.36793,35.75117],[139.36842,35.75096],[139.36955,35.7505],[139.37056,35.75011],[139.37101,35.74992],[139.37102,35.74989],[139.37097,35.7499],[139.37113,35.74895],[139.37127,35.74815],[139.37095,35.74763],[139.37052,35.74694],[139.37028,35.74656],[139.37017,35.74639],[139.36974,35.74569],[139.36947,35.74603],[139.36894,35.74641],[139.36849,35.74657],[139.36797,35.74666],[139.36775,35.74672],[139.36776,35.74677],[139.36748,35.74701],[139.36741,35.74707],[139.36724,35.74758],[139.36679,35.74814],[139.36685,35.7482],[139.36631,35.74849],[139.36641,35.7486],[139.36627,35.74874],[139.36614,35.74874],[139.3661,35.74923],[139.36589,35.74913],[139.36505,35.74875],[139.3638,35.74817],[139.36257,35.74787],[139.3625,35.74798],[139.36256,35.74823],[139.36267,35.74865],[139.36288,35.7493],[139.36292,35.74941],[139.36294,35.74983],[139.36305,35.75037],[139.36307,35.75046],[139.36302,35.75088],[139.36299,35.75115],[139.36301,35.75125],[139.36304,35.75141],[139.36367,35.75144],[139.36362,35.75169],[139.36431,35.75183],[139.36434,35.75162],[139.36438,35.75145],[139.36486,35.75243],[139.36489,35.75244],[139.36561,35.75214],[139.36692,35.75159]]]}},{"type":"Feature","properties":{"name":"残堀五丁目","setai":775,"jinko":2084,"key":"13223007005","units":1},"geometry":{"type":"Polygon","coordinates":[[[139.37375,35.75025],[139.37361,35.74942],[139.37357,35.74891],[139.3732,35.74908],[139.37315,35.74908],[139.37256,35.7493],[139.37224,35.74944],[139.37222,35.74945],[139.3711,35.7499],[139.37102,35.74989],[139.37101,35.74992],[139.37056,35.75011],[139.36955,35.7505],[139.36842,35.75096],[139.36793,35.75117],[139.3679,35.75118],[139.36692,35.75159],[139.36561,35.75214],[139.36489,35.75244],[139.3649,35.75247],[139.36528,35.75315],[139.36565,35.75379],[139.3658,35.75405],[139.36581,35.75406],[139.36586,35.75415],[139.36621,35.75476],[139.36646,35.75521],[139.36646,35.75521],[139.36671,35.75565],[139.36711,35.75636],[139.36743,35.75692],[139.36775,35.75662],[139.36795,35.75632],[139.36812,35.75614],[139.36813,35.75612],[139.3685,35.7557],[139.36896,35.75501],[139.36915,35.75485],[139.36923,35.75479],[139.36985,35.75466],[139.37008,35.7546],[139.3702,35.75451],[139.37044,35.75424],[139.37076,35.75401],[139.37106,35.75378],[139.37142,35.75336],[139.37164,35.7532],[139.37208,35.75299],[139.37232,35.75288],[139.37271,35.75271],[139.37307,35.75258],[139.37335,35.7524],[139.37372,35.752],[139.37391,35.7517],[139.37402,35.75153],[139.37399,35.75135],[139.37378,35.75037],[139.37375,35.75025]]]}},{"type":"Feature","properties":{"name":"三ツ藤一丁目","setai":1053,"jinko":2704,"key":"13223008001","units":1},"geometry":{"type":"Polygon","coordinates":[[[139.38034,35.75304],[139.3811,35.75286],[139.38296,35.75241],[139.383,35.7524],[139.38361,35.75226],[139.38369,35.75224],[139.38318,35.75125],[139.38307,35.75093],[139.38295,35.75056],[139.38286,35.75019],[139.38281,35.749],[139.3828,35.7482],[139.3828,35.74783],[139.38283,35.74611],[139.38126,35.7466],[139.38083,35.74675],[139.38076,35.74674],[139.38062,35.74673],[139.38053,35.74681],[139.37864,35.74738],[139.37766,35.74765],[139.37765,35.74765],[139.37779,35.74826],[139.37784,35.74853],[139.37784,35.74855],[139.37786,35.74863],[139.37788,35.74877],[139.37781,35.74889],[139.37756,35.74905],[139.37754,35.74906],[139.37698,35.74992],[139.37692,35.75014],[139.37691,35.75057],[139.37692,35.75076],[139.37698,35.7509],[139.37704,35.75098],[139.37719,35.75123],[139.37725,35.75139],[139.3773,35.75149],[139.37734,35.75175],[139.37739,35.75214],[139.37752,35.75286],[139.37743,35.75299],[139.3776,35.75298],[139.37767,35.7534],[139.37778,35.75366],[139.3785,35.75349],[139.3795,35.75324],[139.38034,35.75304]]]}},{"type":"Feature","properties":{"name":"三ツ藤二丁目","setai":341,"jinko":872,"key":"13223008002","units":1},"geometry":{"type":"Polygon","coordinates":[[[139.37767,35.7534],[139.3776,35.75298],[139.37743,35.75299],[139.37752,35.75286],[139.37739,35.75214],[139.37734,35.75175],[139.3773,35.75149],[139.37725,35.75139],[139.37719,35.75123],[139.37704,35.75098],[139.37698,35.7509],[139.37692,35.75076],[139.37691,35.75057],[139.37692,35.75014],[139.37698,35.74992],[139.37754,35.74906],[139.37756,35.74905],[139.37781,35.74889],[139.37788,35.74877],[139.37786,35.74863],[139.37784,35.74855],[139.3776,35.74869],[139.37667,35.74919],[139.37638,35.74934],[139.37605,35.74951],[139.37591,35.74951],[139.37577,35.74958],[139.37567,35.7496],[139.37556,35.74964],[139.37543,35.74974],[139.37534,35.74991],[139.37485,35.75022],[139.37463,35.75041],[139.37444,35.75062],[139.37423,35.75094],[139.37399,35.75135],[139.37402,35.75153],[139.37404,35.75162],[139.37405,35.75167],[139.37418,35.75222],[139.37427,35.7525],[139.37464,35.75331],[139.37467,35.75337],[139.37471,35.75344],[139.3747,35.75352],[139.37512,35.75436],[139.3753,35.7547],[139.3759,35.7544],[139.37755,35.75372],[139.37778,35.75366],[139.37767,35.7534]]]}},{"type":"Feature","properties":{"name":"三ツ藤三丁目","setai":505,"jinko":1340,"key":"13223008003","units":1},"geometry":{"type":"Polygon","coordinates":[[[139.36819,35.75826],[139.37013,35.75729],[139.37017,35.7573],[139.37019,35.75726],[139.37058,35.75706],[139.37102,35.75686],[139.37145,35.75665],[139.37152,35.75658],[139.37263,35.75601],[139.37343,35.75562],[139.37376,35.75549],[139.3753,35.7547],[139.37512,35.75436],[139.3747,35.75352],[139.37471,35.75344],[139.37467,35.75337],[139.37464,35.75331],[139.37427,35.7525],[139.37418,35.75222],[139.37405,35.75167],[139.37404,35.75162],[139.37402,35.75153],[139.37391,35.7517],[139.37372,35.752],[139.37335,35.7524],[139.37307,35.75258],[139.37271,35.75271],[139.37232,35.75288],[139.37208,35.75299],[139.37164,35.7532],[139.37142,35.75336],[139.37106,35.75378],[139.37076,35.75401],[139.37044,35.75424],[139.3702,35.75451],[139.37008,35.7546],[139.36985,35.75466],[139.36923,35.75479],[139.36915,35.75485],[139.36896,35.75501],[139.3685,35.7557],[139.36813,35.75612],[139.36812,35.75614],[139.36795,35.75632],[139.36775,35.75662],[139.36743,35.75692],[139.36745,35.75696],[139.36777,35.75753],[139.36802,35.75799],[139.36816,35.75826],[139.36818,35.75827],[139.36819,35.75826]]]}},{"type":"Feature","properties":{"name":"神明一丁目","setai":276,"jinko":619,"key":"13223009001","units":1},"geometry":{"type":"Polygon","coordinates":[[[139.40152,35.75276],[139.40155,35.75198],[139.40151,35.75197],[139.40134,35.75205],[139.40111,35.75209],[139.4008,35.75208],[139.40061,35.75202],[139.40089,35.75082],[139.40099,35.75042],[139.40117,35.74958],[139.40133,35.74892],[139.40075,35.74897],[139.39877,35.74913],[139.39733,35.74926],[139.39735,35.7493],[139.39756,35.7498],[139.3977,35.75012],[139.39785,35.75048],[139.39848,35.75202],[139.3989,35.75302],[139.39891,35.75304],[139.39934,35.75406],[139.39932,35.75407],[139.39935,35.75411],[139.39938,35.75407],[139.40026,35.75388],[139.40026,35.75385],[139.40073,35.7535],[139.40084,35.75333],[139.40101,35.75297],[139.40152,35.75276]]]}},{"type":"Feature","properties":{"name":"神明二丁目","setai":526,"jinko":1351,"key":"13223009002","units":1},"geometry":{"type":"Polygon","coordinates":[[[139.40443,35.75688],[139.40482,35.75672],[139.40506,35.75664],[139.40548,35.75656],[139.40553,35.75655],[139.40553,35.75655],[139.40589,35.75647],[139.40593,35.75646],[139.40609,35.75642],[139.40656,35.75637],[139.40685,35.75634],[139.40686,35.75633],[139.40689,35.75608],[139.40691,35.75606],[139.40715,35.75603],[139.40729,35.75603],[139.40751,35.75606],[139.40775,35.75617],[139.40791,35.75608],[139.40802,35.75604],[139.40798,35.75599],[139.40799,35.75581],[139.40806,35.7557],[139.40831,35.75542],[139.40842,35.75528],[139.40857,35.75507],[139.40846,35.75496],[139.40821,35.75479],[139.40789,35.75466],[139.40767,35.75461],[139.40729,35.75459],[139.40665,35.7546],[139.40637,35.75456],[139.40585,35.75443],[139.40555,35.75433],[139.40542,35.75432],[139.40506,35.75432],[139.40483,35.75432],[139.40441,35.75433],[139.40363,35.75431],[139.40365,35.75418],[139.40362,35.75403],[139.40356,35.75394],[139.40426,35.75308],[139.40415,35.75308],[139.40397,35.75311],[139.40361,35.75319],[139.40174,35.75358],[139.40159,35.75361],[139.40026,35.75388],[139.39938,35.75407],[139.39935,35.75411],[139.39942,35.75416],[139.39965,35.75457],[139.39991,35.75505],[139.40022,35.75558],[139.40041,35.75596],[139.40042,35.75598],[139.40059,35.75632],[139.40122,35.7563],[139.40127,35.75633],[139.4013,35.75637],[139.40137,35.7564],[139.40167,35.75636],[139.40207,35.75641],[139.40238,35.7564],[139.40257,35.75639],[139.40267,35.75645],[139.40274,35.75655],[139.40296,35.75669],[139.40335,35.75678],[139.40379,35.75685],[139.40405,35.75685],[139.40425,35.75681],[139.40441,35.75677],[139.40443,35.75688]]]}},{"type":"Feature","properties":{"name":"神明三丁目","setai":430,"jinko":1070,"key":"13223009003","units":1},"geometry":{"type":"Polygon","coordinates":[[[139.40866,35.75483],[139.40829,35.75446],[139.40828,35.75445],[139.40799,35.75429],[139.40783,35.7541],[139.40768,35.75375],[139.40746,35.75337],[139.40733,35.75313],[139.40723,35.75284],[139.40721,35.75263],[139.40725,35.75235],[139.40724,35.7522],[139.40724,35.75207],[139.40723,35.75187],[139.40723,35.75169],[139.40708,35.75129],[139.40706,35.75113],[139.4071,35.75102],[139.40715,35.75079],[139.40715,35.75065],[139.40718,35.75036],[139.40727,35.75019],[139.40726,35.74994],[139.4073,35.74949],[139.40729,35.74934],[139.40728,35.74923],[139.40717,35.74875],[139.40712,35.74851],[139.40574,35.74861],[139.40572,35.74887],[139.40565,35.74916],[139.40557,35.74939],[139.40537,35.74977],[139.40526,35.74994],[139.40519,35.75005],[139.40476,35.75061],[139.40467,35.75078],[139.40451,35.75108],[139.40443,35.75134],[139.40434,35.75163],[139.40431,35.75172],[139.4043,35.75185],[139.40433,35.7522],[139.40433,35.7523],[139.40434,35.75261],[139.40433,35.75293],[139.40427,35.75307],[139.40426,35.75308],[139.40356,35.75394],[139.40362,35.75403],[139.40365,35.75418],[139.40363,35.75431],[139.40441,35.75433],[139.40483,35.75432],[139.40506,35.75432],[139.40542,35.75432],[139.40555,35.75433],[139.40585,35.75443],[139.40637,35.75456],[139.40665,35.7546],[139.40729,35.75459],[139.40767,35.75461],[139.40789,35.75466],[139.40821,35.75479],[139.40846,35.75496],[139.40857,35.75507],[139.40868,35.75492],[139.4087,35.75485],[139.40866,35.75483]]]}},{"type":"Feature","properties":{"name":"神明四丁目","setai":415,"jinko":987,"key":"13223009004","units":1},"geometry":{"type":"Polygon","coordinates":[[[139.40433,35.7522],[139.4043,35.75185],[139.40431,35.75172],[139.40434,35.75163],[139.40443,35.75134],[139.40451,35.75108],[139.40467,35.75078],[139.40476,35.75061],[139.40519,35.75005],[139.40526,35.74994],[139.40537,35.74977],[139.40557,35.74939],[139.40565,35.74916],[139.40572,35.74887],[139.40574,35.74861],[139.40572,35.74861],[139.40328,35.74877],[139.40315,35.74878],[139.40133,35.74892],[139.40117,35.74958],[139.40099,35.75042],[139.40089,35.75082],[139.40061,35.75202],[139.4008,35.75208],[139.40111,35.75209],[139.40134,35.75205],[139.40151,35.75197],[139.40155,35.75198],[139.40152,35.75276],[139.40101,35.75297],[139.40084,35.75333],[139.40073,35.7535],[139.40026,35.75385],[139.40026,35.75388],[139.40159,35.75361],[139.40174,35.75358],[139.40361,35.75319],[139.40397,35.75311],[139.40415,35.75308],[139.40426,35.75308],[139.40427,35.75307],[139.40433,35.75293],[139.40434,35.75261],[139.40433,35.7523],[139.40433,35.7522]]]}},{"type":"Feature","properties":{"name":"中藤一丁目","setai":217,"jinko":563,"key":"13223010001","units":1},"geometry":{"type":"Polygon","coordinates":[[[139.40035,35.75678],[139.4005,35.75671],[139.40079,35.75666],[139.40059,35.75632],[139.40042,35.75598],[139.40041,35.75596],[139.40022,35.75558],[139.39991,35.75505],[139.39965,35.75457],[139.39942,35.75416],[139.39935,35.75411],[139.39932,35.75407],[139.39693,35.75431],[139.3969,35.75431],[139.39697,35.75472],[139.39706,35.75477],[139.39726,35.75475],[139.39728,35.7549],[139.39743,35.75558],[139.39752,35.75605],[139.39754,35.75612],[139.39751,35.75618],[139.39732,35.75622],[139.39702,35.75631],[139.39704,35.75632],[139.39714,35.75669],[139.3968,35.75675],[139.39667,35.75631],[139.39638,35.75639],[139.39634,35.75643],[139.396,35.75658],[139.39617,35.75686],[139.39613,35.75697],[139.39597,35.75703],[139.39529,35.75736],[139.39478,35.75749],[139.39568,35.75767],[139.39626,35.75778],[139.39677,35.75826],[139.39646,35.75847],[139.3967,35.75871],[139.39699,35.75846],[139.39737,35.75823],[139.39756,35.75815],[139.39792,35.75806],[139.39801,35.75796],[139.39814,35.75768],[139.39888,35.75731],[139.39911,35.75724],[139.39951,35.75706],[139.3997,35.75698],[139.40003,35.75689],[139.40035,35.75678]]]}},{"type":"Feature","properties":{"name":"中藤二丁目","setai":50,"jinko":136,"key":"13223010002","units":1},"geometry":{"type":"Polygon","coordinates":[[[139.39496,35.76293],[139.39528,35.76272],[139.39552,35.76274],[139.39565,35.76278],[139.39596,35.76301],[139.39607,35.76304],[139.3966,35.76288],[139.39688,35.76282],[139.39749,35.76252],[139.39774,35.76251],[139.3979,35.76228],[139.39799,35.76212],[139.398,35.76196],[139.39792,35.76178],[139.39767,35.76115],[139.39764,35.76097],[139.39762,35.76077],[139.39762,35.7604],[139.39712,35.76015],[139.39705,35.7601],[139.39708,35.75989],[139.39699,35.75975],[139.39689,35.75946],[139.39683,35.75921],[139.39686,35.75907],[139.39693,35.75897],[139.3967,35.75871],[139.39646,35.75847],[139.39677,35.75826],[139.39626,35.75778],[139.39568,35.75767],[139.39478,35.75749],[139.39362,35.75778],[139.3936,35.75778],[139.39346,35.75795],[139.39349,35.75796],[139.3936,35.75824],[139.3936,35.75836],[139.39354,35.75852],[139.39351,35.7587],[139.39353,35.75892],[139.39353,35.75907],[139.39346,35.75922],[139.39333,35.75933],[139.39331,35.75936],[139.39328,35.75945],[139.39317,35.75967],[139.39313,35.75972],[139.39331,35.7601],[139.39344,35.76027],[139.39358,35.76055],[139.39357,35.76087],[139.39355,35.76123],[139.39354,35.76141],[139.39354,35.76146],[139.39355,35.76159],[139.39372,35.7618],[139.39374,35.76188],[139.39369,35.76213],[139.39363,35.7623],[139.39384,35.76246],[139.39401,35.76264],[139.39412,35.76279],[139.39407,35.76279],[139.39429,35.7629],[139.39475,35.76304],[139.39479,35.76305],[139.3949,35.76303],[139.39496,35.76293]]]}},{"type":"Feature","properties":{"name":"中藤三丁目","setai":179,"jinko":462,"key":"13223010003","units":1},"geometry":{"type":"Polygon","coordinates":[[[139.39843,35.7626],[139.39884,35.7624],[139.39925,35.76218],[139.39947,35.76215],[139.39964,35.76219],[139.39985,35.76221],[139.40008,35.7622],[139.40033,35.76218],[139.40063,35.76207],[139.40091,35.76186],[139.40072,35.76106],[139.40062,35.76061],[139.40053,35.76025],[139.40055,35.76008],[139.40074,35.76004],[139.40103,35.75993],[139.40115,35.75984],[139.40119,35.75976],[139.4013,35.75948],[139.4015,35.75914],[139.40177,35.75873],[139.40206,35.75839],[139.40193,35.75788],[139.40183,35.75786],[139.40151,35.75776],[139.40142,35.75771],[139.40129,35.75759],[139.40103,35.75712],[139.40079,35.75666],[139.4005,35.75671],[139.40035,35.75678],[139.40003,35.75689],[139.3997,35.75698],[139.39951,35.75706],[139.39911,35.75724],[139.39888,35.75731],[139.39814,35.75768],[139.39801,35.75796],[139.39792,35.75806],[139.39756,35.75815],[139.39737,35.75823],[139.39699,35.75846],[139.3967,35.75871],[139.39693,35.75897],[139.39686,35.75907],[139.39683,35.75921],[139.39689,35.75946],[139.39699,35.75975],[139.39708,35.75989],[139.39705,35.7601],[139.39712,35.76015],[139.39762,35.7604],[139.39762,35.76077],[139.39764,35.76097],[139.39767,35.76115],[139.39792,35.76178],[139.398,35.76196],[139.39799,35.76212],[139.3979,35.76228],[139.39774,35.76251],[139.39785,35.76251],[139.39806,35.76263],[139.39828,35.76265],[139.39843,35.7626]]]}},{"type":"Feature","properties":{"name":"中藤四丁目","setai":252,"jinko":617,"key":"13223010004","units":1},"geometry":{"type":"Polygon","coordinates":[[[139.40219,35.76127],[139.40273,35.76121],[139.40286,35.76124],[139.40292,35.76126],[139.40317,35.76132],[139.40348,35.76154],[139.40359,35.76161],[139.40383,35.76184],[139.40463,35.76148],[139.40465,35.76126],[139.40471,35.76114],[139.40488,35.76097],[139.40494,35.76088],[139.40494,35.76061],[139.4049,35.76038],[139.40479,35.76016],[139.40476,35.76008],[139.40476,35.75992],[139.40474,35.7598],[139.40482,35.75969],[139.40499,35.75962],[139.40499,35.75927],[139.40494,35.75896],[139.40491,35.75879],[139.40486,35.75857],[139.40486,35.75826],[139.40488,35.75793],[139.40487,35.75784],[139.40518,35.75783],[139.40559,35.75779],[139.40577,35.75751],[139.4059,35.75734],[139.4059,35.75726],[139.40579,35.7571],[139.40562,35.75679],[139.40553,35.75655],[139.40548,35.75656],[139.40506,35.75664],[139.40482,35.75672],[139.40443,35.75688],[139.40441,35.75677],[139.40425,35.75681],[139.40405,35.75685],[139.40379,35.75685],[139.40335,35.75678],[139.40296,35.75669],[139.40274,35.75655],[139.40267,35.75645],[139.40257,35.75639],[139.40238,35.7564],[139.40207,35.75641],[139.40167,35.75636],[139.40137,35.7564],[139.4013,35.75637],[139.40127,35.75633],[139.40122,35.7563],[139.40059,35.75632],[139.40079,35.75666],[139.40103,35.75712],[139.40129,35.75759],[139.40142,35.75771],[139.40151,35.75776],[139.40183,35.75786],[139.40193,35.75788],[139.40206,35.75839],[139.40177,35.75873],[139.4015,35.75914],[139.4013,35.75948],[139.40119,35.75976],[139.40115,35.75984],[139.40103,35.75993],[139.40074,35.76004],[139.40055,35.76008],[139.40053,35.76025],[139.40062,35.76061],[139.40072,35.76106],[139.40091,35.76186],[139.40136,35.76162],[139.40169,35.76143],[139.40219,35.76127]]]}},{"type":"Feature","properties":{"name":"中藤五丁目","setai":200,"jinko":603,"key":"13223010005","units":1},"geometry":{"type":"Polygon","coordinates":[[[139.40919,35.75622],[139.4091,35.75613],[139.40902,35.75601],[139.40898,35.75594],[139.40896,35.75585],[139.409,35.75576],[139.40906,35.75564],[139.40916,35.75558],[139.40908,35.75532],[139.40892,35.75504],[139.40886,35.75494],[139.4087,35.75485],[139.40868,35.75492],[139.40857,35.75507],[139.40842,35.75528],[139.40831,35.75542],[139.40806,35.7557],[139.40799,35.75581],[139.40798,35.75599],[139.40802,35.75604],[139.40791,35.75608],[139.40775,35.75617],[139.40751,35.75606],[139.40729,35.75603],[139.40715,35.75603],[139.40691,35.75606],[139.40689,35.75608],[139.40686,35.75633],[139.40685,35.75634],[139.40656,35.75637],[139.40609,35.75642],[139.40593,35.75646],[139.40589,35.75647],[139.40553,35.75655],[139.40553,35.75655],[139.40562,35.75679],[139.40579,35.7571],[139.4059,35.75726],[139.4059,35.75734],[139.40577,35.75751],[139.40559,35.75779],[139.40518,35.75783],[139.40487,35.75784],[139.40488,35.75793],[139.40486,35.75826],[139.40486,35.75857],[139.40491,35.75879],[139.40494,35.75896],[139.40499,35.75927],[139.40499,35.75962],[139.40482,35.75969],[139.40474,35.7598],[139.40476,35.75992],[139.40476,35.76008],[139.40479,35.76016],[139.4049,35.76038],[139.40494,35.76061],[139.40494,35.76088],[139.40488,35.76097],[139.40471,35.76114],[139.40465,35.76126],[139.40463,35.76148],[139.40383,35.76184],[139.40389,35.76191],[139.40395,35.76198],[139.40405,35.76209],[139.40416,35.76214],[139.4045,35.76217],[139.40486,35.76226],[139.40507,35.76218],[139.4055,35.76177],[139.40579,35.76154],[139.40617,35.76131],[139.40654,35.76117],[139.40671,35.76113],[139.40705,35.76109],[139.40718,35.76104],[139.40741,35.76096],[139.4076,35.76086],[139.40774,35.76071],[139.40797,35.76048],[139.40821,35.76021],[139.40831,35.76003],[139.40846,35.7597],[139.40868,35.75917],[139.40864,35.75902],[139.4087,35.75902],[139.40909,35.75901],[139.40904,35.75882],[139.40919,35.75855],[139.40924,35.7585],[139.40932,35.75834],[139.40935,35.7579],[139.40947,35.75767],[139.40953,35.75752],[139.40958,35.75732],[139.40969,35.75716],[139.40957,35.7567],[139.40953,35.75658],[139.40943,35.75636],[139.40936,35.75627],[139.40919,35.75622]]]}},{"type":"Feature","properties":{"name":"中央一丁目","setai":404,"jinko":1087,"key":"13223011001","units":1},"geometry":{"type":"Polygon","coordinates":[[[139.39345,35.75353],[139.39329,35.75329],[139.3932,35.75335],[139.3928,35.75265],[139.39267,35.75228],[139.39243,35.7518],[139.39269,35.75148],[139.39239,35.7513],[139.39211,35.75109],[139.39194,35.75087],[139.39174,35.75033],[139.3901,35.75072],[139.38927,35.75092],[139.38899,35.75067],[139.38881,35.75099],[139.3884,35.75176],[139.38813,35.75225],[139.38807,35.7524],[139.38806,35.75249],[139.38805,35.75278],[139.3884,35.75393],[139.38871,35.75493],[139.3887,35.75495],[139.39078,35.75478],[139.39124,35.75475],[139.39226,35.75468],[139.39383,35.75458],[139.39393,35.75424],[139.39376,35.75404],[139.3937,35.75391],[139.39359,35.7537],[139.39345,35.75353]]]}},{"type":"Feature","properties":{"name":"中央二丁目","setai":475,"jinko":1181,"key":"13223011002","units":1},"geometry":{"type":"Polygon","coordinates":[[[139.39934,35.75406],[139.39891,35.75304],[139.3989,35.75302],[139.39848,35.75202],[139.39785,35.75048],[139.3977,35.75012],[139.39756,35.7498],[139.39735,35.7493],[139.39704,35.74933],[139.39574,35.74944],[139.39515,35.74951],[139.39511,35.74952],[139.3942,35.74972],[139.39343,35.7499],[139.39171,35.75031],[139.39174,35.75033],[139.39194,35.75087],[139.39211,35.75109],[139.39239,35.7513],[139.39269,35.75148],[139.39243,35.7518],[139.39267,35.75228],[139.3928,35.75265],[139.3932,35.75335],[139.39329,35.75329],[139.39345,35.75353],[139.39359,35.7537],[139.3937,35.75391],[139.39376,35.75404],[139.39393,35.75424],[139.39383,35.75458],[139.39468,35.75452],[139.39568,35.75442],[139.3969,35.75431],[139.39693,35.75431],[139.39932,35.75407],[139.39934,35.75406]]]}},{"type":"Feature","properties":{"name":"中央三丁目","setai":366,"jinko":850,"key":"13223011003","units":1},"geometry":{"type":"Polygon","coordinates":[[[139.39346,35.75795],[139.3936,35.75778],[139.39362,35.75778],[139.39478,35.75749],[139.39529,35.75736],[139.39597,35.75703],[139.39613,35.75697],[139.39617,35.75686],[139.396,35.75658],[139.39634,35.75643],[139.39638,35.75639],[139.39667,35.75631],[139.3968,35.75675],[139.39714,35.75669],[139.39704,35.75632],[139.39702,35.75631],[139.39732,35.75622],[139.39751,35.75618],[139.39754,35.75612],[139.39752,35.75605],[139.39743,35.75558],[139.39728,35.7549],[139.39726,35.75475],[139.39706,35.75477],[139.39697,35.75472],[139.3969,35.75431],[139.39568,35.75442],[139.39468,35.75452],[139.39383,35.75458],[139.39226,35.75468],[139.39124,35.75475],[139.39078,35.75478],[139.3887,35.75495],[139.38793,35.75518],[139.3882,35.75572],[139.38821,35.75575],[139.38814,35.7558],[139.38842,35.75618],[139.38801,35.75666],[139.38845,35.75716],[139.38891,35.75688],[139.3891,35.75679],[139.38911,35.7568],[139.38963,35.75655],[139.38973,35.75651],[139.38986,35.75649],[139.39018,35.75643],[139.39039,35.75641],[139.39057,35.75637],[139.39058,35.75673],[139.39097,35.75675],[139.39111,35.75679],[139.39124,35.75693],[139.39131,35.75709],[139.39158,35.75731],[139.3919,35.75752],[139.39217,35.75767],[139.3923,35.75773],[139.39255,35.75779],[139.39295,35.75787],[139.3931,35.75786],[139.39331,35.7579],[139.39346,35.75795]]]}},{"type":"Feature","properties":{"name":"中央四丁目","setai":129,"jinko":334,"key":"13223011004","units":1},"geometry":{"type":"Polygon","coordinates":[[[139.3917,35.75956],[139.39177,35.75955],[139.39265,35.75971],[139.39291,35.75975],[139.39307,35.75973],[139.39313,35.75972],[139.39317,35.75967],[139.39328,35.75945],[139.39331,35.75936],[139.39333,35.75933],[139.39346,35.75922],[139.39353,35.75907],[139.39353,35.75892],[139.39351,35.7587],[139.39354,35.75852],[139.3936,35.75836],[139.3936,35.75824],[139.39349,35.75796],[139.39346,35.75795],[139.39331,35.7579],[139.3931,35.75786],[139.39295,35.75787],[139.39255,35.75779],[139.3923,35.75773],[139.39217,35.75767],[139.3919,35.75752],[139.39158,35.75731],[139.39131,35.75709],[139.39124,35.75693],[139.39111,35.75679],[139.39097,35.75675],[139.39058,35.75673],[139.39057,35.75637],[139.39039,35.75641],[139.39018,35.75643],[139.38986,35.75649],[139.38973,35.75651],[139.38963,35.75655],[139.38911,35.7568],[139.38928,35.75703],[139.38931,35.75716],[139.38929,35.75729],[139.38908,35.75741],[139.38874,35.75775],[139.38848,35.75788],[139.38819,35.75813],[139.38805,35.75837],[139.38802,35.75862],[139.38817,35.75891],[139.38827,35.75908],[139.38833,35.7596],[139.38898,35.76093],[139.38918,35.76119],[139.38946,35.76154],[139.38953,35.76166],[139.3897,35.7616],[139.38983,35.76145],[139.38998,35.76124],[139.39011,35.76099],[139.39026,35.76074],[139.39037,35.76049],[139.39042,35.76034],[139.39077,35.76032],[139.39095,35.76029],[139.39126,35.7602],[139.39138,35.76009],[139.39159,35.75972],[139.3917,35.75956]]]}},{"type":"Feature","properties":{"name":"中央五丁目","setai":0,"jinko":0,"key":"13223011005","units":1},"geometry":{"type":"Polygon","coordinates":[[[139.39077,35.76385],[139.39086,35.76354],[139.39094,35.76352],[139.39126,35.76354],[139.39187,35.76309],[139.39204,35.76329],[139.39221,35.76345],[139.39231,35.76353],[139.39246,35.76359],[139.39273,35.76364],[139.39286,35.76364],[139.39291,35.76335],[139.39294,35.76315],[139.39306,35.76295],[139.39361,35.76283],[139.39407,35.76279],[139.39412,35.76279],[139.39401,35.76264],[139.39384,35.76246],[139.39363,35.7623],[139.39369,35.76213],[139.39374,35.76188],[139.39372,35.7618],[139.39355,35.76159],[139.39354,35.76146],[139.39354,35.76141],[139.39355,35.76123],[139.39357,35.76087],[139.39358,35.76055],[139.39344,35.76027],[139.39331,35.7601],[139.39313,35.75972],[139.39307,35.75973],[139.39291,35.75975],[139.39265,35.75971],[139.39177,35.75955],[139.3917,35.75956],[139.39159,35.75972],[139.39138,35.76009],[139.39126,35.7602],[139.39095,35.76029],[139.39077,35.76032],[139.39042,35.76034],[139.39037,35.76049],[139.39026,35.76074],[139.39011,35.76099],[139.38998,35.76124],[139.38983,35.76145],[139.3897,35.7616],[139.38953,35.76166],[139.38914,35.76181],[139.38899,35.76194],[139.38892,35.76204],[139.38854,35.76254],[139.38802,35.76296],[139.38783,35.76301],[139.3878,35.76303],[139.38778,35.76305],[139.38811,35.76322],[139.38841,35.76331],[139.38863,35.76336],[139.38893,35.76342],[139.38924,35.76349],[139.39077,35.76385]]]}},{"type":"Feature","properties":{"name":"本町一丁目","setai":423,"jinko":969,"key":"13223012001","units":1},"geometry":{"type":"Polygon","coordinates":[[[139.3884,35.75176],[139.38881,35.75099],[139.38741,35.75132],[139.38521,35.75187],[139.38511,35.7519],[139.38369,35.75224],[139.38361,35.75226],[139.383,35.7524],[139.38296,35.75241],[139.38286,35.75305],[139.38277,35.75324],[139.3828,35.75352],[139.38301,35.75416],[139.3832,35.75439],[139.38346,35.75454],[139.38345,35.75454],[139.38368,35.75469],[139.38388,35.75477],[139.38471,35.75512],[139.38511,35.7552],[139.38546,35.75569],[139.38563,35.75592],[139.38599,35.75579],[139.38669,35.75556],[139.38671,35.75556],[139.38793,35.75518],[139.3887,35.75495],[139.38871,35.75493],[139.3884,35.75393],[139.38805,35.75278],[139.38806,35.75249],[139.38807,35.7524],[139.38813,35.75225],[139.3884,35.75176]]]}},{"type":"Feature","properties":{"name":"本町二丁目","setai":494,"jinko":1234,"key":"13223012002","units":1},"geometry":{"type":"Polygon","coordinates":[[[139.38286,35.75305],[139.38296,35.75241],[139.3811,35.75286],[139.38034,35.75304],[139.3795,35.75324],[139.3785,35.75349],[139.37778,35.75366],[139.37793,35.75406],[139.37816,35.75455],[139.37846,35.7552],[139.37881,35.75578],[139.37905,35.75622],[139.37923,35.75658],[139.3793,35.7567],[139.37971,35.75721],[139.3798,35.7574],[139.37983,35.7575],[139.37989,35.75763],[139.38015,35.75793],[139.38034,35.75782],[139.38046,35.75777],[139.38085,35.75766],[139.38138,35.75757],[139.38156,35.75754],[139.38224,35.75735],[139.38226,35.75735],[139.38307,35.75708],[139.38362,35.75681],[139.38427,35.75648],[139.38534,35.75603],[139.38563,35.75592],[139.38546,35.75569],[139.38511,35.7552],[139.38471,35.75512],[139.38388,35.75477],[139.38368,35.75469],[139.38345,35.75454],[139.38346,35.75454],[139.3832,35.75439],[139.38301,35.75416],[139.3828,35.75352],[139.38277,35.75324],[139.38286,35.75305]]]}},{"type":"Feature","properties":{"name":"本町三丁目","setai":237,"jinko":607,"key":"13223012003","units":1},"geometry":{"type":"Polygon","coordinates":[[[139.3833,35.76142],[139.38349,35.76139],[139.38363,35.76149],[139.38375,35.76148],[139.38397,35.76143],[139.38413,35.76123],[139.38429,35.76112],[139.3847,35.7609],[139.38494,35.76082],[139.38506,35.76074],[139.38517,35.76062],[139.38556,35.76048],[139.38569,35.7604],[139.38579,35.76031],[139.3859,35.76027],[139.38608,35.76024],[139.38608,35.75998],[139.38671,35.75995],[139.38676,35.75992],[139.38678,35.75992],[139.38671,35.75975],[139.38671,35.75964],[139.38677,35.75935],[139.38677,35.75927],[139.38673,35.75914],[139.3862,35.75911],[139.38621,35.75893],[139.38623,35.75879],[139.38623,35.75847],[139.38619,35.75843],[139.38583,35.7581],[139.38578,35.75779],[139.38574,35.75739],[139.38564,35.75714],[139.38559,35.75678],[139.38545,35.75652],[139.38543,35.7565],[139.38534,35.75603],[139.38427,35.75648],[139.38362,35.75681],[139.38307,35.75708],[139.38226,35.75735],[139.38224,35.75735],[139.38156,35.75754],[139.38138,35.75757],[139.38085,35.75766],[139.38046,35.75777],[139.38034,35.75782],[139.38015,35.75793],[139.38011,35.75795],[139.38037,35.75815],[139.38055,35.75828],[139.38066,35.75837],[139.38067,35.75844],[139.38067,35.75846],[139.38065,35.75876],[139.38071,35.7591],[139.38085,35.75946],[139.38087,35.7596],[139.38082,35.75971],[139.38108,35.75986],[139.38098,35.76039],[139.38107,35.76057],[139.38119,35.76072],[139.3814,35.76142],[139.38138,35.76159],[139.38131,35.7619],[139.38129,35.76232],[139.38084,35.76274],[139.38105,35.76276],[139.38127,35.76286],[139.38143,35.76288],[139.38161,35.7628],[139.38162,35.7628],[139.38178,35.76264],[139.38196,35.76237],[139.38202,35.76226],[139.38224,35.76196],[139.38247,35.76179],[139.38282,35.76168],[139.3831,35.76163],[139.38315,35.76149],[139.3833,35.76142]]]}},{"type":"Feature","properties":{"name":"本町四丁目","setai":171,"jinko":450,"key":"13223012004","units":1},"geometry":{"type":"Polygon","coordinates":[[[139.38929,35.75729],[139.38931,35.75716],[139.38928,35.75703],[139.38911,35.7568],[139.3891,35.75679],[139.38891,35.75688],[139.38845,35.75716],[139.38801,35.75666],[139.38842,35.75618],[139.38814,35.7558],[139.38821,35.75575],[139.3882,35.75572],[139.38793,35.75518],[139.38671,35.75556],[139.38669,35.75556],[139.38599,35.75579],[139.38563,35.75592],[139.38534,35.75603],[139.38543,35.7565],[139.38545,35.75652],[139.38559,35.75678],[139.38564,35.75714],[139.38574,35.75739],[139.38578,35.75779],[139.38583,35.7581],[139.38619,35.75843],[139.38623,35.75847],[139.38623,35.75879],[139.38621,35.75893],[139.3862,35.75911],[139.38673,35.75914],[139.38677,35.75927],[139.38677,35.75935],[139.38671,35.75964],[139.38671,35.75975],[139.38678,35.75992],[139.38676,35.75992],[139.38694,35.76006],[139.38753,35.76067],[139.38752,35.76087],[139.38776,35.76114],[139.38789,35.7612],[139.38803,35.7613],[139.38852,35.7617],[139.38871,35.76188],[139.38892,35.76204],[139.38899,35.76194],[139.38914,35.76181],[139.38953,35.76166],[139.38946,35.76154],[139.38918,35.76119],[139.38898,35.76093],[139.38833,35.7596],[139.38827,35.75908],[139.38817,35.75891],[139.38802,35.75862],[139.38805,35.75837],[139.38819,35.75813],[139.38848,35.75788],[139.38874,35.75775],[139.38908,35.75741],[139.38929,35.75729]]]}},{"type":"Feature","properties":{"name":"本町五丁目","setai":80,"jinko":224,"key":"13223012005","units":1},"geometry":{"type":"Polygon","coordinates":[[[139.38226,35.76618],[139.38254,35.76598],[139.38266,35.76593],[139.38289,35.76588],[139.38302,35.76589],[139.38318,35.76587],[139.38317,35.76579],[139.38319,35.76558],[139.38371,35.76516],[139.38389,35.76468],[139.38395,35.76464],[139.38402,35.76457],[139.38413,35.76433],[139.38424,35.76417],[139.38441,35.764],[139.38451,35.76396],[139.38479,35.76392],[139.38493,35.76387],[139.38538,35.7638],[139.38577,35.76371],[139.38609,35.76359],[139.38632,35.76349],[139.38664,35.76333],[139.38671,35.76331],[139.38688,35.7633],[139.38707,35.76326],[139.38751,35.76325],[139.38768,35.76314],[139.38778,35.76305],[139.3878,35.76303],[139.38783,35.76301],[139.38802,35.76296],[139.38854,35.76254],[139.38892,35.76204],[139.38871,35.76188],[139.38852,35.7617],[139.38803,35.7613],[139.38789,35.7612],[139.38776,35.76114],[139.38752,35.76087],[139.38753,35.76067],[139.38694,35.76006],[139.38676,35.75992],[139.38671,35.75995],[139.38608,35.75998],[139.38608,35.76024],[139.3859,35.76027],[139.38579,35.76031],[139.38569,35.7604],[139.38556,35.76048],[139.38517,35.76062],[139.38506,35.76074],[139.38494,35.76082],[139.3847,35.7609],[139.38429,35.76112],[139.38413,35.76123],[139.38397,35.76143],[139.38375,35.76148],[139.38363,35.76149],[139.38349,35.76139],[139.3833,35.76142],[139.38315,35.76149],[139.3831,35.76163],[139.38282,35.76168],[139.38247,35.76179],[139.38224,35.76196],[139.38202,35.76226],[139.38196,35.76237],[139.38178,35.76264],[139.38162,35.7628],[139.38161,35.7628],[139.38143,35.76288],[139.38127,35.76286],[139.38105,35.76276],[139.38084,35.76274],[139.38062,35.76285],[139.38056,35.76287],[139.38023,35.76324],[139.38009,35.76346],[139.37987,35.76412],[139.3799,35.76423],[139.37988,35.76426],[139.38,35.76442],[139.38009,35.76461],[139.3802,35.76482],[139.38041,35.76509],[139.38058,35.76524],[139.38071,35.76543],[139.38077,35.76568],[139.38078,35.76594],[139.38073,35.76619],[139.38072,35.76621],[139.38095,35.76605],[139.38123,35.76602],[139.38139,35.76604],[139.38186,35.76629],[139.38202,35.76633],[139.38215,35.76627],[139.38226,35.76618]]]}},{"type":"Feature","properties":{"name":"本町六丁目","setai":9,"jinko":26,"key":"13223012006","units":1},"geometry":{"type":"Polygon","coordinates":[[[139.38318,35.76587],[139.38326,35.76587],[139.38342,35.76578],[139.38358,35.76563],[139.38368,35.76555],[139.38383,35.76555],[139.38409,35.76559],[139.3843,35.76554],[139.3846,35.76543],[139.38476,35.76539],[139.385,35.7654],[139.38525,35.76551],[139.38533,35.76557],[139.38568,35.76569],[139.38609,35.76585],[139.38629,35.7659],[139.3867,35.76606],[139.38699,35.76612],[139.38708,35.76612],[139.38724,35.7662],[139.38756,35.76621],[139.38773,35.76621],[139.38799,35.76628],[139.38829,35.76644],[139.38849,35.76649],[139.38893,35.76655],[139.38921,35.76656],[139.38928,35.76662],[139.38925,35.76677],[139.38931,35.76695],[139.38943,35.76707],[139.38953,35.76712],[139.38972,35.76716],[139.38993,35.76712],[139.39013,35.76706],[139.39052,35.76699],[139.39093,35.76696],[139.39141,35.7669],[139.39189,35.76687],[139.39193,35.76683],[139.39184,35.76658],[139.39166,35.76617],[139.39163,35.76602],[139.39148,35.76578],[139.39148,35.76548],[139.3914,35.76532],[139.39122,35.76507],[139.39109,35.76494],[139.39096,35.76472],[139.39082,35.76451],[139.39069,35.76432],[139.3907,35.76406],[139.39077,35.76385],[139.38924,35.76349],[139.38893,35.76342],[139.38863,35.76336],[139.38841,35.76331],[139.38811,35.76322],[139.38778,35.76305],[139.38768,35.76314],[139.38751,35.76325],[139.38707,35.76326],[139.38688,35.7633],[139.38671,35.76331],[139.38664,35.76333],[139.38632,35.76349],[139.38609,35.76359],[139.38577,35.76371],[139.38538,35.7638],[139.38493,35.76387],[139.38479,35.76392],[139.38451,35.76396],[139.38441,35.764],[139.38424,35.76417],[139.38413,35.76433],[139.38402,35.76457],[139.38395,35.76464],[139.38389,35.76468],[139.38371,35.76516],[139.38319,35.76558],[139.38317,35.76579],[139.38318,35.76587]]]}},{"type":"Feature","properties":{"name":"緑が丘","setai":3593,"jinko":6461,"key":"13223013000","units":2},"geometry":{"type":"MultiPolygon","coordinates":[[[[139.41058,35.74153],[139.41062,35.74116],[139.41065,35.74116],[139.41066,35.74107],[139.41067,35.74096],[139.4107,35.74057],[139.4107,35.74055],[139.41077,35.74006],[139.41077,35.74002],[139.41079,35.73979],[139.41075,35.7396],[139.40955,35.73981],[139.40927,35.73986],[139.40828,35.74003],[139.4084,35.74061],[139.40784,35.74074],[139.40769,35.74078],[139.40726,35.74088],[139.40661,35.74104],[139.40662,35.74106],[139.4067,35.74128],[139.4068,35.74156],[139.40691,35.74182],[139.40699,35.74204],[139.40701,35.7421],[139.40712,35.74239],[139.40723,35.74269],[139.40653,35.74286],[139.40586,35.74302],[139.40535,35.74314],[139.40542,35.74334],[139.4055,35.74353],[139.40554,35.74365],[139.40558,35.74375],[139.40566,35.74396],[139.40574,35.74419],[139.40583,35.74442],[139.40584,35.74445],[139.40594,35.74471],[139.40603,35.74496],[139.40604,35.74498],[139.40615,35.74529],[139.40626,35.74559],[139.40644,35.74608],[139.40664,35.74666],[139.40669,35.7468],[139.40692,35.74743],[139.40704,35.74775],[139.40721,35.74825],[139.4073,35.74849],[139.40784,35.74846],[139.4081,35.74843],[139.40858,35.74836],[139.40901,35.74829],[139.40968,35.74819],[139.41028,35.74809],[139.41033,35.74808],[139.4104,35.74785],[139.41044,35.74769],[139.41049,35.74746],[139.41053,35.74717],[139.4105,35.74668],[139.4105,35.74664],[139.41046,35.74601],[139.41044,35.74576],[139.41044,35.74557],[139.41044,35.74513],[139.41044,35.74476],[139.41044,35.74458],[139.41044,35.74425],[139.41045,35.74391],[139.41047,35.74353],[139.4105,35.74303],[139.41051,35.74274],[139.41051,35.74272],[139.41054,35.74206],[139.41055,35.74199],[139.41055,35.74185],[139.41056,35.74175],[139.41058,35.74153]]],[[[139.41044,35.73825],[139.41025,35.73741],[139.40924,35.73752],[139.40608,35.73795],[139.40609,35.73799],[139.4062,35.73853],[139.4063,35.73903],[139.4064,35.7395],[139.40607,35.73958],[139.40491,35.73983],[139.40488,35.73984],[139.40467,35.73986],[139.40442,35.73991],[139.40418,35.73997],[139.40445,35.74072],[139.40449,35.74081],[139.40454,35.74097],[139.40457,35.74105],[139.4046,35.74115],[139.4047,35.74143],[139.40473,35.74148],[139.40486,35.74183],[139.40489,35.74192],[139.40504,35.74233],[139.40512,35.74255],[139.40519,35.74274],[139.40535,35.74314],[139.40586,35.74302],[139.40653,35.74286],[139.40723,35.74269],[139.40712,35.74239],[139.40701,35.7421],[139.40699,35.74204],[139.40691,35.74182],[139.4068,35.74156],[139.4067,35.74128],[139.40662,35.74106],[139.40661,35.74104],[139.40726,35.74088],[139.40769,35.74078],[139.40784,35.74074],[139.4084,35.74061],[139.40828,35.74003],[139.40927,35.73986],[139.40955,35.73981],[139.41075,35.7396],[139.41044,35.73825]]]]}},{"type":"Feature","properties":{"name":"三ツ木一丁目","setai":504,"jinko":1323,"key":"13223014001","units":1},"geometry":{"type":"Polygon","coordinates":[[[139.37793,35.75406],[139.37778,35.75366],[139.37755,35.75372],[139.3759,35.7544],[139.3753,35.7547],[139.37376,35.75549],[139.37388,35.75613],[139.374,35.75655],[139.37406,35.75685],[139.37405,35.75708],[139.37416,35.75728],[139.37431,35.75743],[139.37462,35.75817],[139.37501,35.75905],[139.37573,35.75909],[139.37627,35.75914],[139.37697,35.75918],[139.37709,35.75919],[139.3772,35.75921],[139.37747,35.75919],[139.37763,35.75912],[139.3783,35.75893],[139.37868,35.75878],[139.37874,35.75875],[139.37909,35.75855],[139.37924,35.7585],[139.38011,35.75795],[139.38015,35.75793],[139.37989,35.75763],[139.37983,35.7575],[139.3798,35.7574],[139.37971,35.75721],[139.3793,35.7567],[139.37923,35.75658],[139.37905,35.75622],[139.37881,35.75578],[139.37846,35.7552],[139.37816,35.75455],[139.37793,35.75406]]]}},{"type":"Feature","properties":{"name":"三ツ木二丁目","setai":464,"jinko":1096,"key":"13223014002","units":1},"geometry":{"type":"Polygon","coordinates":[[[139.37037,35.76053],[139.37209,35.75992],[139.37212,35.75993],[139.37352,35.75944],[139.37387,35.75931],[139.3739,35.75928],[139.37448,35.7591],[139.37465,35.75906],[139.37501,35.75905],[139.37462,35.75817],[139.37431,35.75743],[139.37416,35.75728],[139.37405,35.75708],[139.37406,35.75685],[139.374,35.75655],[139.37388,35.75613],[139.37376,35.75549],[139.37343,35.75562],[139.37263,35.75601],[139.37152,35.75658],[139.37145,35.75665],[139.37102,35.75686],[139.37058,35.75706],[139.37019,35.75726],[139.37017,35.7573],[139.37013,35.75729],[139.36819,35.75826],[139.36852,35.75887],[139.36871,35.75921],[139.36937,35.76041],[139.36938,35.76042],[139.36962,35.76088],[139.36971,35.76087],[139.36985,35.76073],[139.3704,35.76054],[139.37037,35.76053]]]}},{"type":"Feature","properties":{"name":"三ツ木三丁目","setai":355,"jinko":878,"key":"13223014003","units":1},"geometry":{"type":"Polygon","coordinates":[[[139.37834,35.76469],[139.37811,35.76435],[139.37787,35.76396],[139.37776,35.76385],[139.37756,35.76373],[139.37736,35.76367],[139.37701,35.76358],[139.37683,35.76348],[139.37644,35.76315],[139.37631,35.763],[139.37624,35.76283],[139.37619,35.76281],[139.37567,35.76238],[139.37544,35.76218],[139.3754,35.76215],[139.37482,35.76123],[139.37457,35.76091],[139.37477,35.76055],[139.37491,35.76038],[139.3748,35.76027],[139.37449,35.75982],[139.37424,35.75964],[139.37387,35.75931],[139.37352,35.75944],[139.37212,35.75993],[139.37209,35.75992],[139.37037,35.76053],[139.3704,35.76054],[139.36985,35.76073],[139.36971,35.76087],[139.36969,35.76171],[139.36962,35.76203],[139.3696,35.76211],[139.36962,35.76221],[139.36959,35.76234],[139.36993,35.76242],[139.36999,35.76247],[139.37009,35.76255],[139.37025,35.76264],[139.37029,35.76269],[139.37047,35.76273],[139.37041,35.76302],[139.37048,35.76324],[139.3705,35.76326],[139.37051,35.76327],[139.3706,35.76338],[139.37065,35.76349],[139.37078,35.76364],[139.37087,35.76384],[139.37102,35.76397],[139.37109,35.76412],[139.37126,35.76421],[139.3713,35.76425],[139.37159,35.76444],[139.37191,35.7645],[139.37201,35.76451],[139.37201,35.76445],[139.37212,35.76447],[139.37247,35.76455],[139.37291,35.76466],[139.3733,35.76474],[139.37325,35.76466],[139.37349,35.76472],[139.37394,35.76485],[139.3742,35.76491],[139.37467,35.76504],[139.3749,35.76513],[139.37512,35.76504],[139.37528,35.76494],[139.37555,35.7649],[139.37572,35.76478],[139.37568,35.7646],[139.37559,35.7644],[139.37588,35.76441],[139.37613,35.76459],[139.37635,35.76469],[139.37683,35.76478],[139.37706,35.76499],[139.37731,35.7653],[139.37748,35.76545],[139.37763,35.7656],[139.37789,35.7657],[139.37821,35.76573],[139.37839,35.7657],[139.37857,35.76562],[139.37862,35.76558],[139.37853,35.76543],[139.37843,35.76511],[139.37842,35.7649],[139.37834,35.76469]]]}},{"type":"Feature","properties":{"name":"三ツ木四丁目","setai":0,"jinko":0,"key":"13223014004","units":1},"geometry":{"type":"Polygon","coordinates":[[[139.37927,35.77117],[139.37927,35.77117],[139.3792,35.771],[139.37914,35.77075],[139.37914,35.77043],[139.37917,35.77032],[139.37926,35.7701],[139.3794,35.76988],[139.37948,35.76978],[139.37962,35.76961],[139.37967,35.76946],[139.37961,35.76923],[139.37966,35.7691],[139.37988,35.76867],[139.37987,35.76853],[139.37968,35.7683],[139.3797,35.76815],[139.37975,35.76787],[139.37977,35.76765],[139.37996,35.76735],[139.38006,35.76714],[139.3801,35.76691],[139.38024,35.76664],[139.38038,35.7664],[139.38065,35.76627],[139.38072,35.76621],[139.38073,35.76619],[139.38078,35.76594],[139.38077,35.76568],[139.38071,35.76543],[139.38058,35.76524],[139.38041,35.76509],[139.3802,35.76482],[139.37985,35.76492],[139.37961,35.76501],[139.37926,35.76522],[139.37918,35.76525],[139.37881,35.76544],[139.37862,35.76558],[139.37857,35.76562],[139.37839,35.7657],[139.37821,35.76573],[139.37789,35.7657],[139.37763,35.7656],[139.37748,35.76545],[139.37731,35.7653],[139.37706,35.76499],[139.37683,35.76478],[139.37635,35.76469],[139.37613,35.76459],[139.37588,35.76441],[139.37559,35.7644],[139.37568,35.7646],[139.37572,35.76478],[139.37555,35.7649],[139.37528,35.76494],[139.37512,35.76504],[139.3749,35.76513],[139.37508,35.76524],[139.37557,35.76566],[139.37573,35.76582],[139.37587,35.76596],[139.37601,35.76604],[139.3753,35.76628],[139.37522,35.76672],[139.37523,35.76689],[139.37525,35.76709],[139.37528,35.7672],[139.37547,35.76754],[139.37551,35.76787],[139.3755,35.76797],[139.37554,35.76833],[139.37533,35.76836],[139.37529,35.76822],[139.37522,35.76791],[139.37514,35.76773],[139.37501,35.76789],[139.37484,35.76808],[139.37483,35.76809],[139.37478,35.7682],[139.37477,35.7689],[139.37477,35.76891],[139.37483,35.76903],[139.37491,35.76915],[139.37505,35.76933],[139.37512,35.76941],[139.37545,35.76975],[139.37549,35.76979],[139.37564,35.76992],[139.37585,35.77012],[139.37592,35.77021],[139.376,35.77038],[139.37655,35.77024],[139.37658,35.77024],[139.37677,35.77021],[139.37679,35.7702],[139.37691,35.77022],[139.37694,35.77023],[139.37704,35.77027],[139.37704,35.77027],[139.37711,35.7703],[139.37723,35.77039],[139.37749,35.77055],[139.3775,35.77056],[139.37765,35.77061],[139.37778,35.77073],[139.37781,35.77085],[139.37783,35.77096],[139.37796,35.77104],[139.37812,35.77108],[139.37832,35.77113],[139.37847,35.77126],[139.37855,35.77132],[139.37873,35.77138],[139.37883,35.77139],[139.37893,35.77138],[139.37901,35.77133],[139.37912,35.77123],[139.37916,35.7712],[139.37925,35.77115],[139.37927,35.77117]]]}},{"type":"Feature","properties":{"name":"三ツ木五丁目","setai":303,"jinko":847,"key":"13223014005","units":1},"geometry":{"type":"Polygon","coordinates":[[[139.38085,35.75946],[139.38071,35.7591],[139.38065,35.75876],[139.38067,35.75846],[139.38067,35.75844],[139.38066,35.75837],[139.38055,35.75828],[139.38037,35.75815],[139.38011,35.75795],[139.37924,35.7585],[139.37909,35.75855],[139.37874,35.75875],[139.37868,35.75878],[139.3783,35.75893],[139.37763,35.75912],[139.37747,35.75919],[139.3772,35.75921],[139.37709,35.75919],[139.37697,35.75918],[139.37627,35.75914],[139.37573,35.75909],[139.37501,35.75905],[139.37465,35.75906],[139.37448,35.7591],[139.3739,35.75928],[139.37387,35.75931],[139.37424,35.75964],[139.37449,35.75982],[139.3748,35.76027],[139.37491,35.76038],[139.37477,35.76055],[139.37457,35.76091],[139.37482,35.76123],[139.3754,35.76215],[139.37544,35.76218],[139.37567,35.76238],[139.37619,35.76281],[139.37624,35.76283],[139.37631,35.763],[139.37644,35.76315],[139.37683,35.76348],[139.37701,35.76358],[139.37736,35.76367],[139.37756,35.76373],[139.37776,35.76385],[139.37787,35.76396],[139.37811,35.76435],[139.37834,35.76469],[139.37842,35.7649],[139.37843,35.76511],[139.37853,35.76543],[139.37862,35.76558],[139.37881,35.76544],[139.37918,35.76525],[139.37926,35.76522],[139.37961,35.76501],[139.37985,35.76492],[139.3802,35.76482],[139.38009,35.76461],[139.38,35.76442],[139.37988,35.76426],[139.3799,35.76423],[139.37987,35.76412],[139.38009,35.76346],[139.38023,35.76324],[139.38056,35.76287],[139.38062,35.76285],[139.38084,35.76274],[139.38129,35.76232],[139.38131,35.7619],[139.38138,35.76159],[139.3814,35.76142],[139.38119,35.76072],[139.38107,35.76057],[139.38098,35.76039],[139.38108,35.75986],[139.38082,35.75971],[139.38087,35.7596],[139.38085,35.75946]]]}},{"type":"Feature","properties":{"name":"岸一丁目","setai":562,"jinko":1241,"key":"13223015001","units":1},"geometry":{"type":"Polygon","coordinates":[[[139.36498,35.76399],[139.36522,35.76381],[139.36527,35.76378],[139.36553,35.76353],[139.36573,35.76334],[139.36592,35.76316],[139.36601,35.76309],[139.36628,35.76288],[139.36682,35.76257],[139.3669,35.76252],[139.36737,35.76225],[139.36807,35.76184],[139.36814,35.7618],[139.36825,35.76173],[139.36826,35.76172],[139.36827,35.76169],[139.36892,35.7613],[139.36905,35.76122],[139.36912,35.76118],[139.36915,35.76117],[139.36962,35.76088],[139.36938,35.76042],[139.36937,35.76041],[139.36871,35.75921],[139.36852,35.75887],[139.36819,35.75826],[139.36818,35.75827],[139.36744,35.75864],[139.36737,35.75867],[139.36682,35.75895],[139.36674,35.75899],[139.36617,35.75927],[139.36606,35.75933],[139.36561,35.75956],[139.36556,35.75958],[139.3651,35.75981],[139.36469,35.76002],[139.36429,35.76021],[139.36411,35.7603],[139.36343,35.76064],[139.36345,35.76065],[139.36386,35.76089],[139.36386,35.76089],[139.36384,35.76093],[139.36337,35.76166],[139.36336,35.76167],[139.36336,35.76167],[139.36336,35.76167],[139.3633,35.76164],[139.36319,35.76158],[139.36289,35.76186],[139.36267,35.76171],[139.36247,35.76159],[139.36229,35.76175],[139.36273,35.76205],[139.36281,35.76209],[139.3628,35.7621],[139.36282,35.76211],[139.3625,35.76227],[139.36237,35.76235],[139.36234,35.76237],[139.36232,35.76236],[139.36231,35.76237],[139.36242,35.76243],[139.36257,35.76252],[139.36266,35.76257],[139.36267,35.76258],[139.36276,35.76261],[139.36291,35.76272],[139.363,35.76278],[139.36306,35.76283],[139.36309,35.76297],[139.36319,35.76317],[139.36326,35.76331],[139.3635,35.7638],[139.36359,35.76399],[139.36404,35.76383],[139.36405,35.76382],[139.36418,35.76397],[139.36425,35.7639],[139.36437,35.76383],[139.36438,35.76384],[139.36478,35.76413],[139.36487,35.76406],[139.36498,35.76399]]]}},{"type":"Feature","properties":{"name":"岸二丁目","setai":231,"jinko":539,"key":"13223015002","units":1},"geometry":{"type":"Polygon","coordinates":[[[139.36832,35.76805],[139.36823,35.76758],[139.3685,35.76739],[139.36856,35.76691],[139.36856,35.76688],[139.36868,35.76663],[139.36868,35.76639],[139.3687,35.76633],[139.36867,35.76592],[139.36867,35.76557],[139.36869,35.76556],[139.36882,35.76534],[139.36875,35.76522],[139.36877,35.76519],[139.36856,35.76495],[139.36845,35.76491],[139.36836,35.76489],[139.3682,35.76476],[139.36805,35.76473],[139.36777,35.76461],[139.36761,35.76451],[139.36757,35.76451],[139.36751,35.7644],[139.36743,35.76435],[139.36728,35.7643],[139.3672,35.76423],[139.36719,35.76413],[139.36718,35.76393],[139.36718,35.76341],[139.36719,35.76328],[139.36732,35.76317],[139.36732,35.76294],[139.36728,35.76291],[139.36721,35.76286],[139.36704,35.76275],[139.36698,35.76267],[139.3669,35.76252],[139.36682,35.76257],[139.36628,35.76288],[139.36601,35.76309],[139.36592,35.76316],[139.36573,35.76334],[139.36553,35.76353],[139.36527,35.76378],[139.36522,35.76381],[139.36498,35.76399],[139.36487,35.76406],[139.36478,35.76413],[139.3646,35.76428],[139.36459,35.76428],[139.36435,35.76448],[139.36434,35.76448],[139.36422,35.76455],[139.36461,35.76507],[139.36514,35.76569],[139.36505,35.76572],[139.36529,35.76615],[139.36536,35.76641],[139.36548,35.76637],[139.36554,35.76651],[139.36555,35.76653],[139.36548,35.76655],[139.36553,35.76678],[139.36554,35.76681],[139.36564,35.76718],[139.36559,35.76758],[139.36559,35.76759],[139.36555,35.76777],[139.36562,35.76783],[139.36642,35.76765],[139.36651,35.76791],[139.36697,35.76797],[139.36697,35.76797],[139.36722,35.76808],[139.36726,35.76809],[139.36719,35.76838],[139.36714,35.76851],[139.3671,35.7686],[139.36709,35.76876],[139.36757,35.76875],[139.36759,35.76875],[139.36781,35.76844],[139.36808,35.7682],[139.36832,35.76805]]]}},{"type":"Feature","properties":{"name":"岸三丁目","setai":396,"jinko":898,"key":"13223015003","units":1},"geometry":{"type":"Polygon","coordinates":[[[139.37096,35.76772],[139.3709,35.7676],[139.37076,35.76717],[139.37074,35.76698],[139.37072,35.76677],[139.37073,35.76667],[139.37086,35.76618],[139.37084,35.76612],[139.3708,35.76595],[139.37076,35.76578],[139.37064,35.76554],[139.37108,35.76542],[139.37112,35.7654],[139.37118,35.76554],[139.37161,35.76569],[139.37183,35.76568],[139.372,35.7657],[139.3723,35.76578],[139.37239,35.76585],[139.37259,35.76597],[139.37271,35.76608],[139.37286,35.76615],[139.37313,35.76611],[139.37327,35.76608],[139.37352,35.76602],[139.37358,35.76597],[139.37361,35.76595],[139.37395,35.76594],[139.37402,35.76562],[139.37398,35.76552],[139.37401,35.76547],[139.37418,35.76522],[139.37422,35.76505],[139.3742,35.76491],[139.37394,35.76485],[139.37349,35.76472],[139.37325,35.76466],[139.3733,35.76474],[139.37291,35.76466],[139.37247,35.76455],[139.37212,35.76447],[139.37201,35.76445],[139.37201,35.76451],[139.37191,35.7645],[139.37159,35.76444],[139.3713,35.76425],[139.37126,35.76421],[139.37109,35.76412],[139.37102,35.76397],[139.37087,35.76384],[139.37078,35.76364],[139.37065,35.76349],[139.3706,35.76338],[139.37051,35.76327],[139.3705,35.76326],[139.37048,35.76324],[139.37041,35.76302],[139.37047,35.76273],[139.37029,35.76269],[139.37025,35.76264],[139.37009,35.76255],[139.36999,35.76247],[139.36993,35.76242],[139.36959,35.76234],[139.36962,35.76221],[139.3696,35.76211],[139.36962,35.76203],[139.36969,35.76171],[139.36971,35.76087],[139.36962,35.76088],[139.36915,35.76117],[139.36912,35.76118],[139.36905,35.76122],[139.36892,35.7613],[139.36827,35.76169],[139.36826,35.76172],[139.36825,35.76173],[139.36814,35.7618],[139.36807,35.76184],[139.36737,35.76225],[139.3669,35.76252],[139.36698,35.76267],[139.36704,35.76275],[139.36721,35.76286],[139.36728,35.76291],[139.36732,35.76294],[139.36732,35.76317],[139.36719,35.76328],[139.36718,35.76341],[139.36718,35.76393],[139.36719,35.76413],[139.3672,35.76423],[139.36728,35.7643],[139.36743,35.76435],[139.36751,35.7644],[139.36757,35.76451],[139.36761,35.76451],[139.36777,35.76461],[139.36805,35.76473],[139.3682,35.76476],[139.36836,35.76489],[139.36845,35.76491],[139.36856,35.76495],[139.36877,35.76519],[139.36875,35.76522],[139.36882,35.76534],[139.36869,35.76556],[139.36867,35.76557],[139.36867,35.76592],[139.3687,35.76633],[139.36868,35.76639],[139.36868,35.76663],[139.36856,35.76688],[139.36856,35.76691],[139.36896,35.76722],[139.37046,35.76764],[139.37058,35.76763],[139.37092,35.768],[139.37117,35.76808],[139.37118,35.7679],[139.37113,35.76785],[139.37096,35.76772]]]}},{"type":"Feature","properties":{"name":"岸四丁目","setai":0,"jinko":0,"key":"13223015004","units":1},"geometry":{"type":"Polygon","coordinates":[[[139.37113,35.7708],[139.37136,35.77039],[139.37149,35.77015],[139.3715,35.76952],[139.37154,35.76932],[139.37152,35.76923],[139.37145,35.76902],[139.37134,35.76851],[139.37117,35.76808],[139.37092,35.768],[139.37058,35.76763],[139.37046,35.76764],[139.36896,35.76722],[139.36856,35.76691],[139.3685,35.76739],[139.36823,35.76758],[139.36832,35.76805],[139.36808,35.7682],[139.36781,35.76844],[139.36759,35.76875],[139.36754,35.76906],[139.36753,35.76906],[139.36725,35.76909],[139.36724,35.76909],[139.36717,35.76909],[139.36713,35.76909],[139.36693,35.76909],[139.36693,35.7691],[139.36694,35.76928],[139.36737,35.76923],[139.36753,35.76922],[139.36754,35.76922],[139.36756,35.76927],[139.36791,35.76985],[139.36811,35.77005],[139.36812,35.77009],[139.36816,35.77023],[139.36821,35.77042],[139.36779,35.77054],[139.36782,35.7706],[139.36783,35.7706],[139.36787,35.77064],[139.36805,35.77078],[139.36837,35.77066],[139.36837,35.77067],[139.3685,35.77095],[139.36849,35.77097],[139.36848,35.77098],[139.36845,35.77103],[139.36832,35.7712],[139.36826,35.77137],[139.3682,35.77149],[139.3682,35.77149],[139.36813,35.77168],[139.36813,35.77169],[139.36809,35.77187],[139.36808,35.77189],[139.36803,35.7721],[139.36799,35.77221],[139.36799,35.77223],[139.36799,35.77228],[139.368,35.77238],[139.368,35.77239],[139.36802,35.77246],[139.36802,35.77247],[139.36816,35.77266],[139.36776,35.77276],[139.36801,35.77326],[139.3681,35.77327],[139.36813,35.77366],[139.36826,35.77376],[139.36827,35.77376],[139.36831,35.7738],[139.36836,35.77394],[139.36842,35.77417],[139.36854,35.77422],[139.36879,35.77433],[139.36881,35.77423],[139.36881,35.77421],[139.36885,35.77407],[139.36886,35.77407],[139.3689,35.77401],[139.36895,35.77396],[139.36915,35.77385],[139.36987,35.77358],[139.36993,35.77356],[139.37007,35.77335],[139.3701,35.7733],[139.37014,35.77324],[139.37017,35.77312],[139.37017,35.77302],[139.37017,35.77301],[139.37015,35.77262],[139.37011,35.7724],[139.37008,35.77211],[139.37008,35.77211],[139.37009,35.77206],[139.37014,35.77202],[139.37015,35.77201],[139.37028,35.77194],[139.3703,35.77193],[139.37045,35.77186],[139.37063,35.77175],[139.37064,35.77174],[139.37093,35.77157],[139.37096,35.77156],[139.37097,35.77155],[139.37112,35.77115],[139.37113,35.7708]]]}},{"type":"Feature","properties":{"name":"岸五丁目","setai":29,"jinko":66,"key":"13223015005","units":1},"geometry":{"type":"Polygon","coordinates":[[[139.37176,35.77157],[139.37196,35.7715],[139.37213,35.7714],[139.37239,35.77128],[139.37241,35.77128],[139.37246,35.77126],[139.37266,35.77126],[139.37266,35.77126],[139.37275,35.77128],[139.37276,35.77128],[139.37292,35.77134],[139.37293,35.77134],[139.37307,35.7714],[139.37324,35.77149],[139.37337,35.77066],[139.37354,35.7703],[139.37356,35.77022],[139.37357,35.77012],[139.37356,35.77007],[139.37356,35.77005],[139.37354,35.77],[139.37353,35.76997],[139.37351,35.76995],[139.37342,35.76984],[139.37335,35.76977],[139.37329,35.76968],[139.37326,35.76965],[139.37323,35.76959],[139.3732,35.76954],[139.3732,35.76954],[139.37316,35.76927],[139.37316,35.76927],[139.37324,35.76897],[139.37327,35.76884],[139.37328,35.76883],[139.3733,35.76879],[139.37334,35.76873],[139.37384,35.76872],[139.37386,35.76905],[139.374,35.76916],[139.37403,35.76918],[139.37404,35.76919],[139.37417,35.76942],[139.37443,35.76964],[139.37443,35.76964],[139.37439,35.76974],[139.37446,35.76995],[139.37447,35.76998],[139.37452,35.77008],[139.37443,35.77027],[139.37452,35.77031],[139.37462,35.77021],[139.37478,35.77012],[139.37474,35.76992],[139.37474,35.76991],[139.37469,35.76943],[139.37469,35.76943],[139.37433,35.76912],[139.37423,35.76893],[139.37424,35.7688],[139.37424,35.76879],[139.3744,35.76815],[139.37443,35.76798],[139.37441,35.76765],[139.37441,35.76763],[139.37438,35.76727],[139.37438,35.76723],[139.37438,35.76722],[139.37433,35.76711],[139.37432,35.76711],[139.37417,35.76692],[139.37417,35.76692],[139.37477,35.76687],[139.37481,35.767],[139.37484,35.7671],[139.3749,35.76726],[139.3749,35.76727],[139.37496,35.76739],[139.37513,35.76772],[139.37513,35.76772],[139.37514,35.76773],[139.37522,35.76791],[139.37529,35.76822],[139.37533,35.76836],[139.37554,35.76833],[139.3755,35.76797],[139.37551,35.76787],[139.37547,35.76754],[139.37528,35.7672],[139.37525,35.76709],[139.37523,35.76689],[139.37522,35.76672],[139.3753,35.76628],[139.37601,35.76604],[139.37587,35.76596],[139.37573,35.76582],[139.37557,35.76566],[139.37508,35.76524],[139.3749,35.76513],[139.37467,35.76504],[139.3742,35.76491],[139.37422,35.76505],[139.37418,35.76522],[139.37401,35.76547],[139.37398,35.76552],[139.37402,35.76562],[139.37395,35.76594],[139.37361,35.76595],[139.37358,35.76597],[139.37352,35.76602],[139.37327,35.76608],[139.37313,35.76611],[139.37286,35.76615],[139.37271,35.76608],[139.37259,35.76597],[139.37239,35.76585],[139.3723,35.76578],[139.372,35.7657],[139.37183,35.76568],[139.37161,35.76569],[139.37118,35.76554],[139.37112,35.7654],[139.37108,35.76542],[139.37064,35.76554],[139.37076,35.76578],[139.3708,35.76595],[139.37084,35.76612],[139.37086,35.76618],[139.37073,35.76667],[139.37072,35.76677],[139.37074,35.76698],[139.37076,35.76717],[139.3709,35.7676],[139.37096,35.76772],[139.37113,35.76785],[139.37118,35.7679],[139.37117,35.76808],[139.37134,35.76851],[139.37145,35.76902],[139.37152,35.76923],[139.37154,35.76932],[139.3715,35.76952],[139.37149,35.77015],[139.37136,35.77039],[139.37113,35.7708],[139.37112,35.77115],[139.37097,35.77155],[139.37104,35.77153],[139.37113,35.77151],[139.37114,35.77151],[139.37123,35.77151],[139.37125,35.77151],[139.37133,35.77152],[139.37149,35.77156],[139.37151,35.77156],[139.37167,35.77158],[139.37168,35.77158],[139.37175,35.77158],[139.37176,35.77157]]]}},{"type":"Feature","properties":{"name":"中原一丁目","setai":442,"jinko":1132,"key":"13223016001","units":1},"geometry":{"type":"Polygon","coordinates":[[[139.36489,35.75244],[139.36486,35.75243],[139.36412,35.75274],[139.3634,35.75299],[139.36299,35.75314],[139.36217,35.75343],[139.36249,35.75407],[139.36265,35.75437],[139.36279,35.75452],[139.36315,35.75488],[139.36325,35.75504],[139.3635,35.75553],[139.36355,35.75568],[139.36355,35.75572],[139.36355,35.75581],[139.36355,35.75596],[139.3637,35.7564],[139.36394,35.75696],[139.364,35.75713],[139.36404,35.75727],[139.36408,35.75739],[139.36433,35.75766],[139.36488,35.75827],[139.36493,35.75834],[139.36539,35.75916],[139.36551,35.75937],[139.36561,35.75956],[139.36606,35.75933],[139.36617,35.75927],[139.36674,35.75899],[139.36682,35.75895],[139.36737,35.75867],[139.36744,35.75864],[139.36818,35.75827],[139.36816,35.75826],[139.36802,35.75799],[139.36777,35.75753],[139.36745,35.75696],[139.36743,35.75692],[139.36711,35.75636],[139.36671,35.75565],[139.36646,35.75521],[139.36646,35.75521],[139.36621,35.75476],[139.36586,35.75415],[139.36581,35.75406],[139.3658,35.75405],[139.36565,35.75379],[139.36528,35.75315],[139.3649,35.75247],[139.36489,35.75244]]]}},{"type":"Feature","properties":{"name":"中原二丁目","setai":751,"jinko":1724,"key":"13223016002","units":1},"geometry":{"type":"Polygon","coordinates":[[[139.3651,35.75981],[139.36556,35.75958],[139.36561,35.75956],[139.36551,35.75937],[139.36539,35.75916],[139.36493,35.75834],[139.36488,35.75827],[139.36433,35.75766],[139.36408,35.75739],[139.36404,35.75727],[139.364,35.75713],[139.36394,35.75696],[139.3637,35.7564],[139.36355,35.75596],[139.36355,35.75581],[139.36355,35.75572],[139.36355,35.75568],[139.3635,35.75553],[139.36325,35.75504],[139.36315,35.75488],[139.36279,35.75452],[139.36265,35.75437],[139.36249,35.75407],[139.36217,35.75343],[139.36138,35.75371],[139.36102,35.75385],[139.36092,35.75388],[139.36074,35.75395],[139.35914,35.75453],[139.35914,35.75455],[139.35913,35.75455],[139.35952,35.75513],[139.35965,35.75539],[139.35972,35.75553],[139.35974,35.75557],[139.36,35.75613],[139.36015,35.75644],[139.36029,35.75674],[139.36046,35.75705],[139.36051,35.75713],[139.36066,35.7574],[139.36083,35.75756],[139.36093,35.75769],[139.36133,35.75818],[139.3614,35.7583],[139.36153,35.7585],[139.36154,35.75852],[139.36176,35.75887],[139.36234,35.75979],[139.36253,35.75967],[139.36254,35.75966],[139.36272,35.75994],[139.36272,35.75995],[139.36286,35.76018],[139.36283,35.7602],[139.36285,35.76022],[139.3634,35.76065],[139.36343,35.76064],[139.36411,35.7603],[139.36429,35.76021],[139.36469,35.76002],[139.3651,35.75981]]]}},{"type":"Feature","properties":{"name":"中原三丁目","setai":458,"jinko":1255,"key":"13223016003","units":1},"geometry":{"type":"MultiPolygon","coordinates":[[[[139.36124,35.76049],[139.36171,35.76021],[139.36171,35.76022],[139.36175,35.76027],[139.36215,35.75992],[139.36233,35.7598],[139.36234,35.75979],[139.36176,35.75887],[139.36154,35.75852],[139.36153,35.7585],[139.3614,35.7583],[139.36133,35.75818],[139.36093,35.75769],[139.36083,35.75756],[139.36066,35.7574],[139.36051,35.75713],[139.36046,35.75705],[139.36029,35.75674],[139.36015,35.75644],[139.36,35.75613],[139.35974,35.75557],[139.35972,35.75553],[139.35965,35.75539],[139.35952,35.75513],[139.35913,35.75455],[139.35737,35.75524],[139.35735,35.75525],[139.35642,35.75562],[139.35622,35.7557],[139.35625,35.75576],[139.35627,35.75578],[139.35628,35.75579],[139.35644,35.75573],[139.35646,35.75572],[139.35654,35.75569],[139.3574,35.75533],[139.35741,35.75535],[139.35743,35.75534],[139.35767,35.75577],[139.35781,35.75601],[139.35808,35.75588],[139.35807,35.7558],[139.35807,35.75579],[139.35838,35.75568],[139.35841,35.75567],[139.35842,35.75566],[139.35847,35.7557],[139.35863,35.75587],[139.35869,35.75595],[139.35875,35.7561],[139.35827,35.75629],[139.35837,35.75648],[139.35837,35.75649],[139.3586,35.75694],[139.35861,35.75696],[139.35862,35.75697],[139.35864,35.75696],[139.35871,35.75693],[139.35879,35.75693],[139.35882,35.75693],[139.35883,35.75694],[139.35894,35.75701],[139.35905,35.75708],[139.35914,35.75716],[139.35914,35.75718],[139.35883,35.75734],[139.35894,35.75746],[139.35893,35.75746],[139.35894,35.75747],[139.35872,35.75758],[139.35874,35.75762],[139.35865,35.75767],[139.35875,35.75782],[139.35885,35.75793],[139.35891,35.75802],[139.35876,35.75812],[139.35881,35.75828],[139.3588,35.75829],[139.35878,35.7583],[139.35881,35.75836],[139.35887,35.75844],[139.35887,35.75844],[139.35875,35.75852],[139.35872,35.75856],[139.35879,35.75862],[139.3591,35.75894],[139.35931,35.75882],[139.35915,35.75863],[139.35923,35.75859],[139.35924,35.75859],[139.35915,35.75849],[139.35967,35.75819],[139.35967,35.75819],[139.35976,35.75824],[139.35996,35.75835],[139.35997,35.75836],[139.36002,35.75839],[139.36005,35.75843],[139.36013,35.75851],[139.36016,35.75854],[139.36016,35.75855],[139.36017,35.7586],[139.36022,35.75877],[139.36025,35.75892],[139.36028,35.75914],[139.36028,35.75925],[139.36028,35.75927],[139.36027,35.75935],[139.36024,35.75958],[139.36022,35.75959],[139.36021,35.75959],[139.36004,35.75962],[139.36002,35.75962],[139.35994,35.75964],[139.36004,35.75979],[139.36013,35.75994],[139.36016,35.75996],[139.36039,35.7602],[139.36088,35.76069],[139.36089,35.7607],[139.36102,35.76083],[139.36108,35.7608],[139.36119,35.76076],[139.36104,35.76061],[139.36103,35.7606],[139.36124,35.76049]]],[[[139.36226,35.76107],[139.36216,35.76096],[139.36248,35.76077],[139.36249,35.76078],[139.36251,35.76077],[139.36275,35.76097],[139.36291,35.76111],[139.36328,35.76079],[139.36345,35.76065],[139.36343,35.76064],[139.3634,35.76065],[139.36285,35.76022],[139.36283,35.7602],[139.36251,35.76037],[139.3625,35.76038],[139.36221,35.76051],[139.36197,35.7606],[139.36196,35.7606],[139.36194,35.76061],[139.36182,35.76063],[139.36183,35.76065],[139.36197,35.76085],[139.36197,35.76086],[139.36176,35.76099],[139.36176,35.76098],[139.36152,35.76068],[139.36124,35.76077],[139.36152,35.76112],[139.36151,35.76113],[139.36145,35.76121],[139.36169,35.76141],[139.36187,35.76132],[139.36211,35.76121],[139.36226,35.76107]]]]}},{"type":"Feature","properties":{"name":"中原四丁目","setai":163,"jinko":345,"key":"13223016004","units":1},"geometry":{"type":"Polygon","coordinates":[[[139.36217,35.75343],[139.36299,35.75314],[139.3634,35.75299],[139.36412,35.75274],[139.36486,35.75243],[139.36438,35.75145],[139.36434,35.75162],[139.36431,35.75183],[139.36362,35.75169],[139.36367,35.75144],[139.36304,35.75141],[139.36301,35.75125],[139.36285,35.75132],[139.36156,35.75115],[139.35971,35.75089],[139.35811,35.75069],[139.35807,35.75069],[139.35797,35.75115],[139.35797,35.75119],[139.35786,35.75168],[139.35776,35.75218],[139.35775,35.75219],[139.35766,35.75266],[139.35765,35.75268],[139.35755,35.75316],[139.35753,35.75325],[139.35745,35.75363],[139.35745,35.75364],[139.35744,35.75371],[139.35744,35.75373],[139.35749,35.75384],[139.35851,35.75335],[139.3588,35.75321],[139.35896,35.75314],[139.3591,35.75399],[139.3591,35.754],[139.35901,35.75401],[139.35885,35.75402],[139.35888,35.7541],[139.3589,35.75413],[139.35895,35.75423],[139.35896,35.75423],[139.35904,35.75432],[139.35904,35.75433],[139.35914,35.75452],[139.35914,35.75453],[139.36074,35.75395],[139.36092,35.75388],[139.36102,35.75385],[139.36138,35.75371],[139.36217,35.75343]]]}},{"type":"Feature","properties":{"name":"中原五丁目","setai":0,"jinko":0,"key":"13223016005","units":1},"geometry":{"type":"Polygon","coordinates":[[[139.36249,35.74781],[139.36245,35.74745],[139.36239,35.74767],[139.36227,35.74776],[139.36222,35.74778],[139.36044,35.74739],[139.35887,35.74706],[139.358,35.74687],[139.35787,35.74685],[139.35781,35.7469],[139.35768,35.74755],[139.35757,35.74806],[139.35746,35.74854],[139.35736,35.74904],[139.35725,35.74954],[139.35717,35.75004],[139.35795,35.75015],[139.35795,35.75015],[139.35794,35.75021],[139.35785,35.75064],[139.35808,35.75068],[139.35807,35.75069],[139.35811,35.75069],[139.35971,35.75089],[139.36156,35.75115],[139.36285,35.75132],[139.36301,35.75125],[139.36299,35.75115],[139.36302,35.75088],[139.36307,35.75046],[139.36305,35.75037],[139.36294,35.74983],[139.36292,35.74941],[139.36288,35.7493],[139.36267,35.74865],[139.36256,35.74823],[139.3625,35.74798],[139.36257,35.74787],[139.36249,35.74781]]]}}]}