{"type":"FeatureCollection","features":[{"type":"Feature","properties":{"name":"吉祥寺東町一丁目","setai":1889,"jinko":3054,"key":"13203001001","units":1},"geometry":{"type":"Polygon","coordinates":[[[139.5841,35.70831],[139.58421,35.70831],[139.58459,35.70834],[139.58508,35.70842],[139.58585,35.70855],[139.58638,35.70865],[139.58688,35.70874],[139.58746,35.70884],[139.58777,35.70889],[139.58816,35.7089],[139.58856,35.70894],[139.58797,35.70782],[139.58761,35.70714],[139.58721,35.70638],[139.58682,35.70566],[139.58674,35.70551],[139.58674,35.70551],[139.58606,35.70421],[139.58571,35.70437],[139.58527,35.70457],[139.58523,35.70459],[139.58494,35.70473],[139.58474,35.70482],[139.58446,35.70496],[139.58436,35.705],[139.58408,35.70513],[139.58363,35.70535],[139.58351,35.70539],[139.58324,35.70552],[139.58306,35.7056],[139.58298,35.70564],[139.58279,35.70572],[139.5828,35.70571],[139.58244,35.70587],[139.58229,35.70594],[139.5822,35.70598],[139.58184,35.70613],[139.58184,35.70615],[139.58151,35.7063],[139.58127,35.70641],[139.58125,35.70642],[139.58099,35.70655],[139.58044,35.70684],[139.58041,35.70685],[139.57942,35.70736],[139.57938,35.70738],[139.57962,35.70786],[139.57962,35.70788],[139.57979,35.70821],[139.57993,35.7085],[139.57997,35.70859],[139.5802,35.70904],[139.58022,35.70907],[139.58053,35.70896],[139.58077,35.70889],[139.58083,35.70886],[139.58121,35.70874],[139.58127,35.70872],[139.58144,35.70866],[139.58168,35.7086],[139.58198,35.70855],[139.58203,35.70855],[139.58231,35.70851],[139.58258,35.70848],[139.58278,35.70846],[139.58301,35.70844],[139.58322,35.70842],[139.58346,35.7084],[139.58389,35.70833],[139.5841,35.70831]]]}},{"type":"Feature","properties":{"name":"吉祥寺東町二丁目","setai":2618,"jinko":4805,"key":"13203001002","units":1},"geometry":{"type":"Polygon","coordinates":[[[139.58459,35.70834],[139.58421,35.70831],[139.5841,35.70831],[139.58389,35.70833],[139.58346,35.7084],[139.58322,35.70842],[139.58301,35.70844],[139.58278,35.70846],[139.58258,35.70848],[139.58231,35.70851],[139.58203,35.70855],[139.58198,35.70855],[139.58168,35.7086],[139.58144,35.70866],[139.58127,35.70872],[139.58121,35.70874],[139.58083,35.70886],[139.58077,35.70889],[139.58053,35.70896],[139.58022,35.70907],[139.58045,35.70951],[139.58056,35.70972],[139.58062,35.70984],[139.58068,35.70995],[139.58105,35.71069],[139.58117,35.71092],[139.58156,35.71167],[139.58159,35.71173],[139.58174,35.71202],[139.58184,35.71221],[139.58191,35.71234],[139.58205,35.71267],[139.58226,35.71304],[139.58244,35.7134],[139.58255,35.71359],[139.58301,35.71342],[139.58354,35.71321],[139.58384,35.71308],[139.5839,35.71305],[139.58391,35.71304],[139.58433,35.71286],[139.58451,35.71277],[139.58477,35.71265],[139.58487,35.71261],[139.58524,35.71244],[139.58601,35.71207],[139.58672,35.71174],[139.58683,35.71168],[139.58724,35.71155],[139.58749,35.71143],[139.58771,35.71127],[139.58797,35.71107],[139.58803,35.71103],[139.58844,35.71072],[139.58894,35.71033],[139.58922,35.71015],[139.58926,35.71012],[139.58944,35.71001],[139.58994,35.70969],[139.5908,35.70914],[139.59064,35.70913],[139.59003,35.70907],[139.58959,35.70903],[139.58886,35.70896],[139.58856,35.70894],[139.58816,35.7089],[139.58777,35.70889],[139.58746,35.70884],[139.58688,35.70874],[139.58638,35.70865],[139.58585,35.70855],[139.58508,35.70842],[139.58459,35.70834]]]}},{"type":"Feature","properties":{"name":"吉祥寺東町三丁目","setai":1790,"jinko":3575,"key":"13203001003","units":1},"geometry":{"type":"Polygon","coordinates":[[[139.59106,35.70552],[139.59088,35.70516],[139.59042,35.7053],[139.59018,35.70483],[139.59062,35.70466],[139.5901,35.70367],[139.59006,35.7036],[139.58957,35.70359],[139.5893,35.70358],[139.58893,35.70358],[139.58814,35.70356],[139.58755,35.70353],[139.58753,35.70353],[139.58749,35.70353],[139.58741,35.70358],[139.58724,35.70366],[139.58689,35.70382],[139.58676,35.70389],[139.58647,35.70402],[139.58633,35.70409],[139.58605,35.7042],[139.58606,35.70421],[139.58674,35.70551],[139.58674,35.70551],[139.58682,35.70566],[139.58721,35.70638],[139.58761,35.70714],[139.58797,35.70782],[139.58856,35.70894],[139.58886,35.70896],[139.58959,35.70903],[139.59003,35.70907],[139.59064,35.70913],[139.5908,35.70914],[139.59098,35.70897],[139.59128,35.70871],[139.59152,35.70849],[139.5916,35.70843],[139.59187,35.7082],[139.59199,35.7081],[139.59228,35.70784],[139.59191,35.70709],[139.5918,35.70689],[139.59154,35.70641],[139.59149,35.7063],[139.59144,35.70622],[139.59128,35.70591],[139.59126,35.70587],[139.59106,35.70552]]]}},{"type":"Feature","properties":{"name":"吉祥寺東町四丁目","setai":806,"jinko":1553,"key":"13203001004","units":1},"geometry":{"type":"Polygon","coordinates":[[[139.59527,35.70528],[139.59519,35.70513],[139.59494,35.70466],[139.59466,35.70415],[139.59443,35.70374],[139.5937,35.70371],[139.59339,35.7037],[139.59319,35.70369],[139.59315,35.70369],[139.59248,35.70366],[139.59247,35.70366],[139.59177,35.70365],[139.5915,35.70364],[139.59106,35.70362],[139.59106,35.70362],[139.59007,35.7036],[139.59006,35.7036],[139.5901,35.70367],[139.59062,35.70466],[139.59018,35.70483],[139.59042,35.7053],[139.59088,35.70516],[139.59106,35.70552],[139.59126,35.70587],[139.59128,35.70591],[139.59144,35.70622],[139.59149,35.7063],[139.59154,35.70641],[139.5918,35.70689],[139.59191,35.70709],[139.59228,35.70784],[139.59256,35.7076],[139.59277,35.70741],[139.59294,35.70727],[139.59303,35.70719],[139.5931,35.70713],[139.59328,35.70701],[139.59348,35.70689],[139.59377,35.70673],[139.59402,35.7066],[139.59452,35.70632],[139.59476,35.70617],[139.59492,35.70608],[139.59509,35.70597],[139.59521,35.70588],[139.59535,35.70578],[139.5955,35.70568],[139.59541,35.70553],[139.59527,35.70528]]]}},{"type":"Feature","properties":{"name":"吉祥寺南町一丁目","setai":1231,"jinko":2243,"key":"13203002001","units":1},"geometry":{"type":"Polygon","coordinates":[[[139.5803,35.70196],[139.58055,35.70187],[139.5807,35.7019],[139.58075,35.70185],[139.58091,35.70179],[139.58088,35.70174],[139.5813,35.70159],[139.58172,35.70144],[139.58188,35.70138],[139.58254,35.70114],[139.58307,35.70094],[139.58328,35.70087],[139.58333,35.70085],[139.58387,35.70065],[139.58368,35.70021],[139.58349,35.69983],[139.58316,35.69916],[139.58305,35.69893],[139.58295,35.69871],[139.58292,35.69867],[139.58277,35.69842],[139.58257,35.69798],[139.58245,35.69789],[139.58228,35.69814],[139.58216,35.69822],[139.58129,35.69849],[139.58076,35.69867],[139.58026,35.69878],[139.58012,35.69885],[139.57988,35.69895],[139.57974,35.69902],[139.57928,35.6994],[139.57926,35.69946],[139.57917,35.69957],[139.57897,35.69979],[139.57892,35.69999],[139.57874,35.70013],[139.57819,35.70049],[139.57786,35.70073],[139.57751,35.70097],[139.5773,35.70116],[139.57718,35.70125],[139.57705,35.7013],[139.57685,35.70138],[139.57688,35.70147],[139.57681,35.70156],[139.57657,35.70169],[139.57654,35.70171],[139.57673,35.70198],[139.57669,35.70209],[139.57671,35.70212],[139.57678,35.70222],[139.5768,35.70225],[139.57698,35.70258],[139.5772,35.70296],[139.57733,35.7032],[139.57853,35.70324],[139.57953,35.70326],[139.5798,35.70327],[139.57955,35.70278],[139.57966,35.70276],[139.57962,35.70267],[139.57966,35.70266],[139.57993,35.70258],[139.5803,35.70207],[139.58037,35.70199],[139.5803,35.70196]]]}},{"type":"Feature","properties":{"name":"吉祥寺南町二丁目","setai":1759,"jinko":2884,"key":"13203002002","units":1},"geometry":{"type":"Polygon","coordinates":[[[139.58753,35.70353],[139.58786,35.70337],[139.58793,35.70334],[139.5877,35.70286],[139.58768,35.70282],[139.58715,35.70164],[139.58707,35.70147],[139.58701,35.70124],[139.58637,35.69986],[139.58632,35.69975],[139.58595,35.69989],[139.58554,35.70004],[139.58553,35.70004],[139.58515,35.70018],[139.58512,35.70019],[139.5845,35.70042],[139.58417,35.70054],[139.58387,35.70065],[139.58333,35.70085],[139.58328,35.70087],[139.58307,35.70094],[139.58254,35.70114],[139.58188,35.70138],[139.58172,35.70144],[139.5813,35.70159],[139.58088,35.70174],[139.58091,35.70179],[139.58075,35.70185],[139.5807,35.7019],[139.58055,35.70187],[139.5803,35.70196],[139.58037,35.70199],[139.5803,35.70207],[139.57993,35.70258],[139.57966,35.70266],[139.57962,35.70267],[139.57966,35.70276],[139.57955,35.70278],[139.5798,35.70327],[139.58036,35.7033],[139.58067,35.70331],[139.58068,35.70336],[139.58119,35.70337],[139.58169,35.70338],[139.58197,35.70339],[139.58263,35.7034],[139.58265,35.7034],[139.5832,35.70344],[139.58356,35.70342],[139.58356,35.70342],[139.58387,35.70343],[139.58405,35.70343],[139.58428,35.70344],[139.58429,35.70344],[139.58486,35.70345],[139.58498,35.70345],[139.58517,35.70346],[139.58526,35.70346],[139.58599,35.70348],[139.5862,35.70349],[139.58638,35.7035],[139.58652,35.7035],[139.58749,35.70353],[139.58753,35.70353]]]}},{"type":"Feature","properties":{"name":"吉祥寺南町三丁目","setai":2040,"jinko":3735,"key":"13203002003","units":1},"geometry":{"type":"Polygon","coordinates":[[[139.59099,35.69803],[139.5914,35.69787],[139.59132,35.6977],[139.59126,35.69755],[139.59122,35.69746],[139.59083,35.69656],[139.59074,35.69636],[139.59064,35.69612],[139.59041,35.6956],[139.59034,35.69544],[139.59007,35.69482],[139.58985,35.69491],[139.58924,35.69517],[139.58893,35.6953],[139.58856,35.69545],[139.58818,35.69559],[139.58813,35.69558],[139.58813,35.69558],[139.58738,35.69479],[139.58731,35.69472],[139.58676,35.69414],[139.58661,35.69437],[139.58648,35.69451],[139.5864,35.69469],[139.5864,35.69474],[139.58638,35.69493],[139.58639,35.69503],[139.58638,35.69512],[139.58638,35.69514],[139.58616,35.69534],[139.58597,35.69549],[139.58584,35.69563],[139.58581,35.69568],[139.58578,35.69571],[139.58548,35.69609],[139.58537,35.69621],[139.58515,35.69656],[139.58495,35.69684],[139.58469,35.69722],[139.58461,35.69732],[139.58421,35.69752],[139.58393,35.69766],[139.58358,35.69779],[139.58331,35.69787],[139.58318,35.69795],[139.58298,35.698],[139.5828,35.69797],[139.58257,35.69798],[139.58277,35.69842],[139.58292,35.69867],[139.58295,35.69871],[139.58305,35.69893],[139.58316,35.69916],[139.58349,35.69983],[139.58368,35.70021],[139.58387,35.70065],[139.58417,35.70054],[139.5845,35.70042],[139.58512,35.70019],[139.58515,35.70018],[139.58553,35.70004],[139.58554,35.70004],[139.58595,35.69989],[139.58632,35.69975],[139.58673,35.69959],[139.58712,35.69945],[139.58732,35.69937],[139.58751,35.69931],[139.5879,35.69916],[139.58794,35.69915],[139.58808,35.69909],[139.58848,35.69895],[139.58851,35.69894],[139.58887,35.69881],[139.58908,35.69873],[139.58946,35.69858],[139.58965,35.69852],[139.58985,35.69845],[139.59051,35.69821],[139.59071,35.69814],[139.59099,35.69803]]]}},{"type":"Feature","properties":{"name":"吉祥寺南町四丁目","setai":1612,"jinko":2971,"key":"13203002004","units":1},"geometry":{"type":"Polygon","coordinates":[[[139.5914,35.69789],[139.5914,35.69787],[139.59099,35.69803],[139.59071,35.69814],[139.59051,35.69821],[139.58985,35.69845],[139.58965,35.69852],[139.58946,35.69858],[139.58908,35.69873],[139.58887,35.69881],[139.58851,35.69894],[139.58848,35.69895],[139.58808,35.69909],[139.58794,35.69915],[139.5879,35.69916],[139.58751,35.69931],[139.58732,35.69937],[139.58712,35.69945],[139.58673,35.69959],[139.58632,35.69975],[139.58637,35.69986],[139.58701,35.70124],[139.58707,35.70147],[139.58715,35.70164],[139.58768,35.70282],[139.5877,35.70286],[139.58793,35.70334],[139.58818,35.70322],[139.58853,35.70303],[139.58861,35.70298],[139.58867,35.70295],[139.5889,35.70283],[139.58906,35.70275],[139.58939,35.70257],[139.58948,35.70252],[139.58993,35.70229],[139.59026,35.70211],[139.59031,35.70207],[139.59059,35.70194],[139.59082,35.70184],[139.59087,35.70182],[139.59115,35.70168],[139.59123,35.70163],[139.59178,35.70138],[139.59192,35.70131],[139.59221,35.70118],[139.5923,35.70114],[139.59247,35.70105],[139.59251,35.70104],[139.59272,35.70094],[139.59234,35.70008],[139.5922,35.69975],[139.59199,35.69928],[139.59182,35.69889],[139.5914,35.69789]]]}},{"type":"Feature","properties":{"name":"吉祥寺南町五丁目","setai":949,"jinko":1674,"key":"13203002005","units":1},"geometry":{"type":"Polygon","coordinates":[[[139.59443,35.70374],[139.59438,35.70353],[139.59437,35.70349],[139.59432,35.70344],[139.59411,35.70321],[139.59401,35.70302],[139.59357,35.70223],[139.59357,35.70222],[139.59284,35.70087],[139.59272,35.70094],[139.59251,35.70104],[139.59247,35.70105],[139.5923,35.70114],[139.59221,35.70118],[139.59192,35.70131],[139.59178,35.70138],[139.59123,35.70163],[139.59115,35.70168],[139.59087,35.70182],[139.59082,35.70184],[139.59059,35.70194],[139.59031,35.70207],[139.59026,35.70211],[139.58993,35.70229],[139.58948,35.70252],[139.58939,35.70257],[139.58906,35.70275],[139.5889,35.70283],[139.58867,35.70295],[139.58861,35.70298],[139.58853,35.70303],[139.58818,35.70322],[139.58793,35.70334],[139.58786,35.70337],[139.58753,35.70353],[139.58755,35.70353],[139.58814,35.70356],[139.58893,35.70358],[139.5893,35.70358],[139.58957,35.70359],[139.59006,35.7036],[139.59007,35.7036],[139.59106,35.70362],[139.59106,35.70362],[139.5915,35.70364],[139.59177,35.70365],[139.59247,35.70366],[139.59248,35.70366],[139.59315,35.70369],[139.59319,35.70369],[139.59339,35.7037],[139.5937,35.70371],[139.59443,35.70374]]]}},{"type":"Feature","properties":{"name":"御殿山一丁目","setai":1418,"jinko":2417,"key":"13203003001","units":1},"geometry":{"type":"Polygon","coordinates":[[[139.57733,35.7032],[139.5772,35.70296],[139.57698,35.70258],[139.5768,35.70225],[139.57678,35.70222],[139.57671,35.70212],[139.57669,35.70209],[139.57673,35.70198],[139.57654,35.70171],[139.57657,35.70169],[139.5764,35.70146],[139.57628,35.70152],[139.57614,35.70156],[139.57607,35.70157],[139.576,35.70154],[139.57577,35.70139],[139.57551,35.70133],[139.5753,35.70127],[139.57519,35.70122],[139.57493,35.70103],[139.57489,35.70098],[139.57491,35.70081],[139.5751,35.70083],[139.57506,35.70067],[139.57499,35.70052],[139.5747,35.70018],[139.57449,35.69999],[139.57407,35.69975],[139.57408,35.69937],[139.57385,35.69929],[139.57323,35.69905],[139.57291,35.69893],[139.57271,35.69888],[139.57259,35.69884],[139.57256,35.69804],[139.57255,35.69768],[139.57254,35.69734],[139.57253,35.69725],[139.57171,35.69832],[139.57156,35.69847],[139.57141,35.69859],[139.57124,35.69871],[139.57103,35.69884],[139.57078,35.69898],[139.57034,35.69921],[139.57033,35.69921],[139.57019,35.69928],[139.56925,35.69967],[139.5686,35.69993],[139.56928,35.70098],[139.56942,35.70115],[139.56963,35.70146],[139.57028,35.70244],[139.57017,35.70248],[139.57037,35.70282],[139.57047,35.70298],[139.5707,35.70299],[139.57128,35.70301],[139.57132,35.70302],[139.57192,35.70303],[139.57194,35.70303],[139.57262,35.70305],[139.57285,35.70305],[139.57325,35.70305],[139.5737,35.70308],[139.57412,35.7031],[139.57422,35.7031],[139.57472,35.70312],[139.57518,35.70314],[139.57542,35.70315],[139.57638,35.70319],[139.57664,35.70318],[139.57679,35.70318],[139.57729,35.70319],[139.57729,35.7032],[139.57733,35.7032]]]}},{"type":"Feature","properties":{"name":"御殿山二丁目","setai":1098,"jinko":2077,"key":"13203003002","units":1},"geometry":{"type":"Polygon","coordinates":[[[139.57047,35.70298],[139.57037,35.70282],[139.57017,35.70248],[139.57028,35.70244],[139.56963,35.70146],[139.56942,35.70115],[139.56928,35.70098],[139.5686,35.69993],[139.56816,35.70011],[139.56726,35.70042],[139.56697,35.70054],[139.56681,35.70059],[139.56674,35.70062],[139.5666,35.70067],[139.56644,35.70073],[139.56628,35.7008],[139.56575,35.70097],[139.56543,35.70111],[139.56525,35.70117],[139.5649,35.7013],[139.56475,35.70135],[139.56442,35.70149],[139.56423,35.70156],[139.56401,35.70164],[139.56392,35.70167],[139.56352,35.70182],[139.56348,35.70183],[139.56338,35.70187],[139.56308,35.70198],[139.56281,35.70208],[139.56224,35.70228],[139.56209,35.70234],[139.5618,35.70247],[139.56243,35.70283],[139.56378,35.70286],[139.56457,35.70289],[139.56481,35.7029],[139.5662,35.70293],[139.56646,35.70294],[139.56662,35.70295],[139.56662,35.70291],[139.56697,35.70291],[139.56754,35.70294],[139.56782,35.70294],[139.56842,35.70295],[139.56877,35.70295],[139.56887,35.70295],[139.569,35.70295],[139.56958,35.70296],[139.56984,35.70297],[139.57002,35.70298],[139.57047,35.70298]]]}},{"type":"Feature","properties":{"name":"吉祥寺本町一丁目","setai":1477,"jinko":2185,"key":"13203004001","units":1},"geometry":{"type":"Polygon","coordinates":[[[139.58244,35.70587],[139.5828,35.70571],[139.58279,35.70572],[139.58298,35.70564],[139.58306,35.7056],[139.58324,35.70552],[139.58351,35.70539],[139.58363,35.70535],[139.58408,35.70513],[139.58436,35.705],[139.58446,35.70496],[139.58474,35.70482],[139.58494,35.70473],[139.58523,35.70459],[139.58527,35.70457],[139.58571,35.70437],[139.58606,35.70421],[139.58605,35.7042],[139.58633,35.70409],[139.58647,35.70402],[139.58676,35.70389],[139.58689,35.70382],[139.58724,35.70366],[139.58741,35.70358],[139.58749,35.70353],[139.58652,35.7035],[139.58638,35.7035],[139.5862,35.70349],[139.58599,35.70348],[139.58526,35.70346],[139.58517,35.70346],[139.58498,35.70345],[139.58486,35.70345],[139.58429,35.70344],[139.58428,35.70344],[139.58405,35.70343],[139.58387,35.70343],[139.58356,35.70342],[139.58356,35.70342],[139.5832,35.70344],[139.58265,35.7034],[139.58263,35.7034],[139.58197,35.70339],[139.58169,35.70338],[139.58119,35.70337],[139.58068,35.70336],[139.58067,35.70331],[139.58036,35.7033],[139.5798,35.70327],[139.57953,35.70326],[139.57853,35.70324],[139.57733,35.7032],[139.57729,35.7032],[139.57728,35.70319],[139.57742,35.70346],[139.57743,35.70348],[139.5777,35.70402],[139.57791,35.70443],[139.57792,35.70444],[139.57837,35.70531],[139.57839,35.70535],[139.57846,35.70549],[139.57889,35.70633],[139.5792,35.70693],[139.57942,35.70736],[139.58041,35.70685],[139.58044,35.70684],[139.58099,35.70655],[139.58125,35.70642],[139.58127,35.70641],[139.58151,35.7063],[139.58184,35.70615],[139.58184,35.70613],[139.5822,35.70598],[139.58229,35.70594],[139.58244,35.70587]]]}},{"type":"Feature","properties":{"name":"吉祥寺本町二丁目","setai":2190,"jinko":3077,"key":"13203004002","units":1},"geometry":{"type":"Polygon","coordinates":[[[139.57837,35.70531],[139.57792,35.70444],[139.57791,35.70443],[139.5777,35.70402],[139.57743,35.70348],[139.57742,35.70346],[139.57728,35.70319],[139.57729,35.7032],[139.57729,35.70319],[139.57679,35.70318],[139.57664,35.70318],[139.57638,35.70319],[139.57542,35.70315],[139.57518,35.70314],[139.57472,35.70312],[139.57422,35.7031],[139.57412,35.7031],[139.5737,35.70308],[139.57325,35.70305],[139.57374,35.70395],[139.5736,35.704],[139.57404,35.70478],[139.57409,35.70476],[139.57462,35.7057],[139.57489,35.70618],[139.57511,35.70657],[139.57574,35.70773],[139.57576,35.70777],[139.57623,35.7086],[139.57648,35.7085],[139.57676,35.7084],[139.57702,35.70831],[139.57731,35.70819],[139.57757,35.70809],[139.57783,35.70799],[139.57808,35.70788],[139.57832,35.7078],[139.57829,35.70779],[139.57847,35.70772],[139.57856,35.7077],[139.57873,35.70763],[139.57882,35.70759],[139.57899,35.70752],[139.57912,35.70748],[139.57938,35.70738],[139.57942,35.70736],[139.5792,35.70693],[139.57889,35.70633],[139.57846,35.70549],[139.57839,35.70535],[139.57837,35.70531]]]}},{"type":"Feature","properties":{"name":"吉祥寺本町三丁目","setai":1855,"jinko":3122,"key":"13203004003","units":1},"geometry":{"type":"Polygon","coordinates":[[[139.56697,35.70291],[139.56662,35.70291],[139.56662,35.70295],[139.56664,35.7031],[139.5667,35.70335],[139.56683,35.70357],[139.56692,35.7037],[139.5669,35.70373],[139.56745,35.70471],[139.56789,35.70547],[139.568,35.70567],[139.56801,35.70568],[139.56862,35.70679],[139.56885,35.70672],[139.56901,35.70667],[139.56912,35.70664],[139.56929,35.70657],[139.56976,35.70641],[139.57002,35.70631],[139.57056,35.70611],[139.57091,35.70597],[139.57099,35.70594],[139.57126,35.70584],[139.57141,35.70578],[139.57168,35.70568],[139.57213,35.70551],[139.57262,35.70532],[139.57282,35.70524],[139.57313,35.70512],[139.57363,35.70493],[139.57404,35.70478],[139.5736,35.704],[139.57374,35.70395],[139.57325,35.70305],[139.57285,35.70305],[139.57262,35.70305],[139.57194,35.70303],[139.57192,35.70303],[139.57132,35.70302],[139.57128,35.70301],[139.5707,35.70299],[139.57047,35.70298],[139.57002,35.70298],[139.56984,35.70297],[139.56958,35.70296],[139.569,35.70295],[139.56887,35.70295],[139.56877,35.70295],[139.56842,35.70295],[139.56782,35.70294],[139.56754,35.70294],[139.56697,35.70291]]]}},{"type":"Feature","properties":{"name":"吉祥寺本町四丁目","setai":2167,"jinko":3989,"key":"13203004004","units":1},"geometry":{"type":"Polygon","coordinates":[[[139.57462,35.7057],[139.57409,35.70476],[139.57404,35.70478],[139.57363,35.70493],[139.57313,35.70512],[139.57282,35.70524],[139.57262,35.70532],[139.57213,35.70551],[139.57168,35.70568],[139.57141,35.70578],[139.57126,35.70584],[139.57099,35.70594],[139.57091,35.70597],[139.57056,35.70611],[139.57002,35.70631],[139.56976,35.70641],[139.56929,35.70657],[139.56912,35.70664],[139.56901,35.70667],[139.56885,35.70672],[139.56862,35.70679],[139.56858,35.70681],[139.56901,35.70756],[139.56922,35.70791],[139.56961,35.70861],[139.56961,35.70863],[139.56976,35.70891],[139.57015,35.70958],[139.57058,35.71032],[139.57059,35.71031],[139.57142,35.71006],[139.57174,35.70997],[139.57203,35.70988],[139.57235,35.70979],[139.5726,35.70971],[139.57328,35.7095],[139.57337,35.70949],[139.57391,35.70933],[139.57415,35.70926],[139.5742,35.70925],[139.57441,35.70919],[139.57471,35.70909],[139.57494,35.70903],[139.57522,35.70894],[139.57562,35.70882],[139.5758,35.70875],[139.57597,35.7087],[139.57623,35.7086],[139.57576,35.70777],[139.57574,35.70773],[139.57511,35.70657],[139.57489,35.70618],[139.57462,35.7057]]]}},{"type":"Feature","properties":{"name":"吉祥寺北町一丁目","setai":2106,"jinko":3921,"key":"13203005001","units":1},"geometry":{"type":"Polygon","coordinates":[[[139.57668,35.71277],[139.5769,35.71269],[139.57698,35.71281],[139.57727,35.71271],[139.57753,35.71261],[139.57788,35.71248],[139.57829,35.71233],[139.57877,35.71216],[139.5793,35.71195],[139.57917,35.71169],[139.57964,35.7115],[139.57989,35.71141],[139.58041,35.71122],[139.58074,35.71108],[139.58093,35.71101],[139.58117,35.71092],[139.58105,35.71069],[139.58068,35.70995],[139.58062,35.70984],[139.58056,35.70972],[139.58045,35.70951],[139.58022,35.70907],[139.5802,35.70904],[139.57997,35.70859],[139.57993,35.7085],[139.57979,35.70821],[139.57962,35.70788],[139.57962,35.70786],[139.57938,35.70738],[139.57912,35.70748],[139.57899,35.70752],[139.57882,35.70759],[139.57873,35.70763],[139.57856,35.7077],[139.57847,35.70772],[139.57829,35.70779],[139.57832,35.7078],[139.57808,35.70788],[139.57783,35.70799],[139.57757,35.70809],[139.57731,35.70819],[139.57702,35.70831],[139.57676,35.7084],[139.57648,35.7085],[139.57623,35.7086],[139.57597,35.7087],[139.5758,35.70875],[139.57562,35.70882],[139.57522,35.70894],[139.57494,35.70903],[139.57471,35.70909],[139.57441,35.70919],[139.5742,35.70925],[139.57415,35.70926],[139.57391,35.70933],[139.57443,35.7103],[139.57471,35.7108],[139.57471,35.7108],[139.57602,35.71321],[139.57603,35.7132],[139.57627,35.71312],[139.57651,35.71304],[139.57641,35.71287],[139.57668,35.71277]]]}},{"type":"Feature","properties":{"name":"吉祥寺北町二丁目","setai":1209,"jinko":2981,"key":"13203005002","units":1},"geometry":{"type":"Polygon","coordinates":[[[139.58226,35.71304],[139.58205,35.71267],[139.58191,35.71234],[139.58184,35.71221],[139.58174,35.71202],[139.58159,35.71173],[139.58156,35.71167],[139.58117,35.71092],[139.58093,35.71101],[139.58074,35.71108],[139.58041,35.71122],[139.57989,35.71141],[139.57964,35.7115],[139.57917,35.71169],[139.5793,35.71195],[139.57877,35.71216],[139.57829,35.71233],[139.57788,35.71248],[139.57753,35.71261],[139.57727,35.71271],[139.57698,35.71281],[139.5769,35.71269],[139.57668,35.71277],[139.57641,35.71287],[139.57651,35.71304],[139.57627,35.71312],[139.57603,35.7132],[139.57645,35.71396],[139.5765,35.7141],[139.5769,35.71484],[139.57734,35.71562],[139.57779,35.71641],[139.57791,35.71663],[139.57837,35.71626],[139.57861,35.71606],[139.57869,35.716],[139.57878,35.71592],[139.57903,35.71572],[139.57924,35.71557],[139.57936,35.71548],[139.57971,35.71524],[139.58011,35.71496],[139.58014,35.71494],[139.58044,35.71475],[139.58065,35.71462],[139.58069,35.7146],[139.58113,35.71434],[139.58138,35.71418],[139.58169,35.71402],[139.58197,35.71387],[139.58215,35.71378],[139.58255,35.71359],[139.58244,35.7134],[139.58226,35.71304]]]}},{"type":"Feature","properties":{"name":"吉祥寺北町三丁目","setai":1837,"jinko":3980,"key":"13203005003","units":1},"geometry":{"type":"Polygon","coordinates":[[[139.57645,35.71396],[139.57603,35.7132],[139.57602,35.71321],[139.57471,35.7108],[139.57471,35.7108],[139.57443,35.7103],[139.57391,35.70933],[139.57337,35.70949],[139.57328,35.7095],[139.5726,35.70971],[139.57235,35.70979],[139.57203,35.70988],[139.57174,35.70997],[139.57142,35.71006],[139.57059,35.71031],[139.57058,35.71032],[139.57022,35.71044],[139.5701,35.71048],[139.57005,35.71049],[139.56981,35.71057],[139.56944,35.71069],[139.56938,35.71071],[139.56892,35.71087],[139.56838,35.71104],[139.56865,35.71153],[139.5688,35.71177],[139.56889,35.71193],[139.56899,35.71211],[139.56935,35.71279],[139.56936,35.71279],[139.5696,35.71322],[139.56972,35.71344],[139.56979,35.71357],[139.57026,35.71438],[139.57071,35.71519],[139.57073,35.71521],[139.57107,35.71579],[139.57167,35.7169],[139.57194,35.71736],[139.57201,35.71751],[139.57222,35.7179],[139.57243,35.71826],[139.5731,35.71946],[139.57359,35.71931],[139.57384,35.71923],[139.57452,35.719],[139.57463,35.71896],[139.57469,35.71894],[139.57496,35.71881],[139.57507,35.71879],[139.57513,35.71876],[139.57545,35.71858],[139.57563,35.71847],[139.57579,35.71836],[139.57611,35.71814],[139.57653,35.71781],[139.57658,35.71777],[139.57659,35.71776],[139.57698,35.71743],[139.57724,35.71721],[139.57791,35.71663],[139.57779,35.71641],[139.57734,35.71562],[139.5769,35.71484],[139.5765,35.7141],[139.57645,35.71396]]]}},{"type":"Feature","properties":{"name":"吉祥寺北町四丁目","setai":1665,"jinko":3709,"key":"13203005004","units":1},"geometry":{"type":"Polygon","coordinates":[[[139.5696,35.71322],[139.56936,35.71279],[139.56935,35.71279],[139.56899,35.71211],[139.56889,35.71193],[139.5688,35.71177],[139.56865,35.71153],[139.56838,35.71104],[139.56834,35.71106],[139.56819,35.7111],[139.56776,35.71126],[139.56744,35.71137],[139.56714,35.71148],[139.56693,35.71156],[139.56673,35.71163],[139.56645,35.71173],[139.56636,35.71177],[139.56568,35.71202],[139.56567,35.71205],[139.56555,35.71209],[139.56508,35.71231],[139.56499,35.71235],[139.56465,35.71249],[139.5642,35.7127],[139.56377,35.71281],[139.56376,35.71282],[139.56409,35.71339],[139.56411,35.71342],[139.56432,35.71377],[139.56464,35.71431],[139.56466,35.71435],[139.56476,35.71451],[139.56518,35.71522],[139.56535,35.71553],[139.56592,35.71649],[139.56599,35.71661],[139.56622,35.71699],[139.56661,35.71686],[139.56767,35.71651],[139.56775,35.71646],[139.5679,35.71634],[139.56795,35.71625],[139.56798,35.71615],[139.56837,35.71602],[139.56889,35.71584],[139.56906,35.71578],[139.56923,35.71571],[139.56941,35.71566],[139.56978,35.71554],[139.57027,35.71536],[139.57073,35.71521],[139.57071,35.71519],[139.57026,35.71438],[139.56979,35.71357],[139.56972,35.71344],[139.5696,35.71322]]]}},{"type":"Feature","properties":{"name":"吉祥寺北町五丁目","setai":763,"jinko":1779,"key":"13203005005","units":1},"geometry":{"type":"Polygon","coordinates":[[[139.57107,35.71579],[139.57073,35.71521],[139.57027,35.71536],[139.56978,35.71554],[139.56941,35.71566],[139.56923,35.71571],[139.56906,35.71578],[139.56889,35.71584],[139.56837,35.71602],[139.56798,35.71615],[139.56795,35.71625],[139.5679,35.71634],[139.56775,35.71646],[139.56767,35.71651],[139.56661,35.71686],[139.56622,35.71699],[139.56686,35.71807],[139.5679,35.71982],[139.5679,35.71983],[139.56849,35.72081],[139.56856,35.7208],[139.56981,35.72045],[139.57002,35.72039],[139.57006,35.72038],[139.57062,35.72019],[139.57104,35.72005],[139.57127,35.71998],[139.57172,35.71983],[139.57201,35.71975],[139.57248,35.71963],[139.57304,35.71948],[139.5731,35.71946],[139.57243,35.71826],[139.57222,35.7179],[139.57201,35.71751],[139.57194,35.71736],[139.57167,35.7169],[139.57107,35.71579]]]}},{"type":"Feature","properties":{"name":"中町一丁目","setai":2244,"jinko":3772,"key":"13203006001","units":1},"geometry":{"type":"Polygon","coordinates":[[[139.56243,35.70283],[139.5618,35.70247],[139.56163,35.70254],[139.56065,35.7029],[139.56001,35.70314],[139.55965,35.70329],[139.55927,35.70343],[139.55889,35.70358],[139.55886,35.70359],[139.55873,35.70363],[139.55909,35.70418],[139.5591,35.70419],[139.55938,35.70467],[139.55965,35.70514],[139.55966,35.70515],[139.55983,35.70543],[139.55984,35.70545],[139.55995,35.70564],[139.56014,35.70595],[139.56013,35.70595],[139.5601,35.70598],[139.56015,35.70605],[139.56042,35.70595],[139.56179,35.70545],[139.56184,35.70543],[139.56188,35.70541],[139.5629,35.70502],[139.5633,35.70487],[139.56333,35.70487],[139.56359,35.70485],[139.5638,35.70483],[139.56403,35.70475],[139.56408,35.70474],[139.5643,35.70468],[139.56468,35.70456],[139.56498,35.70445],[139.56507,35.70441],[139.56526,35.70434],[139.56534,35.70432],[139.56565,35.70419],[139.56569,35.70418],[139.56598,35.70407],[139.56613,35.70401],[139.56633,35.70394],[139.56662,35.70383],[139.5669,35.70373],[139.56692,35.7037],[139.56683,35.70357],[139.5667,35.70335],[139.56664,35.7031],[139.56662,35.70295],[139.56646,35.70294],[139.5662,35.70293],[139.56481,35.7029],[139.56457,35.70289],[139.56378,35.70286],[139.56243,35.70283]]]}},{"type":"Feature","properties":{"name":"中町二丁目","setai":2587,"jinko":4516,"key":"13203006002","units":1},"geometry":{"type":"Polygon","coordinates":[[[139.56745,35.70471],[139.5669,35.70373],[139.56662,35.70383],[139.56633,35.70394],[139.56613,35.70401],[139.56598,35.70407],[139.56569,35.70418],[139.56565,35.70419],[139.56534,35.70432],[139.56526,35.70434],[139.56507,35.70441],[139.56498,35.70445],[139.56468,35.70456],[139.5643,35.70468],[139.56408,35.70474],[139.56403,35.70475],[139.5638,35.70483],[139.56359,35.70485],[139.56333,35.70487],[139.5633,35.70487],[139.5629,35.70502],[139.56188,35.70541],[139.56184,35.70543],[139.56179,35.70545],[139.56042,35.70595],[139.56015,35.70605],[139.56037,35.7065],[139.56042,35.70658],[139.56078,35.70716],[139.56083,35.70727],[139.56089,35.70728],[139.56097,35.7074],[139.56098,35.70741],[139.56122,35.70779],[139.56129,35.7079],[139.56149,35.70824],[139.56155,35.70836],[139.56166,35.70854],[139.56172,35.70864],[139.56205,35.70919],[139.56221,35.70947],[139.56279,35.70925],[139.56283,35.70924],[139.56305,35.70914],[139.56325,35.70905],[139.56351,35.70895],[139.5638,35.7088],[139.56416,35.7086],[139.56452,35.7084],[139.56456,35.70839],[139.5649,35.70819],[139.56493,35.70817],[139.56518,35.70805],[139.56579,35.7078],[139.56596,35.70774],[139.56599,35.70773],[139.56637,35.70758],[139.56658,35.7075],[139.56696,35.70736],[139.56739,35.70719],[139.56769,35.70707],[139.56784,35.70704],[139.56811,35.70695],[139.56835,35.70687],[139.56858,35.70681],[139.56862,35.70679],[139.56801,35.70568],[139.568,35.70567],[139.56789,35.70547],[139.56745,35.70471]]]}},{"type":"Feature","properties":{"name":"中町三丁目","setai":3309,"jinko":6718,"key":"13203006003","units":1},"geometry":{"type":"Polygon","coordinates":[[[139.56901,35.70756],[139.56858,35.70681],[139.56835,35.70687],[139.56811,35.70695],[139.56784,35.70704],[139.56769,35.70707],[139.56739,35.70719],[139.56696,35.70736],[139.56658,35.7075],[139.56637,35.70758],[139.56599,35.70773],[139.56596,35.70774],[139.56579,35.7078],[139.56518,35.70805],[139.56493,35.70817],[139.5649,35.70819],[139.56456,35.70839],[139.56452,35.7084],[139.56416,35.7086],[139.5638,35.7088],[139.56351,35.70895],[139.56325,35.70905],[139.56305,35.70914],[139.56283,35.70924],[139.56279,35.70925],[139.56221,35.70947],[139.5625,35.70996],[139.56261,35.71014],[139.56265,35.71021],[139.56317,35.71107],[139.56317,35.71108],[139.56339,35.71143],[139.56375,35.71199],[139.56395,35.71231],[139.5642,35.7127],[139.56465,35.71249],[139.56499,35.71235],[139.56508,35.71231],[139.56555,35.71209],[139.56567,35.71205],[139.56568,35.71202],[139.56636,35.71177],[139.56645,35.71173],[139.56673,35.71163],[139.56693,35.71156],[139.56714,35.71148],[139.56744,35.71137],[139.56776,35.71126],[139.56819,35.7111],[139.56834,35.71106],[139.56838,35.71104],[139.56892,35.71087],[139.56938,35.71071],[139.56944,35.71069],[139.56981,35.71057],[139.57005,35.71049],[139.5701,35.71048],[139.57022,35.71044],[139.57058,35.71032],[139.57015,35.70958],[139.56976,35.70891],[139.56961,35.70863],[139.56961,35.70861],[139.56922,35.70791],[139.56901,35.70756]]]}},{"type":"Feature","properties":{"name":"西久保一丁目","setai":1249,"jinko":2597,"key":"13203007001","units":1},"geometry":{"type":"Polygon","coordinates":[[[139.55873,35.70363],[139.55872,35.7036],[139.55847,35.7037],[139.55805,35.70388],[139.55762,35.70404],[139.55748,35.70409],[139.55738,35.70413],[139.55713,35.70423],[139.55685,35.70435],[139.55653,35.70448],[139.5563,35.70456],[139.55521,35.70498],[139.5545,35.70526],[139.55442,35.70529],[139.55407,35.70544],[139.55391,35.70551],[139.55322,35.70577],[139.55272,35.70597],[139.55232,35.70611],[139.55233,35.70612],[139.55272,35.70669],[139.55303,35.70713],[139.55337,35.70761],[139.55354,35.70785],[139.55407,35.70859],[139.55446,35.70853],[139.55485,35.70847],[139.55531,35.70839],[139.5556,35.70832],[139.55594,35.70826],[139.55633,35.70821],[139.55676,35.70813],[139.5572,35.70804],[139.55786,35.70793],[139.55791,35.70793],[139.55817,35.70788],[139.55861,35.70781],[139.559,35.70774],[139.55969,35.70762],[139.56031,35.70752],[139.56097,35.7074],[139.56089,35.70728],[139.56083,35.70727],[139.56078,35.70716],[139.56042,35.70658],[139.56037,35.7065],[139.56015,35.70605],[139.5601,35.70598],[139.56013,35.70595],[139.56014,35.70595],[139.55995,35.70564],[139.55984,35.70545],[139.55983,35.70543],[139.55966,35.70515],[139.55965,35.70514],[139.55938,35.70467],[139.5591,35.70419],[139.55909,35.70418],[139.55873,35.70363]]]}},{"type":"Feature","properties":{"name":"西久保二丁目","setai":2669,"jinko":4717,"key":"13203007002","units":1},"geometry":{"type":"Polygon","coordinates":[[[139.55766,35.71081],[139.55798,35.71065],[139.55813,35.71087],[139.55848,35.71072],[139.55878,35.71059],[139.55909,35.71045],[139.5594,35.71032],[139.55954,35.71025],[139.56002,35.71004],[139.56034,35.7099],[139.5604,35.70986],[139.56063,35.70976],[139.56091,35.70963],[139.56095,35.70968],[139.56106,35.70986],[139.56161,35.70967],[139.56221,35.70947],[139.56205,35.70919],[139.56172,35.70864],[139.56166,35.70854],[139.56155,35.70836],[139.56149,35.70824],[139.56129,35.7079],[139.56122,35.70779],[139.56098,35.70741],[139.56097,35.7074],[139.56031,35.70752],[139.55969,35.70762],[139.559,35.70774],[139.55861,35.70781],[139.55817,35.70788],[139.55791,35.70793],[139.55786,35.70793],[139.5572,35.70804],[139.55676,35.70813],[139.55633,35.70821],[139.55594,35.70826],[139.5556,35.70832],[139.55531,35.70839],[139.55485,35.70847],[139.55446,35.70853],[139.55407,35.70859],[139.55408,35.7086],[139.55503,35.70996],[139.55513,35.7101],[139.5555,35.71063],[139.55569,35.71091],[139.55581,35.71109],[139.55583,35.71111],[139.55627,35.71174],[139.55661,35.71161],[139.55722,35.71135],[139.55742,35.71128],[139.55724,35.71099],[139.55766,35.71081]]]}},{"type":"Feature","properties":{"name":"西久保三丁目","setai":2730,"jinko":4899,"key":"13203007003","units":1},"geometry":{"type":"Polygon","coordinates":[[[139.56317,35.71107],[139.56265,35.71021],[139.56261,35.71014],[139.5625,35.70996],[139.56221,35.70947],[139.56161,35.70967],[139.56106,35.70986],[139.56095,35.70968],[139.56091,35.70963],[139.56063,35.70976],[139.5604,35.70986],[139.56034,35.7099],[139.56002,35.71004],[139.55954,35.71025],[139.5594,35.71032],[139.55909,35.71045],[139.55878,35.71059],[139.55848,35.71072],[139.55813,35.71087],[139.55798,35.71065],[139.55766,35.71081],[139.55724,35.71099],[139.55742,35.71128],[139.55722,35.71135],[139.55661,35.71161],[139.55627,35.71174],[139.55628,35.71177],[139.55695,35.71273],[139.55719,35.71309],[139.55729,35.71321],[139.55742,35.71339],[139.55779,35.71393],[139.5578,35.71393],[139.55817,35.71386],[139.55849,35.7138],[139.55934,35.71365],[139.55942,35.71363],[139.55993,35.71352],[139.5603,35.71346],[139.56062,35.7134],[139.56069,35.71338],[139.56094,35.71334],[139.56101,35.71332],[139.56129,35.71326],[139.56148,35.71323],[139.56161,35.7132],[139.56198,35.71314],[139.56233,35.71307],[139.56264,35.71302],[139.56268,35.71301],[139.56296,35.71296],[139.56303,35.71295],[139.56322,35.71292],[139.56342,35.71287],[139.56377,35.71281],[139.5642,35.7127],[139.56395,35.71231],[139.56375,35.71199],[139.56339,35.71143],[139.56317,35.71108],[139.56317,35.71107]]]}},{"type":"Feature","properties":{"name":"緑町一丁目","setai":1115,"jinko":2271,"key":"13203008001","units":1},"geometry":{"type":"Polygon","coordinates":[[[139.56376,35.71282],[139.56377,35.71281],[139.56342,35.71287],[139.56322,35.71292],[139.56303,35.71295],[139.56296,35.71296],[139.56268,35.71301],[139.56264,35.71302],[139.56233,35.71307],[139.56198,35.71314],[139.56161,35.7132],[139.56148,35.71323],[139.56129,35.71326],[139.56101,35.71332],[139.56094,35.71334],[139.56069,35.71338],[139.56062,35.7134],[139.5603,35.71346],[139.55993,35.71352],[139.55942,35.71363],[139.55934,35.71365],[139.55849,35.7138],[139.55817,35.71386],[139.5578,35.71393],[139.55779,35.71393],[139.55764,35.71397],[139.55854,35.71552],[139.55891,35.71616],[139.55915,35.71657],[139.55955,35.7164],[139.5601,35.71618],[139.56027,35.71611],[139.56068,35.71595],[139.56091,35.71585],[139.56151,35.71561],[139.56184,35.71547],[139.56217,35.71533],[139.56236,35.71526],[139.56245,35.71522],[139.56265,35.71514],[139.56269,35.71512],[139.56355,35.71479],[139.56369,35.71472],[139.56397,35.71462],[139.56414,35.71456],[139.56466,35.71435],[139.56464,35.71431],[139.56432,35.71377],[139.56411,35.71342],[139.56409,35.71339],[139.56376,35.71282]]]}},{"type":"Feature","properties":{"name":"緑町二丁目","setai":2460,"jinko":5428,"key":"13203008002","units":1},"geometry":{"type":"Polygon","coordinates":[[[139.56206,35.71891],[139.56244,35.71877],[139.56282,35.71898],[139.56311,35.71909],[139.56348,35.71914],[139.56369,35.71914],[139.56401,35.71912],[139.56444,35.71897],[139.56489,35.71881],[139.56497,35.71878],[139.56686,35.71807],[139.56622,35.71699],[139.56599,35.71661],[139.56592,35.71649],[139.56535,35.71553],[139.56518,35.71522],[139.56476,35.71451],[139.56466,35.71435],[139.56414,35.71456],[139.56397,35.71462],[139.56369,35.71472],[139.56355,35.71479],[139.56269,35.71512],[139.56265,35.71514],[139.56245,35.71522],[139.56236,35.71526],[139.56217,35.71533],[139.56184,35.71547],[139.56151,35.71561],[139.56091,35.71585],[139.56068,35.71595],[139.56027,35.71611],[139.5601,35.71618],[139.55955,35.7164],[139.55915,35.71657],[139.55927,35.71677],[139.55928,35.71679],[139.55955,35.71727],[139.55971,35.7175],[139.55996,35.71793],[139.56022,35.71836],[139.56032,35.71852],[139.56057,35.71892],[139.56084,35.7194],[139.56153,35.71912],[139.56206,35.71891]]]}},{"type":"Feature","properties":{"name":"緑町三丁目","setai":308,"jinko":724,"key":"13203008003","units":1},"geometry":{"type":"Polygon","coordinates":[[[139.5679,35.71982],[139.56686,35.71807],[139.56497,35.71878],[139.56489,35.71881],[139.56444,35.71897],[139.56401,35.71912],[139.56369,35.71914],[139.56348,35.71914],[139.56311,35.71909],[139.56282,35.71898],[139.56244,35.71877],[139.56206,35.71891],[139.56153,35.71912],[139.56084,35.7194],[139.5608,35.71939],[139.56207,35.72153],[139.56213,35.72181],[139.56214,35.7218],[139.56218,35.72177],[139.56276,35.72176],[139.56335,35.72173],[139.56401,35.72166],[139.5641,35.72165],[139.56459,35.7216],[139.56504,35.72154],[139.56516,35.72152],[139.56538,35.72148],[139.56633,35.7213],[139.56638,35.72128],[139.56696,35.72116],[139.56748,35.72104],[139.56798,35.72094],[139.56849,35.72081],[139.5679,35.71983],[139.5679,35.71982]]]}},{"type":"Feature","properties":{"name":"八幡町一丁目","setai":620,"jinko":1251,"key":"13203009001","units":1},"geometry":{"type":"Polygon","coordinates":[[[139.55854,35.71552],[139.55764,35.71397],[139.55748,35.714],[139.55697,35.71412],[139.55634,35.71426],[139.55616,35.71432],[139.55606,35.71435],[139.55564,35.71445],[139.55559,35.71447],[139.55535,35.71454],[139.55519,35.71459],[139.55498,35.71465],[139.55455,35.71477],[139.55447,35.71478],[139.55416,35.71487],[139.55388,35.71494],[139.55368,35.71499],[139.55362,35.71501],[139.55399,35.71561],[139.55434,35.71621],[139.55454,35.71654],[139.55488,35.71711],[139.55544,35.71805],[139.55594,35.71783],[139.55615,35.71776],[139.55669,35.71754],[139.55701,35.7174],[139.55728,35.71729],[139.5578,35.71708],[139.55859,35.71676],[139.55915,35.71657],[139.55891,35.71616],[139.55854,35.71552]]]}},{"type":"Feature","properties":{"name":"八幡町二丁目","setai":258,"jinko":708,"key":"13203009002","units":1},"geometry":{"type":"Polygon","coordinates":[[[139.56207,35.72153],[139.5608,35.71939],[139.56084,35.7194],[139.56057,35.71892],[139.56032,35.71852],[139.56022,35.71836],[139.55996,35.71793],[139.55971,35.7175],[139.55955,35.71727],[139.55928,35.71679],[139.55927,35.71677],[139.55915,35.71657],[139.55859,35.71676],[139.5578,35.71708],[139.55728,35.71729],[139.55701,35.7174],[139.55669,35.71754],[139.55615,35.71776],[139.55594,35.71783],[139.55544,35.71805],[139.55564,35.71836],[139.55578,35.71862],[139.55584,35.71872],[139.55587,35.71877],[139.55597,35.71895],[139.55608,35.71912],[139.55632,35.71954],[139.55645,35.71976],[139.55659,35.71998],[139.55676,35.72027],[139.55687,35.72046],[139.55699,35.72065],[139.55721,35.72103],[139.55722,35.72111],[139.55725,35.72147],[139.55735,35.72149],[139.55889,35.72175],[139.55919,35.72178],[139.56006,35.72188],[139.56017,35.72188],[139.56037,35.72187],[139.56075,35.72186],[139.56148,35.72183],[139.56213,35.72181],[139.56207,35.72153]]]}},{"type":"Feature","properties":{"name":"八幡町三丁目","setai":617,"jinko":1435,"key":"13203009003","units":1},"geometry":{"type":"Polygon","coordinates":[[[139.55399,35.71561],[139.55362,35.71501],[139.55317,35.71515],[139.55308,35.7152],[139.55276,35.71529],[139.55226,35.71546],[139.55211,35.71552],[139.55192,35.7156],[139.55174,35.71564],[139.55095,35.71593],[139.55088,35.71595],[139.54982,35.71634],[139.54921,35.71655],[139.54924,35.71657],[139.5503,35.71717],[139.55064,35.71739],[139.5511,35.71778],[139.5516,35.71822],[139.5518,35.71838],[139.55184,35.71841],[139.55198,35.71852],[139.5521,35.71861],[139.55226,35.71874],[139.55242,35.71887],[139.55258,35.719],[139.55303,35.71933],[139.55392,35.71871],[139.5541,35.71859],[139.55493,35.71825],[139.55544,35.71805],[139.55488,35.71711],[139.55454,35.71654],[139.55434,35.71621],[139.55399,35.71561]]]}},{"type":"Feature","properties":{"name":"八幡町四丁目","setai":430,"jinko":939,"key":"13203009004","units":1},"geometry":{"type":"Polygon","coordinates":[[[139.55564,35.71836],[139.55544,35.71805],[139.55493,35.71825],[139.5541,35.71859],[139.55392,35.71871],[139.55303,35.71933],[139.55311,35.71939],[139.55385,35.71992],[139.55477,35.72057],[139.55483,35.72061],[139.55496,35.72066],[139.55521,35.72075],[139.55672,35.72129],[139.55725,35.72147],[139.55722,35.72111],[139.55721,35.72103],[139.55699,35.72065],[139.55687,35.72046],[139.55676,35.72027],[139.55659,35.71998],[139.55645,35.71976],[139.55632,35.71954],[139.55608,35.71912],[139.55597,35.71895],[139.55587,35.71877],[139.55584,35.71872],[139.55578,35.71862],[139.55564,35.71836]]]}},{"type":"Feature","properties":{"name":"関前一丁目","setai":225,"jinko":520,"key":"13203010001","units":1},"geometry":{"type":"Polygon","coordinates":[[[139.55187,35.70939],[139.55221,35.70926],[139.5523,35.70928],[139.55235,35.70929],[139.55255,35.70921],[139.55266,35.70908],[139.5527,35.70904],[139.55297,35.70896],[139.55323,35.70887],[139.55324,35.70887],[139.55349,35.70879],[139.55408,35.7086],[139.55407,35.70859],[139.55354,35.70785],[139.55337,35.70761],[139.55303,35.70713],[139.55272,35.70669],[139.55233,35.70612],[139.55182,35.70633],[139.55155,35.70644],[139.55126,35.70654],[139.55107,35.7066],[139.55107,35.7066],[139.5509,35.70668],[139.54971,35.70713],[139.54978,35.7067],[139.54975,35.7067],[139.54967,35.70719],[139.54929,35.70735],[139.54849,35.70769],[139.54828,35.70776],[139.5479,35.7079],[139.54655,35.70838],[139.54495,35.70896],[139.54417,35.70923],[139.54374,35.7094],[139.54364,35.70942],[139.54364,35.70943],[139.54365,35.70981],[139.54368,35.71018],[139.54372,35.71059],[139.54375,35.71102],[139.54382,35.71171],[139.54385,35.71209],[139.54387,35.71233],[139.54388,35.71239],[139.54474,35.71205],[139.54497,35.71198],[139.54629,35.71148],[139.54629,35.71148],[139.54675,35.7113],[139.54737,35.71107],[139.5478,35.71091],[139.54821,35.71076],[139.54827,35.71073],[139.54859,35.71062],[139.54897,35.71048],[139.54949,35.71028],[139.55052,35.7099],[139.55187,35.70939]]]}},{"type":"Feature","properties":{"name":"関前二丁目","setai":1142,"jinko":2468,"key":"13203010002","units":1},"geometry":{"type":"Polygon","coordinates":[[[139.55032,35.71269],[139.55066,35.71259],[139.55065,35.7126],[139.55133,35.7124],[139.55137,35.71238],[139.55179,35.71225],[139.55181,35.71227],[139.55227,35.7121],[139.55247,35.71202],[139.5527,35.71195],[139.55319,35.71178],[139.55381,35.71156],[139.55383,35.71156],[139.55408,35.71147],[139.55408,35.71147],[139.55434,35.71138],[139.55436,35.71137],[139.55485,35.7112],[139.55487,35.71119],[139.55513,35.71109],[139.5554,35.711],[139.55569,35.71091],[139.5555,35.71063],[139.55513,35.7101],[139.55503,35.70996],[139.55408,35.7086],[139.55349,35.70879],[139.55324,35.70887],[139.55323,35.70887],[139.55297,35.70896],[139.5527,35.70904],[139.55266,35.70908],[139.55255,35.70921],[139.55235,35.70929],[139.5523,35.70928],[139.55221,35.70926],[139.55187,35.70939],[139.55052,35.7099],[139.54949,35.71028],[139.54897,35.71048],[139.54859,35.71062],[139.54827,35.71073],[139.54821,35.71076],[139.5478,35.71091],[139.54737,35.71107],[139.54675,35.7113],[139.54629,35.71148],[139.54629,35.71148],[139.5465,35.71193],[139.54659,35.71212],[139.54676,35.71208],[139.54696,35.71201],[139.5479,35.71345],[139.54826,35.71333],[139.54851,35.71325],[139.54903,35.71309],[139.54944,35.71296],[139.5499,35.71281],[139.55032,35.71269]]]}},{"type":"Feature","properties":{"name":"関前三丁目","setai":1415,"jinko":3349,"key":"13203010003","units":1},"geometry":{"type":"Polygon","coordinates":[[[139.55695,35.71273],[139.55628,35.71177],[139.55627,35.71174],[139.55583,35.71111],[139.55581,35.71109],[139.55569,35.71091],[139.5554,35.711],[139.55513,35.71109],[139.55487,35.71119],[139.55485,35.7112],[139.55436,35.71137],[139.55434,35.71138],[139.55408,35.71147],[139.55408,35.71147],[139.55383,35.71156],[139.55381,35.71156],[139.55319,35.71178],[139.5527,35.71195],[139.55247,35.71202],[139.55227,35.7121],[139.55181,35.71227],[139.55179,35.71225],[139.55137,35.71238],[139.55133,35.7124],[139.55065,35.7126],[139.55066,35.71259],[139.55032,35.71269],[139.5499,35.71281],[139.54944,35.71296],[139.54903,35.71309],[139.54851,35.71325],[139.54826,35.71333],[139.5479,35.71345],[139.54826,35.71399],[139.54854,35.7144],[139.54866,35.71456],[139.54917,35.71532],[139.54914,35.71537],[139.54938,35.71571],[139.54982,35.71634],[139.55088,35.71595],[139.55095,35.71593],[139.55174,35.71564],[139.55192,35.7156],[139.55211,35.71552],[139.55226,35.71546],[139.55276,35.71529],[139.55308,35.7152],[139.55317,35.71515],[139.55362,35.71501],[139.55368,35.71499],[139.55388,35.71494],[139.55416,35.71487],[139.55447,35.71478],[139.55455,35.71477],[139.55498,35.71465],[139.55519,35.71459],[139.55535,35.71454],[139.55559,35.71447],[139.55564,35.71445],[139.55606,35.71435],[139.55616,35.71432],[139.55634,35.71426],[139.55697,35.71412],[139.55748,35.714],[139.55764,35.71397],[139.55779,35.71393],[139.55742,35.71339],[139.55729,35.71321],[139.55719,35.71309],[139.55695,35.71273]]]}},{"type":"Feature","properties":{"name":"関前四丁目","setai":756,"jinko":1478,"key":"13203010004","units":1},"geometry":{"type":"Polygon","coordinates":[[[139.5479,35.71345],[139.54696,35.71201],[139.54676,35.71208],[139.54659,35.71212],[139.5465,35.71193],[139.54629,35.71148],[139.54497,35.71198],[139.54474,35.71205],[139.54388,35.71239],[139.54392,35.71291],[139.54392,35.71293],[139.54404,35.71414],[139.54419,35.71418],[139.54437,35.71425],[139.54467,35.71437],[139.5453,35.71465],[139.54541,35.7147],[139.54557,35.71477],[139.54575,35.71485],[139.54605,35.71499],[139.54638,35.71514],[139.54667,35.71527],[139.54678,35.71532],[139.54711,35.71547],[139.54767,35.71573],[139.54825,35.71603],[139.54846,35.71614],[139.54921,35.71655],[139.54982,35.71634],[139.54938,35.71571],[139.54914,35.71537],[139.54917,35.71532],[139.54866,35.71456],[139.54854,35.7144],[139.54826,35.71399],[139.5479,35.71345]]]}},{"type":"Feature","properties":{"name":"関前五丁目","setai":907,"jinko":1755,"key":"13203010005","units":1},"geometry":{"type":"Polygon","coordinates":[[[139.54382,35.71171],[139.54375,35.71102],[139.54372,35.71059],[139.54368,35.71018],[139.54365,35.70981],[139.54364,35.70943],[139.54318,35.70951],[139.54301,35.70955],[139.54251,35.70963],[139.54237,35.70965],[139.54195,35.70971],[139.54155,35.70978],[139.54149,35.70977],[139.54115,35.70982],[139.54114,35.70984],[139.54074,35.70989],[139.54005,35.71],[139.54004,35.71001],[139.53915,35.71021],[139.53865,35.71036],[139.53739,35.71071],[139.53687,35.71086],[139.53682,35.71088],[139.53679,35.71114],[139.53694,35.71111],[139.53718,35.71108],[139.53753,35.71105],[139.53778,35.71111],[139.53791,35.71119],[139.53807,35.71128],[139.53812,35.7113],[139.53926,35.71193],[139.53968,35.71217],[139.54023,35.71246],[139.54029,35.71249],[139.5416,35.7131],[139.5417,35.71316],[139.54175,35.71318],[139.54205,35.71331],[139.54243,35.71348],[139.54329,35.71384],[139.54402,35.71413],[139.54404,35.71414],[139.54392,35.71293],[139.54392,35.71291],[139.54388,35.71239],[139.54387,35.71233],[139.54385,35.71209],[139.54382,35.71171]]]}},{"type":"Feature","properties":{"name":"境一丁目","setai":2291,"jinko":3859,"key":"13203011001","units":1},"geometry":{"type":"Polygon","coordinates":[[[139.54993,35.70614],[139.55,35.70554],[139.55002,35.70543],[139.55008,35.70495],[139.55016,35.70429],[139.55016,35.70428],[139.55024,35.70337],[139.55027,35.70297],[139.55031,35.70242],[139.55031,35.70236],[139.54984,35.70235],[139.54922,35.70233],[139.54854,35.70231],[139.5483,35.7023],[139.5483,35.7023],[139.54753,35.70228],[139.54733,35.70228],[139.54647,35.70227],[139.54644,35.70226],[139.54506,35.70222],[139.54509,35.70233],[139.54472,35.70238],[139.54472,35.70242],[139.5446,35.70243],[139.54456,35.70236],[139.54458,35.70226],[139.544,35.70223],[139.54399,35.70245],[139.54423,35.70249],[139.54415,35.70339],[139.54412,35.70371],[139.54406,35.70434],[139.54406,35.70435],[139.54396,35.70541],[139.54395,35.70551],[139.54391,35.70608],[139.5439,35.70611],[139.54439,35.70605],[139.54463,35.70604],[139.54467,35.70604],[139.54497,35.70601],[139.54526,35.70599],[139.54552,35.70595],[139.54554,35.70594],[139.54586,35.70589],[139.54622,35.7058],[139.54625,35.70566],[139.54658,35.70567],[139.5468,35.70566],[139.54706,35.70565],[139.54743,35.70566],[139.5478,35.7057],[139.54783,35.70569],[139.54782,35.7059],[139.54808,35.70595],[139.54829,35.70598],[139.54858,35.70603],[139.54865,35.70603],[139.54918,35.70613],[139.54944,35.70614],[139.54993,35.70614]]]}},{"type":"Feature","properties":{"name":"境二丁目","setai":2140,"jinko":3920,"key":"13203011002","units":1},"geometry":{"type":"Polygon","coordinates":[[[139.54386,35.70679],[139.54387,35.70657],[139.5439,35.70611],[139.54391,35.70608],[139.54395,35.70551],[139.54396,35.70541],[139.54406,35.70435],[139.54406,35.70434],[139.54412,35.70371],[139.54415,35.70339],[139.54423,35.70249],[139.54399,35.70245],[139.544,35.70223],[139.54282,35.7022],[139.54282,35.70217],[139.54201,35.70214],[139.542,35.70213],[139.542,35.70214],[139.5412,35.70212],[139.54014,35.70209],[139.5401,35.70209],[139.53859,35.702],[139.53859,35.70202],[139.53856,35.70256],[139.53853,35.70303],[139.53852,35.70322],[139.53846,35.70385],[139.53845,35.70406],[139.53842,35.70422],[139.53836,35.70462],[139.53832,35.70487],[139.53807,35.70531],[139.53802,35.7054],[139.53787,35.70568],[139.53745,35.70642],[139.53784,35.70643],[139.53796,35.70643],[139.53879,35.70643],[139.53881,35.70643],[139.53963,35.70643],[139.53968,35.70643],[139.53971,35.70628],[139.54055,35.70638],[139.54083,35.7064],[139.54122,35.7064],[139.54127,35.70641],[139.54129,35.70642],[139.54151,35.70649],[139.542,35.70666],[139.54201,35.70665],[139.54269,35.70685],[139.54314,35.70698],[139.54316,35.70698],[139.54384,35.70696],[139.54384,35.70695],[139.54386,35.70679]]]}},{"type":"Feature","properties":{"name":"境三丁目","setai":878,"jinko":1926,"key":"13203011003","units":1},"geometry":{"type":"Polygon","coordinates":[[[139.54967,35.70719],[139.54975,35.7067],[139.54978,35.7067],[139.5498,35.70656],[139.54991,35.70623],[139.54992,35.70621],[139.54993,35.70614],[139.54944,35.70614],[139.54918,35.70613],[139.54865,35.70603],[139.54858,35.70603],[139.54829,35.70598],[139.54808,35.70595],[139.54782,35.7059],[139.54783,35.70569],[139.5478,35.7057],[139.54743,35.70566],[139.54706,35.70565],[139.5468,35.70566],[139.54658,35.70567],[139.54625,35.70566],[139.54622,35.7058],[139.54586,35.70589],[139.54554,35.70594],[139.54552,35.70595],[139.54526,35.70599],[139.54497,35.70601],[139.54467,35.70604],[139.54463,35.70604],[139.54439,35.70605],[139.5439,35.70611],[139.54387,35.70657],[139.54386,35.70679],[139.54384,35.70695],[139.54384,35.70696],[139.54382,35.70724],[139.54379,35.70758],[139.54375,35.70812],[139.54372,35.70851],[139.54371,35.70852],[139.54367,35.70901],[139.54367,35.70903],[139.54364,35.70942],[139.54374,35.7094],[139.54417,35.70923],[139.54495,35.70896],[139.54655,35.70838],[139.5479,35.7079],[139.54828,35.70776],[139.54849,35.70769],[139.54929,35.70735],[139.54967,35.70719]]]}},{"type":"Feature","properties":{"name":"境四丁目","setai":961,"jinko":2024,"key":"13203011004","units":1},"geometry":{"type":"Polygon","coordinates":[[[139.54115,35.70982],[139.54149,35.70977],[139.54155,35.70978],[139.54195,35.70971],[139.54237,35.70965],[139.54251,35.70963],[139.54301,35.70955],[139.54318,35.70951],[139.54364,35.70943],[139.54364,35.70942],[139.54367,35.70903],[139.54367,35.70901],[139.54371,35.70852],[139.54372,35.70851],[139.54375,35.70812],[139.54379,35.70758],[139.54382,35.70724],[139.54384,35.70696],[139.54316,35.70698],[139.54314,35.70698],[139.54269,35.70685],[139.54201,35.70665],[139.542,35.70666],[139.54151,35.70649],[139.54129,35.70642],[139.54127,35.70641],[139.54122,35.7064],[139.54083,35.7064],[139.54055,35.70638],[139.53971,35.70628],[139.53968,35.70643],[139.53963,35.70643],[139.53881,35.70643],[139.53879,35.70643],[139.53796,35.70643],[139.53784,35.70643],[139.53745,35.70642],[139.53704,35.70713],[139.53726,35.70714],[139.53738,35.70715],[139.53778,35.70717],[139.5383,35.70718],[139.53787,35.70782],[139.53764,35.70832],[139.53762,35.70838],[139.53764,35.70849],[139.53775,35.70885],[139.53774,35.70895],[139.53766,35.70941],[139.5376,35.70973],[139.53753,35.71021],[139.53733,35.71041],[139.53687,35.71086],[139.53739,35.71071],[139.53865,35.71036],[139.53915,35.71021],[139.54004,35.71001],[139.54005,35.71],[139.54074,35.70989],[139.54114,35.70984],[139.54115,35.70982]]]}},{"type":"Feature","properties":{"name":"境五丁目","setai":2262,"jinko":4544,"key":"13203011005","units":1},"geometry":{"type":"Polygon","coordinates":[[[139.53413,35.70701],[139.53455,35.70695],[139.53466,35.70696],[139.53474,35.70696],[139.53514,35.70699],[139.53565,35.70703],[139.53674,35.70711],[139.53677,35.70711],[139.5368,35.70711],[139.53704,35.70713],[139.53745,35.70642],[139.53787,35.70568],[139.53802,35.7054],[139.53807,35.70531],[139.53832,35.70487],[139.53836,35.70462],[139.53842,35.70422],[139.53845,35.70406],[139.53846,35.70385],[139.53852,35.70322],[139.53853,35.70303],[139.53856,35.70256],[139.53859,35.70202],[139.53745,35.70199],[139.53727,35.70199],[139.53726,35.70199],[139.53494,35.70192],[139.53407,35.70189],[139.53357,35.70188],[139.53313,35.70187],[139.53264,35.70185],[139.53242,35.70184],[139.53241,35.702],[139.5321,35.70205],[139.53208,35.7027],[139.53209,35.70317],[139.53208,35.7036],[139.53208,35.70381],[139.53208,35.70391],[139.53209,35.70432],[139.53211,35.70471],[139.53211,35.70497],[139.5321,35.70525],[139.53212,35.70533],[139.53212,35.70538],[139.53213,35.70564],[139.53215,35.70661],[139.53216,35.7067],[139.53217,35.70723],[139.53219,35.7075],[139.5322,35.7075],[139.53259,35.7074],[139.53309,35.70729],[139.53311,35.70728],[139.53317,35.70723],[139.53351,35.70715],[139.53413,35.70701]]]}},{"type":"Feature","properties":{"name":"境南町一丁目","setai":1250,"jinko":2475,"key":"13203012001","units":1},"geometry":{"type":"Polygon","coordinates":[[[139.55046,35.69864],[139.55048,35.69835],[139.55044,35.69835],[139.55045,35.6982],[139.55047,35.69798],[139.55049,35.69799],[139.55049,35.69761],[139.55051,35.69703],[139.55052,35.69662],[139.55054,35.69643],[139.55055,35.69627],[139.55053,35.69617],[139.55053,35.69605],[139.55054,35.6957],[139.55054,35.6949],[139.55051,35.69486],[139.54989,35.69497],[139.54983,35.69497],[139.54899,35.69517],[139.54886,35.6952],[139.54833,35.69533],[139.54701,35.69566],[139.54675,35.69573],[139.54671,35.69574],[139.54671,35.69662],[139.54663,35.69794],[139.54662,35.69798],[139.5466,35.69831],[139.54667,35.69921],[139.54665,35.69934],[139.54663,35.69997],[139.54663,35.70012],[139.54659,35.70046],[139.54656,35.70073],[139.54651,35.70142],[139.54647,35.70186],[139.54644,35.70226],[139.54647,35.70227],[139.54733,35.70228],[139.54753,35.70228],[139.5483,35.7023],[139.5483,35.7023],[139.54854,35.70231],[139.54922,35.70233],[139.54984,35.70235],[139.55031,35.70236],[139.55032,35.70206],[139.55032,35.70203],[139.55033,35.70175],[139.55035,35.70135],[139.55037,35.70078],[139.55038,35.70072],[139.5504,35.69993],[139.55041,35.69967],[139.55041,35.69965],[139.55044,35.69915],[139.55046,35.69876],[139.55046,35.69864]]]}},{"type":"Feature","properties":{"name":"境南町二丁目","setai":2855,"jinko":5206,"key":"13203012002","units":1},"geometry":{"type":"Polygon","coordinates":[[[139.54509,35.70233],[139.54506,35.70222],[139.54644,35.70226],[139.54647,35.70186],[139.54651,35.70142],[139.54656,35.70073],[139.54659,35.70046],[139.54663,35.70012],[139.54663,35.69997],[139.54665,35.69934],[139.54667,35.69921],[139.5466,35.69831],[139.54662,35.69798],[139.54663,35.69794],[139.54671,35.69662],[139.54671,35.69574],[139.54615,35.69585],[139.54557,35.69595],[139.54548,35.69597],[139.54462,35.69622],[139.54412,35.69637],[139.54401,35.69641],[139.54351,35.69656],[139.54309,35.69666],[139.54301,35.69668],[139.54272,35.69676],[139.54269,35.69676],[139.54259,35.6968],[139.5423,35.69687],[139.54229,35.69686],[139.54206,35.69692],[139.54198,35.69694],[139.54184,35.69698],[139.54153,35.69706],[139.5413,35.69712],[139.54154,35.69808],[139.5411,35.69806],[139.5411,35.69812],[139.54132,35.6989],[139.54149,35.69952],[139.54152,35.69953],[139.54162,35.7],[139.54187,35.70088],[139.5419,35.70114],[139.54194,35.70137],[139.54198,35.70169],[139.54197,35.7017],[139.54198,35.70182],[139.54197,35.70213],[139.542,35.70213],[139.54201,35.70214],[139.54282,35.70217],[139.54282,35.7022],[139.544,35.70223],[139.54458,35.70226],[139.54456,35.70236],[139.5446,35.70243],[139.54472,35.70242],[139.54472,35.70238],[139.54509,35.70233]]]}},{"type":"Feature","properties":{"name":"境南町三丁目","setai":1455,"jinko":2670,"key":"13203012003","units":1},"geometry":{"type":"Polygon","coordinates":[[[139.5411,35.69812],[139.5411,35.69806],[139.54154,35.69808],[139.5413,35.69712],[139.54067,35.69728],[139.54052,35.69731],[139.54034,35.69737],[139.5402,35.6974],[139.53998,35.69745],[139.53956,35.69756],[139.53947,35.69759],[139.53924,35.69765],[139.53901,35.69769],[139.53856,35.69782],[139.53799,35.69798],[139.53794,35.698],[139.53798,35.69814],[139.53805,35.69871],[139.53806,35.69875],[139.53808,35.69896],[139.53816,35.69939],[139.53828,35.69981],[139.53835,35.70005],[139.5384,35.70023],[139.53848,35.70053],[139.5385,35.70063],[139.53857,35.70084],[139.53861,35.70113],[139.53863,35.70129],[139.53863,35.70151],[139.53859,35.702],[139.5401,35.70209],[139.54014,35.70209],[139.5412,35.70212],[139.542,35.70214],[139.542,35.70213],[139.54197,35.70213],[139.54198,35.70182],[139.54197,35.7017],[139.54198,35.70169],[139.54194,35.70137],[139.5419,35.70114],[139.54187,35.70088],[139.54162,35.7],[139.54152,35.69953],[139.54149,35.69952],[139.54132,35.6989],[139.5411,35.69812]]]}},{"type":"Feature","properties":{"name":"境南町四丁目","setai":1533,"jinko":2806,"key":"13203012004","units":1},"geometry":{"type":"Polygon","coordinates":[[[139.53863,35.70129],[139.53861,35.70113],[139.53857,35.70084],[139.5385,35.70063],[139.53848,35.70053],[139.5384,35.70023],[139.53835,35.70005],[139.53828,35.69981],[139.53816,35.69939],[139.53808,35.69896],[139.53806,35.69875],[139.53805,35.69871],[139.53798,35.69814],[139.53794,35.698],[139.53754,35.69811],[139.53724,35.6982],[139.53707,35.69825],[139.53679,35.69833],[139.53645,35.69843],[139.53618,35.69852],[139.53587,35.69858],[139.53561,35.69867],[139.53556,35.69869],[139.53505,35.69882],[139.535,35.69883],[139.53466,35.6989],[139.53374,35.69895],[139.5337,35.69921],[139.53356,35.69994],[139.53348,35.7004],[139.53341,35.70084],[139.53335,35.7009],[139.53331,35.70114],[139.5333,35.70117],[139.5325,35.70113],[139.53249,35.70128],[139.53244,35.7013],[139.53242,35.70172],[139.53242,35.70184],[139.53264,35.70185],[139.53313,35.70187],[139.53357,35.70188],[139.53407,35.70189],[139.53494,35.70192],[139.53726,35.70199],[139.53727,35.70199],[139.53745,35.70199],[139.53859,35.70202],[139.53859,35.702],[139.53863,35.70151],[139.53863,35.70129]]]}},{"type":"Feature","properties":{"name":"境南町五丁目","setai":1162,"jinko":2272,"key":"13203012005","units":1},"geometry":{"type":"Polygon","coordinates":[[[139.54195,35.69549],[139.54196,35.69524],[139.54185,35.69523],[139.54185,35.6952],[139.54105,35.69521],[139.54083,35.69521],[139.54076,35.69522],[139.54033,35.69522],[139.54007,35.69523],[139.54002,35.69523],[139.53955,35.69525],[139.53925,35.69525],[139.53906,35.69525],[139.53877,35.69526],[139.53857,35.69526],[139.53834,35.69527],[139.53791,35.69529],[139.53786,35.69529],[139.53721,35.69526],[139.53633,35.69521],[139.53623,35.6952],[139.53606,35.6952],[139.53596,35.6965],[139.53594,35.69677],[139.53587,35.69858],[139.53618,35.69852],[139.53645,35.69843],[139.53679,35.69833],[139.53707,35.69825],[139.53724,35.6982],[139.53754,35.69811],[139.53794,35.698],[139.53799,35.69798],[139.53856,35.69782],[139.53901,35.69769],[139.53924,35.69765],[139.53947,35.69759],[139.53956,35.69756],[139.53998,35.69745],[139.5402,35.6974],[139.54034,35.69737],[139.54052,35.69731],[139.54067,35.69728],[139.5413,35.69712],[139.54153,35.69706],[139.54184,35.69698],[139.54185,35.6955],[139.54185,35.69549],[139.54195,35.69549]]]}},{"type":"Feature","properties":{"name":"桜堤一丁目","setai":1371,"jinko":2885,"key":"13203013001","units":1},"geometry":{"type":"Polygon","coordinates":[[[139.53466,35.70696],[139.53455,35.70695],[139.53413,35.70701],[139.53351,35.70715],[139.53317,35.70723],[139.53311,35.70728],[139.53312,35.7075],[139.53313,35.70796],[139.53314,35.708],[139.53319,35.70836],[139.53327,35.70907],[139.53328,35.70934],[139.53334,35.70988],[139.53338,35.71043],[139.53343,35.71082],[139.53347,35.71117],[139.53354,35.71181],[139.53422,35.71161],[139.53467,35.71149],[139.53478,35.71146],[139.53508,35.71138],[139.53545,35.71128],[139.53564,35.71123],[139.53598,35.71113],[139.53651,35.71098],[139.53659,35.71095],[139.53682,35.71088],[139.53687,35.71086],[139.53733,35.71041],[139.53753,35.71021],[139.5376,35.70973],[139.53766,35.70941],[139.53774,35.70895],[139.53775,35.70885],[139.53764,35.70849],[139.53762,35.70838],[139.53764,35.70832],[139.53787,35.70782],[139.5383,35.70718],[139.53778,35.70717],[139.53738,35.70715],[139.53726,35.70714],[139.53704,35.70713],[139.5368,35.70711],[139.53677,35.70711],[139.53674,35.70711],[139.53565,35.70703],[139.53514,35.70699],[139.53474,35.70696],[139.53466,35.70696]]]}},{"type":"Feature","properties":{"name":"桜堤二丁目","setai":1884,"jinko":5205,"key":"13203013002","units":1},"geometry":{"type":"Polygon","coordinates":[[[139.53334,35.70988],[139.53328,35.70934],[139.53327,35.70907],[139.53319,35.70836],[139.53314,35.708],[139.53313,35.70796],[139.53312,35.7075],[139.53311,35.70728],[139.53309,35.70729],[139.53259,35.7074],[139.5322,35.7075],[139.5322,35.70752],[139.53225,35.70803],[139.53228,35.70855],[139.53229,35.70875],[139.53231,35.70906],[139.53187,35.70912],[139.53092,35.70926],[139.5309,35.70926],[139.53061,35.7093],[139.5299,35.70939],[139.52962,35.70943],[139.52953,35.70944],[139.52918,35.70948],[139.5286,35.70956],[139.52812,35.70962],[139.52809,35.70963],[139.52803,35.70967],[139.52772,35.7097],[139.52772,35.70958],[139.5277,35.70949],[139.52718,35.70985],[139.52708,35.70991],[139.52703,35.70995],[139.52721,35.71008],[139.52729,35.71067],[139.52732,35.71092],[139.52738,35.71142],[139.52738,35.71143],[139.52741,35.71162],[139.52752,35.7124],[139.52836,35.71239],[139.52845,35.71239],[139.52926,35.71235],[139.53012,35.71231],[139.53049,35.71229],[139.53065,35.71228],[139.53076,35.71227],[139.53089,35.71227],[139.53142,35.71224],[139.53179,35.7122],[139.53219,35.71216],[139.53224,35.71215],[139.53283,35.712],[139.53337,35.71186],[139.53354,35.71181],[139.53347,35.71117],[139.53343,35.71082],[139.53338,35.71043],[139.53334,35.70988]]]}},{"type":"Feature","properties":{"name":"桜堤三丁目","setai":492,"jinko":1081,"key":"13203013003","units":1},"geometry":{"type":"Polygon","coordinates":[[[139.52933,35.71311],[139.52926,35.71235],[139.52845,35.71239],[139.52836,35.71239],[139.52752,35.7124],[139.52721,35.71242],[139.52614,35.71245],[139.52595,35.71246],[139.52506,35.71249],[139.52464,35.71249],[139.52502,35.71358],[139.52529,35.71432],[139.52534,35.71433],[139.52625,35.71691],[139.52644,35.71745],[139.52672,35.71826],[139.52685,35.7186],[139.52684,35.71868],[139.52752,35.71843],[139.52812,35.71822],[139.52906,35.71785],[139.52954,35.7177],[139.52983,35.71763],[139.52975,35.71685],[139.52967,35.7162],[139.52965,35.71605],[139.52957,35.71529],[139.52957,35.71527],[139.52945,35.71421],[139.52941,35.71379],[139.52937,35.71351],[139.52933,35.71311]]]}}]}