{"type":"FeatureCollection","features":[{"type":"Feature","properties":{"name":"戸手本町一丁目","setai":818,"jinko":1661,"key":"14132201001","units":1},"geometry":{"type":"Polygon","coordinates":[[[139.68732,35.54488],[139.68778,35.54484],[139.68803,35.54485],[139.68822,35.54486],[139.68839,35.54487],[139.68857,35.54491],[139.68877,35.54498],[139.68888,35.54494],[139.68903,35.54489],[139.68926,35.54481],[139.68925,35.54467],[139.68935,35.54397],[139.68928,35.5439],[139.68918,35.54386],[139.68908,35.54384],[139.68909,35.54371],[139.6891,35.54364],[139.68904,35.54323],[139.68902,35.54311],[139.68893,35.54293],[139.68881,35.5427],[139.68872,35.54252],[139.68857,35.54199],[139.68854,35.5419],[139.6885,35.54166],[139.68842,35.54106],[139.68842,35.54106],[139.68811,35.54116],[139.68773,35.54127],[139.68697,35.5415],[139.68693,35.54151],[139.68623,35.54172],[139.68551,35.54193],[139.68549,35.54194],[139.68513,35.54205],[139.6846,35.54223],[139.68457,35.54225],[139.68476,35.54263],[139.6849,35.54287],[139.68495,35.54301],[139.6851,35.54331],[139.68519,35.54347],[139.68528,35.54365],[139.68528,35.54365],[139.68545,35.54395],[139.68545,35.54396],[139.68563,35.54435],[139.68571,35.54451],[139.68602,35.5451],[139.68602,35.54511],[139.68628,35.54503],[139.6863,35.54503],[139.68658,35.54497],[139.68683,35.54493],[139.68695,35.54491],[139.68732,35.54488]]]}},{"type":"Feature","properties":{"name":"戸手本町二丁目","setai":1748,"jinko":4430,"key":"14132201002","units":1},"geometry":{"type":"Polygon","coordinates":[[[139.688,35.53929],[139.68806,35.5389],[139.688,35.53883],[139.68711,35.53878],[139.6871,35.53891],[139.68681,35.5389],[139.68658,35.5389],[139.68632,35.53891],[139.68606,35.5389],[139.68595,35.5389],[139.68596,35.53869],[139.68596,35.53864],[139.68597,35.53846],[139.68597,35.53841],[139.68598,35.53822],[139.68598,35.53815],[139.68598,35.538],[139.68599,35.53785],[139.68599,35.53776],[139.686,35.53755],[139.686,35.53754],[139.68599,35.53754],[139.68533,35.53752],[139.68531,35.53755],[139.6848,35.53755],[139.68479,35.53775],[139.68478,35.53802],[139.68477,35.53823],[139.68477,35.53837],[139.68475,35.53846],[139.68473,35.53868],[139.68473,35.53869],[139.68472,35.53885],[139.68472,35.53889],[139.6847,35.53933],[139.6847,35.53941],[139.68469,35.53992],[139.68469,35.53994],[139.68468,35.54013],[139.68464,35.54101],[139.68463,35.54127],[139.68462,35.54153],[139.6846,35.54223],[139.68513,35.54205],[139.68549,35.54194],[139.68551,35.54193],[139.68623,35.54172],[139.68693,35.54151],[139.68697,35.5415],[139.68773,35.54127],[139.68811,35.54116],[139.68842,35.54106],[139.68838,35.54084],[139.68833,35.54069],[139.68829,35.54048],[139.68829,35.54033],[139.68853,35.54029],[139.68853,35.54015],[139.68854,35.54006],[139.68854,35.53994],[139.68854,35.53982],[139.68855,35.53972],[139.68855,35.53959],[139.68855,35.53949],[139.68856,35.5394],[139.6882,35.53938],[139.68817,35.5393],[139.688,35.53929]]]}},{"type":"Feature","properties":{"name":"紺屋町","setai":665,"jinko":1222,"key":"141322020","units":1},"geometry":{"type":"Polygon","coordinates":[[[139.69109,35.541],[139.69111,35.54071],[139.69024,35.54073],[139.69024,35.54073],[139.68976,35.54073],[139.68976,35.54073],[139.68948,35.54075],[139.68919,35.54083],[139.68842,35.54106],[139.6885,35.54166],[139.68854,35.5419],[139.68857,35.54199],[139.68872,35.54252],[139.68881,35.5427],[139.68893,35.54293],[139.68902,35.54311],[139.68904,35.54323],[139.6891,35.54364],[139.68909,35.54371],[139.68908,35.54384],[139.68918,35.54386],[139.68928,35.5439],[139.68935,35.54397],[139.68925,35.54467],[139.68926,35.54481],[139.68932,35.54479],[139.68977,35.54459],[139.68988,35.54454],[139.69043,35.54432],[139.69106,35.54406],[139.69108,35.54396],[139.69115,35.54393],[139.69088,35.5434],[139.69092,35.54328],[139.69099,35.54296],[139.691,35.54246],[139.691,35.54243],[139.69103,35.5419],[139.69106,35.54149],[139.69107,35.54125],[139.69109,35.541]]]}},{"type":"Feature","properties":{"name":"遠藤町","setai":561,"jinko":1354,"key":"141322030","units":1},"geometry":{"type":"Polygon","coordinates":[[[139.69133,35.54395],[139.69211,35.54368],[139.69264,35.5435],[139.69294,35.54339],[139.69323,35.5433],[139.69362,35.54308],[139.69385,35.5429],[139.69478,35.54208],[139.69481,35.54205],[139.69306,35.54141],[139.69261,35.54124],[139.69209,35.54105],[139.69118,35.54071],[139.69115,35.54071],[139.69111,35.54071],[139.69109,35.541],[139.69107,35.54125],[139.69106,35.54149],[139.69103,35.5419],[139.691,35.54243],[139.691,35.54246],[139.69099,35.54296],[139.69092,35.54328],[139.69088,35.5434],[139.69115,35.54393],[139.69123,35.5439],[139.69133,35.54395]]]}},{"type":"Feature","properties":{"name":"小向東芝町","setai":0,"jinko":0,"key":"141322040","units":1},"geometry":{"type":"Polygon","coordinates":[[[139.69174,35.55195],[139.69178,35.55194],[139.69266,35.55177],[139.69271,35.55176],[139.6943,35.55145],[139.69427,35.55134],[139.69449,35.55129],[139.69448,35.55128],[139.69401,35.55018],[139.694,35.55016],[139.69383,35.54978],[139.69361,35.54926],[139.69343,35.54884],[139.69338,35.54873],[139.69312,35.54871],[139.69315,35.54883],[139.69242,35.54877],[139.69225,35.54875],[139.69158,35.54872],[139.69055,35.54871],[139.68962,35.54871],[139.68927,35.54872],[139.68835,35.54873],[139.68725,35.54877],[139.68607,35.54891],[139.68612,35.54904],[139.68611,35.54912],[139.68604,35.54969],[139.68601,35.54995],[139.68596,35.5503],[139.68592,35.55062],[139.68589,35.55091],[139.6859,35.55091],[139.68651,35.55095],[139.68701,35.55098],[139.68749,35.551],[139.6878,35.55102],[139.68801,35.55108],[139.68871,35.55128],[139.68918,35.55141],[139.68919,35.55141],[139.68958,35.5517],[139.68965,35.55175],[139.69005,35.55167],[139.69089,35.55151],[139.69104,35.55204],[139.69107,35.55208],[139.69174,35.55195]]]}},{"type":"Feature","properties":{"name":"小向西町一丁目","setai":508,"jinko":1219,"key":"14132205001","units":1},"geometry":{"type":"Polygon","coordinates":[[[139.69315,35.54883],[139.69312,35.54871],[139.69338,35.54873],[139.69333,35.54862],[139.69323,35.54838],[139.69321,35.54833],[139.69316,35.54823],[139.69309,35.54806],[139.69304,35.54795],[139.69272,35.5472],[139.69264,35.54702],[139.69183,35.54735],[139.69112,35.54736],[139.6909,35.54734],[139.69063,35.54734],[139.69039,35.54734],[139.69015,35.54733],[139.6898,35.54733],[139.68961,35.54732],[139.68962,35.54751],[139.68963,35.54785],[139.68962,35.54832],[139.68962,35.54871],[139.69055,35.54871],[139.69158,35.54872],[139.69225,35.54875],[139.69242,35.54877],[139.69315,35.54883]]]}},{"type":"Feature","properties":{"name":"小向西町二丁目","setai":276,"jinko":606,"key":"14132205002","units":1},"geometry":{"type":"Polygon","coordinates":[[[139.69183,35.54735],[139.69264,35.54702],[139.69244,35.54657],[139.69242,35.54657],[139.69214,35.54667],[139.69188,35.54641],[139.69172,35.54628],[139.69143,35.54608],[139.69127,35.54601],[139.69122,35.54599],[139.69111,35.54594],[139.69098,35.5459],[139.6908,35.54584],[139.69061,35.54574],[139.69059,35.54573],[139.6899,35.54543],[139.68988,35.54645],[139.68987,35.54687],[139.6898,35.54733],[139.69015,35.54733],[139.69039,35.54734],[139.69063,35.54734],[139.6909,35.54734],[139.69112,35.54736],[139.69183,35.54735]]]}},{"type":"Feature","properties":{"name":"小向西町三丁目","setai":591,"jinko":1190,"key":"14132205003","units":1},"geometry":{"type":"Polygon","coordinates":[[[139.68962,35.54871],[139.68962,35.54832],[139.68963,35.54785],[139.68962,35.54751],[139.68961,35.54732],[139.68898,35.54731],[139.68836,35.54732],[139.68723,35.5473],[139.68629,35.54731],[139.68582,35.54736],[139.686,35.54782],[139.68585,35.54793],[139.68598,35.54822],[139.68593,35.54824],[139.6858,35.54829],[139.68585,35.54841],[139.68597,35.54838],[139.68602,35.54849],[139.68591,35.54852],[139.68594,35.5486],[139.68601,35.54858],[139.68608,35.54873],[139.68601,35.54875],[139.68606,35.54889],[139.68607,35.54891],[139.68725,35.54877],[139.68835,35.54873],[139.68927,35.54872],[139.68962,35.54871]]]}},{"type":"Feature","properties":{"name":"小向西町四丁目","setai":920,"jinko":2038,"key":"14132205004","units":1},"geometry":{"type":"Polygon","coordinates":[[[139.68629,35.54731],[139.68723,35.5473],[139.68836,35.54732],[139.68898,35.54731],[139.68961,35.54732],[139.6898,35.54733],[139.68987,35.54687],[139.68988,35.54645],[139.6899,35.54543],[139.68969,35.54534],[139.68965,35.54532],[139.68916,35.54512],[139.68896,35.54501],[139.68888,35.54494],[139.68877,35.54498],[139.68857,35.54491],[139.68839,35.54487],[139.68822,35.54486],[139.68803,35.54485],[139.68778,35.54484],[139.68732,35.54488],[139.68695,35.54491],[139.68683,35.54493],[139.68658,35.54497],[139.6863,35.54503],[139.68628,35.54503],[139.68602,35.54511],[139.68606,35.54519],[139.68578,35.54535],[139.6856,35.54544],[139.68553,35.54547],[139.6854,35.54552],[139.68529,35.54555],[139.68502,35.54566],[139.68509,35.54588],[139.68525,35.54634],[139.68525,35.54635],[139.68531,35.54643],[139.68546,35.54679],[139.68546,35.54679],[139.6855,35.54689],[139.68577,35.54728],[139.68581,35.54735],[139.68582,35.54736],[139.68629,35.54731]]]}},{"type":"Feature","properties":{"name":"古市場","setai":1099,"jinko":2311,"key":"14132206000","units":1},"geometry":{"type":"Polygon","coordinates":[[[139.68281,35.55144],[139.68301,35.55143],[139.68306,35.55144],[139.68328,35.55148],[139.68376,35.5516],[139.68406,35.55164],[139.68422,35.55167],[139.6843,35.55169],[139.68445,35.5517],[139.68458,35.55173],[139.68484,35.55178],[139.68505,35.55183],[139.68531,35.55188],[139.68569,35.55199],[139.68572,35.552],[139.68573,35.55187],[139.68577,35.5517],[139.68579,35.55156],[139.68579,35.55154],[139.68584,35.55116],[139.6859,35.55091],[139.68589,35.55091],[139.68592,35.55062],[139.68596,35.5503],[139.68601,35.54995],[139.68604,35.54969],[139.68611,35.54912],[139.68604,35.54912],[139.68561,35.54923],[139.68568,35.54951],[139.68556,35.54953],[139.68544,35.54954],[139.68531,35.54957],[139.68521,35.5496],[139.68522,35.54966],[139.68486,35.54975],[139.68481,35.54976],[139.68473,35.54955],[139.6847,35.54947],[139.6845,35.54952],[139.68397,35.54965],[139.68396,35.54965],[139.68365,35.54973],[139.68348,35.54978],[139.68329,35.54986],[139.68304,35.55],[139.68288,35.54986],[139.68275,35.54992],[139.68255,35.55002],[139.68273,35.55014],[139.68262,35.55027],[139.68232,35.55025],[139.68226,35.55016],[139.6819,35.55042],[139.68178,35.55057],[139.68177,35.55059],[139.68187,35.5507],[139.68172,35.5509],[139.68169,35.55096],[139.68157,35.55101],[139.68153,35.55107],[139.68152,35.55111],[139.68149,35.55117],[139.6813,35.55143],[139.68121,35.55157],[139.68145,35.55173],[139.6812,35.55195],[139.68115,35.55199],[139.68114,35.552],[139.68101,35.55213],[139.68119,35.55235],[139.6812,35.55235],[139.6812,35.55234],[139.68123,35.55232],[139.68146,35.55214],[139.68146,35.55214],[139.68197,35.55176],[139.682,35.55174],[139.68218,35.55159],[139.6822,35.55157],[139.68224,35.55156],[139.68232,35.55152],[139.68245,35.5515],[139.68249,35.55149],[139.68276,35.55145],[139.68281,35.55144]]]}},{"type":"Feature","properties":{"name":"古市場一丁目","setai":1609,"jinko":3650,"key":"14132206001","units":1},"geometry":{"type":"Polygon","coordinates":[[[139.68306,35.55144],[139.68301,35.55143],[139.68281,35.55144],[139.68276,35.55145],[139.68249,35.55149],[139.68245,35.5515],[139.68232,35.55152],[139.68224,35.55156],[139.6822,35.55157],[139.68218,35.55159],[139.682,35.55174],[139.68197,35.55176],[139.68146,35.55214],[139.68146,35.55214],[139.68239,35.55254],[139.68248,35.5526],[139.68258,35.55266],[139.68264,35.55274],[139.68308,35.55354],[139.68345,35.55419],[139.68348,35.55425],[139.68364,35.55429],[139.6847,35.55463],[139.68488,35.555],[139.68522,35.55562],[139.68546,35.55603],[139.68789,35.55842],[139.68846,35.55802],[139.68925,35.55753],[139.68987,35.5572],[139.69077,35.55696],[139.69133,35.55682],[139.69214,35.55664],[139.6918,35.55606],[139.69174,35.55597],[139.69116,35.55529],[139.69094,35.55508],[139.6905,35.5548],[139.69028,35.55463],[139.69011,35.5544],[139.69002,35.55414],[139.68994,35.55401],[139.68967,35.55369],[139.68958,35.5536],[139.68943,35.55351],[139.68922,35.55339],[139.68853,35.55301],[139.68846,35.55297],[139.6882,35.55284],[139.68796,35.55274],[139.68788,35.55271],[139.68779,35.55267],[139.68729,35.55246],[139.68727,35.55245],[139.68721,35.55242],[139.68705,35.55238],[139.68663,35.55235],[139.68647,35.5523],[139.6858,35.5521],[139.68572,35.552],[139.68569,35.55199],[139.68531,35.55188],[139.68505,35.55183],[139.68484,35.55178],[139.68458,35.55173],[139.68445,35.5517],[139.6843,35.55169],[139.68422,35.55167],[139.68406,35.55164],[139.68376,35.5516],[139.68328,35.55148],[139.68306,35.55144]]]}},{"type":"Feature","properties":{"name":"古市場二丁目","setai":1809,"jinko":3994,"key":"14132206002","units":1},"geometry":{"type":"Polygon","coordinates":[[[139.68789,35.55842],[139.68546,35.55603],[139.68522,35.55562],[139.68488,35.555],[139.6847,35.55463],[139.68364,35.55429],[139.68348,35.55425],[139.68345,35.55419],[139.68308,35.55354],[139.68264,35.55274],[139.68258,35.55266],[139.68248,35.5526],[139.68239,35.55254],[139.68146,35.55214],[139.68123,35.55232],[139.6812,35.55234],[139.6812,35.55235],[139.68119,35.55235],[139.68112,35.55241],[139.68095,35.55254],[139.6808,35.55265],[139.68074,35.5527],[139.68071,35.55272],[139.68051,35.55286],[139.6805,35.55287],[139.68044,35.55291],[139.68031,35.553],[139.68029,35.55302],[139.68012,35.55313],[139.68006,35.55324],[139.68001,35.55332],[139.67988,35.5536],[139.6798,35.55375],[139.6797,35.55401],[139.67968,35.55424],[139.67972,35.55459],[139.67971,35.5547],[139.67974,35.55476],[139.67988,35.55507],[139.67999,35.55538],[139.68021,35.55586],[139.68098,35.55573],[139.68091,35.55599],[139.68088,35.55605],[139.68087,35.5561],[139.68119,35.55634],[139.68138,35.55648],[139.6816,35.55664],[139.68192,35.55686],[139.6824,35.55718],[139.68273,35.55739],[139.68302,35.55759],[139.68316,35.5575],[139.68342,35.55731],[139.68357,35.5572],[139.68365,35.55726],[139.6844,35.55784],[139.68517,35.55845],[139.68443,35.55864],[139.68345,35.55896],[139.68246,35.55939],[139.68162,35.5599],[139.68121,35.5606],[139.68119,35.56078],[139.6812,35.56113],[139.68119,35.56113],[139.6812,35.56145],[139.6812,35.56162],[139.68125,35.56166],[139.68168,35.56145],[139.68243,35.56108],[139.68352,35.56058],[139.6847,35.56013],[139.68562,35.5597],[139.68639,35.55927],[139.68747,35.55869],[139.68789,35.55842]]]}},{"type":"Feature","properties":{"name":"東古市場","setai":1334,"jinko":2848,"key":"141322070","units":1},"geometry":{"type":"Polygon","coordinates":[[[139.69838,35.55572],[139.69568,35.55312],[139.69534,35.5532],[139.695,35.55242],[139.69475,35.55185],[139.69456,35.5514],[139.69451,35.55127],[139.69448,35.55128],[139.69449,35.55129],[139.69427,35.55134],[139.6943,35.55145],[139.69271,35.55176],[139.69266,35.55177],[139.69178,35.55194],[139.69174,35.55195],[139.69107,35.55208],[139.69104,35.55204],[139.69089,35.55151],[139.69005,35.55167],[139.68965,35.55175],[139.68958,35.5517],[139.68919,35.55141],[139.68918,35.55141],[139.68871,35.55128],[139.68801,35.55108],[139.6878,35.55102],[139.68749,35.551],[139.68701,35.55098],[139.68651,35.55095],[139.6859,35.55091],[139.68584,35.55116],[139.68579,35.55154],[139.68579,35.55156],[139.68577,35.5517],[139.68573,35.55187],[139.68572,35.552],[139.6858,35.5521],[139.68647,35.5523],[139.68663,35.55235],[139.68705,35.55238],[139.68721,35.55242],[139.68727,35.55245],[139.68729,35.55246],[139.68779,35.55267],[139.68788,35.55271],[139.68796,35.55274],[139.6882,35.55284],[139.68846,35.55297],[139.68853,35.55301],[139.68922,35.55339],[139.68943,35.55351],[139.68958,35.5536],[139.68967,35.55369],[139.68994,35.55401],[139.69002,35.55414],[139.69011,35.5544],[139.69028,35.55463],[139.6905,35.5548],[139.69094,35.55508],[139.69116,35.55529],[139.69174,35.55597],[139.6918,35.55606],[139.69214,35.55664],[139.69217,35.5567],[139.69413,35.55654],[139.69466,35.55649],[139.69518,35.55644],[139.69571,35.55638],[139.6962,35.55634],[139.69708,35.55623],[139.69761,35.55616],[139.69806,35.55608],[139.69831,35.55602],[139.69865,35.55596],[139.69838,35.55572]]]}},{"type":"Feature","properties":{"name":"小向仲野町","setai":1162,"jinko":2550,"key":"141322090","units":1},"geometry":{"type":"Polygon","coordinates":[[[139.6986,35.55131],[139.69868,35.55113],[139.69877,35.55094],[139.6988,35.55078],[139.69885,35.5506],[139.69887,35.55054],[139.69893,35.55026],[139.69893,35.5502],[139.69892,35.54996],[139.69891,35.54979],[139.69889,35.54957],[139.69884,35.54929],[139.69878,35.54911],[139.69873,35.54896],[139.69857,35.54867],[139.69788,35.54748],[139.69771,35.54722],[139.69725,35.54756],[139.6971,35.54768],[139.69689,35.54797],[139.69675,35.54818],[139.6966,35.54834],[139.69646,35.54847],[139.69605,35.54883],[139.69592,35.54893],[139.69582,35.54899],[139.69566,35.54905],[139.69558,35.54908],[139.69488,35.54941],[139.69485,35.54942],[139.69412,35.54976],[139.69392,35.54978],[139.69383,35.54978],[139.694,35.55016],[139.69401,35.55018],[139.69448,35.55128],[139.69451,35.55127],[139.69456,35.5514],[139.69475,35.55185],[139.695,35.55242],[139.69534,35.5532],[139.69568,35.55312],[139.69589,35.55306],[139.69609,35.55302],[139.69668,35.55286],[139.69719,35.55265],[139.6976,35.55242],[139.69788,35.55218],[139.6981,35.55199],[139.69823,35.55184],[139.6984,35.55165],[139.6986,35.55131]]]}},{"type":"Feature","properties":{"name":"小向町","setai":1100,"jinko":2392,"key":"141322100","units":1},"geometry":{"type":"Polygon","coordinates":[[[139.69643,35.54544],[139.6963,35.54542],[139.69629,35.54554],[139.6963,35.54558],[139.6963,35.54581],[139.69554,35.54609],[139.69552,35.54609],[139.69506,35.54628],[139.69478,35.54639],[139.69434,35.54657],[139.69431,35.54659],[139.69351,35.54691],[139.69315,35.54705],[139.69313,35.54706],[139.69272,35.5472],[139.69304,35.54795],[139.69309,35.54806],[139.69316,35.54823],[139.69321,35.54833],[139.69323,35.54838],[139.69333,35.54862],[139.69338,35.54873],[139.69343,35.54884],[139.69361,35.54926],[139.69383,35.54978],[139.69392,35.54978],[139.69412,35.54976],[139.69485,35.54942],[139.69488,35.54941],[139.69558,35.54908],[139.69566,35.54905],[139.69582,35.54899],[139.69592,35.54893],[139.69605,35.54883],[139.69646,35.54847],[139.6966,35.54834],[139.69675,35.54818],[139.69689,35.54797],[139.6971,35.54768],[139.69725,35.54756],[139.69771,35.54722],[139.69758,35.54695],[139.6975,35.54676],[139.69741,35.54663],[139.69718,35.54613],[139.69717,35.5461],[139.6971,35.54588],[139.69702,35.54573],[139.69692,35.54566],[139.69674,35.54562],[139.69669,35.54558],[139.69643,35.54544]]]}},{"type":"Feature","properties":{"name":"小向","setai":0,"jinko":0,"key":"141322110","units":1},"geometry":{"type":"Polygon","coordinates":[[[139.69838,35.54536],[139.69764,35.54542],[139.6972,35.54548],[139.69719,35.54543],[139.69628,35.54521],[139.6963,35.54542],[139.69643,35.54544],[139.69669,35.54558],[139.69674,35.54562],[139.69692,35.54566],[139.69702,35.54573],[139.6971,35.54588],[139.69717,35.5461],[139.69718,35.54613],[139.69741,35.54663],[139.6975,35.54676],[139.69758,35.54695],[139.69771,35.54722],[139.69788,35.54748],[139.69857,35.54867],[139.69873,35.54896],[139.69878,35.54911],[139.69884,35.54929],[139.69889,35.54957],[139.69891,35.54979],[139.69892,35.54996],[139.69893,35.5502],[139.69893,35.55026],[139.69887,35.55054],[139.69885,35.5506],[139.6988,35.55078],[139.69877,35.55094],[139.69868,35.55113],[139.6986,35.55131],[139.6984,35.55165],[139.69823,35.55184],[139.6981,35.55199],[139.69788,35.55218],[139.6976,35.55242],[139.69719,35.55265],[139.69668,35.55286],[139.69609,35.55302],[139.69589,35.55306],[139.69568,35.55312],[139.69838,35.55572],[139.69865,35.55596],[139.69905,35.55586],[139.69959,35.55565],[139.7002,35.55533],[139.70091,35.55487],[139.70167,35.55439],[139.70237,35.55388],[139.703,35.5534],[139.70367,35.55284],[139.70401,35.55252],[139.70432,35.55199],[139.7045,35.55138],[139.70452,35.55086],[139.70444,35.55044],[139.70431,35.55003],[139.70399,35.54948],[139.70361,35.54904],[139.70318,35.54867],[139.70258,35.5483],[139.70195,35.54797],[139.70115,35.54755],[139.7006,35.5472],[139.70007,35.54682],[139.69959,35.54644],[139.69916,35.54607],[139.69881,35.54574],[139.69854,35.54546],[139.69844,35.54535],[139.69838,35.54536]]]}},{"type":"Feature","properties":{"name":"戸手一丁目","setai":290,"jinko":643,"key":"14132212001","units":1},"geometry":{"type":"Polygon","coordinates":[[[139.69133,35.54395],[139.69123,35.5439],[139.69115,35.54393],[139.69108,35.54396],[139.69106,35.54406],[139.69043,35.54432],[139.68988,35.54454],[139.68977,35.54459],[139.68932,35.54479],[139.68926,35.54481],[139.68903,35.54489],[139.68888,35.54494],[139.68896,35.54501],[139.68916,35.54512],[139.68965,35.54532],[139.68969,35.54534],[139.6899,35.54543],[139.69059,35.54573],[139.69061,35.54574],[139.6908,35.54584],[139.69098,35.5459],[139.69111,35.54594],[139.69122,35.54599],[139.69127,35.54601],[139.69143,35.54608],[139.69172,35.54628],[139.69188,35.54641],[139.69214,35.54667],[139.69242,35.54657],[139.69228,35.5462],[139.6921,35.54582],[139.69185,35.54527],[139.69183,35.54519],[139.69176,35.54507],[139.69178,35.545],[139.69171,35.54479],[139.69159,35.54467],[139.69156,35.5446],[139.69134,35.54413],[139.69138,35.54406],[139.69133,35.54395]]]}},{"type":"Feature","properties":{"name":"戸手二丁目","setai":506,"jinko":1140,"key":"14132212002","units":1},"geometry":{"type":"Polygon","coordinates":[[[139.69434,35.54657],[139.6941,35.54593],[139.69389,35.54538],[139.69368,35.54483],[139.69368,35.54478],[139.69331,35.54431],[139.69298,35.54389],[139.69264,35.5435],[139.69211,35.54368],[139.69133,35.54395],[139.69138,35.54406],[139.69134,35.54413],[139.69156,35.5446],[139.69159,35.54467],[139.69171,35.54479],[139.69178,35.545],[139.69176,35.54507],[139.69183,35.54519],[139.69185,35.54527],[139.6921,35.54582],[139.69228,35.5462],[139.69242,35.54657],[139.69244,35.54657],[139.69264,35.54702],[139.69272,35.5472],[139.69313,35.54706],[139.69315,35.54705],[139.69351,35.54691],[139.69431,35.54659],[139.69434,35.54657]]]}},{"type":"Feature","properties":{"name":"戸手三丁目","setai":429,"jinko":994,"key":"14132212003","units":1},"geometry":{"type":"Polygon","coordinates":[[[139.69602,35.54449],[139.69547,35.54449],[139.69503,35.54451],[139.695,35.54451],[139.69428,35.54466],[139.69368,35.54478],[139.69368,35.54483],[139.69389,35.54538],[139.6941,35.54593],[139.69434,35.54657],[139.69478,35.54639],[139.69506,35.54628],[139.69552,35.54609],[139.69554,35.54609],[139.6963,35.54581],[139.6963,35.54558],[139.69629,35.54554],[139.6963,35.54542],[139.69628,35.54521],[139.69625,35.54516],[139.69601,35.54511],[139.69599,35.54495],[139.69602,35.54449]]]}},{"type":"Feature","properties":{"name":"戸手四丁目","setai":1768,"jinko":4197,"key":"14132212004","units":1},"geometry":{"type":"Polygon","coordinates":[[[139.6981,35.54478],[139.69803,35.54447],[139.69797,35.54406],[139.69793,35.54354],[139.6979,35.54273],[139.69793,35.54227],[139.69797,35.54189],[139.69806,35.54148],[139.69818,35.54106],[139.69821,35.54101],[139.69825,35.54094],[139.69847,35.54047],[139.6988,35.53993],[139.69914,35.53944],[139.69935,35.53912],[139.69871,35.53886],[139.69765,35.53881],[139.69743,35.53926],[139.69713,35.53978],[139.697,35.53998],[139.69691,35.5401],[139.69673,35.54031],[139.69601,35.54097],[139.69576,35.5412],[139.69547,35.54146],[139.69539,35.54152],[139.69537,35.54155],[139.69481,35.54205],[139.69478,35.54208],[139.69385,35.5429],[139.69362,35.54308],[139.69323,35.5433],[139.69294,35.54339],[139.69264,35.5435],[139.69298,35.54389],[139.69331,35.54431],[139.69368,35.54478],[139.69428,35.54466],[139.695,35.54451],[139.69503,35.54451],[139.69547,35.54449],[139.69602,35.54449],[139.69599,35.54495],[139.69601,35.54511],[139.69625,35.54516],[139.69628,35.54521],[139.69719,35.54543],[139.6972,35.54548],[139.69764,35.54542],[139.69838,35.54536],[139.69822,35.5451],[139.6981,35.54478]]]}},{"type":"Feature","properties":{"name":"河原町","setai":3397,"jinko":6505,"key":"141322130","units":1},"geometry":{"type":"Polygon","coordinates":[[[139.69601,35.54097],[139.69673,35.54031],[139.69691,35.5401],[139.697,35.53998],[139.69713,35.53978],[139.69743,35.53926],[139.69724,35.5392],[139.69729,35.53909],[139.69739,35.53887],[139.69738,35.53879],[139.69718,35.53879],[139.69689,35.53867],[139.69622,35.53851],[139.69612,35.5385],[139.69579,35.53851],[139.69576,35.5385],[139.69533,35.5385],[139.69432,35.53848],[139.69425,35.53847],[139.69401,35.53846],[139.69305,35.53841],[139.69299,35.5384],[139.6929,35.53838],[139.69269,35.53834],[139.69168,35.53814],[139.69167,35.53814],[139.69144,35.53932],[139.6913,35.53999],[139.69115,35.54071],[139.69118,35.54071],[139.69209,35.54105],[139.69261,35.54124],[139.69306,35.54141],[139.69481,35.54205],[139.69537,35.54155],[139.69539,35.54152],[139.69547,35.54146],[139.69576,35.5412],[139.69601,35.54097]]]}},{"type":"Feature","properties":{"name":"中幸町一丁目","setai":841,"jinko":1571,"key":"14132214001","units":1},"geometry":{"type":"Polygon","coordinates":[[[139.6943,35.53822],[139.6944,35.5378],[139.69441,35.5378],[139.6943,35.53739],[139.69425,35.53711],[139.69453,35.53707],[139.69447,35.53677],[139.69443,35.53659],[139.69437,35.53638],[139.69423,35.53606],[139.694,35.53551],[139.69346,35.53569],[139.69317,35.53578],[139.69252,35.53594],[139.69247,35.53595],[139.69245,35.53595],[139.69241,35.53596],[139.69212,35.53596],[139.69185,35.53593],[139.69185,35.53631],[139.69186,35.53657],[139.69187,35.5367],[139.69187,35.53676],[139.69187,35.53677],[139.69186,35.5373],[139.69186,35.53731],[139.69181,35.53757],[139.69179,35.53764],[139.69177,35.53775],[139.69172,35.53799],[139.69168,35.53814],[139.69269,35.53834],[139.6929,35.53838],[139.69299,35.5384],[139.69305,35.53841],[139.69401,35.53846],[139.69425,35.53847],[139.69426,35.53841],[139.6943,35.53822]]]}},{"type":"Feature","properties":{"name":"中幸町二丁目","setai":752,"jinko":1280,"key":"14132214002","units":1},"geometry":{"type":"Polygon","coordinates":[[[139.69689,35.53867],[139.69692,35.53848],[139.69672,35.5381],[139.69669,35.53806],[139.69654,35.53776],[139.69646,35.53761],[139.69639,35.53747],[139.69606,35.53682],[139.69572,35.53634],[139.69556,35.53612],[139.69552,35.53605],[139.69532,35.53573],[139.69504,35.53518],[139.69445,35.53537],[139.694,35.53551],[139.69423,35.53606],[139.69437,35.53638],[139.69443,35.53659],[139.69447,35.53677],[139.69453,35.53707],[139.69425,35.53711],[139.6943,35.53739],[139.69441,35.5378],[139.6944,35.5378],[139.6943,35.53822],[139.69426,35.53841],[139.69425,35.53847],[139.69432,35.53848],[139.69533,35.5385],[139.69576,35.5385],[139.69579,35.53851],[139.69612,35.5385],[139.69622,35.53851],[139.69689,35.53867]]]}},{"type":"Feature","properties":{"name":"中幸町三丁目","setai":1307,"jinko":2641,"key":"14132214003","units":1},"geometry":{"type":"Polygon","coordinates":[[[139.69483,35.53478],[139.69447,35.53476],[139.69414,35.53476],[139.69412,35.5339],[139.69411,35.53375],[139.69411,35.53355],[139.6941,35.53344],[139.6941,35.53331],[139.69411,35.53322],[139.69411,35.53301],[139.69411,35.53299],[139.69411,35.53284],[139.69411,35.53269],[139.6941,35.53253],[139.6941,35.53231],[139.69411,35.5316],[139.69381,35.5316],[139.69314,35.5316],[139.69314,35.53232],[139.69316,35.53291],[139.69314,35.53338],[139.69314,35.53344],[139.69315,35.53374],[139.69315,35.53385],[139.69316,35.5348],[139.69316,35.53518],[139.69317,35.53533],[139.69317,35.53553],[139.69317,35.53556],[139.69317,35.53578],[139.69346,35.53569],[139.694,35.53551],[139.69445,35.53537],[139.69504,35.53518],[139.69483,35.53478]]]}},{"type":"Feature","properties":{"name":"中幸町四丁目","setai":1207,"jinko":1823,"key":"14132214004","units":1},"geometry":{"type":"Polygon","coordinates":[[[139.69316,35.53518],[139.69316,35.5348],[139.69315,35.53385],[139.69315,35.53374],[139.69314,35.53344],[139.69314,35.53338],[139.69316,35.53291],[139.69314,35.53232],[139.69314,35.5316],[139.69256,35.53161],[139.69254,35.53161],[139.69252,35.53161],[139.69249,35.53161],[139.69185,35.53161],[139.69182,35.53161],[139.69182,35.5317],[139.69182,35.53182],[139.69182,35.53206],[139.69181,35.53232],[139.69182,35.53249],[139.69182,35.53268],[139.69182,35.53286],[139.69183,35.53324],[139.69183,35.53329],[139.69183,35.5334],[139.69184,35.53355],[139.69184,35.53355],[139.69184,35.53357],[139.69184,35.53364],[139.69184,35.53374],[139.69185,35.53375],[139.69184,35.53399],[139.69184,35.53407],[139.69184,35.53416],[139.69184,35.53416],[139.69184,35.53424],[139.69184,35.53425],[139.69184,35.53435],[139.69184,35.53442],[139.69184,35.53443],[139.69184,35.53481],[139.69185,35.53481],[139.69185,35.53548],[139.69185,35.53551],[139.69185,35.53568],[139.69185,35.5357],[139.69185,35.53593],[139.69212,35.53596],[139.69241,35.53596],[139.69245,35.53595],[139.69247,35.53595],[139.69252,35.53594],[139.69317,35.53578],[139.69317,35.53556],[139.69317,35.53553],[139.69317,35.53533],[139.69316,35.53518]]]}},{"type":"Feature","properties":{"name":"幸町一丁目","setai":427,"jinko":753,"key":"14132215001","units":1},"geometry":{"type":"Polygon","coordinates":[[[139.69834,35.53427],[139.69809,35.53426],[139.69807,35.53426],[139.69805,35.53426],[139.69799,35.53426],[139.69792,35.53425],[139.69791,35.53425],[139.69781,35.53426],[139.69761,35.53428],[139.69754,35.53428],[139.69721,35.53431],[139.69681,35.53441],[139.69658,35.53448],[139.69689,35.53527],[139.69714,35.53589],[139.69791,35.53574],[139.69873,35.53564],[139.69896,35.53561],[139.69895,35.53529],[139.69894,35.53522],[139.69894,35.53515],[139.69921,35.53438],[139.69924,35.53436],[139.69909,35.53434],[139.69895,35.53431],[139.69893,35.53431],[139.69848,35.53427],[139.69834,35.53427]]]}},{"type":"Feature","properties":{"name":"幸町二丁目","setai":432,"jinko":783,"key":"14132215002","units":1},"geometry":{"type":"Polygon","coordinates":[[[139.70074,35.53784],[139.70029,35.53717],[139.69947,35.5375],[139.69935,35.53705],[139.69913,35.53614],[139.69896,35.53561],[139.69873,35.53564],[139.69791,35.53574],[139.69714,35.53589],[139.69726,35.53614],[139.69736,35.53631],[139.6974,35.53639],[139.69744,35.53641],[139.69751,35.5364],[139.69772,35.53674],[139.69789,35.53702],[139.69796,35.53712],[139.69785,35.53718],[139.69793,35.53729],[139.69802,35.53742],[139.69811,35.53738],[139.69817,35.53746],[139.69822,35.53745],[139.69849,35.53786],[139.69851,35.53791],[139.6988,35.53777],[139.69884,35.53783],[139.69944,35.53892],[139.69947,35.53896],[139.69964,35.53874],[139.7001,35.53832],[139.70054,35.53797],[139.70073,35.53786],[139.70074,35.53784]]]}},{"type":"Feature","properties":{"name":"幸町三丁目","setai":675,"jinko":1307,"key":"14132215003","units":1},"geometry":{"type":"Polygon","coordinates":[[[139.69743,35.53926],[139.69765,35.53881],[139.69871,35.53886],[139.69935,35.53912],[139.69947,35.53896],[139.69944,35.53892],[139.69884,35.53783],[139.6988,35.53777],[139.69851,35.53791],[139.69849,35.53786],[139.69822,35.53745],[139.69817,35.53746],[139.69811,35.53738],[139.69802,35.53742],[139.69793,35.53729],[139.69785,35.53718],[139.69796,35.53712],[139.69789,35.53702],[139.69772,35.53674],[139.69751,35.5364],[139.69744,35.53641],[139.6974,35.53639],[139.69736,35.53631],[139.69732,35.53633],[139.69715,35.53638],[139.69708,35.53623],[139.69681,35.53631],[139.69687,35.53644],[139.69678,35.53647],[139.69672,35.53634],[139.69661,35.53637],[139.69646,35.53642],[139.69649,35.53647],[139.69638,35.53651],[139.69647,35.53669],[139.69606,35.53682],[139.69639,35.53747],[139.69646,35.53761],[139.69654,35.53776],[139.69669,35.53806],[139.69672,35.5381],[139.69692,35.53848],[139.69689,35.53867],[139.69718,35.53879],[139.69738,35.53879],[139.69739,35.53887],[139.69729,35.53909],[139.69724,35.5392],[139.69743,35.53926]]]}},{"type":"Feature","properties":{"name":"幸町四丁目","setai":406,"jinko":750,"key":"14132215004","units":1},"geometry":{"type":"Polygon","coordinates":[[[139.69661,35.53637],[139.69672,35.53634],[139.69678,35.53647],[139.69687,35.53644],[139.69681,35.53631],[139.69708,35.53623],[139.69715,35.53638],[139.69732,35.53633],[139.69736,35.53631],[139.69726,35.53614],[139.69714,35.53589],[139.69689,35.53527],[139.69658,35.53448],[139.69638,35.53454],[139.69594,35.53464],[139.69548,35.53473],[139.69509,35.53477],[139.69483,35.53478],[139.69504,35.53518],[139.69532,35.53573],[139.69552,35.53605],[139.69556,35.53612],[139.69572,35.53634],[139.69606,35.53682],[139.69647,35.53669],[139.69638,35.53651],[139.69649,35.53647],[139.69646,35.53642],[139.69661,35.53637]]]}},{"type":"Feature","properties":{"name":"堀川町","setai":784,"jinko":1667,"key":"141322160","units":1},"geometry":{"type":"Polygon","coordinates":[[[139.70178,35.53723],[139.7022,35.53703],[139.70282,35.53675],[139.70323,35.53662],[139.70311,35.5365],[139.70294,35.53627],[139.70267,35.53599],[139.70243,35.53576],[139.70214,35.5355],[139.70122,35.53473],[139.70067,35.53427],[139.70006,35.53376],[139.69964,35.5334],[139.69963,35.53339],[139.69919,35.53303],[139.69917,35.53295],[139.69912,35.53287],[139.69868,35.5325],[139.69855,35.5324],[139.69855,35.53239],[139.69827,35.53238],[139.69622,35.53064],[139.69583,35.5303],[139.69564,35.53054],[139.69577,35.53067],[139.69565,35.53094],[139.69545,35.53116],[139.69526,35.53135],[139.69508,35.53145],[139.69493,35.53151],[139.69472,35.53156],[139.69437,35.53161],[139.69411,35.5316],[139.6941,35.53231],[139.6941,35.53253],[139.69411,35.53269],[139.69411,35.53284],[139.69411,35.53299],[139.69411,35.53301],[139.69411,35.53322],[139.6941,35.53331],[139.6941,35.53344],[139.69411,35.53355],[139.69411,35.53375],[139.69412,35.5339],[139.69414,35.53476],[139.69447,35.53476],[139.69483,35.53478],[139.69509,35.53477],[139.69548,35.53473],[139.69594,35.53464],[139.69638,35.53454],[139.69658,35.53448],[139.69681,35.53441],[139.69721,35.53431],[139.69754,35.53428],[139.69761,35.53428],[139.69781,35.53426],[139.69791,35.53425],[139.69792,35.53425],[139.69799,35.53426],[139.69805,35.53426],[139.69807,35.53426],[139.69809,35.53426],[139.69834,35.53427],[139.69848,35.53427],[139.69893,35.53431],[139.69895,35.53431],[139.69909,35.53434],[139.69924,35.53436],[139.69921,35.53438],[139.69894,35.53515],[139.69894,35.53522],[139.69895,35.53529],[139.69896,35.53561],[139.69913,35.53614],[139.69935,35.53705],[139.69947,35.5375],[139.70029,35.53717],[139.70074,35.53784],[139.70073,35.53786],[139.70108,35.53763],[139.7014,35.53744],[139.70178,35.53723]]]}},{"type":"Feature","properties":{"name":"柳町","setai":1438,"jinko":2466,"key":"141322170","units":1},"geometry":{"type":"Polygon","coordinates":[[[139.68734,35.53161],[139.68797,35.53161],[139.68797,35.53161],[139.68861,35.53161],[139.68862,35.53161],[139.68893,35.53161],[139.68925,35.5316],[139.68926,35.5316],[139.6899,35.53161],[139.68991,35.53161],[139.69055,35.53161],[139.69055,35.53161],[139.69056,35.53161],[139.69088,35.53161],[139.69089,35.53161],[139.69096,35.53161],[139.6912,35.5316],[139.69121,35.5316],[139.69182,35.53161],[139.69185,35.53161],[139.69185,35.53119],[139.69186,35.53115],[139.69186,35.53112],[139.69186,35.53081],[139.69186,35.53061],[139.69186,35.53026],[139.69186,35.53022],[139.69186,35.53009],[139.69185,35.5299],[139.69185,35.52972],[139.69185,35.52965],[139.69184,35.52956],[139.69185,35.52889],[139.69185,35.52879],[139.69187,35.52746],[139.69181,35.52742],[139.69179,35.5272],[139.69175,35.52708],[139.69157,35.52697],[139.69114,35.52658],[139.69093,35.52641],[139.69072,35.52623],[139.69066,35.52618],[139.6906,35.52617],[139.6903,35.52619],[139.69008,35.52624],[139.68985,35.52631],[139.68955,35.52639],[139.68938,35.52645],[139.68873,35.52664],[139.68873,35.52658],[139.68849,35.52664],[139.68824,35.52674],[139.68804,35.52682],[139.68778,35.52694],[139.68751,35.5271],[139.68728,35.52715],[139.68694,35.52725],[139.68649,35.52739],[139.68615,35.52755],[139.68588,35.52768],[139.68582,35.52768],[139.68576,35.52767],[139.68572,35.52771],[139.68587,35.5278],[139.68604,35.52793],[139.68616,35.52807],[139.68622,35.52815],[139.68626,35.52819],[139.68652,35.52812],[139.68672,35.5284],[139.68671,35.52846],[139.68672,35.52848],[139.68673,35.52874],[139.68664,35.52881],[139.6865,35.52892],[139.68627,35.52909],[139.68587,35.5294],[139.68568,35.52954],[139.68516,35.52993],[139.68498,35.53006],[139.68497,35.53006],[139.68491,35.53007],[139.68492,35.53009],[139.68492,35.5301],[139.68488,35.53011],[139.68489,35.53013],[139.68489,35.53013],[139.68488,35.53014],[139.68486,35.53014],[139.68486,35.53015],[139.68475,35.53023],[139.68525,35.53037],[139.68607,35.53062],[139.68599,35.53097],[139.68584,35.53153],[139.68599,35.53161],[139.68645,35.53161],[139.68648,35.53161],[139.68669,35.53161],[139.68669,35.53161],[139.68719,35.53162],[139.68733,35.53161],[139.68734,35.53161]]]}},{"type":"Feature","properties":{"name":"大宮町","setai":1935,"jinko":3710,"key":"141322180","units":1},"geometry":{"type":"Polygon","coordinates":[[[139.69256,35.53161],[139.69314,35.5316],[139.69381,35.5316],[139.69411,35.5316],[139.69437,35.53161],[139.69472,35.53156],[139.69493,35.53151],[139.69508,35.53145],[139.69526,35.53135],[139.69545,35.53116],[139.69565,35.53094],[139.69577,35.53067],[139.69564,35.53054],[139.69552,35.53044],[139.69526,35.53024],[139.69517,35.53015],[139.695,35.53003],[139.69447,35.52959],[139.69387,35.52906],[139.69372,35.52894],[139.69346,35.52872],[139.69305,35.52839],[139.6929,35.52825],[139.69282,35.52819],[139.69269,35.52806],[139.69248,35.52787],[139.69223,35.52767],[139.69201,35.52751],[139.69187,35.52746],[139.69185,35.52879],[139.69185,35.52889],[139.69184,35.52956],[139.69185,35.52965],[139.69185,35.52972],[139.69185,35.5299],[139.69186,35.53009],[139.69186,35.53022],[139.69186,35.53026],[139.69186,35.53061],[139.69186,35.53081],[139.69186,35.53112],[139.69186,35.53115],[139.69185,35.53119],[139.69185,35.53161],[139.69249,35.53161],[139.69252,35.53161],[139.69254,35.53161],[139.69256,35.53161]]]}},{"type":"Feature","properties":{"name":"南幸町一丁目","setai":963,"jinko":1577,"key":"14132219001","units":1},"geometry":{"type":"Polygon","coordinates":[[[139.69185,35.53631],[139.69185,35.53593],[139.69185,35.5357],[139.69185,35.53568],[139.69185,35.53551],[139.69185,35.53548],[139.69185,35.53481],[139.69184,35.53481],[139.6912,35.53481],[139.69055,35.53481],[139.68992,35.53481],[139.68981,35.53482],[139.68926,35.53482],[139.68882,35.53482],[139.68849,35.53482],[139.68813,35.53483],[139.68774,35.53482],[139.68718,35.53483],[139.68737,35.53526],[139.6874,35.53533],[139.68759,35.53576],[139.68772,35.53599],[139.68792,35.53604],[139.68824,35.53609],[139.68845,35.5361],[139.68854,35.53611],[139.68874,35.53611],[139.68901,35.53608],[139.68932,35.5361],[139.68974,35.53622],[139.69046,35.53642],[139.69053,35.53644],[139.69077,35.53651],[139.69083,35.53652],[139.69115,35.5366],[139.69185,35.53676],[139.69187,35.53676],[139.69187,35.5367],[139.69186,35.53657],[139.69185,35.53631]]]}},{"type":"Feature","properties":{"name":"南幸町二丁目","setai":2582,"jinko":3994,"key":"14132219002","units":1},"geometry":{"type":"Polygon","coordinates":[[[139.69055,35.53481],[139.6912,35.53481],[139.69184,35.53481],[139.69184,35.53443],[139.69184,35.53442],[139.69184,35.53435],[139.69184,35.53425],[139.69184,35.53424],[139.69184,35.53416],[139.69184,35.53416],[139.69184,35.53407],[139.69184,35.53399],[139.69185,35.53375],[139.69184,35.53374],[139.69184,35.53364],[139.69184,35.53357],[139.69184,35.53355],[139.69184,35.53355],[139.69183,35.5334],[139.69183,35.53329],[139.69183,35.53324],[139.69182,35.53286],[139.69182,35.53268],[139.69182,35.53249],[139.69181,35.53232],[139.69182,35.53206],[139.69182,35.53182],[139.69182,35.5317],[139.69182,35.53161],[139.69121,35.5316],[139.6912,35.5316],[139.69096,35.53161],[139.69089,35.53161],[139.69088,35.53161],[139.69056,35.53161],[139.69055,35.53161],[139.69055,35.53161],[139.68991,35.53161],[139.6899,35.53161],[139.68926,35.5316],[139.68925,35.5316],[139.68926,35.53199],[139.68926,35.53221],[139.68926,35.5324],[139.68927,35.53287],[139.68927,35.53342],[139.68927,35.53367],[139.68927,35.53375],[139.68927,35.53393],[139.68926,35.53434],[139.68926,35.53443],[139.68926,35.53464],[139.68926,35.53482],[139.68981,35.53482],[139.68992,35.53481],[139.69055,35.53481]]]}},{"type":"Feature","properties":{"name":"南幸町三丁目","setai":2035,"jinko":3633,"key":"14132219003","units":1},"geometry":{"type":"Polygon","coordinates":[[[139.68664,35.53635],[139.68738,35.5359],[139.68772,35.53599],[139.68759,35.53576],[139.6874,35.53533],[139.68737,35.53526],[139.68718,35.53483],[139.68774,35.53482],[139.68813,35.53483],[139.68849,35.53482],[139.68882,35.53482],[139.68926,35.53482],[139.68926,35.53464],[139.68926,35.53443],[139.68926,35.53434],[139.68927,35.53393],[139.68927,35.53375],[139.68927,35.53367],[139.68927,35.53342],[139.68927,35.53287],[139.68926,35.5324],[139.68926,35.53221],[139.68926,35.53199],[139.68925,35.5316],[139.68893,35.53161],[139.68862,35.53161],[139.68861,35.53161],[139.68797,35.53161],[139.68797,35.53161],[139.68734,35.53161],[139.68733,35.53161],[139.68719,35.53162],[139.68669,35.53161],[139.68669,35.53161],[139.68648,35.53161],[139.68645,35.53161],[139.68599,35.53161],[139.68584,35.53153],[139.68599,35.53097],[139.68607,35.53062],[139.68525,35.53037],[139.68475,35.53023],[139.68437,35.53013],[139.68424,35.53032],[139.68417,35.53051],[139.68401,35.53104],[139.68399,35.53116],[139.68396,35.53116],[139.68395,35.53126],[139.68392,35.53132],[139.68399,35.53152],[139.68405,35.53176],[139.68403,35.53198],[139.68401,35.53235],[139.684,35.53308],[139.68402,35.53329],[139.68403,35.53336],[139.68406,35.53356],[139.68418,35.53381],[139.68422,35.5339],[139.68449,35.53426],[139.68451,35.53427],[139.68481,35.53461],[139.68524,35.53494],[139.68518,35.53499],[139.68521,35.53502],[139.68589,35.53569],[139.68592,35.53571],[139.68595,35.53574],[139.68624,35.536],[139.68664,35.53635]]]}},{"type":"Feature","properties":{"name":"神明町一丁目","setai":912,"jinko":2227,"key":"14132220001","units":1},"geometry":{"type":"Polygon","coordinates":[[[139.6913,35.53999],[139.69144,35.53932],[139.69167,35.53814],[139.69138,35.5381],[139.69106,35.53808],[139.69135,35.53821],[139.69126,35.53861],[139.69117,35.53902],[139.69109,35.53938],[139.69061,35.53955],[139.69055,35.5395],[139.69042,35.53945],[139.68993,35.5392],[139.68947,35.53897],[139.68926,35.53887],[139.68918,35.53883],[139.68906,35.53875],[139.68885,35.53862],[139.68863,35.53849],[139.68837,35.53832],[139.68797,35.53808],[139.68776,35.53792],[139.68774,35.53789],[139.68742,35.53765],[139.68739,35.53763],[139.68729,35.53755],[139.68721,35.53749],[139.68663,35.53703],[139.68639,35.53704],[139.68638,35.53719],[139.68633,35.53722],[139.68609,35.5373],[139.68604,35.53732],[139.68602,35.53738],[139.68602,35.53754],[139.686,35.53754],[139.686,35.53755],[139.68599,35.53776],[139.68599,35.53785],[139.68598,35.538],[139.68598,35.53815],[139.68598,35.53822],[139.68597,35.53841],[139.68597,35.53846],[139.68596,35.53864],[139.68596,35.53869],[139.68595,35.5389],[139.68606,35.5389],[139.68632,35.53891],[139.68658,35.5389],[139.68681,35.5389],[139.6871,35.53891],[139.68711,35.53878],[139.688,35.53883],[139.68806,35.5389],[139.688,35.53929],[139.68817,35.5393],[139.6882,35.53938],[139.68856,35.5394],[139.68855,35.53949],[139.68855,35.53959],[139.68855,35.53972],[139.68854,35.53982],[139.68854,35.53994],[139.68854,35.54006],[139.68853,35.54015],[139.68853,35.54029],[139.68829,35.54033],[139.68829,35.54048],[139.68833,35.54069],[139.68838,35.54084],[139.68842,35.54106],[139.68842,35.54106],[139.68919,35.54083],[139.68948,35.54075],[139.68976,35.54073],[139.68976,35.54073],[139.69024,35.54073],[139.69024,35.54073],[139.69111,35.54071],[139.69115,35.54071],[139.6913,35.53999]]]}},{"type":"Feature","properties":{"name":"神明町二丁目","setai":809,"jinko":1516,"key":"14132220002","units":1},"geometry":{"type":"Polygon","coordinates":[[[139.68776,35.53712],[139.6874,35.53699],[139.68688,35.53681],[139.68646,35.53665],[139.68626,35.53658],[139.68625,35.53657],[139.68625,35.53657],[139.68657,35.53638],[139.68664,35.53635],[139.68624,35.536],[139.68595,35.53574],[139.68592,35.53571],[139.68589,35.53569],[139.68521,35.53502],[139.68518,35.53499],[139.68514,35.53501],[139.6848,35.53513],[139.68471,35.53517],[139.68479,35.53531],[139.68473,35.53538],[139.6846,35.53545],[139.68454,35.53541],[139.68452,35.53543],[139.68436,35.53559],[139.68441,35.53582],[139.68444,35.53584],[139.68462,35.5359],[139.68465,35.53611],[139.68466,35.53616],[139.68473,35.53634],[139.68482,35.53656],[139.68484,35.53676],[139.68484,35.53697],[139.68481,35.5374],[139.6848,35.53755],[139.68531,35.53755],[139.68533,35.53752],[139.68599,35.53754],[139.686,35.53754],[139.68602,35.53754],[139.68602,35.53738],[139.68604,35.53732],[139.68609,35.5373],[139.68633,35.53722],[139.68638,35.53719],[139.68639,35.53704],[139.68663,35.53703],[139.68721,35.53749],[139.68729,35.53755],[139.68739,35.53763],[139.68742,35.53765],[139.68774,35.53789],[139.68776,35.53792],[139.68797,35.53808],[139.68837,35.53832],[139.68863,35.53849],[139.68885,35.53862],[139.68906,35.53875],[139.68918,35.53883],[139.68926,35.53887],[139.68947,35.53897],[139.68993,35.5392],[139.69042,35.53945],[139.69055,35.5395],[139.69061,35.53955],[139.69109,35.53938],[139.69117,35.53902],[139.69126,35.53861],[139.69135,35.53821],[139.69106,35.53808],[139.69077,35.53805],[139.69019,35.53795],[139.68995,35.53787],[139.68975,35.53781],[139.68971,35.5378],[139.68948,35.53772],[139.68828,35.53729],[139.68805,35.53723],[139.68795,35.5372],[139.68776,35.53712]]]}},{"type":"Feature","properties":{"name":"都町","setai":398,"jinko":740,"key":"141322210","units":1},"geometry":{"type":"Polygon","coordinates":[[[139.68974,35.53622],[139.68932,35.5361],[139.68901,35.53608],[139.68874,35.53611],[139.68854,35.53611],[139.68845,35.5361],[139.68824,35.53609],[139.68792,35.53604],[139.68772,35.53599],[139.68738,35.5359],[139.68664,35.53635],[139.68657,35.53638],[139.68625,35.53657],[139.68625,35.53657],[139.68626,35.53658],[139.68646,35.53665],[139.68688,35.53681],[139.6874,35.53699],[139.68776,35.53712],[139.68795,35.5372],[139.68805,35.53723],[139.68828,35.53729],[139.68948,35.53772],[139.68971,35.5378],[139.68975,35.53781],[139.68995,35.53787],[139.69019,35.53795],[139.69077,35.53805],[139.69106,35.53808],[139.69138,35.5381],[139.69167,35.53814],[139.69168,35.53814],[139.69172,35.53799],[139.69177,35.53775],[139.69179,35.53764],[139.69181,35.53757],[139.69186,35.53731],[139.69186,35.5373],[139.69187,35.53677],[139.69187,35.53676],[139.69185,35.53676],[139.69115,35.5366],[139.69083,35.53652],[139.69077,35.53651],[139.69053,35.53644],[139.69046,35.53642],[139.68974,35.53622]]]}},{"type":"Feature","properties":{"name":"塚越一丁目","setai":798,"jinko":1909,"key":"14132222001","units":1},"geometry":{"type":"Polygon","coordinates":[[[139.6796,35.54871],[139.67994,35.54867],[139.68,35.54867],[139.67998,35.54861],[139.67995,35.54855],[139.67989,35.54824],[139.67984,35.54788],[139.67978,35.54736],[139.67977,35.54713],[139.67977,35.54683],[139.67975,35.54665],[139.67974,35.5465],[139.67966,35.54625],[139.67959,35.5461],[139.67947,35.54586],[139.67936,35.54568],[139.67926,35.54552],[139.6792,35.54544],[139.67914,35.54534],[139.67893,35.54503],[139.67876,35.54475],[139.67858,35.54448],[139.67849,35.54429],[139.67843,35.54411],[139.67807,35.54487],[139.67806,35.54491],[139.67805,35.54492],[139.67786,35.54534],[139.67783,35.5454],[139.67765,35.54583],[139.67748,35.54619],[139.67749,35.54621],[139.67749,35.54637],[139.67737,35.54658],[139.67727,35.54679],[139.67694,35.54751],[139.67727,35.5477],[139.67698,35.548],[139.67745,35.54824],[139.67774,35.5484],[139.67883,35.54899],[139.67883,35.54902],[139.67933,35.54878],[139.67936,35.54875],[139.67948,35.54872],[139.6796,35.54871]]]}},{"type":"Feature","properties":{"name":"塚越二丁目","setai":1361,"jinko":3013,"key":"14132222002","units":1},"geometry":{"type":"Polygon","coordinates":[[[139.68476,35.54263],[139.68457,35.54225],[139.68403,35.5424],[139.68385,35.54246],[139.68355,35.54255],[139.68314,35.54267],[139.68287,35.54275],[139.68258,35.54283],[139.68229,35.54292],[139.68203,35.543],[139.68176,35.54308],[139.68167,35.5431],[139.68165,35.54311],[139.68145,35.54317],[139.68121,35.54324],[139.68118,35.54325],[139.68092,35.54333],[139.6807,35.54339],[139.68047,35.54345],[139.68047,35.54346],[139.68037,35.54349],[139.6801,35.54356],[139.68001,35.54359],[139.67968,35.54368],[139.67947,35.54374],[139.67925,35.54381],[139.67921,35.54382],[139.67873,35.54395],[139.67841,35.54406],[139.67843,35.54411],[139.67849,35.54429],[139.67858,35.54448],[139.67876,35.54475],[139.67893,35.54503],[139.67914,35.54534],[139.6792,35.54544],[139.67926,35.54552],[139.67936,35.54568],[139.67947,35.54586],[139.67959,35.5461],[139.67966,35.54625],[139.67974,35.5465],[139.67975,35.54665],[139.67977,35.54683],[139.67977,35.54713],[139.67978,35.54736],[139.67984,35.54788],[139.68007,35.54774],[139.68014,35.54756],[139.68021,35.54726],[139.68022,35.54714],[139.68032,35.54695],[139.68044,35.54677],[139.68108,35.54606],[139.68121,35.54591],[139.68137,35.54572],[139.68172,35.54534],[139.68191,35.54517],[139.68218,35.54494],[139.68264,35.54457],[139.68297,35.54431],[139.68311,35.54421],[139.68328,35.54413],[139.68411,35.54373],[139.68436,35.54361],[139.68456,35.54352],[139.68476,35.54343],[139.68497,35.54336],[139.6851,35.54331],[139.68495,35.54301],[139.6849,35.54287],[139.68476,35.54263]]]}},{"type":"Feature","properties":{"name":"塚越三丁目","setai":1277,"jinko":2850,"key":"14132222003","units":1},"geometry":{"type":"Polygon","coordinates":[[[139.67843,35.54411],[139.67841,35.54406],[139.6784,35.54406],[139.67838,35.54396],[139.6788,35.54298],[139.67894,35.54267],[139.67906,35.54236],[139.67906,35.54236],[139.67909,35.5423],[139.67909,35.5423],[139.67916,35.54212],[139.6793,35.54177],[139.67941,35.54153],[139.67951,35.54128],[139.67963,35.54094],[139.67967,35.54086],[139.67972,35.54071],[139.67982,35.54045],[139.67987,35.54028],[139.67995,35.54002],[139.68,35.53991],[139.67974,35.53989],[139.67936,35.53986],[139.67931,35.53981],[139.6792,35.53966],[139.67858,35.53969],[139.67822,35.5397],[139.67788,35.53971],[139.67787,35.53986],[139.67775,35.53986],[139.67774,35.53974],[139.67765,35.53972],[139.67764,35.53982],[139.67747,35.53982],[139.67748,35.5397],[139.67741,35.53972],[139.6772,35.53978],[139.67697,35.54001],[139.67689,35.53986],[139.6766,35.53998],[139.67632,35.54011],[139.67609,35.54026],[139.676,35.54053],[139.67603,35.54089],[139.67598,35.54087],[139.67597,35.54138],[139.67589,35.54164],[139.67594,35.54178],[139.67606,35.54183],[139.67612,35.54216],[139.67612,35.54232],[139.67613,35.54257],[139.67615,35.54285],[139.67624,35.54306],[139.67645,35.54334],[139.67648,35.5435],[139.67657,35.54365],[139.67679,35.54414],[139.67692,35.54427],[139.67705,35.54433],[139.67713,35.54438],[139.67715,35.54441],[139.67717,35.54444],[139.6772,35.54448],[139.67725,35.5446],[139.67725,35.54462],[139.67728,35.54475],[139.67732,35.54519],[139.67735,35.54545],[139.67742,35.54597],[139.67744,35.54606],[139.67748,35.54619],[139.67765,35.54583],[139.67783,35.5454],[139.67786,35.54534],[139.67805,35.54492],[139.67806,35.54491],[139.67807,35.54487],[139.67843,35.54411]]]}},{"type":"Feature","properties":{"name":"塚越四丁目","setai":2331,"jinko":5838,"key":"14132222004","units":1},"geometry":{"type":"Polygon","coordinates":[[[139.68464,35.54101],[139.68468,35.54013],[139.68469,35.53994],[139.68458,35.53996],[139.68408,35.53997],[139.68408,35.54008],[139.6837,35.54007],[139.68332,35.54005],[139.68316,35.54007],[139.68314,35.54008],[139.68304,35.54009],[139.68295,35.5401],[139.68275,35.54013],[139.68263,35.54013],[139.68214,35.54013],[139.682,35.54012],[139.68181,35.54003],[139.68177,35.54003],[139.68159,35.54003],[139.68145,35.54003],[139.68142,35.54002],[139.68133,35.54002],[139.68122,35.54002],[139.68112,35.54],[139.68112,35.53977],[139.68094,35.53976],[139.68061,35.53975],[139.68002,35.53976],[139.68,35.53991],[139.67995,35.54002],[139.67987,35.54028],[139.67982,35.54045],[139.67972,35.54071],[139.67967,35.54086],[139.67963,35.54094],[139.67951,35.54128],[139.67941,35.54153],[139.6793,35.54177],[139.67916,35.54212],[139.67909,35.5423],[139.67909,35.5423],[139.67906,35.54236],[139.67906,35.54236],[139.67894,35.54267],[139.6788,35.54298],[139.67838,35.54396],[139.6784,35.54406],[139.67841,35.54406],[139.67873,35.54395],[139.67921,35.54382],[139.67925,35.54381],[139.67947,35.54374],[139.67968,35.54368],[139.68001,35.54359],[139.6801,35.54356],[139.68037,35.54349],[139.68047,35.54346],[139.68047,35.54345],[139.6807,35.54339],[139.68092,35.54333],[139.68118,35.54325],[139.68121,35.54324],[139.68145,35.54317],[139.68165,35.54311],[139.68167,35.5431],[139.68176,35.54308],[139.68203,35.543],[139.68229,35.54292],[139.68258,35.54283],[139.68287,35.54275],[139.68314,35.54267],[139.68355,35.54255],[139.68385,35.54246],[139.68403,35.5424],[139.68457,35.54225],[139.6846,35.54223],[139.68462,35.54153],[139.68463,35.54127],[139.68464,35.54101]]]}},{"type":"Feature","properties":{"name":"古川町","setai":1461,"jinko":3248,"key":"141322230","units":1},"geometry":{"type":"Polygon","coordinates":[[[139.68196,35.54872],[139.68195,35.54867],[139.68207,35.54846],[139.68222,35.54834],[139.68228,35.54821],[139.68237,35.54811],[139.68273,35.54774],[139.68285,35.54762],[139.68284,35.5476],[139.68299,35.54744],[139.68307,35.54736],[139.68337,35.54701],[139.68349,35.54687],[139.68381,35.54648],[139.68392,35.54638],[139.68402,35.5463],[139.68427,35.54615],[139.68437,35.54606],[139.6847,35.54585],[139.68502,35.54566],[139.68529,35.54555],[139.6854,35.54552],[139.68553,35.54547],[139.6856,35.54544],[139.68578,35.54535],[139.68606,35.54519],[139.68602,35.54511],[139.68602,35.5451],[139.68571,35.54451],[139.68563,35.54435],[139.68545,35.54396],[139.68545,35.54395],[139.68528,35.54365],[139.68528,35.54365],[139.68519,35.54347],[139.6851,35.54331],[139.68497,35.54336],[139.68476,35.54343],[139.68456,35.54352],[139.68436,35.54361],[139.68411,35.54373],[139.68328,35.54413],[139.68311,35.54421],[139.68297,35.54431],[139.68264,35.54457],[139.68218,35.54494],[139.68191,35.54517],[139.68172,35.54534],[139.68137,35.54572],[139.68121,35.54591],[139.68108,35.54606],[139.68044,35.54677],[139.68032,35.54695],[139.68022,35.54714],[139.68021,35.54726],[139.68014,35.54756],[139.68007,35.54774],[139.67984,35.54788],[139.67989,35.54824],[139.67995,35.54855],[139.67998,35.54861],[139.68004,35.54861],[139.68013,35.54861],[139.6805,35.5486],[139.6807,35.54867],[139.68079,35.54868],[139.68084,35.54868],[139.6812,35.54871],[139.68136,35.54871],[139.68165,35.54879],[139.68176,35.54882],[139.68182,35.54877],[139.68196,35.54872]]]}},{"type":"Feature","properties":{"name":"下平間","setai":4022,"jinko":8048,"key":"141322240","units":1},"geometry":{"type":"Polygon","coordinates":[[[139.67624,35.55423],[139.67695,35.55399],[139.67715,35.55401],[139.67742,35.55403],[139.6777,35.55406],[139.678,35.55412],[139.67809,35.55416],[139.67833,35.55424],[139.6785,35.55431],[139.67878,35.55447],[139.6788,35.55447],[139.67907,35.55464],[139.67929,35.55472],[139.67937,35.55474],[139.67937,35.55474],[139.67943,35.55479],[139.67974,35.55476],[139.67971,35.5547],[139.67972,35.55459],[139.67968,35.55424],[139.6797,35.55401],[139.6798,35.55375],[139.67988,35.5536],[139.68001,35.55332],[139.68006,35.55324],[139.68012,35.55313],[139.68029,35.55302],[139.68031,35.553],[139.68044,35.55291],[139.6805,35.55287],[139.68051,35.55286],[139.68071,35.55272],[139.68074,35.5527],[139.6808,35.55265],[139.68095,35.55254],[139.68112,35.55241],[139.68119,35.55235],[139.68101,35.55213],[139.68114,35.552],[139.68115,35.55199],[139.6812,35.55195],[139.68145,35.55173],[139.68121,35.55157],[139.6813,35.55143],[139.68149,35.55117],[139.68152,35.55111],[139.68153,35.55107],[139.68157,35.55101],[139.68169,35.55096],[139.68172,35.5509],[139.68187,35.5507],[139.68177,35.55059],[139.68178,35.55057],[139.6819,35.55042],[139.68226,35.55016],[139.68232,35.55025],[139.68262,35.55027],[139.68273,35.55014],[139.68255,35.55002],[139.68275,35.54992],[139.68288,35.54986],[139.68304,35.55],[139.68329,35.54986],[139.68348,35.54978],[139.68365,35.54973],[139.68396,35.54965],[139.68397,35.54965],[139.6845,35.54952],[139.6847,35.54947],[139.68473,35.54955],[139.68481,35.54976],[139.68486,35.54975],[139.68522,35.54966],[139.68521,35.5496],[139.68531,35.54957],[139.68544,35.54954],[139.68556,35.54953],[139.68568,35.54951],[139.68561,35.54923],[139.68604,35.54912],[139.68611,35.54912],[139.68612,35.54904],[139.68607,35.54891],[139.68606,35.54889],[139.68601,35.54875],[139.68608,35.54873],[139.68601,35.54858],[139.68594,35.5486],[139.68591,35.54852],[139.68602,35.54849],[139.68597,35.54838],[139.68585,35.54841],[139.6858,35.54829],[139.68593,35.54824],[139.68598,35.54822],[139.68585,35.54793],[139.686,35.54782],[139.68582,35.54736],[139.68581,35.54735],[139.68577,35.54728],[139.6855,35.54689],[139.68546,35.54679],[139.68546,35.54679],[139.68531,35.54643],[139.68525,35.54635],[139.68525,35.54634],[139.68509,35.54588],[139.68502,35.54566],[139.6847,35.54585],[139.68437,35.54606],[139.68427,35.54615],[139.68402,35.5463],[139.68392,35.54638],[139.68381,35.54648],[139.68349,35.54687],[139.68337,35.54701],[139.68307,35.54736],[139.68299,35.54744],[139.68284,35.5476],[139.68285,35.54762],[139.68273,35.54774],[139.68237,35.54811],[139.68228,35.54821],[139.68222,35.54834],[139.68207,35.54846],[139.68195,35.54867],[139.68196,35.54872],[139.68182,35.54877],[139.68176,35.54882],[139.68165,35.54879],[139.68136,35.54871],[139.6812,35.54871],[139.68084,35.54868],[139.68079,35.54868],[139.6807,35.54867],[139.6805,35.5486],[139.68013,35.54861],[139.68004,35.54861],[139.67998,35.54861],[139.68,35.54867],[139.67994,35.54867],[139.6796,35.54871],[139.67948,35.54872],[139.67936,35.54875],[139.67933,35.54878],[139.67883,35.54902],[139.67883,35.54899],[139.67857,35.54912],[139.67833,35.54923],[139.67804,35.54939],[139.67785,35.54943],[139.67765,35.5495],[139.67755,35.54959],[139.67726,35.54997],[139.67702,35.55024],[139.67687,35.5505],[139.67666,35.55123],[139.67632,35.55115],[139.67633,35.55127],[139.67631,35.55133],[139.67628,35.55142],[139.67618,35.55158],[139.67607,35.5517],[139.67601,35.55182],[139.676,35.55187],[139.67596,35.55192],[139.67592,35.55194],[139.67587,35.55197],[139.67582,35.55198],[139.67577,35.552],[139.67586,35.55207],[139.67587,35.55207],[139.67587,35.55208],[139.67563,35.55234],[139.67574,35.5524],[139.67584,35.55245],[139.67562,35.55287],[139.67549,35.5531],[139.67541,35.55322],[139.67539,35.55324],[139.67527,35.55356],[139.67517,35.55372],[139.67508,35.55393],[139.67503,35.55409],[139.67494,35.55425],[139.6746,35.55437],[139.67451,35.55441],[139.67458,35.55453],[139.6748,35.55483],[139.67486,35.5548],[139.67522,35.55463],[139.67556,35.55449],[139.67581,35.55438],[139.67598,35.55433],[139.67624,35.55423]]]}},{"type":"Feature","properties":{"name":"鹿島田一丁目","setai":1393,"jinko":2869,"key":"14132225001","units":1},"geometry":{"type":"Polygon","coordinates":[[[139.67582,35.55198],[139.67587,35.55197],[139.67592,35.55194],[139.67596,35.55192],[139.676,35.55187],[139.67601,35.55182],[139.67607,35.5517],[139.67618,35.55158],[139.67628,35.55142],[139.67631,35.55133],[139.67633,35.55127],[139.67632,35.55115],[139.67545,35.55082],[139.67552,35.55064],[139.67558,35.5505],[139.67581,35.54997],[139.67565,35.5499],[139.67507,35.54973],[139.67503,35.54972],[139.67431,35.54951],[139.6743,35.5495],[139.67423,35.54948],[139.67357,35.54929],[139.67303,35.54913],[139.67297,35.54916],[139.67276,35.54911],[139.67239,35.54907],[139.67179,35.549],[139.67122,35.54893],[139.67111,35.54925],[139.67111,35.54925],[139.67103,35.54949],[139.67097,35.54965],[139.67094,35.54975],[139.67091,35.54985],[139.67084,35.55004],[139.67078,35.55022],[139.67075,35.55032],[139.67066,35.55057],[139.67066,35.55059],[139.67059,35.5508],[139.67051,35.55104],[139.67018,35.55201],[139.67013,35.55216],[139.67007,35.55238],[139.67009,35.55238],[139.67016,35.55238],[139.67019,35.55237],[139.67019,35.55236],[139.67023,35.55222],[139.67028,35.55207],[139.6703,35.55205],[139.67037,35.55202],[139.67038,35.55202],[139.67041,35.55202],[139.67046,35.55202],[139.67051,35.55201],[139.67057,35.55201],[139.67063,35.55201],[139.67068,35.55201],[139.67071,35.55201],[139.67073,35.55201],[139.67087,35.55204],[139.6709,35.55204],[139.67095,35.55205],[139.67101,35.55205],[139.67106,35.55206],[139.6711,35.55206],[139.67126,35.552],[139.67132,35.55201],[139.67137,35.55202],[139.6714,35.55203],[139.67149,35.55206],[139.67155,35.55208],[139.67168,35.55208],[139.6715,35.55244],[139.67138,35.55262],[139.67135,35.55273],[139.67136,35.55272],[139.67145,35.55272],[139.67167,35.55247],[139.6717,35.55242],[139.67188,35.55218],[139.67194,35.55208],[139.67196,35.55206],[139.67201,35.55197],[139.67208,35.5522],[139.67219,35.55238],[139.67239,35.55259],[139.67254,35.5527],[139.67269,35.55274],[139.67287,35.55278],[139.6731,35.55284],[139.6731,35.55295],[139.67306,35.55319],[139.67305,35.55322],[139.67302,35.55327],[139.67301,35.55344],[139.67318,35.55395],[139.67328,35.55417],[139.67322,35.55435],[139.6735,35.55426],[139.67362,35.55422],[139.67383,35.55417],[139.67394,35.55414],[139.67413,35.55411],[139.67508,35.55393],[139.67517,35.55372],[139.67527,35.55356],[139.67539,35.55324],[139.67541,35.55322],[139.67549,35.5531],[139.67562,35.55287],[139.67584,35.55245],[139.67574,35.5524],[139.67563,35.55234],[139.67587,35.55208],[139.67587,35.55207],[139.67586,35.55207],[139.67577,35.552],[139.67582,35.55198]]]}},{"type":"Feature","properties":{"name":"鹿島田二丁目","setai":1193,"jinko":2401,"key":"14132225002","units":1},"geometry":{"type":"Polygon","coordinates":[[[139.67249,35.55717],[139.67256,35.55703],[139.67278,35.55702],[139.67286,35.55685],[139.67293,35.55663],[139.67308,35.5563],[139.67316,35.55611],[139.6733,35.55593],[139.67334,35.55588],[139.6735,35.55569],[139.67358,35.55558],[139.67362,35.55547],[139.67364,35.55534],[139.6743,35.55508],[139.6748,35.55483],[139.67458,35.55453],[139.67451,35.55441],[139.6746,35.55437],[139.67494,35.55425],[139.67503,35.55409],[139.67508,35.55393],[139.67413,35.55411],[139.67394,35.55414],[139.67383,35.55417],[139.67362,35.55422],[139.6735,35.55426],[139.67322,35.55435],[139.67328,35.55417],[139.67318,35.55395],[139.67301,35.55344],[139.67302,35.55327],[139.67305,35.55322],[139.67306,35.55319],[139.6731,35.55295],[139.6731,35.55284],[139.67287,35.55278],[139.67269,35.55274],[139.67254,35.5527],[139.67239,35.55259],[139.67219,35.55238],[139.67208,35.5522],[139.67201,35.55197],[139.67196,35.55206],[139.67194,35.55208],[139.67188,35.55218],[139.6717,35.55242],[139.67167,35.55247],[139.67145,35.55272],[139.67136,35.55272],[139.67135,35.55273],[139.67138,35.55262],[139.6715,35.55244],[139.67168,35.55208],[139.67155,35.55208],[139.67149,35.55206],[139.6714,35.55203],[139.67137,35.55202],[139.67132,35.55201],[139.67126,35.552],[139.6711,35.55206],[139.67106,35.55206],[139.67101,35.55205],[139.67095,35.55205],[139.6709,35.55204],[139.67087,35.55204],[139.67073,35.55201],[139.67071,35.55201],[139.67068,35.55201],[139.67063,35.55201],[139.67057,35.55201],[139.67051,35.55201],[139.67046,35.55202],[139.67041,35.55202],[139.67038,35.55202],[139.67037,35.55202],[139.6703,35.55205],[139.67028,35.55207],[139.67023,35.55222],[139.67019,35.55236],[139.67019,35.55237],[139.67016,35.55238],[139.67009,35.55238],[139.67007,35.55238],[139.67006,35.55241],[139.66998,35.55265],[139.66991,35.55288],[139.66979,35.55325],[139.66973,35.55345],[139.66922,35.55507],[139.66925,35.55507],[139.66953,35.55502],[139.66959,35.55485],[139.66977,35.55471],[139.67014,35.55442],[139.67047,35.55442],[139.67032,35.5547],[139.67021,35.55503],[139.66991,35.55595],[139.66979,35.55632],[139.6698,35.55632],[139.67023,35.55633],[139.67059,35.55633],[139.67093,35.55633],[139.67096,35.55625],[139.6715,35.55664],[139.67153,35.55665],[139.67161,35.55671],[139.6717,35.55676],[139.67171,35.55677],[139.67203,35.55699],[139.67226,35.55715],[139.67227,35.55716],[139.67228,35.55713],[139.67246,35.55716],[139.67249,35.55717]]]}},{"type":"Feature","properties":{"name":"鹿島田三丁目","setai":1380,"jinko":2615,"key":"14132225003","units":1},"geometry":{"type":"Polygon","coordinates":[[[139.66773,35.56175],[139.66796,35.56164],[139.66799,35.56165],[139.66814,35.56152],[139.66818,35.56143],[139.66823,35.56135],[139.66824,35.56135],[139.66829,35.56136],[139.669,35.56124],[139.66899,35.56116],[139.66905,35.56112],[139.66913,35.56113],[139.66916,35.56122],[139.66934,35.56119],[139.66938,35.56119],[139.66938,35.56118],[139.66943,35.56112],[139.66958,35.56094],[139.66964,35.56087],[139.66965,35.56096],[139.66965,35.56098],[139.66996,35.56112],[139.67001,35.56114],[139.67011,35.56118],[139.67015,35.56119],[139.67015,35.5612],[139.67017,35.5612],[139.67023,35.56123],[139.67026,35.56125],[139.67041,35.56089],[139.6705,35.56059],[139.67055,35.56043],[139.67058,35.56033],[139.67057,35.56025],[139.67059,35.56013],[139.67061,35.56002],[139.67062,35.55995],[139.67062,35.55988],[139.67063,35.55981],[139.67063,35.55977],[139.67062,35.55973],[139.67062,35.55971],[139.6706,35.55968],[139.67062,35.55966],[139.67065,35.55962],[139.67088,35.55935],[139.67113,35.55904],[139.67115,35.559],[139.67121,35.55893],[139.67136,35.55874],[139.67147,35.55856],[139.67155,35.55847],[139.67166,35.55829],[139.67176,35.55813],[139.67199,35.5578],[139.67217,35.55743],[139.67217,35.55742],[139.67218,35.55741],[139.6722,35.55736],[139.67222,35.55732],[139.67223,35.55729],[139.67227,35.55716],[139.67226,35.55715],[139.67203,35.55699],[139.67171,35.55677],[139.6717,35.55676],[139.67161,35.55671],[139.67153,35.55665],[139.6715,35.55664],[139.67096,35.55625],[139.67093,35.55633],[139.67059,35.55633],[139.67023,35.55633],[139.6698,35.55632],[139.66979,35.55632],[139.66991,35.55595],[139.67021,35.55503],[139.67032,35.5547],[139.67047,35.55442],[139.67014,35.55442],[139.66977,35.55471],[139.66959,35.55485],[139.66953,35.55502],[139.66925,35.55507],[139.66922,35.55507],[139.66891,35.55604],[139.66803,35.55878],[139.6673,35.56136],[139.6673,35.56143],[139.66715,35.56196],[139.66712,35.56204],[139.66711,35.56207],[139.66741,35.56193],[139.66742,35.5619],[139.66767,35.56178],[139.66773,35.56175]]]}},{"type":"Feature","properties":{"name":"小倉","setai":1683,"jinko":3976,"key":"141322262","units":2},"geometry":{"type":"MultiPolygon","coordinates":[[[[139.67659,35.5478],[139.67659,35.5474],[139.67663,35.54722],[139.67639,35.54714],[139.67612,35.54706],[139.67632,35.54663],[139.67618,35.5466],[139.67577,35.54649],[139.67577,35.54647],[139.67537,35.54649],[139.67499,35.54743],[139.67375,35.54701],[139.67374,35.54703],[139.6737,35.54715],[139.67367,35.54726],[139.67349,35.54784],[139.67348,35.54789],[139.6733,35.54849],[139.67303,35.54913],[139.67357,35.54929],[139.67423,35.54948],[139.6743,35.5495],[139.67431,35.54951],[139.67503,35.54972],[139.67507,35.54973],[139.67565,35.5499],[139.67581,35.54997],[139.67583,35.54998],[139.67601,35.54958],[139.6764,35.54871],[139.67664,35.54817],[139.67676,35.54792],[139.67678,35.54786],[139.67659,35.5478]]],[[[139.67303,35.54913],[139.6733,35.54849],[139.67348,35.54789],[139.67349,35.54784],[139.67367,35.54726],[139.6737,35.54715],[139.67374,35.54703],[139.67375,35.54701],[139.67397,35.54629],[139.67401,35.54625],[139.67402,35.54624],[139.67408,35.54605],[139.67438,35.54509],[139.67459,35.54443],[139.67475,35.54393],[139.67492,35.54342],[139.67496,35.54342],[139.67501,35.54323],[139.67512,35.54266],[139.67542,35.54147],[139.67566,35.54071],[139.67567,35.54065],[139.67568,35.54054],[139.67564,35.54053],[139.6757,35.5403],[139.67571,35.54018],[139.67564,35.54003],[139.67548,35.53981],[139.67455,35.54256],[139.67405,35.54429],[139.67395,35.54466],[139.67381,35.54511],[139.67358,35.54545],[139.67329,35.54586],[139.67304,35.54614],[139.6724,35.54691],[139.67215,35.54723],[139.67177,35.54768],[139.67168,35.54788],[139.67155,35.54788],[139.67149,35.54808],[139.67146,35.54816],[139.67144,35.54824],[139.67138,35.54842],[139.67137,35.54844],[139.67134,35.54855],[139.67132,35.54862],[139.6713,35.54866],[139.67122,35.54893],[139.67179,35.549],[139.67239,35.54907],[139.67276,35.54911],[139.67297,35.54916],[139.67303,35.54913]]]]}},{"type":"Feature","properties":{"name":"小倉一丁目","setai":831,"jinko":2072,"key":"14132226101","units":1},"geometry":{"type":"Polygon","coordinates":[[[139.67061,35.54718],[139.67063,35.54684],[139.67065,35.5467],[139.67065,35.54667],[139.67069,35.54641],[139.67073,35.5462],[139.6708,35.54588],[139.67093,35.54545],[139.67099,35.54533],[139.67115,35.54497],[139.67142,35.54441],[139.67162,35.54395],[139.67165,35.54388],[139.67172,35.54373],[139.67174,35.54369],[139.67181,35.54349],[139.67179,35.54341],[139.67188,35.54311],[139.67182,35.5432],[139.67179,35.54322],[139.67177,35.54323],[139.67174,35.54325],[139.67171,35.54327],[139.67168,35.54329],[139.67164,35.5433],[139.6716,35.54332],[139.67155,35.54333],[139.67152,35.54334],[139.67147,35.54335],[139.67146,35.54335],[139.67134,35.54337],[139.67132,35.54338],[139.6713,35.54338],[139.67126,35.54339],[139.67118,35.5434],[139.67118,35.5434],[139.67112,35.54341],[139.67109,35.54342],[139.67104,35.54343],[139.67101,35.54344],[139.671,35.54344],[139.67097,35.54346],[139.6709,35.54349],[139.67072,35.54361],[139.67069,35.54363],[139.67064,35.54366],[139.6705,35.54376],[139.67046,35.54379],[139.67043,35.54381],[139.67041,35.54382],[139.67024,35.54395],[139.67024,35.54395],[139.66999,35.54412],[139.66997,35.54414],[139.66993,35.54416],[139.66988,35.5442],[139.66974,35.54429],[139.66942,35.54451],[139.66933,35.54457],[139.66932,35.54458],[139.66928,35.54461],[139.66914,35.5447],[139.66884,35.54489],[139.66879,35.54493],[139.66872,35.54497],[139.66855,35.54507],[139.66849,35.54509],[139.66849,35.54509],[139.66847,35.5451],[139.66835,35.54513],[139.66825,35.54514],[139.66808,35.54515],[139.66794,35.54515],[139.66797,35.54518],[139.66811,35.54533],[139.66829,35.54545],[139.6685,35.54562],[139.66851,35.54589],[139.66852,35.54605],[139.66859,35.54615],[139.66862,35.54621],[139.66874,35.54631],[139.66891,35.54638],[139.66902,35.54655],[139.66912,35.54672],[139.66929,35.54687],[139.66938,35.54691],[139.6695,35.54696],[139.66969,35.547],[139.66984,35.547],[139.67001,35.547],[139.67038,35.54697],[139.67052,35.54718],[139.6706,35.54722],[139.6706,35.54722],[139.67061,35.54718]]]}},{"type":"Feature","properties":{"name":"小倉二丁目","setai":1154,"jinko":2718,"key":"14132226102","units":1},"geometry":{"type":"Polygon","coordinates":[[[139.66858,35.53998],[139.6685,35.53943],[139.66811,35.53948],[139.66784,35.53951],[139.66775,35.53952],[139.66758,35.53955],[139.66718,35.53955],[139.66688,35.53958],[139.66662,35.53961],[139.66602,35.53966],[139.66577,35.53968],[139.66535,35.53973],[139.66524,35.53973],[139.6649,35.53973],[139.66471,35.53972],[139.66446,35.53967],[139.66414,35.53961],[139.66387,35.5396],[139.66328,35.53959],[139.66326,35.53958],[139.66324,35.53983],[139.66326,35.53994],[139.66351,35.53989],[139.66352,35.53991],[139.66374,35.54013],[139.66422,35.54065],[139.66447,35.54096],[139.6649,35.54154],[139.66509,35.54178],[139.66531,35.54207],[139.66535,35.54211],[139.66535,35.54211],[139.66602,35.54285],[139.66603,35.54286],[139.66624,35.54309],[139.6664,35.54328],[139.66641,35.54329],[139.66662,35.54353],[139.66697,35.54401],[139.66697,35.54402],[139.66741,35.54455],[139.66761,35.54479],[139.66781,35.54503],[139.6679,35.54511],[139.66794,35.54515],[139.66808,35.54515],[139.66825,35.54514],[139.66835,35.54513],[139.66847,35.5451],[139.66849,35.54509],[139.66849,35.54509],[139.66855,35.54507],[139.66872,35.54497],[139.66879,35.54493],[139.66884,35.54489],[139.66914,35.5447],[139.66928,35.54461],[139.66932,35.54458],[139.66933,35.54457],[139.66942,35.54451],[139.66974,35.54429],[139.66988,35.5442],[139.66993,35.54416],[139.66997,35.54414],[139.66973,35.54397],[139.66953,35.54378],[139.66931,35.5436],[139.66925,35.54352],[139.66917,35.54341],[139.66904,35.54293],[139.66901,35.54282],[139.66898,35.54265],[139.66888,35.54221],[139.66882,35.54187],[139.66881,35.54186],[139.6688,35.54178],[139.6687,35.5412],[139.66866,35.54077],[139.66858,35.53998]]]}},{"type":"Feature","properties":{"name":"小倉三丁目","setai":1532,"jinko":3284,"key":"14132226103","units":1},"geometry":{"type":"Polygon","coordinates":[[[139.67332,35.53964],[139.67349,35.53925],[139.6734,35.53926],[139.67325,35.53928],[139.67286,35.53932],[139.67261,35.53935],[139.6726,35.53935],[139.67234,35.53937],[139.67216,35.5394],[139.67186,35.5394],[139.6718,35.53941],[139.67139,35.53935],[139.67103,35.53934],[139.67099,35.53934],[139.67069,35.53934],[139.67036,35.53934],[139.67017,35.53937],[139.6699,35.53939],[139.66964,35.53938],[139.66914,35.53937],[139.66869,35.53938],[139.6685,35.53943],[139.66858,35.53998],[139.66866,35.54077],[139.6687,35.5412],[139.6688,35.54178],[139.66881,35.54186],[139.66882,35.54187],[139.66888,35.54221],[139.66898,35.54265],[139.66901,35.54282],[139.66904,35.54293],[139.66917,35.54341],[139.66925,35.54352],[139.66931,35.5436],[139.66953,35.54378],[139.66973,35.54397],[139.66997,35.54414],[139.66999,35.54412],[139.67024,35.54395],[139.67024,35.54395],[139.67041,35.54382],[139.67043,35.54381],[139.67046,35.54379],[139.6705,35.54376],[139.67064,35.54366],[139.67069,35.54363],[139.67072,35.54361],[139.6709,35.54349],[139.67097,35.54346],[139.671,35.54344],[139.67101,35.54344],[139.67104,35.54343],[139.67109,35.54342],[139.67112,35.54341],[139.67118,35.5434],[139.67118,35.5434],[139.67126,35.54339],[139.6713,35.54338],[139.67132,35.54338],[139.67134,35.54337],[139.67146,35.54335],[139.67147,35.54335],[139.67152,35.54334],[139.67155,35.54333],[139.6716,35.54332],[139.67164,35.5433],[139.67168,35.54329],[139.67171,35.54327],[139.67174,35.54325],[139.67177,35.54323],[139.67179,35.54322],[139.67182,35.5432],[139.67188,35.54311],[139.67206,35.54254],[139.67212,35.54233],[139.67224,35.54207],[139.67232,35.5419],[139.67265,35.54119],[139.67295,35.54049],[139.67296,35.54047],[139.67332,35.53964]]]}},{"type":"Feature","properties":{"name":"小倉四丁目","setai":1719,"jinko":3723,"key":"14132226104","units":1},"geometry":{"type":"Polygon","coordinates":[[[139.66869,35.53938],[139.66914,35.53937],[139.66964,35.53938],[139.6699,35.53939],[139.67017,35.53937],[139.67036,35.53934],[139.67069,35.53934],[139.67099,35.53934],[139.67103,35.53934],[139.67139,35.53935],[139.6718,35.53941],[139.67186,35.5394],[139.67216,35.5394],[139.67234,35.53937],[139.6726,35.53935],[139.67261,35.53935],[139.67286,35.53932],[139.67325,35.53928],[139.6734,35.53926],[139.67349,35.53925],[139.67365,35.53886],[139.67377,35.53859],[139.6739,35.53823],[139.67401,35.53796],[139.67414,35.53757],[139.67417,35.53749],[139.67419,35.5374],[139.67422,35.53734],[139.67406,35.53735],[139.67401,35.53733],[139.67371,35.53732],[139.67343,35.5373],[139.67323,35.53741],[139.673,35.53748],[139.67295,35.53747],[139.67281,35.53713],[139.67267,35.53682],[139.67246,35.53683],[139.67206,35.53688],[139.672,35.53692],[139.67157,35.53689],[139.67138,35.53689],[139.67126,35.53689],[139.67084,35.53688],[139.67084,35.53683],[139.67081,35.53683],[139.67049,35.53681],[139.6704,35.5368],[139.67037,35.53683],[139.67036,35.53669],[139.67041,35.53611],[139.6704,35.53603],[139.67031,35.53578],[139.67031,35.53564],[139.67034,35.53559],[139.67035,35.53547],[139.67035,35.53538],[139.67032,35.53524],[139.67028,35.53522],[139.67019,35.53519],[139.66964,35.53495],[139.66914,35.53474],[139.66896,35.53477],[139.66873,35.53481],[139.66866,35.53482],[139.66826,35.53484],[139.66813,35.53462],[139.66775,35.53466],[139.66783,35.53502],[139.66794,35.53517],[139.66798,35.5355],[139.66798,35.53551],[139.66785,35.53582],[139.66788,35.53635],[139.66788,35.53635],[139.66792,35.5367],[139.66791,35.53678],[139.6679,35.53682],[139.66793,35.53708],[139.66793,35.53733],[139.66793,35.53804],[139.66792,35.53804],[139.66791,35.53817],[139.66793,35.53837],[139.668,35.53857],[139.66807,35.53868],[139.66802,35.53885],[139.66804,35.53897],[139.66805,35.53904],[139.66805,35.53904],[139.66845,35.53898],[139.66848,35.53895],[139.66843,35.53919],[139.6685,35.53943],[139.66869,35.53938]]]}},{"type":"Feature","properties":{"name":"小倉五丁目","setai":1261,"jinko":2815,"key":"14132226105","units":1},"geometry":{"type":"Polygon","coordinates":[[[139.66843,35.53919],[139.66848,35.53895],[139.66845,35.53898],[139.66805,35.53904],[139.66805,35.53904],[139.66804,35.53897],[139.66802,35.53885],[139.66807,35.53868],[139.668,35.53857],[139.66793,35.53837],[139.66791,35.53817],[139.66792,35.53804],[139.66793,35.53804],[139.66793,35.53733],[139.66793,35.53708],[139.6679,35.53682],[139.66791,35.53678],[139.66792,35.5367],[139.66788,35.53635],[139.66788,35.53635],[139.66785,35.53582],[139.66798,35.53551],[139.66798,35.5355],[139.66794,35.53517],[139.66783,35.53502],[139.66775,35.53466],[139.66813,35.53462],[139.6681,35.53457],[139.66752,35.53361],[139.66746,35.53352],[139.66743,35.53351],[139.66695,35.53338],[139.66693,35.53313],[139.66666,35.53291],[139.66653,35.53306],[139.66625,35.53336],[139.66612,35.53349],[139.66571,35.53392],[139.66545,35.53414],[139.66519,35.53432],[139.66495,35.53449],[139.66472,35.53462],[139.66435,35.53485],[139.66404,35.53504],[139.66382,35.53515],[139.66315,35.53553],[139.66286,35.53572],[139.66254,35.53591],[139.66196,35.53627],[139.66189,35.53645],[139.662,35.53655],[139.66193,35.53672],[139.6619,35.53684],[139.66194,35.53697],[139.66192,35.53706],[139.66192,35.53711],[139.66206,35.53746],[139.6622,35.53758],[139.66247,35.53773],[139.66274,35.53789],[139.66285,35.53786],[139.66296,35.53797],[139.66305,35.53805],[139.663,35.53822],[139.66302,35.5383],[139.66298,35.53855],[139.66299,35.5386],[139.66302,35.53882],[139.66304,35.53903],[139.66305,35.53945],[139.66307,35.53952],[139.66313,35.53957],[139.66326,35.53958],[139.66328,35.53959],[139.66387,35.5396],[139.66414,35.53961],[139.66446,35.53967],[139.66471,35.53972],[139.6649,35.53973],[139.66524,35.53973],[139.66535,35.53973],[139.66577,35.53968],[139.66602,35.53966],[139.66662,35.53961],[139.66688,35.53958],[139.66718,35.53955],[139.66758,35.53955],[139.66775,35.53952],[139.66784,35.53951],[139.66811,35.53948],[139.6685,35.53943],[139.66843,35.53919]]]}},{"type":"Feature","properties":{"name":"南加瀬一丁目","setai":1027,"jinko":2334,"key":"14132227001","units":1},"geometry":{"type":"Polygon","coordinates":[[[139.66367,35.55068],[139.66605,35.54883],[139.66638,35.54881],[139.66709,35.54836],[139.66745,35.54829],[139.66771,35.54814],[139.66789,35.54796],[139.66814,35.54791],[139.6683,35.54759],[139.66834,35.54753],[139.66861,35.54748],[139.66866,35.54746],[139.66871,35.54739],[139.66863,35.54728],[139.66854,35.54726],[139.66847,35.54716],[139.66854,35.5471],[139.66854,35.54698],[139.66865,35.5468],[139.66869,35.54671],[139.66868,35.54667],[139.66859,35.54647],[139.66851,35.54634],[139.66846,35.54625],[139.66859,35.54615],[139.66852,35.54605],[139.66851,35.54589],[139.6685,35.54562],[139.66829,35.54545],[139.66811,35.54533],[139.66797,35.54518],[139.66794,35.54515],[139.6679,35.54511],[139.66742,35.54514],[139.66741,35.54514],[139.66737,35.54514],[139.66627,35.54522],[139.66592,35.54524],[139.6659,35.54525],[139.66547,35.54526],[139.66472,35.54527],[139.66409,35.54529],[139.66409,35.54562],[139.66408,35.54589],[139.66407,35.54629],[139.66405,35.54703],[139.66405,35.5476],[139.66404,35.54772],[139.66404,35.54808],[139.66404,35.54832],[139.66407,35.54834],[139.66454,35.54903],[139.66448,35.54909],[139.66419,35.54919],[139.66419,35.54923],[139.6641,35.54926],[139.66411,35.5493],[139.66407,35.54932],[139.66422,35.54961],[139.66416,35.54968],[139.66379,35.54977],[139.66372,35.5498],[139.66374,35.54987],[139.66386,35.54992],[139.66386,35.54997],[139.66348,35.54992],[139.66345,35.54981],[139.66332,35.54982],[139.66341,35.55005],[139.66339,35.55006],[139.66334,35.55011],[139.66325,35.55016],[139.66326,35.55049],[139.66351,35.55042],[139.66364,35.55064],[139.66367,35.55068]]]}},{"type":"Feature","properties":{"name":"南加瀬二丁目","setai":1417,"jinko":3297,"key":"14132227002","units":1},"geometry":{"type":"Polygon","coordinates":[[[139.65948,35.55065],[139.65957,35.55052],[139.6603,35.55065],[139.66033,35.55059],[139.66048,35.55065],[139.66073,35.5505],[139.66104,35.55032],[139.66111,35.55033],[139.66115,35.55033],[139.66119,35.55031],[139.66121,35.55023],[139.6614,35.55018],[139.66164,35.55016],[139.66165,35.55012],[139.66163,35.55004],[139.66188,35.55003],[139.66229,35.54992],[139.66234,35.55002],[139.66268,35.54991],[139.66269,35.54991],[139.66291,35.54985],[139.66316,35.54995],[139.66323,35.5501],[139.66339,35.55006],[139.66341,35.55005],[139.66332,35.54982],[139.66345,35.54981],[139.66348,35.54992],[139.66386,35.54997],[139.66386,35.54992],[139.66374,35.54987],[139.66372,35.5498],[139.66379,35.54977],[139.66416,35.54968],[139.66422,35.54961],[139.66407,35.54932],[139.66411,35.5493],[139.6641,35.54926],[139.66419,35.54923],[139.66419,35.54919],[139.66448,35.54909],[139.66454,35.54903],[139.66407,35.54834],[139.66404,35.54832],[139.66404,35.54808],[139.66404,35.54772],[139.66405,35.5476],[139.66405,35.54703],[139.66407,35.54629],[139.66408,35.54589],[139.66409,35.54562],[139.66409,35.54529],[139.66408,35.54528],[139.66376,35.54529],[139.66328,35.5453],[139.66281,35.54531],[139.66282,35.54531],[139.66231,35.54532],[139.66231,35.54532],[139.66178,35.54533],[139.66061,35.54536],[139.66056,35.54542],[139.66043,35.54578],[139.66033,35.54608],[139.6602,35.54641],[139.66016,35.54648],[139.66007,35.54673],[139.66005,35.54681],[139.65986,35.54732],[139.65943,35.54846],[139.65922,35.54903],[139.65922,35.54913],[139.65922,35.54921],[139.65919,35.54927],[139.65922,35.54961],[139.65923,35.54993],[139.65923,35.55006],[139.65926,35.55056],[139.65931,35.55066],[139.65948,35.55065]]]}},{"type":"Feature","properties":{"name":"南加瀬三丁目","setai":1879,"jinko":4076,"key":"14132227003","units":1},"geometry":{"type":"Polygon","coordinates":[[[139.66231,35.54532],[139.66282,35.54531],[139.66281,35.54531],[139.66328,35.5453],[139.66376,35.54529],[139.66408,35.54528],[139.66409,35.54529],[139.66472,35.54527],[139.66547,35.54526],[139.6659,35.54525],[139.66592,35.54524],[139.66627,35.54522],[139.66737,35.54514],[139.66741,35.54514],[139.66742,35.54514],[139.6679,35.54511],[139.66781,35.54503],[139.66761,35.54479],[139.66741,35.54455],[139.66697,35.54402],[139.66697,35.54401],[139.66662,35.54353],[139.66641,35.54329],[139.6664,35.54328],[139.66624,35.54309],[139.66603,35.54286],[139.66602,35.54285],[139.66535,35.54211],[139.66535,35.54211],[139.66531,35.54207],[139.66509,35.54178],[139.6649,35.54154],[139.66447,35.54096],[139.66422,35.54065],[139.66374,35.54013],[139.66352,35.53991],[139.66351,35.53989],[139.66326,35.53994],[139.66324,35.53983],[139.66319,35.53991],[139.66294,35.54018],[139.66255,35.54066],[139.66249,35.54073],[139.66225,35.54105],[139.66211,35.54129],[139.66199,35.54156],[139.66194,35.5417],[139.66194,35.5417],[139.66171,35.54233],[139.6616,35.54265],[139.66146,35.54304],[139.66146,35.54305],[139.66141,35.54317],[139.66119,35.54373],[139.66118,35.54375],[139.66102,35.54419],[139.66102,35.54425],[139.66092,35.54452],[139.66092,35.54453],[139.66075,35.54499],[139.66061,35.54536],[139.66178,35.54533],[139.66231,35.54532],[139.66231,35.54532]]]}},{"type":"Feature","properties":{"name":"南加瀬四丁目","setai":2456,"jinko":5456,"key":"14132227004","units":1},"geometry":{"type":"Polygon","coordinates":[[[139.66171,35.54233],[139.66194,35.5417],[139.66194,35.5417],[139.66129,35.54163],[139.66083,35.54157],[139.6608,35.54157],[139.65973,35.54145],[139.6597,35.54145],[139.65962,35.54144],[139.65888,35.54136],[139.65824,35.54128],[139.65821,35.54128],[139.65818,35.54127],[139.65719,35.54116],[139.65714,35.54117],[139.65708,35.54128],[139.65695,35.54138],[139.65694,35.54139],[139.65687,35.54144],[139.65661,35.54154],[139.65635,35.54164],[139.65622,35.54168],[139.65609,35.54171],[139.65565,35.54173],[139.65454,35.54172],[139.65428,35.54176],[139.65437,35.54221],[139.65444,35.54267],[139.6545,35.54288],[139.6546,35.54306],[139.65473,35.54327],[139.65493,35.54365],[139.65515,35.54415],[139.65547,35.54503],[139.65551,35.54515],[139.6556,35.5454],[139.65567,35.54563],[139.65568,35.54566],[139.65577,35.54589],[139.65611,35.5467],[139.65637,35.54727],[139.65656,35.54769],[139.65661,35.54779],[139.6568,35.54818],[139.65695,35.54857],[139.65706,35.54906],[139.65721,35.54968],[139.65731,35.54998],[139.65739,35.55018],[139.65746,35.55037],[139.65751,35.55057],[139.65754,35.55085],[139.65754,35.5509],[139.65755,35.55098],[139.65753,35.55138],[139.65774,35.55143],[139.65793,35.55146],[139.65806,35.55144],[139.6584,35.55124],[139.65863,35.55116],[139.65881,35.55109],[139.65912,35.55101],[139.65934,35.55096],[139.65931,35.55066],[139.65926,35.55056],[139.65923,35.55006],[139.65923,35.54993],[139.65922,35.54961],[139.65919,35.54927],[139.65922,35.54921],[139.65922,35.54913],[139.65922,35.54903],[139.65943,35.54846],[139.65986,35.54732],[139.66005,35.54681],[139.66007,35.54673],[139.66016,35.54648],[139.6602,35.54641],[139.66033,35.54608],[139.66043,35.54578],[139.66056,35.54542],[139.66061,35.54536],[139.66075,35.54499],[139.66092,35.54453],[139.66092,35.54452],[139.66102,35.54425],[139.66102,35.54419],[139.66118,35.54375],[139.66119,35.54373],[139.66141,35.54317],[139.66146,35.54305],[139.66146,35.54304],[139.6616,35.54265],[139.66171,35.54233]]]}},{"type":"Feature","properties":{"name":"南加瀬五丁目","setai":1788,"jinko":4058,"key":"14132227005","units":1},"geometry":{"type":"Polygon","coordinates":[[[139.65428,35.54176],[139.65454,35.54172],[139.65565,35.54173],[139.65609,35.54171],[139.65622,35.54168],[139.65635,35.54164],[139.65661,35.54154],[139.65687,35.54144],[139.65694,35.54139],[139.65695,35.54138],[139.65708,35.54128],[139.65714,35.54117],[139.65719,35.54116],[139.65818,35.54127],[139.65821,35.54128],[139.65824,35.54128],[139.65888,35.54136],[139.65962,35.54144],[139.6597,35.54145],[139.65973,35.54145],[139.6608,35.54157],[139.66083,35.54157],[139.66129,35.54163],[139.66194,35.5417],[139.66199,35.54156],[139.66211,35.54129],[139.66225,35.54105],[139.66249,35.54073],[139.66255,35.54066],[139.66294,35.54018],[139.66319,35.53991],[139.66324,35.53983],[139.66326,35.53958],[139.66313,35.53957],[139.66307,35.53952],[139.66305,35.53945],[139.66304,35.53903],[139.66302,35.53882],[139.66299,35.5386],[139.66298,35.53855],[139.66302,35.5383],[139.663,35.53822],[139.66305,35.53805],[139.66296,35.53797],[139.66285,35.53786],[139.66274,35.53789],[139.66247,35.53773],[139.6622,35.53758],[139.66206,35.53746],[139.66192,35.53711],[139.66192,35.53706],[139.66194,35.53697],[139.6619,35.53684],[139.66193,35.53672],[139.662,35.53655],[139.66189,35.53645],[139.66196,35.53627],[139.66166,35.53647],[139.6614,35.53661],[139.6612,35.53674],[139.66096,35.53686],[139.66054,35.53705],[139.66019,35.53714],[139.65996,35.53722],[139.65943,35.53739],[139.65916,35.53749],[139.65895,35.53756],[139.65881,35.5376],[139.65748,35.53807],[139.65714,35.53818],[139.65647,35.53842],[139.65614,35.53856],[139.65586,35.53866],[139.6555,35.53879],[139.65539,35.53882],[139.65506,35.53914],[139.65478,35.53944],[139.65458,35.53971],[139.6544,35.53998],[139.65429,35.54017],[139.65421,35.54035],[139.65414,35.54071],[139.65413,35.54078],[139.65413,35.54097],[139.65419,35.54146],[139.65428,35.54176]]]}},{"type":"Feature","properties":{"name":"北加瀬一丁目","setai":1986,"jinko":4207,"key":"14132228001","units":1},"geometry":{"type":"Polygon","coordinates":[[[139.66673,35.55254],[139.66738,35.55252],[139.66803,35.55254],[139.66835,35.55255],[139.66837,35.55254],[139.6688,35.55252],[139.66925,35.55249],[139.66931,35.55249],[139.66935,35.55245],[139.66937,35.55233],[139.66941,35.55205],[139.66945,35.55176],[139.66952,35.55126],[139.66956,35.55116],[139.66963,35.55086],[139.66964,35.55085],[139.66969,35.55067],[139.6697,35.55063],[139.66977,35.55041],[139.66977,35.5504],[139.66985,35.55015],[139.66988,35.55007],[139.66993,35.54991],[139.66994,35.54985],[139.66999,35.54967],[139.67001,35.54958],[139.67007,35.5493],[139.67013,35.54905],[139.67014,35.54904],[139.6702,35.54871],[139.67025,35.54849],[139.67026,35.54843],[139.67027,35.54842],[139.6703,35.54827],[139.67032,35.54819],[139.67034,35.54812],[139.67037,35.548],[139.67039,35.54794],[139.6704,35.5479],[139.67043,35.54777],[139.67047,35.54765],[139.67049,35.54757],[139.6706,35.54722],[139.67052,35.54718],[139.67038,35.54697],[139.67001,35.547],[139.66984,35.547],[139.66969,35.547],[139.6695,35.54696],[139.66938,35.54691],[139.66929,35.54687],[139.66912,35.54672],[139.66902,35.54655],[139.66891,35.54638],[139.66874,35.54631],[139.66862,35.54621],[139.66859,35.54615],[139.66846,35.54625],[139.66851,35.54634],[139.66859,35.54647],[139.66868,35.54667],[139.66869,35.54671],[139.66865,35.5468],[139.66854,35.54698],[139.66854,35.5471],[139.66847,35.54716],[139.66854,35.54726],[139.66863,35.54728],[139.66871,35.54739],[139.66866,35.54746],[139.66861,35.54748],[139.66834,35.54753],[139.6683,35.54759],[139.66814,35.54791],[139.66789,35.54796],[139.66771,35.54814],[139.66745,35.54829],[139.66709,35.54836],[139.66638,35.54881],[139.66605,35.54883],[139.66367,35.55068],[139.66364,35.55064],[139.66345,35.55074],[139.66342,35.5513],[139.66334,35.55176],[139.66333,35.55179],[139.66332,35.55186],[139.6633,35.5524],[139.66331,35.5524],[139.66347,35.55241],[139.66405,35.55242],[139.66405,35.55248],[139.66457,35.55252],[139.66491,35.55254],[139.66525,35.55255],[139.66588,35.55255],[139.66673,35.55254]]]}},{"type":"Feature","properties":{"name":"北加瀬二丁目","setai":1291,"jinko":3242,"key":"14132228002","units":1},"geometry":{"type":"Polygon","coordinates":[[[139.66345,35.55074],[139.66364,35.55064],[139.66351,35.55042],[139.66326,35.55049],[139.66325,35.55016],[139.66334,35.55011],[139.66339,35.55006],[139.66323,35.5501],[139.66316,35.54995],[139.66291,35.54985],[139.66269,35.54991],[139.66268,35.54991],[139.66234,35.55002],[139.66229,35.54992],[139.66188,35.55003],[139.66163,35.55004],[139.66165,35.55012],[139.66164,35.55016],[139.6614,35.55018],[139.66121,35.55023],[139.66119,35.55031],[139.66115,35.55033],[139.66111,35.55033],[139.66104,35.55032],[139.66073,35.5505],[139.66048,35.55065],[139.66033,35.55059],[139.6603,35.55065],[139.65957,35.55052],[139.65948,35.55065],[139.65931,35.55066],[139.65934,35.55096],[139.65935,35.55114],[139.65939,35.55164],[139.65943,35.55188],[139.65953,35.55199],[139.65952,35.55201],[139.65972,35.55309],[139.66025,35.5533],[139.66032,35.55336],[139.66068,35.55386],[139.66096,35.554],[139.66111,35.55424],[139.66147,35.55441],[139.66148,35.55443],[139.6618,35.55479],[139.66216,35.5549],[139.66225,35.55492],[139.66263,35.5551],[139.66302,35.55534],[139.66343,35.55557],[139.66383,35.55569],[139.66409,35.55524],[139.66408,35.55472],[139.66405,35.55248],[139.66405,35.55242],[139.66347,35.55241],[139.66331,35.5524],[139.6633,35.5524],[139.66332,35.55186],[139.66333,35.55179],[139.66334,35.55176],[139.66342,35.5513],[139.66345,35.55074]]]}},{"type":"Feature","properties":{"name":"北加瀬三丁目","setai":1358,"jinko":3024,"key":"14132228003","units":1},"geometry":{"type":"Polygon","coordinates":[[[139.66025,35.5533],[139.65972,35.55309],[139.65974,35.55335],[139.65977,35.55344],[139.65991,35.55368],[139.65998,35.55401],[139.66002,35.55417],[139.65986,35.55451],[139.65967,35.55489],[139.65966,35.5549],[139.65964,35.55494],[139.65959,35.55508],[139.65937,35.55556],[139.65937,35.55592],[139.65923,35.55592],[139.65911,35.55595],[139.6591,35.55653],[139.65907,35.55692],[139.65955,35.55695],[139.66024,35.55716],[139.66057,35.55726],[139.66066,35.55729],[139.66132,35.5575],[139.66164,35.55753],[139.66168,35.55753],[139.66279,35.55802],[139.66321,35.55823],[139.6633,35.55827],[139.66342,35.55811],[139.66356,35.55796],[139.66355,35.55792],[139.66359,35.55782],[139.66361,35.55778],[139.66361,35.55773],[139.66369,35.5574],[139.6638,35.55704],[139.66383,35.55686],[139.66388,35.55663],[139.664,35.55655],[139.66407,35.55624],[139.66395,35.55589],[139.66383,35.55569],[139.66343,35.55557],[139.66302,35.55534],[139.66263,35.5551],[139.66225,35.55492],[139.66216,35.5549],[139.6618,35.55479],[139.66148,35.55443],[139.66147,35.55441],[139.66111,35.55424],[139.66096,35.554],[139.66068,35.55386],[139.66032,35.55336],[139.66025,35.5533]]]}},{"type":"Feature","properties":{"name":"矢上","setai":582,"jinko":973,"key":"141322290","units":1},"geometry":{"type":"Polygon","coordinates":[[[139.65939,35.55164],[139.65935,35.55114],[139.65934,35.55096],[139.65912,35.55101],[139.65881,35.55109],[139.65863,35.55116],[139.6584,35.55124],[139.65806,35.55144],[139.65793,35.55146],[139.65774,35.55143],[139.65753,35.55138],[139.65752,35.5516],[139.65755,35.55183],[139.65767,35.55211],[139.65767,35.55211],[139.65782,35.55248],[139.65783,35.55256],[139.6578,35.55287],[139.6578,35.55292],[139.6578,35.55306],[139.65791,35.55333],[139.65793,35.55334],[139.65796,35.55339],[139.65821,35.5536],[139.65831,35.5537],[139.65837,35.55383],[139.65842,35.55414],[139.6584,35.55437],[139.65836,35.55455],[139.65831,35.55469],[139.65825,35.55579],[139.65825,35.55584],[139.65825,35.556],[139.65824,35.55606],[139.65824,35.55607],[139.65823,35.55633],[139.65823,35.55634],[139.65822,35.55652],[139.65821,35.55683],[139.6582,35.55696],[139.6582,35.55716],[139.65816,35.55779],[139.65816,35.55779],[139.65816,35.55791],[139.65835,35.55783],[139.65846,35.55776],[139.6585,35.55774],[139.65862,35.55764],[139.6588,35.55745],[139.65882,35.55742],[139.65897,35.55718],[139.65907,35.55692],[139.6591,35.55653],[139.65911,35.55595],[139.65923,35.55592],[139.65937,35.55592],[139.65937,35.55556],[139.65959,35.55508],[139.65964,35.55494],[139.65966,35.5549],[139.65967,35.55489],[139.65986,35.55451],[139.66002,35.55417],[139.65998,35.55401],[139.65991,35.55368],[139.65977,35.55344],[139.65974,35.55335],[139.65972,35.55309],[139.65952,35.55201],[139.65953,35.55199],[139.65943,35.55188],[139.65939,35.55164]]]}},{"type":"Feature","properties":{"name":"新塚越","setai":1196,"jinko":3071,"key":"141322300","units":1},"geometry":{"type":"Polygon","coordinates":[[[139.67702,35.55024],[139.67726,35.54997],[139.67755,35.54959],[139.67765,35.5495],[139.67785,35.54943],[139.67804,35.54939],[139.67833,35.54923],[139.67857,35.54912],[139.67883,35.54899],[139.67774,35.5484],[139.67745,35.54824],[139.67698,35.548],[139.67727,35.5477],[139.67694,35.54751],[139.67678,35.54786],[139.67676,35.54792],[139.67664,35.54817],[139.6764,35.54871],[139.67601,35.54958],[139.67583,35.54998],[139.67581,35.54997],[139.67558,35.5505],[139.67552,35.55064],[139.67545,35.55082],[139.67632,35.55115],[139.67666,35.55123],[139.67687,35.5505],[139.67702,35.55024]]]}},{"type":"Feature","properties":{"name":"東小倉","setai":1260,"jinko":2791,"key":"141322310","units":1},"geometry":{"type":"Polygon","coordinates":[[[139.67737,35.54658],[139.67749,35.54637],[139.67749,35.54621],[139.67748,35.54619],[139.67744,35.54606],[139.67742,35.54597],[139.67735,35.54545],[139.67732,35.54519],[139.67728,35.54475],[139.67725,35.54462],[139.67725,35.5446],[139.6772,35.54448],[139.67717,35.54444],[139.67715,35.54441],[139.67713,35.54438],[139.67705,35.54433],[139.67692,35.54427],[139.67679,35.54414],[139.67657,35.54365],[139.67648,35.5435],[139.67645,35.54334],[139.67624,35.54306],[139.67615,35.54285],[139.67613,35.54257],[139.67612,35.54232],[139.67612,35.54216],[139.67606,35.54183],[139.67594,35.54178],[139.67589,35.54164],[139.67597,35.54138],[139.67598,35.54087],[139.67576,35.54084],[139.67579,35.54069],[139.67567,35.54065],[139.67566,35.54071],[139.67542,35.54147],[139.67512,35.54266],[139.67501,35.54323],[139.67496,35.54342],[139.67492,35.54342],[139.67475,35.54393],[139.67459,35.54443],[139.67438,35.54509],[139.67408,35.54605],[139.67402,35.54624],[139.67401,35.54625],[139.67397,35.54629],[139.67375,35.54701],[139.67499,35.54743],[139.67537,35.54649],[139.67577,35.54647],[139.67577,35.54649],[139.67618,35.5466],[139.67632,35.54663],[139.67612,35.54706],[139.67639,35.54714],[139.67663,35.54722],[139.67659,35.5474],[139.67659,35.5478],[139.67678,35.54786],[139.67694,35.54751],[139.67727,35.54679],[139.67737,35.54658]]]}},{"type":"Feature","properties":{"name":"新小倉","setai":916,"jinko":2629,"key":"141322320","units":1},"geometry":{"type":"Polygon","coordinates":[[[139.67579,35.53922],[139.67588,35.53884],[139.67581,35.5389],[139.67581,35.53823],[139.67579,35.53811],[139.67551,35.53813],[139.67545,35.53814],[139.6754,35.53814],[139.67518,35.53816],[139.67492,35.53818],[139.67488,35.53784],[139.67492,35.53764],[139.67417,35.53749],[139.67414,35.53757],[139.67401,35.53796],[139.6739,35.53823],[139.67377,35.53859],[139.67365,35.53886],[139.67349,35.53925],[139.67332,35.53964],[139.67296,35.54047],[139.67295,35.54049],[139.67265,35.54119],[139.67232,35.5419],[139.67224,35.54207],[139.67212,35.54233],[139.67206,35.54254],[139.67188,35.54311],[139.67179,35.54341],[139.67181,35.54349],[139.67174,35.54369],[139.67405,35.54429],[139.67455,35.54256],[139.67548,35.53981],[139.67548,35.5398],[139.6755,35.53933],[139.67559,35.53932],[139.67561,35.53923],[139.67579,35.53922]]]}},{"type":"Feature","properties":{"name":"新川崎","setai":1043,"jinko":3200,"key":"141322330","units":1},"geometry":{"type":"Polygon","coordinates":[[[139.67149,35.54808],[139.67155,35.54788],[139.67168,35.54788],[139.67177,35.54768],[139.67215,35.54723],[139.6724,35.54691],[139.67304,35.54614],[139.67329,35.54586],[139.67358,35.54545],[139.67381,35.54511],[139.67395,35.54466],[139.67405,35.54429],[139.67174,35.54369],[139.67172,35.54373],[139.67165,35.54388],[139.67162,35.54395],[139.67142,35.54441],[139.67115,35.54497],[139.67099,35.54533],[139.67093,35.54545],[139.6708,35.54588],[139.67073,35.5462],[139.67069,35.54641],[139.67065,35.54667],[139.67065,35.5467],[139.67063,35.54684],[139.67061,35.54718],[139.6706,35.54722],[139.6706,35.54722],[139.67049,35.54757],[139.67047,35.54765],[139.67043,35.54777],[139.6704,35.5479],[139.67039,35.54794],[139.67037,35.548],[139.67034,35.54812],[139.67032,35.54819],[139.6703,35.54827],[139.67027,35.54842],[139.67026,35.54843],[139.67025,35.54849],[139.6702,35.54871],[139.67014,35.54904],[139.67013,35.54905],[139.67007,35.5493],[139.67001,35.54958],[139.66999,35.54967],[139.66994,35.54985],[139.66993,35.54991],[139.66988,35.55007],[139.66985,35.55015],[139.66977,35.5504],[139.66977,35.55041],[139.6697,35.55063],[139.66969,35.55067],[139.66964,35.55085],[139.66963,35.55086],[139.66956,35.55116],[139.66952,35.55126],[139.66945,35.55176],[139.66941,35.55205],[139.66937,35.55233],[139.66935,35.55245],[139.66931,35.55249],[139.66925,35.55249],[139.66924,35.55256],[139.66921,35.55278],[139.66916,35.55315],[139.66915,35.55321],[139.66912,35.55333],[139.66901,35.5537],[139.6688,35.5543],[139.6685,35.5555],[139.66838,35.55595],[139.66812,35.5569],[139.66792,35.55757],[139.66764,35.55855],[139.66759,35.55875],[139.66754,35.55891],[139.66749,35.55924],[139.66746,35.55936],[139.66731,35.56038],[139.66715,35.56114],[139.6671,35.56127],[139.6673,35.56136],[139.66803,35.55878],[139.66891,35.55604],[139.66922,35.55507],[139.66973,35.55345],[139.66979,35.55325],[139.66991,35.55288],[139.66998,35.55265],[139.67006,35.55241],[139.67007,35.55238],[139.67013,35.55216],[139.67018,35.55201],[139.67051,35.55104],[139.67059,35.5508],[139.67066,35.55059],[139.67066,35.55057],[139.67075,35.55032],[139.67078,35.55022],[139.67084,35.55004],[139.67091,35.54985],[139.67094,35.54975],[139.67097,35.54965],[139.67103,35.54949],[139.67111,35.54925],[139.67111,35.54925],[139.67122,35.54893],[139.6713,35.54866],[139.67132,35.54862],[139.67134,35.54855],[139.67137,35.54844],[139.67138,35.54842],[139.67144,35.54824],[139.67146,35.54816],[139.67149,35.54808]]]}}]}