{"type":"FeatureCollection","features":[{"type":"Feature","properties":{"name":"片町一丁目","setai":1155,"jinko":1562,"key":"27102001001","units":1},"geometry":{"type":"Polygon","coordinates":[[[135.52721,34.69363],[135.52724,34.6935],[135.5274,34.69358],[135.52783,34.69375],[135.52792,34.69376],[135.52809,34.69372],[135.5282,34.69367],[135.52836,34.69356],[135.52863,34.69322],[135.52833,34.69307],[135.52791,34.69286],[135.52741,34.69265],[135.52689,34.6924],[135.52684,34.69238],[135.52617,34.69209],[135.52596,34.69201],[135.52573,34.69192],[135.52552,34.69184],[135.52501,34.69163],[135.52467,34.69154],[135.5241,34.69136],[135.52353,34.6912],[135.52308,34.69109],[135.52296,34.69108],[135.52237,34.69101],[135.52229,34.691],[135.52192,34.6911],[135.52162,34.6912],[135.52133,34.69129],[135.52091,34.69148],[135.52174,34.69194],[135.52211,34.69214],[135.52236,34.69228],[135.5224,34.6923],[135.52268,34.69244],[135.52284,34.6925],[135.52295,34.69256],[135.52328,34.6927],[135.52348,34.69278],[135.52416,34.69305],[135.52418,34.69307],[135.52521,34.69349],[135.52612,34.69386],[135.52633,34.69396],[135.52686,34.69422],[135.52701,34.69431],[135.52707,34.69411],[135.52721,34.69363]]]}},{"type":"Feature","properties":{"name":"片町二丁目","setai":680,"jinko":846,"key":"27102001002","units":1},"geometry":{"type":"Polygon","coordinates":[[[135.53374,34.69707],[135.53385,34.69683],[135.53412,34.6969],[135.53421,34.69669],[135.53425,34.6966],[135.53426,34.6966],[135.5343,34.6965],[135.53434,34.6964],[135.53439,34.69631],[135.53443,34.69621],[135.53479,34.6954],[135.53465,34.69536],[135.53438,34.69528],[135.53406,34.69517],[135.53397,34.69515],[135.53284,34.69483],[135.53172,34.69448],[135.53116,34.6943],[135.531,34.69425],[135.53013,34.69393],[135.52979,34.69378],[135.52954,34.69367],[135.5289,34.69336],[135.52867,34.69324],[135.52863,34.69322],[135.52836,34.69356],[135.5282,34.69367],[135.52809,34.69372],[135.52792,34.69376],[135.52783,34.69375],[135.5274,34.69358],[135.52724,34.6935],[135.52721,34.69363],[135.52707,34.69411],[135.52775,34.69448],[135.52776,34.69448],[135.52791,34.69457],[135.52821,34.69473],[135.52842,34.69483],[135.529,34.69515],[135.52901,34.69516],[135.52937,34.69536],[135.5299,34.69565],[135.53006,34.69574],[135.5304,34.69592],[135.53078,34.69613],[135.53125,34.69634],[135.5317,34.69655],[135.53192,34.69665],[135.53235,34.69686],[135.53307,34.69685],[135.53374,34.69707]]]}},{"type":"Feature","properties":{"name":"網島町","setai":845,"jinko":1411,"key":"271020020","units":1},"geometry":{"type":"Polygon","coordinates":[[[135.52545,34.69737],[135.52585,34.69735],[135.52624,34.69737],[135.5263,34.69703],[135.52632,34.69696],[135.52641,34.69662],[135.52643,34.69659],[135.52643,34.69656],[135.5267,34.6955],[135.52676,34.69527],[135.52679,34.69515],[135.52682,34.69503],[135.52701,34.69431],[135.52686,34.69422],[135.52633,34.69396],[135.52612,34.69386],[135.52521,34.69349],[135.52418,34.69307],[135.52416,34.69305],[135.52348,34.69278],[135.52328,34.6927],[135.52295,34.69256],[135.52284,34.6925],[135.52268,34.69244],[135.5224,34.6923],[135.52236,34.69228],[135.52211,34.69214],[135.52174,34.69194],[135.52091,34.69148],[135.52065,34.69161],[135.52037,34.69176],[135.52045,34.69181],[135.52072,34.69217],[135.52085,34.69237],[135.52154,34.69308],[135.52181,34.69339],[135.52226,34.69399],[135.52235,34.69414],[135.52257,34.69454],[135.52266,34.6948],[135.52275,34.69513],[135.52278,34.69527],[135.52287,34.69602],[135.52292,34.69656],[135.52291,34.69697],[135.52289,34.69722],[135.52285,34.6975],[135.5244,34.69742],[135.52445,34.69741],[135.52462,34.6974],[135.5248,34.69739],[135.52504,34.69739],[135.52545,34.69737]]]}},{"type":"Feature","properties":{"name":"東野田町一丁目","setai":1541,"jinko":2046,"key":"27102003001","units":1},"geometry":{"type":"Polygon","coordinates":[[[135.52775,34.69448],[135.52707,34.69411],[135.52701,34.69431],[135.52682,34.69503],[135.52679,34.69515],[135.52676,34.69527],[135.5267,34.6955],[135.52643,34.69656],[135.52643,34.69659],[135.52641,34.69662],[135.52632,34.69696],[135.5263,34.69703],[135.52624,34.69737],[135.52716,34.69754],[135.52717,34.69754],[135.52766,34.69763],[135.52832,34.69776],[135.52833,34.69776],[135.52874,34.69784],[135.52882,34.69786],[135.52958,34.698],[135.52977,34.69769],[135.52994,34.69742],[135.53009,34.69719],[135.53013,34.69712],[135.53043,34.69666],[135.5306,34.6964],[135.53078,34.69613],[135.5304,34.69592],[135.53006,34.69574],[135.5299,34.69565],[135.52937,34.69536],[135.52901,34.69516],[135.529,34.69515],[135.52842,34.69483],[135.52821,34.69473],[135.52791,34.69457],[135.52776,34.69448],[135.52775,34.69448]]]}},{"type":"Feature","properties":{"name":"東野田町二丁目","setai":306,"jinko":463,"key":"27102003002","units":1},"geometry":{"type":"Polygon","coordinates":[[[135.53374,34.69707],[135.53307,34.69685],[135.53235,34.69686],[135.53192,34.69665],[135.5317,34.69655],[135.53125,34.69634],[135.53078,34.69613],[135.5306,34.6964],[135.53043,34.69666],[135.53013,34.69712],[135.53009,34.69719],[135.52994,34.69742],[135.52977,34.69769],[135.52958,34.698],[135.53005,34.69809],[135.53133,34.69835],[135.53195,34.69848],[135.53296,34.69868],[135.53303,34.69869],[135.5332,34.69832],[135.53329,34.69809],[135.53335,34.69793],[135.53347,34.69767],[135.53357,34.69742],[135.53374,34.69707]]]}},{"type":"Feature","properties":{"name":"東野田町三丁目","setai":259,"jinko":399,"key":"27102003003","units":1},"geometry":{"type":"Polygon","coordinates":[[[135.53412,34.6969],[135.53385,34.69683],[135.53374,34.69707],[135.53357,34.69742],[135.53347,34.69767],[135.53335,34.69793],[135.53329,34.69809],[135.5332,34.69832],[135.53303,34.69869],[135.53304,34.6987],[135.53315,34.69874],[135.5333,34.69877],[135.53389,34.69888],[135.53413,34.69892],[135.53432,34.69897],[135.53466,34.69903],[135.53474,34.69905],[135.5354,34.69918],[135.53639,34.69939],[135.53617,34.69846],[135.53615,34.6984],[135.53611,34.69827],[135.53608,34.69817],[135.53607,34.69815],[135.53594,34.69778],[135.53586,34.69756],[135.53575,34.69725],[135.53573,34.6972],[135.53567,34.69701],[135.53495,34.69698],[135.53447,34.69696],[135.53412,34.6969]]]}},{"type":"Feature","properties":{"name":"東野田町四丁目","setai":942,"jinko":1365,"key":"27102003004","units":1},"geometry":{"type":"Polygon","coordinates":[[[135.53016,34.70116],[135.53045,34.70098],[135.5307,34.70082],[135.53078,34.70079],[135.53096,34.70068],[135.53104,34.70064],[135.53112,34.70058],[135.5314,34.70041],[135.53165,34.70027],[135.5317,34.70023],[135.53174,34.70021],[135.53188,34.7001],[135.53262,34.69937],[135.53264,34.69936],[135.53304,34.6987],[135.53303,34.69869],[135.53296,34.69868],[135.53195,34.69848],[135.53133,34.69835],[135.53005,34.69809],[135.52958,34.698],[135.52882,34.69786],[135.52874,34.69784],[135.52833,34.69776],[135.52832,34.69776],[135.52766,34.69763],[135.52717,34.69754],[135.52716,34.69754],[135.52624,34.69737],[135.52616,34.69772],[135.52615,34.69784],[135.52641,34.6982],[135.52666,34.69855],[135.52676,34.69868],[135.52686,34.69882],[135.52696,34.69897],[135.52708,34.69913],[135.52739,34.69955],[135.5277,34.70001],[135.52799,34.70042],[135.52805,34.7005],[135.52833,34.70088],[135.52854,34.70118],[135.52855,34.70118],[135.52871,34.70113],[135.52876,34.70109],[135.52892,34.70132],[135.5291,34.70157],[135.52918,34.7017],[135.52921,34.70173],[135.52941,34.70162],[135.52944,34.7016],[135.52971,34.70143],[135.52976,34.7014],[135.52997,34.70127],[135.53006,34.70121],[135.53016,34.70116]]]}},{"type":"Feature","properties":{"name":"東野田町五丁目","setai":1109,"jinko":1580,"key":"27102003005","units":1},"geometry":{"type":"Polygon","coordinates":[[[135.53683,34.70154],[135.53678,34.70126],[135.53677,34.70126],[135.53674,34.7011],[135.53672,34.70096],[135.53675,34.70096],[135.53673,34.70085],[135.53671,34.70073],[135.53668,34.70061],[135.53661,34.70035],[135.53649,34.69989],[135.53641,34.69952],[135.5364,34.69944],[135.53639,34.69939],[135.5354,34.69918],[135.53474,34.69905],[135.53466,34.69903],[135.53432,34.69897],[135.53413,34.69892],[135.53389,34.69888],[135.5333,34.69877],[135.53315,34.69874],[135.53304,34.6987],[135.53264,34.69936],[135.53262,34.69937],[135.53188,34.7001],[135.53174,34.70021],[135.53183,34.70033],[135.53206,34.70023],[135.53242,34.70006],[135.53269,34.70044],[135.53281,34.7006],[135.53323,34.70048],[135.5336,34.70037],[135.534,34.70026],[135.53402,34.70026],[135.53427,34.70039],[135.53429,34.70041],[135.53455,34.70086],[135.53469,34.70112],[135.53478,34.70129],[135.53485,34.70142],[135.53498,34.70163],[135.53516,34.70191],[135.53529,34.70214],[135.5354,34.70238],[135.53543,34.70236],[135.53604,34.7023],[135.5362,34.70229],[135.53637,34.70227],[135.5369,34.70222],[135.53688,34.70206],[135.53683,34.70154]]]}},{"type":"Feature","properties":{"name":"中野町一丁目","setai":1013,"jinko":1294,"key":"27102004001","units":1},"geometry":{"type":"Polygon","coordinates":[[[135.5225,34.70182],[135.52286,34.70145],[135.52352,34.7015],[135.52357,34.70149],[135.52358,34.70149],[135.52403,34.70151],[135.52422,34.70152],[135.52443,34.70113],[135.52466,34.7007],[135.52488,34.70028],[135.52513,34.6998],[135.52565,34.69881],[135.52583,34.69847],[135.52584,34.69843],[135.52615,34.69787],[135.52615,34.69784],[135.52616,34.69772],[135.52624,34.69737],[135.52585,34.69735],[135.52545,34.69737],[135.52504,34.69739],[135.5248,34.69739],[135.52462,34.6974],[135.52445,34.69741],[135.5244,34.69742],[135.52285,34.6975],[135.52283,34.69761],[135.52252,34.69855],[135.52243,34.6987],[135.52233,34.69892],[135.52232,34.69893],[135.52191,34.6996],[135.52152,34.70015],[135.52123,34.70056],[135.52091,34.70097],[135.52231,34.70171],[135.5225,34.70182]]]}},{"type":"Feature","properties":{"name":"中野町二丁目","setai":1378,"jinko":1953,"key":"27102004002","units":1},"geometry":{"type":"Polygon","coordinates":[[[135.52846,34.70174],[135.52855,34.70118],[135.52854,34.70118],[135.52833,34.70088],[135.52805,34.7005],[135.52799,34.70042],[135.5277,34.70001],[135.52739,34.69955],[135.52708,34.69913],[135.52696,34.69897],[135.52686,34.69882],[135.52676,34.69868],[135.52666,34.69855],[135.52641,34.6982],[135.52615,34.69784],[135.52615,34.69787],[135.52584,34.69843],[135.52583,34.69847],[135.52565,34.69881],[135.52513,34.6998],[135.52488,34.70028],[135.52466,34.7007],[135.52443,34.70113],[135.52422,34.70152],[135.52422,34.70152],[135.52495,34.70157],[135.52541,34.70159],[135.52546,34.7016],[135.52642,34.70158],[135.52664,34.7016],[135.52688,34.70162],[135.52712,34.70164],[135.52737,34.70166],[135.52765,34.70168],[135.52846,34.70174]]]}},{"type":"Feature","properties":{"name":"中野町三丁目","setai":679,"jinko":1065,"key":"27102004003","units":1},"geometry":{"type":"Polygon","coordinates":[[[135.52856,34.70207],[135.52918,34.7017],[135.5291,34.70157],[135.52892,34.70132],[135.52876,34.70109],[135.52871,34.70113],[135.52855,34.70118],[135.52846,34.70174],[135.52765,34.70168],[135.52737,34.70166],[135.52712,34.70164],[135.52688,34.70162],[135.52664,34.7016],[135.52642,34.70158],[135.52546,34.7016],[135.52541,34.70159],[135.52495,34.70157],[135.52422,34.70152],[135.5242,34.70156],[135.524,34.70243],[135.5239,34.7029],[135.52379,34.7034],[135.5237,34.70382],[135.52364,34.70408],[135.52362,34.70418],[135.52349,34.70473],[135.52344,34.70493],[135.52344,34.70493],[135.52369,34.70487],[135.52398,34.70477],[135.5242,34.70471],[135.52442,34.70462],[135.52474,34.70445],[135.52464,34.70434],[135.52527,34.70397],[135.52594,34.70358],[135.52607,34.70351],[135.52644,34.70329],[135.52648,34.70327],[135.52692,34.70301],[135.52702,34.70295],[135.52764,34.70259],[135.52824,34.70223],[135.52839,34.70214],[135.52856,34.70207]]]}},{"type":"Feature","properties":{"name":"中野町四丁目","setai":1802,"jinko":2633,"key":"27102004004","units":1},"geometry":{"type":"Polygon","coordinates":[[[135.524,34.70243],[135.5242,34.70156],[135.52422,34.70152],[135.52422,34.70152],[135.52403,34.70151],[135.52358,34.70149],[135.52357,34.70149],[135.52352,34.7015],[135.52286,34.70145],[135.5225,34.70182],[135.52231,34.70171],[135.52091,34.70097],[135.52063,34.70131],[135.52029,34.70169],[135.51979,34.70226],[135.51938,34.70278],[135.51915,34.70311],[135.51891,34.7035],[135.51885,34.70359],[135.51854,34.70415],[135.51906,34.70431],[135.51931,34.70437],[135.51947,34.70443],[135.51988,34.70454],[135.52009,34.70461],[135.52061,34.70478],[135.52075,34.70483],[135.52116,34.70493],[135.52119,34.70493],[135.52167,34.70502],[135.52185,34.70504],[135.52192,34.70504],[135.52229,34.70506],[135.52248,34.70506],[135.5226,34.70505],[135.52287,34.70503],[135.52299,34.70501],[135.52332,34.70496],[135.52344,34.70493],[135.52349,34.70473],[135.52362,34.70418],[135.52364,34.70408],[135.5237,34.70382],[135.52379,34.7034],[135.5239,34.7029],[135.524,34.70243]]]}},{"type":"Feature","properties":{"name":"中野町五丁目","setai":2055,"jinko":4099,"key":"27102004005","units":1},"geometry":{"type":"Polygon","coordinates":[[[135.51989,34.70803],[135.52001,34.70802],[135.52022,34.70804],[135.5205,34.70806],[135.52075,34.7081],[135.52127,34.70819],[135.52131,34.7082],[135.52189,34.70829],[135.52203,34.70832],[135.52227,34.70835],[135.52284,34.70846],[135.52297,34.70848],[135.5233,34.70692],[135.52339,34.70693],[135.52351,34.70694],[135.52372,34.70695],[135.52391,34.70694],[135.52419,34.70687],[135.52436,34.70679],[135.52449,34.70671],[135.52465,34.70659],[135.52498,34.70636],[135.52519,34.70624],[135.52552,34.70615],[135.52558,34.70613],[135.52534,34.7059],[135.52525,34.70581],[135.52481,34.70574],[135.52419,34.70565],[135.52384,34.7056],[135.5236,34.70557],[135.52338,34.70554],[135.52334,34.70553],[135.5233,34.70553],[135.52341,34.70506],[135.52344,34.70493],[135.52344,34.70493],[135.52332,34.70496],[135.52299,34.70501],[135.52287,34.70503],[135.5226,34.70505],[135.52248,34.70506],[135.52229,34.70506],[135.52192,34.70504],[135.52185,34.70504],[135.52167,34.70502],[135.52119,34.70493],[135.52116,34.70493],[135.52075,34.70483],[135.52061,34.70478],[135.52009,34.70461],[135.51988,34.70454],[135.51947,34.70443],[135.51931,34.70437],[135.51906,34.70431],[135.51854,34.70415],[135.51849,34.70422],[135.51842,34.70433],[135.51818,34.70482],[135.51818,34.70482],[135.51815,34.70489],[135.51803,34.70515],[135.51791,34.70548],[135.51782,34.70574],[135.51774,34.70613],[135.51772,34.70641],[135.51772,34.70666],[135.51776,34.70691],[135.51781,34.70708],[135.518,34.70755],[135.51808,34.70777],[135.51823,34.70806],[135.51833,34.70825],[135.5185,34.70847],[135.51878,34.70838],[135.51923,34.70823],[135.51951,34.70814],[135.51972,34.70808],[135.51989,34.70803]]]}},{"type":"Feature","properties":{"name":"都島南通一丁目","setai":1727,"jinko":3211,"key":"27102005001","units":1},"geometry":{"type":"Polygon","coordinates":[[[135.52921,34.70173],[135.52918,34.7017],[135.52856,34.70207],[135.52839,34.70214],[135.52824,34.70223],[135.52764,34.70259],[135.52702,34.70295],[135.52692,34.70301],[135.52648,34.70327],[135.52644,34.70329],[135.52607,34.70351],[135.52594,34.70358],[135.52527,34.70397],[135.52464,34.70434],[135.52474,34.70445],[135.52442,34.70462],[135.5242,34.70471],[135.52398,34.70477],[135.52369,34.70487],[135.52344,34.70493],[135.52341,34.70506],[135.5233,34.70553],[135.52334,34.70553],[135.52338,34.70554],[135.5236,34.70557],[135.52384,34.7056],[135.52419,34.70565],[135.52481,34.70574],[135.52525,34.70581],[135.52534,34.7059],[135.52558,34.70613],[135.52563,34.7061],[135.5259,34.70588],[135.52631,34.70561],[135.52648,34.70548],[135.5265,34.70547],[135.52661,34.70538],[135.52714,34.70509],[135.52764,34.70479],[135.52775,34.70473],[135.52777,34.70467],[135.52864,34.70416],[135.52869,34.70412],[135.52932,34.70376],[135.53025,34.70321],[135.53009,34.70299],[135.52999,34.70284],[135.52981,34.70259],[135.52964,34.70234],[135.52951,34.70216],[135.52921,34.70173]]]}},{"type":"Feature","properties":{"name":"都島南通二丁目","setai":2634,"jinko":4568,"key":"27102005002","units":1},"geometry":{"type":"Polygon","coordinates":[[[135.53455,34.70086],[135.53429,34.70041],[135.53427,34.70039],[135.53402,34.70026],[135.534,34.70026],[135.5336,34.70037],[135.53323,34.70048],[135.53281,34.7006],[135.53269,34.70044],[135.53242,34.70006],[135.53206,34.70023],[135.53183,34.70033],[135.53174,34.70021],[135.5317,34.70023],[135.53165,34.70027],[135.5314,34.70041],[135.53112,34.70058],[135.53104,34.70064],[135.53096,34.70068],[135.53078,34.70079],[135.5307,34.70082],[135.53045,34.70098],[135.53016,34.70116],[135.53006,34.70121],[135.52997,34.70127],[135.52976,34.7014],[135.52971,34.70143],[135.52944,34.7016],[135.52941,34.70162],[135.52921,34.70173],[135.52951,34.70216],[135.52964,34.70234],[135.52981,34.70259],[135.52999,34.70284],[135.53009,34.70299],[135.53025,34.70321],[135.53029,34.70325],[135.53048,34.70313],[135.53072,34.70299],[135.53206,34.70279],[135.53279,34.70267],[135.53316,34.70261],[135.53335,34.70258],[135.53378,34.70253],[135.53419,34.70251],[135.53423,34.70251],[135.53455,34.70249],[135.53463,34.70249],[135.53522,34.70246],[135.53538,34.70238],[135.5354,34.70238],[135.53529,34.70214],[135.53516,34.70191],[135.53498,34.70163],[135.53485,34.70142],[135.53478,34.70129],[135.53469,34.70112],[135.53455,34.70086]]]}},{"type":"Feature","properties":{"name":"都島中通一丁目","setai":589,"jinko":1165,"key":"27102006001","units":1},"geometry":{"type":"Polygon","coordinates":[[[135.53029,34.70325],[135.53025,34.70321],[135.52932,34.70376],[135.52869,34.70412],[135.52864,34.70416],[135.52777,34.70467],[135.52775,34.70473],[135.52764,34.70479],[135.52714,34.70509],[135.52661,34.70538],[135.5265,34.70547],[135.52648,34.70548],[135.5264,34.7058],[135.52631,34.7062],[135.52734,34.70622],[135.52771,34.70623],[135.5278,34.7062],[135.52877,34.7061],[135.53039,34.70595],[135.53039,34.70576],[135.53039,34.70562],[135.53039,34.7053],[135.53039,34.70528],[135.53039,34.70497],[135.53038,34.70467],[135.53038,34.70436],[135.53037,34.70404],[135.53036,34.70372],[135.53035,34.70337],[135.53035,34.70331],[135.53029,34.70325]]]}},{"type":"Feature","properties":{"name":"都島中通二丁目","setai":1305,"jinko":2500,"key":"27102006002","units":1},"geometry":{"type":"Polygon","coordinates":[[[135.53386,34.7032],[135.53378,34.70253],[135.53335,34.70258],[135.53316,34.70261],[135.53279,34.70267],[135.53206,34.70279],[135.53072,34.70299],[135.53048,34.70313],[135.53029,34.70325],[135.53035,34.70331],[135.53035,34.70337],[135.53036,34.70372],[135.53037,34.70404],[135.53038,34.70436],[135.53038,34.70467],[135.53039,34.70497],[135.53039,34.70528],[135.53039,34.7053],[135.53039,34.70562],[135.53039,34.70576],[135.53039,34.70595],[135.5304,34.70596],[135.532,34.70589],[135.533,34.70584],[135.53337,34.70583],[135.53376,34.70581],[135.53416,34.70579],[135.53407,34.7051],[135.534,34.70448],[135.53393,34.70388],[135.53386,34.7032]]]}},{"type":"Feature","properties":{"name":"都島中通三丁目","setai":1269,"jinko":2421,"key":"27102006003","units":1},"geometry":{"type":"Polygon","coordinates":[[[135.5369,34.70229],[135.5369,34.70222],[135.53637,34.70227],[135.5362,34.70229],[135.53604,34.7023],[135.53543,34.70236],[135.5354,34.70238],[135.53538,34.70238],[135.53522,34.70246],[135.53463,34.70249],[135.53455,34.70249],[135.53423,34.70251],[135.53419,34.70251],[135.53378,34.70253],[135.53386,34.7032],[135.53393,34.70388],[135.534,34.70448],[135.53407,34.7051],[135.53416,34.70579],[135.53463,34.70577],[135.53501,34.70575],[135.53541,34.70573],[135.53631,34.70569],[135.53652,34.70568],[135.53654,34.70565],[135.53652,34.70543],[135.53649,34.70507],[135.53651,34.70489],[135.53652,34.70482],[135.53649,34.70464],[135.53643,34.70434],[135.53643,34.70432],[135.53638,34.70415],[135.53638,34.70406],[135.53638,34.70401],[135.53639,34.7039],[135.53641,34.70387],[135.53644,34.70383],[135.53656,34.70362],[135.53666,34.70344],[135.53669,34.70337],[135.53685,34.70309],[135.53685,34.70305],[135.53691,34.70283],[135.53695,34.70252],[135.53692,34.70248],[135.5369,34.70229]]]}},{"type":"Feature","properties":{"name":"都島本通一丁目","setai":847,"jinko":1625,"key":"27102007001","units":1},"geometry":{"type":"Polygon","coordinates":[[[135.52022,34.70804],[135.52001,34.70802],[135.51989,34.70803],[135.51972,34.70808],[135.51951,34.70814],[135.51923,34.70823],[135.51878,34.70838],[135.5185,34.70847],[135.51882,34.70886],[135.51889,34.70894],[135.51896,34.70907],[135.51926,34.7094],[135.5195,34.70965],[135.51977,34.70994],[135.52001,34.71018],[135.52008,34.71024],[135.52039,34.71056],[135.52053,34.71072],[135.52075,34.71093],[135.52093,34.71114],[135.52105,34.71137],[135.52178,34.71105],[135.52211,34.7109],[135.52213,34.7109],[135.52226,34.71084],[135.52265,34.71068],[135.52306,34.7105],[135.52392,34.71014],[135.52398,34.71011],[135.5248,34.70974],[135.52523,34.70944],[135.52537,34.70937],[135.52574,34.70916],[135.52601,34.709],[135.52592,34.70896],[135.52572,34.70892],[135.52532,34.70885],[135.52497,34.7088],[135.52471,34.70876],[135.52461,34.70875],[135.52416,34.70868],[135.52376,34.7086],[135.52297,34.70848],[135.52284,34.70846],[135.52227,34.70835],[135.52203,34.70832],[135.52189,34.70829],[135.52131,34.7082],[135.52127,34.70819],[135.52075,34.7081],[135.5205,34.70806],[135.52022,34.70804]]]}},{"type":"Feature","properties":{"name":"都島本通二丁目","setai":666,"jinko":900,"key":"27102007002","units":1},"geometry":{"type":"Polygon","coordinates":[[[135.52611,34.70708],[135.52618,34.70681],[135.52623,34.70654],[135.52629,34.70631],[135.52631,34.7062],[135.5264,34.7058],[135.52648,34.70548],[135.52631,34.70561],[135.5259,34.70588],[135.52563,34.7061],[135.52558,34.70613],[135.52552,34.70615],[135.52519,34.70624],[135.52498,34.70636],[135.52465,34.70659],[135.52449,34.70671],[135.52436,34.70679],[135.52419,34.70687],[135.52391,34.70694],[135.52372,34.70695],[135.52351,34.70694],[135.52339,34.70693],[135.5233,34.70692],[135.52297,34.70848],[135.52376,34.7086],[135.52416,34.70868],[135.52461,34.70875],[135.52471,34.70876],[135.52497,34.7088],[135.52532,34.70885],[135.52572,34.70892],[135.52587,34.70818],[135.52595,34.70781],[135.52601,34.70753],[135.52605,34.70734],[135.52611,34.70708]]]}},{"type":"Feature","properties":{"name":"都島本通三丁目","setai":1303,"jinko":2182,"key":"27102007003","units":1},"geometry":{"type":"Polygon","coordinates":[[[135.53042,34.70632],[135.5304,34.70596],[135.53039,34.70595],[135.52877,34.7061],[135.5278,34.7062],[135.52771,34.70623],[135.52734,34.70622],[135.52631,34.7062],[135.52629,34.70631],[135.52623,34.70654],[135.52618,34.70681],[135.52611,34.70708],[135.52605,34.70734],[135.52601,34.70753],[135.52595,34.70781],[135.52587,34.70818],[135.52572,34.70892],[135.52592,34.70896],[135.52601,34.709],[135.52619,34.709],[135.52694,34.70896],[135.52781,34.70892],[135.52898,34.70887],[135.53058,34.7088],[135.53055,34.70835],[135.53055,34.70834],[135.53052,34.70799],[135.53049,34.70766],[135.53047,34.70733],[135.53047,34.70733],[135.53046,34.70698],[135.53043,34.70664],[135.53043,34.70661],[135.53042,34.70632],[135.53042,34.70632]]]}},{"type":"Feature","properties":{"name":"都島本通四丁目","setai":1303,"jinko":2843,"key":"27102007004","units":1},"geometry":{"type":"Polygon","coordinates":[[[135.53422,34.70614],[135.53416,34.70579],[135.53376,34.70581],[135.53337,34.70583],[135.533,34.70584],[135.532,34.70589],[135.5304,34.70596],[135.53042,34.70632],[135.53042,34.70632],[135.53043,34.70661],[135.53043,34.70664],[135.53046,34.70698],[135.53047,34.70733],[135.53047,34.70733],[135.53049,34.70766],[135.53052,34.70799],[135.53055,34.70834],[135.53055,34.70835],[135.53058,34.7088],[135.53058,34.70881],[135.53214,34.70875],[135.53299,34.7087],[135.53334,34.70869],[135.53447,34.70864],[135.53455,34.70863],[135.53453,34.70853],[135.53442,34.70779],[135.5344,34.70753],[135.53439,34.70746],[135.53435,34.70712],[135.53431,34.70685],[135.53431,34.70683],[135.53422,34.70614]]]}},{"type":"Feature","properties":{"name":"都島本通五丁目","setai":700,"jinko":1201,"key":"27102007005","units":1},"geometry":{"type":"Polygon","coordinates":[[[135.53645,34.70579],[135.53652,34.70568],[135.53631,34.70569],[135.53541,34.70573],[135.53501,34.70575],[135.53463,34.70577],[135.53416,34.70579],[135.53422,34.70614],[135.53431,34.70683],[135.53431,34.70685],[135.53435,34.70712],[135.53439,34.70746],[135.5344,34.70753],[135.53442,34.70779],[135.53453,34.70853],[135.53498,34.70851],[135.53537,34.70849],[135.53582,34.70847],[135.53593,34.70846],[135.53604,34.70825],[135.53606,34.7081],[135.53617,34.70799],[135.53617,34.70795],[135.53618,34.7078],[135.53617,34.70745],[135.53613,34.70704],[135.53609,34.70672],[135.53604,34.70646],[135.53604,34.70627],[135.53609,34.70606],[135.53613,34.70603],[135.53636,34.70586],[135.53645,34.70579]]]}},{"type":"Feature","properties":{"name":"都島北通一丁目","setai":1614,"jinko":2521,"key":"27102008001","units":1},"geometry":{"type":"Polygon","coordinates":[[[135.53058,34.70881],[135.53058,34.7088],[135.52898,34.70887],[135.52781,34.70892],[135.52694,34.70896],[135.52619,34.709],[135.52601,34.709],[135.52611,34.70909],[135.52616,34.70918],[135.52664,34.7098],[135.52691,34.71015],[135.52713,34.71042],[135.52714,34.71043],[135.52719,34.71052],[135.52727,34.71063],[135.52733,34.71072],[135.52739,34.7108],[135.52755,34.71103],[135.52771,34.71125],[135.52788,34.7115],[135.5279,34.71152],[135.5285,34.71236],[135.52864,34.71255],[135.52935,34.7122],[135.52934,34.71219],[135.53085,34.71209],[135.53079,34.71163],[135.53079,34.71162],[135.53075,34.71137],[135.53074,34.71119],[135.53073,34.71105],[135.53069,34.71068],[135.53072,34.71067],[135.53069,34.71032],[135.53069,34.71032],[135.53067,34.70997],[135.53067,34.70996],[135.53064,34.70963],[135.53064,34.7096],[135.53063,34.70946],[135.53062,34.70928],[135.53061,34.70924],[135.53058,34.70881]]]}},{"type":"Feature","properties":{"name":"都島北通二丁目","setai":2643,"jinko":4652,"key":"27102008002","units":1},"geometry":{"type":"Polygon","coordinates":[[[135.53459,34.70906],[135.53455,34.70863],[135.53447,34.70864],[135.53334,34.70869],[135.53299,34.7087],[135.53214,34.70875],[135.53058,34.70881],[135.53061,34.70924],[135.53062,34.70928],[135.53063,34.70946],[135.53064,34.7096],[135.53064,34.70963],[135.53067,34.70996],[135.53067,34.70997],[135.53069,34.71032],[135.53069,34.71032],[135.53072,34.71067],[135.53069,34.71068],[135.53073,34.71105],[135.53074,34.71119],[135.53075,34.71137],[135.53079,34.71162],[135.53079,34.71163],[135.53085,34.71209],[135.53086,34.71209],[135.53148,34.71205],[135.53182,34.71203],[135.53237,34.71199],[135.53239,34.71199],[135.53358,34.71192],[135.53487,34.71184],[135.53483,34.71139],[135.53483,34.71138],[135.53478,34.71092],[135.53473,34.71045],[135.53473,34.71044],[135.53468,34.70995],[135.53468,34.70992],[135.53462,34.70933],[135.53459,34.70908],[135.53459,34.70906]]]}},{"type":"Feature","properties":{"name":"善源寺町一丁目","setai":408,"jinko":734,"key":"27102009001","units":1},"geometry":{"type":"Polygon","coordinates":[[[135.52611,34.70909],[135.52601,34.709],[135.52574,34.70916],[135.52537,34.70937],[135.52523,34.70944],[135.5248,34.70974],[135.52398,34.71011],[135.52392,34.71014],[135.52306,34.7105],[135.52265,34.71068],[135.52226,34.71084],[135.52213,34.7109],[135.52211,34.7109],[135.52178,34.71105],[135.52105,34.71137],[135.5212,34.71167],[135.52128,34.71186],[135.52138,34.71217],[135.5215,34.71259],[135.52225,34.71252],[135.52241,34.7125],[135.52259,34.71248],[135.52298,34.71242],[135.52313,34.71237],[135.52317,34.71235],[135.52392,34.712],[135.52427,34.71184],[135.5244,34.71178],[135.52447,34.71174],[135.52469,34.71163],[135.52491,34.71152],[135.52492,34.71152],[135.52498,34.71149],[135.52521,34.71137],[135.52542,34.71128],[135.52564,34.71117],[135.52601,34.711],[135.52609,34.71096],[135.52655,34.71072],[135.52655,34.71072],[135.52665,34.71067],[135.52713,34.71042],[135.52691,34.71015],[135.52664,34.7098],[135.52616,34.70918],[135.52611,34.70909]]]}},{"type":"Feature","properties":{"name":"善源寺町二丁目","setai":2521,"jinko":6794,"key":"27102009002","units":1},"geometry":{"type":"Polygon","coordinates":[[[135.52271,34.71382],[135.52272,34.71369],[135.5231,34.71369],[135.52351,34.7137],[135.52389,34.7137],[135.52397,34.7137],[135.52397,34.71383],[135.5247,34.71381],[135.52492,34.71381],[135.52524,34.7138],[135.52576,34.7137],[135.5258,34.71369],[135.52586,34.71368],[135.52651,34.71336],[135.52665,34.7133],[135.52693,34.71318],[135.52748,34.71288],[135.52784,34.71269],[135.52813,34.71255],[135.5285,34.71236],[135.5279,34.71152],[135.52788,34.7115],[135.52771,34.71125],[135.52755,34.71103],[135.52739,34.7108],[135.52733,34.71072],[135.52727,34.71063],[135.52719,34.71052],[135.52714,34.71043],[135.52713,34.71042],[135.52665,34.71067],[135.52655,34.71072],[135.52655,34.71072],[135.52609,34.71096],[135.52601,34.711],[135.52564,34.71117],[135.52542,34.71128],[135.52521,34.71137],[135.52498,34.71149],[135.52492,34.71152],[135.52491,34.71152],[135.52469,34.71163],[135.52447,34.71174],[135.5244,34.71178],[135.52427,34.71184],[135.52392,34.712],[135.52317,34.71235],[135.52313,34.71237],[135.52298,34.71242],[135.52259,34.71248],[135.52241,34.7125],[135.52225,34.71252],[135.5215,34.71259],[135.5216,34.71316],[135.52158,34.71356],[135.52156,34.71382],[135.52224,34.71383],[135.52256,34.71383],[135.52271,34.71382]]]}},{"type":"Feature","properties":{"name":"高倉町一丁目","setai":1499,"jinko":2460,"key":"27102010001","units":1},"geometry":{"type":"Polygon","coordinates":[[[135.53244,34.71247],[135.53239,34.71199],[135.53237,34.71199],[135.53182,34.71203],[135.53148,34.71205],[135.53086,34.71209],[135.53085,34.71209],[135.52934,34.71219],[135.52935,34.7122],[135.52864,34.71255],[135.52885,34.71283],[135.52931,34.71345],[135.52975,34.71404],[135.52995,34.71431],[135.53041,34.71494],[135.53124,34.71488],[135.53266,34.71479],[135.53264,34.71452],[135.53262,34.71432],[135.53257,34.71386],[135.53255,34.71361],[135.53253,34.71339],[135.53248,34.71293],[135.53244,34.71247]]]}},{"type":"Feature","properties":{"name":"高倉町二丁目","setai":549,"jinko":1101,"key":"27102010002","units":1},"geometry":{"type":"Polygon","coordinates":[[[135.53271,34.71526],[135.53266,34.71479],[135.53124,34.71488],[135.53041,34.71494],[135.5305,34.71585],[135.53059,34.71679],[135.53069,34.71771],[135.53151,34.71766],[135.53291,34.71757],[135.53287,34.71709],[135.53282,34.71664],[135.53279,34.71617],[135.53275,34.71573],[135.53271,34.71526]]]}},{"type":"Feature","properties":{"name":"高倉町三丁目","setai":761,"jinko":1864,"key":"27102010003","units":1},"geometry":{"type":"Polygon","coordinates":[[[135.53415,34.71795],[135.5341,34.71748],[135.53291,34.71757],[135.53151,34.71766],[135.53069,34.71771],[135.53071,34.71793],[135.53074,34.7183],[135.53078,34.71866],[135.53086,34.71958],[135.53095,34.72035],[135.53099,34.72082],[135.53101,34.72106],[135.53106,34.7216],[135.53155,34.72155],[135.53188,34.72153],[135.53217,34.72149],[135.53278,34.72074],[135.53315,34.72029],[135.53327,34.72013],[135.53392,34.71936],[135.53425,34.71896],[135.53425,34.71887],[135.53415,34.71795]]]}},{"type":"Feature","properties":{"name":"御幸町一丁目","setai":747,"jinko":1340,"key":"27102011001","units":1},"geometry":{"type":"Polygon","coordinates":[[[135.53487,34.71187],[135.53487,34.71184],[135.53358,34.71192],[135.53239,34.71199],[135.53244,34.71247],[135.53248,34.71293],[135.53253,34.71339],[135.53255,34.71361],[135.53257,34.71386],[135.53262,34.71432],[135.53264,34.71452],[135.53266,34.71479],[135.53381,34.71472],[135.5344,34.71467],[135.53513,34.71465],[135.53509,34.71417],[135.53505,34.71371],[135.53505,34.7137],[135.535,34.71324],[135.53496,34.71279],[135.53495,34.71275],[135.53493,34.71252],[135.53491,34.71233],[135.5349,34.71231],[135.53487,34.71187]]]}},{"type":"Feature","properties":{"name":"御幸町二丁目","setai":679,"jinko":1460,"key":"27102011002","units":1},"geometry":{"type":"Polygon","coordinates":[[[135.53541,34.71756],[135.5354,34.7174],[135.53536,34.71692],[135.53531,34.71647],[135.53531,34.71646],[135.53528,34.71604],[135.53527,34.71601],[135.53522,34.71559],[135.53521,34.71555],[135.53519,34.71534],[135.53518,34.71511],[135.53513,34.71465],[135.5344,34.71467],[135.53381,34.71472],[135.53266,34.71479],[135.53271,34.71526],[135.53275,34.71573],[135.53279,34.71617],[135.53282,34.71664],[135.53287,34.71709],[135.53291,34.71757],[135.5341,34.71748],[135.53415,34.71795],[135.53425,34.71887],[135.53425,34.71896],[135.53463,34.71849],[135.53489,34.71818],[135.53512,34.71791],[135.53541,34.71756]]]}},{"type":"Feature","properties":{"name":"内代町一丁目","setai":1490,"jinko":2368,"key":"27102012001","units":1},"geometry":{"type":"Polygon","coordinates":[[[135.53809,34.70881],[135.53765,34.70841],[135.53763,34.70838],[135.53747,34.70839],[135.5374,34.70839],[135.53727,34.70839],[135.53702,34.7084],[135.53615,34.70843],[135.53601,34.70844],[135.53604,34.70825],[135.53593,34.70846],[135.53582,34.70847],[135.53537,34.70849],[135.53498,34.70851],[135.53453,34.70853],[135.53455,34.70863],[135.53459,34.70906],[135.53459,34.70908],[135.53462,34.70933],[135.53468,34.70992],[135.53468,34.70995],[135.53473,34.71044],[135.53473,34.71045],[135.53478,34.71092],[135.53544,34.71088],[135.53648,34.71081],[135.53706,34.71076],[135.5378,34.71068],[135.53818,34.71063],[135.53868,34.71056],[135.5389,34.71052],[135.53941,34.71044],[135.53949,34.71043],[135.53974,34.71039],[135.5398,34.71038],[135.53941,34.70999],[135.53909,34.70968],[135.53875,34.70938],[135.53848,34.70915],[135.53809,34.70881]]]}},{"type":"Feature","properties":{"name":"内代町二丁目","setai":1161,"jinko":2157,"key":"27102012002","units":1},"geometry":{"type":"Polygon","coordinates":[[[135.53974,34.71256],[135.53985,34.71243],[135.54013,34.71208],[135.54016,34.71205],[135.54045,34.71168],[135.54069,34.7114],[135.5406,34.71131],[135.54035,34.71103],[135.54019,34.71087],[135.54002,34.71069],[135.53974,34.71039],[135.53949,34.71043],[135.53941,34.71044],[135.5389,34.71052],[135.53868,34.71056],[135.53818,34.71063],[135.5378,34.71068],[135.53706,34.71076],[135.53648,34.71081],[135.53544,34.71088],[135.53478,34.71092],[135.53483,34.71138],[135.53483,34.71139],[135.53487,34.71184],[135.53487,34.71187],[135.5349,34.71231],[135.53491,34.71233],[135.53493,34.71252],[135.53495,34.71275],[135.53496,34.71279],[135.53589,34.71273],[135.53667,34.71267],[135.53718,34.71263],[135.53791,34.71259],[135.53864,34.71252],[135.53879,34.71327],[135.53862,34.71351],[135.53881,34.71359],[135.53889,34.71351],[135.53922,34.71314],[135.53974,34.71256]]]}},{"type":"Feature","properties":{"name":"内代町三丁目","setai":721,"jinko":991,"key":"27102012003","units":1},"geometry":{"type":"Polygon","coordinates":[[[135.53754,34.71448],[135.53803,34.71439],[135.53819,34.7144],[135.53821,34.71429],[135.53856,34.71388],[135.53881,34.71359],[135.53862,34.71351],[135.53879,34.71327],[135.53864,34.71252],[135.53791,34.71259],[135.53718,34.71263],[135.53667,34.71267],[135.53589,34.71273],[135.53496,34.71279],[135.535,34.71324],[135.53505,34.7137],[135.53505,34.71371],[135.53509,34.71417],[135.53513,34.71465],[135.53556,34.71462],[135.53575,34.7146],[135.53587,34.7146],[135.53601,34.71458],[135.53627,34.71457],[135.53686,34.71453],[135.53704,34.71452],[135.53754,34.71448]]]}},{"type":"Feature","properties":{"name":"内代町四丁目","setai":384,"jinko":782,"key":"27102012004","units":1},"geometry":{"type":"Polygon","coordinates":[[[135.53727,34.71535],[135.53729,34.71531],[135.53735,34.71537],[135.53802,34.71458],[135.53819,34.7144],[135.53803,34.71439],[135.53754,34.71448],[135.53704,34.71452],[135.53686,34.71453],[135.53627,34.71457],[135.53601,34.71458],[135.53587,34.7146],[135.53575,34.7146],[135.53556,34.71462],[135.53513,34.71465],[135.53518,34.71511],[135.53519,34.71534],[135.53521,34.71555],[135.53522,34.71559],[135.53527,34.71601],[135.53528,34.71604],[135.53531,34.71646],[135.53531,34.71647],[135.53536,34.71692],[135.5354,34.7174],[135.53541,34.71756],[135.53558,34.71737],[135.5362,34.71663],[135.5364,34.7164],[135.5368,34.71593],[135.5372,34.71542],[135.53727,34.71535]]]}},{"type":"Feature","properties":{"name":"友渕町一丁目","setai":6676,"jinko":16771,"key":"27102013001","units":1},"geometry":{"type":"Polygon","coordinates":[[[135.52969,34.7154],[135.52968,34.71523],[135.52968,34.71518],[135.52949,34.71493],[135.52889,34.71524],[135.52867,34.71495],[135.52866,34.71494],[135.52847,34.71468],[135.52842,34.71461],[135.52805,34.71409],[135.52801,34.71404],[135.52772,34.714],[135.52773,34.71409],[135.52747,34.71412],[135.52709,34.71417],[135.52672,34.71422],[135.52662,34.71357],[135.52651,34.71336],[135.52586,34.71368],[135.5258,34.71369],[135.52576,34.7137],[135.52524,34.7138],[135.52492,34.71381],[135.5247,34.71381],[135.52397,34.71383],[135.52397,34.7137],[135.52389,34.7137],[135.52351,34.7137],[135.5231,34.71369],[135.52272,34.71369],[135.52271,34.71382],[135.52256,34.71383],[135.52224,34.71383],[135.52156,34.71382],[135.52149,34.71445],[135.52144,34.7149],[135.52139,34.71513],[135.52135,34.71531],[135.52126,34.71561],[135.52114,34.7158],[135.52092,34.71616],[135.52113,34.7165],[135.5213,34.71673],[135.52155,34.71697],[135.52167,34.71716],[135.52222,34.71769],[135.52224,34.71771],[135.52252,34.71796],[135.52267,34.7181],[135.52292,34.71833],[135.52316,34.71857],[135.5234,34.71879],[135.52348,34.71887],[135.52368,34.71906],[135.52381,34.71918],[135.52409,34.71942],[135.52414,34.71946],[135.52461,34.7199],[135.52497,34.7202],[135.52506,34.72027],[135.5254,34.72049],[135.52581,34.7208],[135.52591,34.72086],[135.52614,34.72101],[135.52615,34.72101],[135.52624,34.72106],[135.52637,34.72113],[135.52655,34.72121],[135.52672,34.72128],[135.52708,34.72143],[135.52718,34.72145],[135.5275,34.72153],[135.52755,34.72154],[135.528,34.72163],[135.52795,34.72106],[135.52791,34.72062],[135.5279,34.72054],[135.52788,34.72032],[135.52785,34.71999],[135.52802,34.71997],[135.52859,34.71992],[135.52856,34.71968],[135.52881,34.71964],[135.52932,34.71956],[135.52929,34.71938],[135.52923,34.71912],[135.52944,34.71907],[135.52977,34.71903],[135.53004,34.719],[135.53002,34.7187],[135.52996,34.71827],[135.52996,34.71823],[135.52992,34.71776],[135.52985,34.71707],[135.52982,34.71683],[135.52977,34.71632],[135.52976,34.71614],[135.52974,34.71594],[135.52971,34.71564],[135.52969,34.7154]]]}},{"type":"Feature","properties":{"name":"友渕町二丁目","setai":728,"jinko":1282,"key":"27102013002","units":1},"geometry":{"type":"Polygon","coordinates":[[[135.53041,34.71494],[135.52995,34.71431],[135.52975,34.71404],[135.52931,34.71345],[135.52885,34.71283],[135.52864,34.71255],[135.5285,34.71236],[135.52813,34.71255],[135.52784,34.71269],[135.52748,34.71288],[135.52693,34.71318],[135.52665,34.7133],[135.52651,34.71336],[135.52662,34.71357],[135.52672,34.71422],[135.52709,34.71417],[135.52747,34.71412],[135.52773,34.71409],[135.52772,34.714],[135.52801,34.71404],[135.52805,34.71409],[135.52842,34.71461],[135.52847,34.71468],[135.52866,34.71494],[135.52867,34.71495],[135.52889,34.71524],[135.52949,34.71493],[135.52968,34.71518],[135.52968,34.71523],[135.52969,34.7154],[135.52971,34.71564],[135.52974,34.71594],[135.52976,34.71614],[135.52977,34.71632],[135.52982,34.71683],[135.52985,34.71707],[135.52992,34.71776],[135.53017,34.71774],[135.53069,34.71771],[135.53059,34.71679],[135.5305,34.71585],[135.53041,34.71494]]]}},{"type":"Feature","properties":{"name":"友渕町三丁目","setai":768,"jinko":1906,"key":"27102013003","units":1},"geometry":{"type":"Polygon","coordinates":[[[135.53071,34.71793],[135.53069,34.71771],[135.53017,34.71774],[135.52992,34.71776],[135.52996,34.71823],[135.52996,34.71827],[135.53002,34.7187],[135.53004,34.719],[135.52977,34.71903],[135.52944,34.71907],[135.52923,34.71912],[135.52929,34.71938],[135.52932,34.71956],[135.52881,34.71964],[135.52856,34.71968],[135.52859,34.71992],[135.52802,34.71997],[135.52785,34.71999],[135.52788,34.72032],[135.5279,34.72054],[135.52791,34.72062],[135.52795,34.72106],[135.528,34.72163],[135.52801,34.72166],[135.52825,34.72169],[135.52846,34.72172],[135.52885,34.72173],[135.52888,34.72173],[135.52909,34.72173],[135.53031,34.72165],[135.53106,34.7216],[135.53101,34.72106],[135.53099,34.72082],[135.53095,34.72035],[135.53086,34.71958],[135.53078,34.71866],[135.53074,34.7183],[135.53071,34.71793]]]}},{"type":"Feature","properties":{"name":"大東町一丁目","setai":884,"jinko":1693,"key":"27102014001","units":1},"geometry":{"type":"Polygon","coordinates":[[[135.53193,34.7218],[135.53217,34.72149],[135.53188,34.72153],[135.53155,34.72155],[135.53106,34.7216],[135.53031,34.72165],[135.52909,34.72173],[135.52888,34.72173],[135.52885,34.72173],[135.52846,34.72172],[135.52825,34.72169],[135.52832,34.72226],[135.52746,34.72232],[135.52753,34.72234],[135.52753,34.72236],[135.52658,34.72245],[135.52669,34.72253],[135.52717,34.72287],[135.52753,34.72313],[135.5279,34.72341],[135.5283,34.72369],[135.52846,34.72381],[135.52879,34.72405],[135.52898,34.72419],[135.52917,34.72432],[135.53001,34.72494],[135.53008,34.72478],[135.53022,34.72451],[135.53049,34.72401],[135.53078,34.72348],[135.5312,34.72279],[135.53124,34.72272],[135.53135,34.72256],[135.53193,34.7218]]]}},{"type":"Feature","properties":{"name":"大東町二丁目","setai":787,"jinko":1518,"key":"27102014002","units":1},"geometry":{"type":"Polygon","coordinates":[[[135.52779,34.72637],[135.52847,34.72622],[135.52938,34.72608],[135.52966,34.72556],[135.52969,34.72551],[135.52983,34.72526],[135.53001,34.72494],[135.52917,34.72432],[135.52898,34.72419],[135.52879,34.72405],[135.52846,34.72381],[135.5283,34.72369],[135.5279,34.72341],[135.52753,34.72313],[135.52717,34.72287],[135.52669,34.72253],[135.52658,34.72245],[135.52578,34.7225],[135.52577,34.72251],[135.52532,34.72254],[135.52528,34.72254],[135.52555,34.72351],[135.52563,34.72359],[135.52571,34.72367],[135.52587,34.72413],[135.52594,34.72438],[135.52604,34.72461],[135.52614,34.72474],[135.52623,34.7249],[135.52627,34.72503],[135.52663,34.72526],[135.52627,34.72553],[135.52661,34.7257],[135.52682,34.72583],[135.52737,34.72635],[135.52776,34.72627],[135.52779,34.72637]]]}},{"type":"Feature","properties":{"name":"大東町三丁目","setai":1180,"jinko":2460,"key":"27102014003","units":1},"geometry":{"type":"Polygon","coordinates":[[[135.52909,34.72673],[135.52932,34.7262],[135.52938,34.72608],[135.52847,34.72622],[135.52779,34.72637],[135.52776,34.72627],[135.52737,34.72635],[135.52682,34.72583],[135.526,34.72646],[135.52544,34.72687],[135.525,34.72724],[135.52532,34.72769],[135.52534,34.72771],[135.5253,34.72826],[135.52529,34.72834],[135.52522,34.72848],[135.52367,34.73099],[135.52393,34.73112],[135.52608,34.73114],[135.52663,34.73114],[135.5272,34.73016],[135.52763,34.72939],[135.52797,34.72883],[135.52825,34.72825],[135.52828,34.72821],[135.52836,34.72804],[135.52869,34.72743],[135.52909,34.72673]]]}},{"type":"Feature","properties":{"name":"毛馬町一丁目","setai":613,"jinko":1230,"key":"27102015001","units":1},"geometry":{"type":"Polygon","coordinates":[[[135.52337,34.72011],[135.52409,34.71942],[135.52381,34.71918],[135.52368,34.71906],[135.52348,34.71887],[135.5234,34.71879],[135.52316,34.71857],[135.52292,34.71833],[135.52267,34.7181],[135.52252,34.71796],[135.52224,34.71771],[135.52222,34.71769],[135.52167,34.71716],[135.52155,34.71697],[135.5213,34.71673],[135.52113,34.7165],[135.52092,34.71616],[135.52079,34.71634],[135.52058,34.71662],[135.52026,34.71705],[135.5198,34.71763],[135.51971,34.71776],[135.51943,34.71811],[135.51886,34.71876],[135.51879,34.71882],[135.5187,34.71886],[135.5185,34.71894],[135.51825,34.71903],[135.5178,34.7192],[135.51759,34.71927],[135.51746,34.71933],[135.51838,34.72014],[135.51865,34.72034],[135.51869,34.7203],[135.519,34.72],[135.52027,34.72034],[135.5206,34.72043],[135.52085,34.7205],[135.5216,34.72071],[135.52161,34.72071],[135.52212,34.72085],[135.5222,34.72087],[135.52237,34.72092],[135.52257,34.72083],[135.52276,34.7207],[135.52305,34.72042],[135.52337,34.72011]]]}},{"type":"Feature","properties":{"name":"毛馬町二丁目","setai":2228,"jinko":4437,"key":"27102015002","units":1},"geometry":{"type":"Polygon","coordinates":[[[135.52325,34.72471],[135.52386,34.72465],[135.52387,34.72465],[135.52394,34.72464],[135.52431,34.7246],[135.52463,34.72455],[135.52485,34.72453],[135.5253,34.72448],[135.52588,34.7244],[135.52594,34.72438],[135.52587,34.72413],[135.52571,34.72367],[135.52563,34.72359],[135.52555,34.72351],[135.52528,34.72254],[135.52532,34.72254],[135.52577,34.72251],[135.52578,34.7225],[135.52658,34.72245],[135.52753,34.72236],[135.52753,34.72234],[135.52746,34.72232],[135.52832,34.72226],[135.52825,34.72169],[135.52801,34.72166],[135.528,34.72163],[135.52755,34.72154],[135.5275,34.72153],[135.52718,34.72145],[135.52708,34.72143],[135.52672,34.72128],[135.52655,34.72121],[135.52637,34.72113],[135.52624,34.72106],[135.52615,34.72101],[135.52614,34.72101],[135.52591,34.72086],[135.52581,34.7208],[135.5254,34.72049],[135.52506,34.72027],[135.52497,34.7202],[135.52461,34.7199],[135.52414,34.71946],[135.52409,34.71942],[135.52337,34.72011],[135.52305,34.72042],[135.52276,34.7207],[135.52257,34.72083],[135.52237,34.72092],[135.52232,34.72095],[135.5222,34.72099],[135.5219,34.7211],[135.52169,34.72112],[135.52162,34.72114],[135.52175,34.7219],[135.52177,34.72194],[135.52184,34.72205],[135.52199,34.72234],[135.52211,34.72257],[135.52219,34.72273],[135.52226,34.72286],[135.52234,34.72302],[135.5225,34.72334],[135.52255,34.7236],[135.52262,34.724],[135.52264,34.72415],[135.52275,34.72476],[135.52325,34.72471]]]}},{"type":"Feature","properties":{"name":"毛馬町三丁目","setai":486,"jinko":1213,"key":"27102015003","units":1},"geometry":{"type":"Polygon","coordinates":[[[135.51863,34.7225],[135.52047,34.72248],[135.5205,34.72249],[135.5209,34.72232],[135.52177,34.72194],[135.52175,34.7219],[135.52162,34.72114],[135.52169,34.72112],[135.5219,34.7211],[135.5222,34.72099],[135.52232,34.72095],[135.52237,34.72092],[135.5222,34.72087],[135.52212,34.72085],[135.52161,34.72071],[135.5216,34.72071],[135.52085,34.7205],[135.5206,34.72043],[135.52027,34.72034],[135.519,34.72],[135.51869,34.7203],[135.51865,34.72034],[135.51838,34.72014],[135.51746,34.71933],[135.51715,34.71946],[135.51688,34.71959],[135.51669,34.71966],[135.51631,34.71981],[135.51602,34.71992],[135.51541,34.72009],[135.51511,34.7202],[135.51486,34.72033],[135.51464,34.72045],[135.51445,34.72058],[135.51431,34.7207],[135.51449,34.72085],[135.51471,34.7211],[135.51489,34.72132],[135.51512,34.72163],[135.51528,34.72185],[135.51554,34.72224],[135.51575,34.7226],[135.51816,34.7225],[135.51826,34.7225],[135.51863,34.7225]]]}},{"type":"Feature","properties":{"name":"毛馬町四丁目","setai":727,"jinko":1648,"key":"27102015004","units":1},"geometry":{"type":"Polygon","coordinates":[[[135.52211,34.72257],[135.52199,34.72234],[135.52184,34.72205],[135.52177,34.72194],[135.5209,34.72232],[135.5205,34.72249],[135.52047,34.72248],[135.51863,34.7225],[135.51826,34.7225],[135.51816,34.7225],[135.51575,34.7226],[135.51602,34.72317],[135.51615,34.72333],[135.51639,34.72355],[135.51654,34.72369],[135.51669,34.72384],[135.51694,34.72413],[135.51732,34.72452],[135.5175,34.72471],[135.51783,34.72501],[135.51825,34.72541],[135.51854,34.7257],[135.51882,34.72597],[135.51892,34.72606],[135.51944,34.72656],[135.5195,34.72662],[135.52164,34.72538],[135.522,34.72517],[135.52217,34.72507],[135.52245,34.72492],[135.52252,34.72487],[135.52275,34.72476],[135.52264,34.72415],[135.52262,34.724],[135.52255,34.7236],[135.5225,34.72334],[135.52234,34.72302],[135.52226,34.72286],[135.52219,34.72273],[135.52211,34.72257]]]}},{"type":"Feature","properties":{"name":"毛馬町五丁目","setai":583,"jinko":1190,"key":"27102015005","units":1},"geometry":{"type":"Polygon","coordinates":[[[135.52614,34.72474],[135.52604,34.72461],[135.52594,34.72438],[135.52588,34.7244],[135.5253,34.72448],[135.52485,34.72453],[135.52463,34.72455],[135.52431,34.7246],[135.52394,34.72464],[135.52387,34.72465],[135.52386,34.72465],[135.52325,34.72471],[135.52275,34.72476],[135.52252,34.72487],[135.52245,34.72492],[135.52217,34.72507],[135.522,34.72517],[135.52164,34.72538],[135.5195,34.72662],[135.51985,34.72689],[135.52015,34.72713],[135.52041,34.72733],[135.52086,34.72764],[135.52098,34.72773],[135.52113,34.72784],[135.52171,34.72821],[135.52176,34.72825],[135.52215,34.7285],[135.52289,34.72898],[135.52215,34.72972],[135.52199,34.72987],[135.52215,34.72997],[135.5224,34.73014],[135.52363,34.73097],[135.52367,34.73099],[135.52522,34.72848],[135.52529,34.72834],[135.5253,34.72826],[135.52534,34.72771],[135.52532,34.72769],[135.525,34.72724],[135.52544,34.72687],[135.526,34.72646],[135.52682,34.72583],[135.52661,34.7257],[135.52627,34.72553],[135.52663,34.72526],[135.52627,34.72503],[135.52623,34.7249],[135.52614,34.72474]]]}}]}