{"type":"FeatureCollection","features":[{"type":"Feature","properties":{"name":"西九条一丁目","setai":1243,"jinko":2459,"key":"27104001001","units":1},"geometry":{"type":"Polygon","coordinates":[[[135.47213,34.68067],[135.47183,34.68063],[135.47139,34.68064],[135.47133,34.68065],[135.47119,34.6806],[135.4701,34.68023],[135.46994,34.68017],[135.46899,34.67986],[135.4682,34.67959],[135.4675,34.67936],[135.46727,34.67979],[135.4672,34.67992],[135.46713,34.68005],[135.46701,34.68027],[135.46699,34.6803],[135.46681,34.68064],[135.4668,34.68065],[135.46657,34.68097],[135.46656,34.68098],[135.46638,34.68125],[135.46637,34.68126],[135.46614,34.68159],[135.46599,34.68181],[135.46617,34.68199],[135.46675,34.68253],[135.46695,34.68272],[135.46727,34.68301],[135.46779,34.68348],[135.46826,34.68389],[135.46832,34.68393],[135.46852,34.6841],[135.4687,34.68424],[135.46886,34.68437],[135.46919,34.68461],[135.46921,34.68463],[135.46925,34.68458],[135.46972,34.68402],[135.46973,34.684],[135.47003,34.68363],[135.47004,34.68361],[135.47026,34.68329],[135.47041,34.68306],[135.47051,34.68291],[135.47074,34.68255],[135.47088,34.68236],[135.47098,34.68222],[135.47109,34.68207],[135.47117,34.68198],[135.4713,34.68183],[135.47141,34.6817],[135.47156,34.68148],[135.47163,34.68137],[135.47166,34.68134],[135.47177,34.68116],[135.47213,34.68067]]]}},{"type":"Feature","properties":{"name":"西九条二丁目","setai":890,"jinko":1617,"key":"27104001002","units":1},"geometry":{"type":"Polygon","coordinates":[[[135.46343,34.67803],[135.46246,34.67771],[135.46224,34.6781],[135.46194,34.67865],[135.46174,34.67899],[135.46187,34.67917],[135.4623,34.67922],[135.46263,34.67929],[135.46263,34.67929],[135.46279,34.67935],[135.46319,34.67948],[135.4635,34.67961],[135.46383,34.67981],[135.46395,34.67988],[135.46404,34.67995],[135.46419,34.68011],[135.46441,34.68027],[135.46463,34.68048],[135.46515,34.68097],[135.46574,34.68158],[135.46599,34.68181],[135.46614,34.68159],[135.46637,34.68126],[135.46638,34.68125],[135.46656,34.68098],[135.46657,34.68097],[135.4668,34.68065],[135.46681,34.68064],[135.46699,34.6803],[135.46701,34.68027],[135.46713,34.68005],[135.4672,34.67992],[135.46727,34.67979],[135.4675,34.67936],[135.46717,34.67926],[135.46672,34.67911],[135.46598,34.67887],[135.46566,34.67877],[135.46545,34.6787],[135.4649,34.67853],[135.46343,34.67803]]]}},{"type":"Feature","properties":{"name":"西九条三丁目","setai":1087,"jinko":1855,"key":"27104001003","units":1},"geometry":{"type":"Polygon","coordinates":[[[135.4688,34.68508],[135.46888,34.68498],[135.469,34.68505],[135.46902,34.68503],[135.46918,34.68486],[135.46907,34.68479],[135.46909,34.68477],[135.46921,34.68463],[135.46919,34.68461],[135.46886,34.68437],[135.4687,34.68424],[135.46852,34.6841],[135.46832,34.68393],[135.46826,34.68389],[135.46779,34.68348],[135.46727,34.68301],[135.46695,34.68272],[135.46675,34.68253],[135.46617,34.68199],[135.46599,34.68181],[135.46582,34.68205],[135.46577,34.68212],[135.4657,34.68222],[135.46542,34.68264],[135.46501,34.68322],[135.46486,34.68328],[135.46487,34.68329],[135.46585,34.68444],[135.46587,34.68447],[135.466,34.68473],[135.46607,34.68493],[135.46608,34.68496],[135.46613,34.68511],[135.46634,34.68568],[135.46636,34.68572],[135.46639,34.68582],[135.46641,34.68587],[135.46645,34.68597],[135.46659,34.68638],[135.46664,34.68654],[135.46751,34.68625],[135.46796,34.68613],[135.46834,34.68581],[135.46879,34.68538],[135.46888,34.68528],[135.46875,34.6852],[135.46884,34.6851],[135.4688,34.68508]]]}},{"type":"Feature","properties":{"name":"西九条四丁目","setai":264,"jinko":500,"key":"27104001004","units":1},"geometry":{"type":"Polygon","coordinates":[[[135.4623,34.67922],[135.46187,34.67917],[135.46221,34.67963],[135.46286,34.68046],[135.46312,34.6808],[135.46354,34.68132],[135.46355,34.68135],[135.4638,34.68196],[135.46386,34.68206],[135.46406,34.6823],[135.46486,34.68328],[135.46501,34.68322],[135.46542,34.68264],[135.4657,34.68222],[135.46577,34.68212],[135.46582,34.68205],[135.46599,34.68181],[135.46574,34.68158],[135.46515,34.68097],[135.46463,34.68048],[135.46441,34.68027],[135.46419,34.68011],[135.46404,34.67995],[135.46395,34.67988],[135.46383,34.67981],[135.4635,34.67961],[135.46319,34.67948],[135.46279,34.67935],[135.46263,34.67929],[135.46263,34.67929],[135.4623,34.67922]]]}},{"type":"Feature","properties":{"name":"西九条五丁目","setai":639,"jinko":1135,"key":"27104001005","units":1},"geometry":{"type":"Polygon","coordinates":[[[135.46395,34.68699],[135.46467,34.6868],[135.4649,34.68681],[135.46502,34.68681],[135.46507,34.68681],[135.46511,34.6868],[135.46571,34.68674],[135.46576,34.68676],[135.46611,34.68671],[135.46626,34.68665],[135.46637,34.68658],[135.46664,34.68654],[135.46659,34.68638],[135.46645,34.68597],[135.46641,34.68587],[135.46639,34.68582],[135.46636,34.68572],[135.46634,34.68568],[135.46613,34.68511],[135.46608,34.68496],[135.46607,34.68493],[135.466,34.68473],[135.46587,34.68447],[135.46585,34.68444],[135.46487,34.68329],[135.46486,34.68328],[135.46482,34.68329],[135.46319,34.68396],[135.46284,34.6841],[135.46305,34.68445],[135.46309,34.68452],[135.46314,34.6846],[135.46341,34.68541],[135.46348,34.68563],[135.46358,34.68592],[135.46362,34.68605],[135.46367,34.68619],[135.4637,34.68626],[135.46371,34.6863],[135.46395,34.68699]]]}},{"type":"Feature","properties":{"name":"西九条六丁目","setai":387,"jinko":1058,"key":"27104001006","units":1},"geometry":{"type":"Polygon","coordinates":[[[135.46187,34.67917],[135.46149,34.67916],[135.46099,34.67921],[135.46044,34.67933],[135.45974,34.67958],[135.45987,34.67977],[135.4601,34.68008],[135.46013,34.68011],[135.46043,34.68051],[135.46071,34.68089],[135.46103,34.68132],[135.46119,34.68154],[135.46157,34.68208],[135.46185,34.68248],[135.46211,34.68288],[135.46265,34.68379],[135.46284,34.6841],[135.46319,34.68396],[135.46482,34.68329],[135.46486,34.68328],[135.46406,34.6823],[135.46386,34.68206],[135.4638,34.68196],[135.46355,34.68135],[135.46354,34.68132],[135.46312,34.6808],[135.46286,34.68046],[135.46221,34.67963],[135.46187,34.67917]]]}},{"type":"Feature","properties":{"name":"西九条七丁目","setai":0,"jinko":0,"key":"27104001007","units":1},"geometry":{"type":"Polygon","coordinates":[[[135.46099,34.67921],[135.46149,34.67916],[135.46187,34.67917],[135.46174,34.67899],[135.46194,34.67865],[135.46224,34.6781],[135.46246,34.67771],[135.46205,34.67757],[135.46091,34.67719],[135.45936,34.67667],[135.45905,34.67656],[135.45788,34.67618],[135.45767,34.67611],[135.45698,34.67589],[135.45688,34.67586],[135.45621,34.67565],[135.45607,34.67595],[135.45589,34.67591],[135.45587,34.67587],[135.45562,34.6758],[135.45558,34.67583],[135.45533,34.67574],[135.45522,34.67585],[135.45509,34.67584],[135.4551,34.6759],[135.45514,34.67593],[135.45513,34.67598],[135.45538,34.67608],[135.45539,34.67613],[135.45565,34.67625],[135.45698,34.6768],[135.45722,34.6769],[135.45722,34.67694],[135.45742,34.67702],[135.45778,34.67718],[135.45783,34.67725],[135.45815,34.67743],[135.45826,34.67742],[135.45855,34.67769],[135.45833,34.67779],[135.45839,34.67785],[135.45842,34.67789],[135.4589,34.67836],[135.45911,34.67862],[135.45942,34.67906],[135.45974,34.67958],[135.46044,34.67933],[135.46099,34.67921]]]}},{"type":"Feature","properties":{"name":"朝日一丁目","setai":231,"jinko":381,"key":"27104002001","units":1},"geometry":{"type":"Polygon","coordinates":[[[135.46305,34.68445],[135.46284,34.6841],[135.46243,34.68424],[135.46182,34.68438],[135.46171,34.6844],[135.46128,34.6845],[135.46118,34.68452],[135.45992,34.6848],[135.45898,34.685],[135.45927,34.68509],[135.45952,34.68515],[135.45977,34.6852],[135.45986,34.68523],[135.46,34.68526],[135.46002,34.68526],[135.46026,34.68532],[135.46052,34.68538],[135.4608,34.68545],[135.46101,34.6855],[135.46125,34.68556],[135.4615,34.68562],[135.46152,34.68562],[135.46155,34.68567],[135.46171,34.68571],[135.46192,34.68576],[135.46218,34.68582],[135.4624,34.68587],[135.46261,34.68593],[135.46283,34.68598],[135.46305,34.68603],[135.46367,34.68619],[135.46362,34.68605],[135.46358,34.68592],[135.46348,34.68563],[135.46341,34.68541],[135.46314,34.6846],[135.46309,34.68452],[135.46305,34.68445]]]}},{"type":"Feature","properties":{"name":"朝日二丁目","setai":226,"jinko":438,"key":"27104002002","units":1},"geometry":{"type":"Polygon","coordinates":[[[135.45898,34.685],[135.45862,34.68491],[135.45861,34.68621],[135.45911,34.68623],[135.4592,34.68625],[135.45947,34.68629],[135.4597,34.68634],[135.45988,34.6864],[135.45993,34.68642],[135.46019,34.68651],[135.46029,34.68655],[135.46047,34.68662],[135.46073,34.68674],[135.46093,34.68683],[135.46116,34.68692],[135.46122,34.68695],[135.46176,34.68718],[135.46194,34.68722],[135.46217,34.68723],[135.46247,34.68721],[135.46395,34.68699],[135.46371,34.6863],[135.4637,34.68626],[135.46367,34.68619],[135.46305,34.68603],[135.46283,34.68598],[135.46261,34.68593],[135.4624,34.68587],[135.46218,34.68582],[135.46192,34.68576],[135.46171,34.68571],[135.46155,34.68567],[135.46152,34.68562],[135.4615,34.68562],[135.46125,34.68556],[135.46101,34.6855],[135.4608,34.68545],[135.46052,34.68538],[135.46026,34.68532],[135.46002,34.68526],[135.46,34.68526],[135.45986,34.68523],[135.45977,34.6852],[135.45952,34.68515],[135.45927,34.68509],[135.45898,34.685]]]}},{"type":"Feature","properties":{"name":"四貫島一丁目","setai":423,"jinko":881,"key":"27104003001","units":1},"geometry":{"type":"Polygon","coordinates":[[[135.45693,34.68428],[135.45648,34.68407],[135.45613,34.68457],[135.45595,34.68482],[135.45584,34.68498],[135.45576,34.68509],[135.45559,34.68533],[135.45537,34.68563],[135.45499,34.68614],[135.45481,34.6864],[135.45467,34.68672],[135.45543,34.6868],[135.45567,34.6868],[135.45595,34.68676],[135.45652,34.68662],[135.45674,34.68656],[135.45691,34.68652],[135.45705,34.68649],[135.458,34.68625],[135.45822,34.68622],[135.45861,34.68621],[135.45862,34.68491],[135.45834,34.68485],[135.45813,34.68479],[135.45779,34.68471],[135.45772,34.68468],[135.45738,34.68451],[135.45736,34.6845],[135.45706,34.68435],[135.45693,34.68428]]]}},{"type":"Feature","properties":{"name":"四貫島二丁目","setai":549,"jinko":1111,"key":"27104003002","units":1},"geometry":{"type":"Polygon","coordinates":[[[135.4548,34.68323],[135.45384,34.68275],[135.45382,34.68278],[135.45351,34.68331],[135.45336,34.68356],[135.45322,34.6838],[135.4532,34.68384],[135.45305,34.68411],[135.4529,34.68439],[135.45273,34.68469],[135.45272,34.6847],[135.4526,34.68493],[135.45244,34.68526],[135.45234,34.68548],[135.45216,34.68593],[135.45283,34.68621],[135.45338,34.68641],[135.45387,34.68656],[135.45428,34.68666],[135.45467,34.68672],[135.45481,34.6864],[135.45499,34.68614],[135.45537,34.68563],[135.45559,34.68533],[135.45576,34.68509],[135.45584,34.68498],[135.45595,34.68482],[135.45613,34.68457],[135.45648,34.68407],[135.45592,34.6838],[135.45536,34.68351],[135.4548,34.68323]]]}},{"type":"Feature","properties":{"name":"梅香一丁目","setai":1116,"jinko":1855,"key":"27104004001","units":1},"geometry":{"type":"Polygon","coordinates":[[[135.46157,34.68208],[135.46119,34.68154],[135.46083,34.68172],[135.4609,34.68183],[135.46052,34.6819],[135.46031,34.68195],[135.46017,34.68198],[135.45976,34.68206],[135.45927,34.68217],[135.45887,34.68225],[135.45846,34.68234],[135.45804,34.68242],[135.45817,34.6829],[135.45831,34.68351],[135.45844,34.6841],[135.45849,34.6843],[135.45849,34.68431],[135.45852,34.68444],[135.45853,34.68449],[135.45858,34.68472],[135.45862,34.68491],[135.45898,34.685],[135.45992,34.6848],[135.46118,34.68452],[135.46128,34.6845],[135.46171,34.6844],[135.46182,34.68438],[135.46243,34.68424],[135.46284,34.6841],[135.46265,34.68379],[135.46211,34.68288],[135.46185,34.68248],[135.46157,34.68208]]]}},{"type":"Feature","properties":{"name":"梅香二丁目","setai":597,"jinko":1223,"key":"27104004002","units":1},"geometry":{"type":"Polygon","coordinates":[[[135.4601,34.68008],[135.45987,34.67977],[135.45946,34.67989],[135.45912,34.68001],[135.45843,34.68019],[135.45828,34.68022],[135.45819,34.68024],[135.4576,34.68031],[135.45739,34.68032],[135.45762,34.681],[135.45782,34.68167],[135.45794,34.68207],[135.45804,34.68242],[135.45846,34.68234],[135.45887,34.68225],[135.45927,34.68217],[135.45976,34.68206],[135.46017,34.68198],[135.46031,34.68195],[135.46052,34.6819],[135.4609,34.68183],[135.46083,34.68172],[135.46119,34.68154],[135.46103,34.68132],[135.46071,34.68089],[135.46043,34.68051],[135.46013,34.68011],[135.4601,34.68008]]]}},{"type":"Feature","properties":{"name":"梅香三丁目","setai":1145,"jinko":1897,"key":"27104004003","units":1},"geometry":{"type":"Polygon","coordinates":[[[135.45762,34.681],[135.45739,34.68032],[135.45737,34.68033],[135.45717,34.68032],[135.45695,34.68031],[135.45664,34.6803],[135.45635,34.68027],[135.45586,34.68018],[135.45564,34.68012],[135.45554,34.68008],[135.45541,34.68027],[135.45527,34.68048],[135.45514,34.6807],[135.45511,34.68073],[135.45507,34.68077],[135.45481,34.6812],[135.45467,34.68143],[135.45459,34.68155],[135.45445,34.68177],[135.45419,34.6822],[135.45417,34.68222],[135.45401,34.68246],[135.454,34.68248],[135.45384,34.68275],[135.4548,34.68323],[135.45536,34.68351],[135.45592,34.6838],[135.45648,34.68407],[135.45693,34.68428],[135.45706,34.68435],[135.45736,34.6845],[135.45738,34.68451],[135.45772,34.68468],[135.45779,34.68471],[135.45813,34.68479],[135.45834,34.68485],[135.45862,34.68491],[135.45858,34.68472],[135.45853,34.68449],[135.45852,34.68444],[135.45849,34.68431],[135.45849,34.6843],[135.45844,34.6841],[135.45831,34.68351],[135.45817,34.6829],[135.45804,34.68242],[135.45794,34.68207],[135.45782,34.68167],[135.45762,34.681]]]}},{"type":"Feature","properties":{"name":"春日出北一丁目","setai":786,"jinko":1408,"key":"27104005001","units":1},"geometry":{"type":"Polygon","coordinates":[[[135.45122,34.68149],[135.45055,34.68116],[135.45022,34.68162],[135.45003,34.68189],[135.44985,34.68215],[135.44967,34.6824],[135.44949,34.68265],[135.44948,34.68267],[135.44928,34.68294],[135.44927,34.68297],[135.44899,34.68334],[135.44882,34.68361],[135.4485,34.68406],[135.44899,34.68421],[135.44936,34.68432],[135.44944,34.68434],[135.44989,34.68447],[135.45,34.6845],[135.4502,34.68455],[135.45092,34.68485],[135.45126,34.68502],[135.45137,34.68509],[135.45148,34.68519],[135.45165,34.68537],[135.45205,34.6858],[135.45214,34.68592],[135.45216,34.68593],[135.45234,34.68548],[135.45244,34.68526],[135.4526,34.68493],[135.45272,34.6847],[135.45273,34.68469],[135.4529,34.68439],[135.45305,34.68411],[135.4532,34.68384],[135.45322,34.6838],[135.45336,34.68356],[135.45351,34.68331],[135.45382,34.68278],[135.45311,34.68243],[135.45255,34.68215],[135.45241,34.68208],[135.45202,34.68188],[135.45198,34.68186],[135.45122,34.68149]]]}},{"type":"Feature","properties":{"name":"春日出北二丁目","setai":575,"jinko":1240,"key":"27104005002","units":1},"geometry":{"type":"Polygon","coordinates":[[[135.44949,34.68265],[135.44967,34.6824],[135.44985,34.68215],[135.45003,34.68189],[135.45022,34.68162],[135.45055,34.68116],[135.45046,34.68113],[135.44946,34.68061],[135.44843,34.6801],[135.4481,34.68057],[135.4479,34.68083],[135.44772,34.68109],[135.44754,34.68133],[135.44745,34.68145],[135.44735,34.68159],[135.44713,34.68189],[135.44698,34.68209],[135.44681,34.68233],[135.44663,34.68258],[135.44629,34.68241],[135.44582,34.68318],[135.44608,34.6833],[135.44632,34.68337],[135.44681,34.68353],[135.44697,34.68357],[135.44726,34.68368],[135.4475,34.68376],[135.44817,34.68396],[135.4485,34.68406],[135.44882,34.68361],[135.44899,34.68334],[135.44927,34.68297],[135.44928,34.68294],[135.44948,34.68267],[135.44949,34.68265]]]}},{"type":"Feature","properties":{"name":"春日出北三丁目","setai":482,"jinko":998,"key":"27104005003","units":1},"geometry":{"type":"Polygon","coordinates":[[[135.44582,34.68318],[135.44629,34.68241],[135.44663,34.68258],[135.44681,34.68233],[135.44698,34.68209],[135.44713,34.68189],[135.44735,34.68159],[135.44745,34.68145],[135.44754,34.68133],[135.44772,34.68109],[135.4479,34.68083],[135.4481,34.68057],[135.44843,34.6801],[135.44731,34.67954],[135.44622,34.67898],[135.44513,34.67843],[135.44509,34.67845],[135.44476,34.6789],[135.44438,34.67944],[135.444,34.67993],[135.4438,34.68023],[135.44361,34.68049],[135.44331,34.68089],[135.44275,34.68166],[135.4428,34.68168],[135.44342,34.682],[135.44365,34.68211],[135.44394,34.68225],[135.44428,34.68242],[135.44442,34.68249],[135.44482,34.68269],[135.44521,34.68288],[135.44582,34.68318]]]}},{"type":"Feature","properties":{"name":"春日出中一丁目","setai":986,"jinko":1855,"key":"27104006001","units":1},"geometry":{"type":"Polygon","coordinates":[[[135.45302,34.67895],[135.45238,34.67865],[135.45215,34.67895],[135.45211,34.67901],[135.452,34.67917],[135.45193,34.67926],[135.45174,34.67952],[135.45165,34.67963],[135.45154,34.67979],[135.45146,34.6799],[135.45135,34.68005],[135.45124,34.6802],[135.45116,34.68031],[135.45096,34.68058],[135.45078,34.68083],[135.45055,34.68116],[135.45122,34.68149],[135.45198,34.68186],[135.45202,34.68188],[135.45241,34.68208],[135.45255,34.68215],[135.45311,34.68243],[135.45382,34.68278],[135.45384,34.68275],[135.454,34.68248],[135.45401,34.68246],[135.45417,34.68222],[135.45419,34.6822],[135.45445,34.68177],[135.45459,34.68155],[135.45467,34.68143],[135.45481,34.6812],[135.45507,34.68077],[135.45511,34.68073],[135.45514,34.6807],[135.45527,34.68048],[135.45541,34.68027],[135.45554,34.68008],[135.45505,34.67986],[135.45495,34.67983],[135.45492,34.67982],[135.45433,34.67953],[135.45371,34.67926],[135.45302,34.67895]]]}},{"type":"Feature","properties":{"name":"春日出中二丁目","setai":783,"jinko":1524,"key":"27104006002","units":1},"geometry":{"type":"Polygon","coordinates":[[[135.4513,34.67811],[135.45026,34.67759],[135.45001,34.67795],[135.44982,34.67821],[135.44962,34.67848],[135.44944,34.67874],[135.44925,34.679],[135.44907,34.67924],[135.44887,34.67951],[135.44868,34.67977],[135.44857,34.67991],[135.44843,34.6801],[135.44946,34.68061],[135.45046,34.68113],[135.45055,34.68116],[135.45078,34.68083],[135.45096,34.68058],[135.45116,34.68031],[135.45124,34.6802],[135.45135,34.68005],[135.45146,34.6799],[135.45154,34.67979],[135.45165,34.67963],[135.45174,34.67952],[135.45193,34.67926],[135.452,34.67917],[135.45211,34.67901],[135.45215,34.67895],[135.45238,34.67865],[135.45239,34.67864],[135.4513,34.67811]]]}},{"type":"Feature","properties":{"name":"春日出中三丁目","setai":13,"jinko":19,"key":"27104006003","units":1},"geometry":{"type":"Polygon","coordinates":[[[135.44962,34.67848],[135.44982,34.67821],[135.45001,34.67795],[135.45026,34.67759],[135.4484,34.67668],[135.44691,34.67599],[135.44677,34.67593],[135.44667,34.67597],[135.44653,34.67591],[135.4465,34.6759],[135.44607,34.67572],[135.44524,34.67629],[135.44523,34.67641],[135.44507,34.67685],[135.44485,34.67749],[135.44455,34.67791],[135.44442,34.67809],[135.44509,34.67845],[135.44513,34.67843],[135.44622,34.67898],[135.44731,34.67954],[135.44843,34.6801],[135.44857,34.67991],[135.44868,34.67977],[135.44887,34.67951],[135.44907,34.67924],[135.44925,34.679],[135.44944,34.67874],[135.44962,34.67848]]]}},{"type":"Feature","properties":{"name":"春日出南一丁目","setai":195,"jinko":390,"key":"27104007001","units":1},"geometry":{"type":"Polygon","coordinates":[[[135.45842,34.67789],[135.45839,34.67785],[135.45833,34.67779],[135.45829,34.67775],[135.45803,34.67787],[135.45797,34.6778],[135.45792,34.67767],[135.45761,34.67749],[135.45722,34.67735],[135.45697,34.67778],[135.4568,34.67806],[135.45675,34.67814],[135.45639,34.67875],[135.45623,34.67903],[135.45604,34.67933],[135.45582,34.67968],[135.45554,34.68008],[135.45564,34.68012],[135.45586,34.68018],[135.45635,34.68027],[135.45664,34.6803],[135.45695,34.68031],[135.45717,34.68032],[135.45737,34.68033],[135.45739,34.68032],[135.4576,34.68031],[135.45819,34.68024],[135.45828,34.68022],[135.45843,34.68019],[135.45912,34.68001],[135.45946,34.67989],[135.45987,34.67977],[135.45974,34.67958],[135.45942,34.67906],[135.45911,34.67862],[135.4589,34.67836],[135.45842,34.67789]]]}},{"type":"Feature","properties":{"name":"春日出南二丁目","setai":686,"jinko":1532,"key":"27104007002","units":1},"geometry":{"type":"Polygon","coordinates":[[[135.45497,34.67648],[135.45417,34.67615],[135.45415,34.67618],[135.45298,34.67781],[135.45239,34.67864],[135.45238,34.67865],[135.45302,34.67895],[135.45371,34.67926],[135.45433,34.67953],[135.45492,34.67982],[135.45495,34.67983],[135.45505,34.67986],[135.45554,34.68008],[135.45582,34.67968],[135.45604,34.67933],[135.45623,34.67903],[135.45639,34.67875],[135.45675,34.67814],[135.4568,34.67806],[135.45697,34.67778],[135.45722,34.67735],[135.45697,34.67726],[135.45671,34.67717],[135.45639,34.67705],[135.45604,34.67692],[135.4557,34.67677],[135.45552,34.67671],[135.45501,34.6765],[135.45497,34.67648]]]}},{"type":"Feature","properties":{"name":"春日出南三丁目","setai":382,"jinko":1024,"key":"27104007003","units":1},"geometry":{"type":"Polygon","coordinates":[[[135.45415,34.67618],[135.45218,34.67538],[135.45217,34.67541],[135.4521,34.67538],[135.45212,34.67535],[135.45176,34.6752],[135.45173,34.67523],[135.45167,34.67521],[135.45169,34.67517],[135.4511,34.67495],[135.45108,34.67498],[135.45104,34.67493],[135.4506,34.67477],[135.45057,34.67476],[135.45011,34.67459],[135.45009,34.67462],[135.45006,34.67458],[135.44987,34.67451],[135.4487,34.67409],[135.44862,34.67409],[135.44864,34.67406],[135.44824,34.67391],[135.44822,34.67395],[135.448,34.67386],[135.44798,34.67391],[135.44787,34.67387],[135.44789,34.67382],[135.44757,34.67367],[135.44721,34.6735],[135.44708,34.67344],[135.4467,34.67324],[135.4462,34.67297],[135.44568,34.67368],[135.44563,34.67375],[135.44554,34.6739],[135.44552,34.67394],[135.44535,34.67429],[135.44524,34.67438],[135.44491,34.67462],[135.44488,34.67471],[135.4449,34.67472],[135.44505,34.67482],[135.44529,34.67502],[135.44557,34.67527],[135.44581,34.67554],[135.44597,34.67562],[135.44601,34.67569],[135.44607,34.67572],[135.4465,34.6759],[135.44653,34.67591],[135.44667,34.67597],[135.44677,34.67593],[135.44691,34.67599],[135.4484,34.67668],[135.45026,34.67759],[135.4513,34.67811],[135.45239,34.67864],[135.45298,34.67781],[135.45415,34.67618]]]}},{"type":"Feature","properties":{"name":"伝法一丁目","setai":1364,"jinko":2146,"key":"27104008001","units":1},"geometry":{"type":"Polygon","coordinates":[[[135.46193,34.68818],[135.46228,34.68802],[135.46251,34.6881],[135.46251,34.68797],[135.4625,34.68782],[135.46249,34.68769],[135.46248,34.68755],[135.46248,34.68741],[135.46247,34.68726],[135.46247,34.68721],[135.46217,34.68723],[135.46194,34.68722],[135.46176,34.68718],[135.46122,34.68695],[135.46116,34.68692],[135.46093,34.68683],[135.46073,34.68674],[135.46047,34.68662],[135.46029,34.68655],[135.46019,34.68651],[135.45993,34.68642],[135.45988,34.6864],[135.4597,34.68634],[135.45947,34.68629],[135.4592,34.68625],[135.45911,34.68623],[135.45861,34.68621],[135.45861,34.68634],[135.45862,34.68656],[135.45861,34.68673],[135.45858,34.68698],[135.45855,34.6871],[135.45851,34.68725],[135.45848,34.68739],[135.45844,34.68759],[135.45844,34.6876],[135.45841,34.68773],[135.4584,34.68777],[135.4584,34.68781],[135.45839,34.68785],[135.45836,34.68799],[135.4583,34.68821],[135.45829,34.68827],[135.45829,34.68849],[135.45832,34.68897],[135.45832,34.68899],[135.459,34.68899],[135.45904,34.68899],[135.45983,34.689],[135.45985,34.689],[135.46011,34.689],[135.46028,34.689],[135.46071,34.689],[135.46124,34.68901],[135.46132,34.68901],[135.46132,34.68912],[135.46132,34.6892],[135.46136,34.68921],[135.4614,34.68921],[135.46148,34.68924],[135.46165,34.68929],[135.46197,34.68944],[135.46201,34.68948],[135.46222,34.68918],[135.46222,34.68911],[135.46221,34.68901],[135.46215,34.689],[135.46204,34.68877],[135.46194,34.68858],[135.46184,34.68839],[135.46177,34.68825],[135.46193,34.68818]]]}},{"type":"Feature","properties":{"name":"伝法二丁目","setai":645,"jinko":1389,"key":"27104008002","units":1},"geometry":{"type":"Polygon","coordinates":[[[135.4569,34.68903],[135.45709,34.68898],[135.45796,34.68904],[135.45805,34.68904],[135.45832,34.68897],[135.45829,34.68849],[135.45829,34.68827],[135.4583,34.68821],[135.45836,34.68799],[135.45839,34.68785],[135.4584,34.68781],[135.4584,34.68777],[135.45841,34.68773],[135.45844,34.6876],[135.45844,34.68759],[135.45848,34.68739],[135.45851,34.68725],[135.45855,34.6871],[135.45858,34.68698],[135.45861,34.68673],[135.45862,34.68656],[135.45861,34.68634],[135.45861,34.68621],[135.45822,34.68622],[135.458,34.68625],[135.45705,34.68649],[135.45691,34.68652],[135.45674,34.68656],[135.45652,34.68662],[135.45595,34.68676],[135.45567,34.6868],[135.45543,34.6868],[135.45467,34.68672],[135.45451,34.68707],[135.45447,34.68736],[135.45453,34.68748],[135.45461,34.68782],[135.45466,34.68798],[135.45473,34.68813],[135.45475,34.68823],[135.4548,34.68837],[135.45487,34.68858],[135.4549,34.68875],[135.45491,34.68898],[135.45493,34.68905],[135.45563,34.68912],[135.45586,34.68915],[135.456,34.68917],[135.4563,34.6892],[135.45646,34.68915],[135.45688,34.68904],[135.4569,34.68903]]]}},{"type":"Feature","properties":{"name":"伝法三丁目","setai":730,"jinko":1678,"key":"27104008003","units":1},"geometry":{"type":"Polygon","coordinates":[[[135.45067,34.68846],[135.45044,34.68842],[135.44953,34.68946],[135.44948,34.68951],[135.44708,34.69261],[135.44713,34.69264],[135.44756,34.69284],[135.44786,34.69297],[135.44827,34.69316],[135.44867,34.69334],[135.44933,34.69364],[135.44992,34.69392],[135.4502,34.69404],[135.4503,34.69409],[135.45131,34.69456],[135.45136,34.69458],[135.45154,34.69466],[135.45194,34.69483],[135.45234,34.69501],[135.45267,34.69515],[135.45288,34.69484],[135.45484,34.69193],[135.45483,34.69161],[135.45482,34.69115],[135.45482,34.69088],[135.45482,34.69064],[135.45485,34.69018],[135.45486,34.69006],[135.4549,34.6896],[135.45493,34.68905],[135.45424,34.68896],[135.45383,34.68895],[135.45334,34.6889],[135.45308,34.68888],[135.4529,34.68886],[135.45283,34.68885],[135.45278,34.68884],[135.45203,34.68873],[135.452,34.68872],[135.45146,34.68861],[135.45067,34.68846]]]}},{"type":"Feature","properties":{"name":"伝法四丁目","setai":304,"jinko":793,"key":"27104008004","units":1},"geometry":{"type":"Polygon","coordinates":[[[135.45216,34.68593],[135.45214,34.68592],[135.45202,34.68624],[135.45192,34.68647],[135.45189,34.68656],[135.45178,34.68683],[135.45159,34.68725],[135.45152,34.68737],[135.45132,34.68768],[135.45126,34.68779],[135.45121,34.68785],[135.45109,34.68803],[135.451,34.68812],[135.45067,34.68846],[135.45146,34.68861],[135.452,34.68872],[135.45203,34.68873],[135.45278,34.68884],[135.45283,34.68885],[135.4529,34.68886],[135.45308,34.68888],[135.45334,34.6889],[135.45383,34.68895],[135.45424,34.68896],[135.45493,34.68905],[135.45491,34.68898],[135.4549,34.68875],[135.45487,34.68858],[135.4548,34.68837],[135.45475,34.68823],[135.45473,34.68813],[135.45466,34.68798],[135.45461,34.68782],[135.45453,34.68748],[135.45447,34.68736],[135.45451,34.68707],[135.45467,34.68672],[135.45428,34.68666],[135.45387,34.68656],[135.45338,34.68641],[135.45283,34.68621],[135.45216,34.68593]]]}},{"type":"Feature","properties":{"name":"伝法五丁目","setai":859,"jinko":1637,"key":"27104008005","units":1},"geometry":{"type":"Polygon","coordinates":[[[135.44953,34.68946],[135.45044,34.68842],[135.45067,34.68846],[135.451,34.68812],[135.45109,34.68803],[135.45121,34.68785],[135.45126,34.68779],[135.45132,34.68768],[135.4504,34.68734],[135.44973,34.68709],[135.44917,34.68688],[135.44864,34.68668],[135.44832,34.68656],[135.44809,34.68648],[135.44786,34.68639],[135.44728,34.68618],[135.44722,34.68618],[135.44686,34.68647],[135.44669,34.68651],[135.44667,34.68665],[135.44667,34.68666],[135.44665,34.68681],[135.44664,34.68688],[135.44618,34.68686],[135.44592,34.68685],[135.4454,34.68684],[135.44493,34.68682],[135.444,34.6869],[135.44367,34.68693],[135.44359,34.68699],[135.44293,34.68794],[135.44234,34.68877],[135.44194,34.68938],[135.44143,34.69009],[135.44202,34.69033],[135.44217,34.69039],[135.44224,34.69042],[135.44279,34.69068],[135.44326,34.69089],[135.44345,34.69098],[135.44391,34.69119],[135.44413,34.69129],[135.44423,34.69133],[135.44447,34.69145],[135.44479,34.69159],[135.44485,34.69162],[135.44515,34.69174],[135.44577,34.69203],[135.44642,34.69233],[135.44654,34.69238],[135.44681,34.6925],[135.44708,34.69261],[135.44948,34.68951],[135.44953,34.68946]]]}},{"type":"Feature","properties":{"name":"伝法六丁目","setai":1825,"jinko":3196,"key":"27104008006","units":1},"geometry":{"type":"Polygon","coordinates":[[[135.44899,34.68421],[135.4485,34.68406],[135.44806,34.68478],[135.44795,34.68497],[135.44784,34.68512],[135.44774,34.68528],[135.44764,34.68545],[135.44763,34.68547],[135.4476,34.68554],[135.44751,34.68577],[135.44743,34.68602],[135.44735,34.68612],[135.44728,34.68618],[135.44786,34.68639],[135.44809,34.68648],[135.44832,34.68656],[135.44864,34.68668],[135.44917,34.68688],[135.44973,34.68709],[135.4504,34.68734],[135.45132,34.68768],[135.45152,34.68737],[135.45159,34.68725],[135.45178,34.68683],[135.45189,34.68656],[135.45192,34.68647],[135.45202,34.68624],[135.45214,34.68592],[135.45205,34.6858],[135.45165,34.68537],[135.45148,34.68519],[135.45137,34.68509],[135.45126,34.68502],[135.45092,34.68485],[135.4502,34.68455],[135.45,34.6845],[135.44989,34.68447],[135.44944,34.68434],[135.44936,34.68432],[135.44899,34.68421]]]}},{"type":"Feature","properties":{"name":"高見一丁目","setai":3980,"jinko":8254,"key":"27104009001","units":1},"geometry":{"type":"Polygon","coordinates":[[[135.46375,34.69038],[135.46283,34.68927],[135.46271,34.6891],[135.46267,34.68905],[135.46256,34.68892],[135.46254,34.68855],[135.46251,34.6881],[135.46228,34.68802],[135.46193,34.68818],[135.46177,34.68825],[135.46184,34.68839],[135.46194,34.68858],[135.46204,34.68877],[135.46215,34.689],[135.46221,34.68901],[135.46222,34.68911],[135.46222,34.68918],[135.46201,34.68948],[135.46197,34.68944],[135.46165,34.68929],[135.46148,34.68924],[135.4614,34.68921],[135.46136,34.68921],[135.46132,34.6892],[135.46132,34.68912],[135.46132,34.68901],[135.46124,34.68901],[135.46071,34.689],[135.46028,34.689],[135.46011,34.689],[135.45985,34.689],[135.45983,34.689],[135.45904,34.68899],[135.459,34.68899],[135.45832,34.68899],[135.45834,34.6891],[135.45836,34.68951],[135.45835,34.68974],[135.45835,34.68977],[135.45834,34.69017],[135.45834,34.69019],[135.45833,34.69037],[135.45832,34.69069],[135.45829,34.69124],[135.45829,34.69132],[135.45828,34.69172],[135.4583,34.69203],[135.45831,34.69207],[135.45827,34.69251],[135.45823,34.69315],[135.45822,34.69361],[135.45738,34.69486],[135.45685,34.69564],[135.45614,34.6967],[135.45661,34.69691],[135.45671,34.69696],[135.45684,34.69702],[135.4571,34.69714],[135.4572,34.69719],[135.45786,34.69751],[135.45818,34.69766],[135.45826,34.6977],[135.45857,34.69786],[135.45884,34.69799],[135.45953,34.69834],[135.46033,34.69876],[135.4606,34.6989],[135.46117,34.6992],[135.46132,34.69928],[135.46206,34.6997],[135.46208,34.6997],[135.46314,34.69856],[135.46377,34.69778],[135.46427,34.69716],[135.46453,34.69683],[135.46402,34.69657],[135.46335,34.69617],[135.46315,34.69594],[135.46304,34.69574],[135.46298,34.69554],[135.46297,34.69535],[135.46301,34.69523],[135.46349,34.69426],[135.4635,34.69423],[135.46411,34.69282],[135.46417,34.69271],[135.46423,34.69254],[135.46424,34.6924],[135.46424,34.69215],[135.46418,34.69137],[135.46417,34.69108],[135.46413,34.69097],[135.46407,34.69087],[135.46375,34.69038]]]}},{"type":"Feature","properties":{"name":"高見二丁目","setai":439,"jinko":893,"key":"27104009002","units":1},"geometry":{"type":"Polygon","coordinates":[[[135.45836,34.68951],[135.45834,34.6891],[135.45832,34.68899],[135.45832,34.68897],[135.45805,34.68904],[135.45796,34.68904],[135.45709,34.68898],[135.4569,34.68903],[135.45688,34.68904],[135.45646,34.68915],[135.4563,34.6892],[135.456,34.68917],[135.45586,34.68915],[135.45563,34.68912],[135.45493,34.68905],[135.4549,34.6896],[135.45486,34.69006],[135.45485,34.69018],[135.45482,34.69064],[135.45482,34.69088],[135.45482,34.69115],[135.45546,34.69105],[135.45635,34.69092],[135.45649,34.69091],[135.45679,34.69087],[135.45688,34.69085],[135.45703,34.69084],[135.45794,34.69073],[135.45832,34.69069],[135.45833,34.69037],[135.45834,34.69019],[135.45834,34.69017],[135.45835,34.68977],[135.45835,34.68974],[135.45836,34.68951]]]}},{"type":"Feature","properties":{"name":"高見三丁目","setai":757,"jinko":1695,"key":"27104009003","units":1},"geometry":{"type":"Polygon","coordinates":[[[135.45829,34.69124],[135.45832,34.69069],[135.45794,34.69073],[135.45703,34.69084],[135.45688,34.69085],[135.45679,34.69087],[135.45649,34.69091],[135.45635,34.69092],[135.45546,34.69105],[135.45482,34.69115],[135.45483,34.69161],[135.45484,34.69193],[135.45288,34.69484],[135.45267,34.69515],[135.4529,34.69526],[135.45338,34.69547],[135.45349,34.69552],[135.45435,34.69591],[135.45453,34.69599],[135.45478,34.69609],[135.45506,34.69622],[135.4557,34.6965],[135.45575,34.69653],[135.45614,34.6967],[135.45685,34.69564],[135.45738,34.69486],[135.45822,34.69361],[135.45823,34.69315],[135.45827,34.69251],[135.45831,34.69207],[135.4583,34.69203],[135.45828,34.69172],[135.45829,34.69132],[135.45829,34.69124]]]}},{"type":"Feature","properties":{"name":"酉島一丁目","setai":1446,"jinko":2675,"key":"27104010001","units":1},"geometry":{"type":"Polygon","coordinates":[[[135.44365,34.68211],[135.44342,34.682],[135.44309,34.68264],[135.44296,34.68291],[135.44285,34.68315],[135.44283,34.68317],[135.44271,34.68343],[135.44259,34.68366],[135.44258,34.68368],[135.44246,34.68394],[135.44233,34.68418],[135.44232,34.6842],[135.44219,34.68447],[135.44291,34.68472],[135.4431,34.68479],[135.44438,34.68521],[135.44528,34.68552],[135.44629,34.68585],[135.44722,34.68618],[135.44728,34.68618],[135.44735,34.68612],[135.44743,34.68602],[135.44751,34.68577],[135.4476,34.68554],[135.44763,34.68547],[135.44764,34.68545],[135.44774,34.68528],[135.44784,34.68512],[135.44795,34.68497],[135.44806,34.68478],[135.4485,34.68406],[135.44817,34.68396],[135.4475,34.68376],[135.44726,34.68368],[135.44697,34.68357],[135.44681,34.68353],[135.44632,34.68337],[135.44608,34.6833],[135.44582,34.68318],[135.44521,34.68288],[135.44482,34.68269],[135.44442,34.68249],[135.44428,34.68242],[135.44394,34.68225],[135.44365,34.68211]]]}},{"type":"Feature","properties":{"name":"酉島二丁目","setai":204,"jinko":402,"key":"27104010002","units":1},"geometry":{"type":"Polygon","coordinates":[[[135.444,34.6869],[135.44493,34.68682],[135.4454,34.68684],[135.44592,34.68685],[135.44618,34.68686],[135.44664,34.68688],[135.44665,34.68681],[135.44667,34.68666],[135.44667,34.68665],[135.44669,34.68651],[135.44686,34.68647],[135.44722,34.68618],[135.44629,34.68585],[135.44528,34.68552],[135.44438,34.68521],[135.4431,34.68479],[135.44291,34.68472],[135.44219,34.68447],[135.44215,34.68446],[135.44212,34.68447],[135.44178,34.68519],[135.43965,34.68942],[135.44033,34.68969],[135.44066,34.6898],[135.44071,34.68981],[135.44137,34.69007],[135.44143,34.69009],[135.44194,34.68938],[135.44234,34.68877],[135.44293,34.68794],[135.44359,34.68699],[135.44367,34.68693],[135.444,34.6869]]]}},{"type":"Feature","properties":{"name":"酉島三丁目","setai":1427,"jinko":3365,"key":"27104010003","units":1},"geometry":{"type":"Polygon","coordinates":[[[135.43912,34.68001],[135.43903,34.68],[135.4388,34.68044],[135.43852,34.68094],[135.43832,34.68132],[135.43819,34.68158],[135.43805,34.68185],[135.43792,34.68211],[135.43777,34.68239],[135.43752,34.6829],[135.43767,34.68295],[135.43865,34.68329],[135.43986,34.68369],[135.44098,34.68407],[135.44215,34.68446],[135.44219,34.68447],[135.44232,34.6842],[135.44233,34.68418],[135.44246,34.68394],[135.44258,34.68368],[135.44259,34.68366],[135.44271,34.68343],[135.44283,34.68317],[135.44285,34.68315],[135.44296,34.68291],[135.44309,34.68264],[135.44342,34.682],[135.4428,34.68168],[135.44275,34.68166],[135.44127,34.68092],[135.44118,34.68088],[135.44065,34.68061],[135.44058,34.68057],[135.44011,34.68035],[135.4398,34.6802],[135.43939,34.68005],[135.43912,34.68001]]]}},{"type":"Feature","properties":{"name":"酉島四丁目","setai":1099,"jinko":2286,"key":"27104010004","units":1},"geometry":{"type":"Polygon","coordinates":[[[135.43865,34.68329],[135.43767,34.68295],[135.43752,34.68318],[135.43747,34.68325],[135.43739,34.68337],[135.43727,34.68356],[135.43713,34.68378],[135.43707,34.68387],[135.4347,34.68756],[135.43493,34.68765],[135.43539,34.68783],[135.43582,34.68799],[135.43618,34.68812],[135.43675,34.68833],[135.43751,34.68862],[135.43783,34.68874],[135.43965,34.68942],[135.44178,34.68519],[135.44212,34.68447],[135.44215,34.68446],[135.44098,34.68407],[135.43986,34.68369],[135.43865,34.68329]]]}},{"type":"Feature","properties":{"name":"酉島五丁目","setai":244,"jinko":686,"key":"27104010005","units":1},"geometry":{"type":"Polygon","coordinates":[[[135.42766,34.68512],[135.42924,34.68147],[135.42952,34.68148],[135.42978,34.68142],[135.42991,34.68136],[135.43003,34.68128],[135.43024,34.681],[135.43037,34.68088],[135.43055,34.68078],[135.43065,34.68073],[135.43085,34.6807],[135.43103,34.68072],[135.43126,34.68079],[135.43248,34.6812],[135.43348,34.68152],[135.43387,34.68166],[135.43447,34.68186],[135.43546,34.6822],[135.43554,34.68223],[135.43606,34.6824],[135.4362,34.68245],[135.43645,34.68253],[135.43649,34.68255],[135.43752,34.6829],[135.43777,34.68239],[135.43792,34.68211],[135.43805,34.68185],[135.43819,34.68158],[135.43832,34.68132],[135.43852,34.68094],[135.4388,34.68044],[135.43839,34.68038],[135.43814,34.68013],[135.43766,34.68006],[135.43739,34.68021],[135.43702,34.68018],[135.43694,34.68015],[135.43658,34.6801],[135.4357,34.67991],[135.43514,34.67976],[135.4349,34.67967],[135.43408,34.67938],[135.43343,34.67917],[135.43288,34.67896],[135.43215,34.67863],[135.43211,34.67864],[135.43166,34.67843],[135.43012,34.67765],[135.42956,34.67733],[135.42893,34.67702],[135.42848,34.6768],[135.42625,34.67619],[135.42631,34.67607],[135.42511,34.6757],[135.42501,34.67578],[135.42214,34.67496],[135.42039,34.67932],[135.41897,34.68272],[135.42316,34.68388],[135.42534,34.68448],[135.42747,34.68507],[135.42766,34.68512]]]}},{"type":"Feature","properties":{"name":"酉島六丁目","setai":565,"jinko":1281,"key":"27104010006","units":1},"geometry":{"type":"Polygon","coordinates":[[[135.43348,34.68152],[135.43248,34.6812],[135.43126,34.68079],[135.43103,34.68072],[135.43085,34.6807],[135.43065,34.68073],[135.43055,34.68078],[135.43037,34.68088],[135.43024,34.681],[135.43003,34.68128],[135.42991,34.68136],[135.42978,34.68142],[135.42952,34.68148],[135.42924,34.68147],[135.42766,34.68512],[135.42904,34.6855],[135.4296,34.68565],[135.43017,34.68586],[135.43107,34.68619],[135.43121,34.68625],[135.43172,34.68645],[135.43219,34.68662],[135.43284,34.68687],[135.43317,34.68699],[135.43328,34.68703],[135.43432,34.68742],[135.4347,34.68756],[135.43707,34.68387],[135.43713,34.68378],[135.43727,34.68356],[135.43739,34.68337],[135.43747,34.68325],[135.43752,34.68318],[135.43767,34.68295],[135.43752,34.6829],[135.43649,34.68255],[135.43645,34.68253],[135.4362,34.68245],[135.43606,34.6824],[135.43554,34.68223],[135.43546,34.6822],[135.43447,34.68186],[135.43387,34.68166],[135.43348,34.68152]]]}},{"type":"Feature","properties":{"name":"島屋一丁目","setai":22,"jinko":57,"key":"27104011001","units":1},"geometry":{"type":"Polygon","coordinates":[[[135.44331,34.68089],[135.44361,34.68049],[135.4438,34.68023],[135.444,34.67993],[135.44438,34.67944],[135.44476,34.6789],[135.44509,34.67845],[135.44442,34.67809],[135.44389,34.67782],[135.44294,34.67738],[135.44154,34.6767],[135.44132,34.67692],[135.44104,34.67728],[135.44082,34.67757],[135.4406,34.67785],[135.44006,34.67856],[135.43964,34.67911],[135.43955,34.67923],[135.43933,34.6796],[135.43912,34.68001],[135.43939,34.68005],[135.4398,34.6802],[135.44011,34.68035],[135.44058,34.68057],[135.44065,34.68061],[135.44118,34.68088],[135.44127,34.68092],[135.44275,34.68166],[135.44331,34.68089]]]}},{"type":"Feature","properties":{"name":"島屋二丁目","setai":322,"jinko":621,"key":"27104011002","units":1},"geometry":{"type":"Polygon","coordinates":[[[135.43933,34.6796],[135.43955,34.67923],[135.43964,34.67911],[135.44006,34.67856],[135.4406,34.67785],[135.44082,34.67757],[135.44104,34.67728],[135.44132,34.67692],[135.44154,34.6767],[135.44139,34.67663],[135.44063,34.67625],[135.44022,34.67603],[135.43986,34.67585],[135.43886,34.67533],[135.43879,34.67529],[135.43792,34.67484],[135.43177,34.67186],[135.43131,34.67287],[135.43128,34.67304],[135.4312,34.67313],[135.43109,34.67324],[135.43074,34.67389],[135.43035,34.67468],[135.4304,34.67471],[135.4303,34.6749],[135.43023,34.67509],[135.43007,34.67566],[135.42998,34.67586],[135.42996,34.67606],[135.43,34.67624],[135.43009,34.67642],[135.43022,34.67658],[135.43042,34.67671],[135.4307,34.67682],[135.4307,34.67688],[135.43104,34.67707],[135.43131,34.67705],[135.43163,34.6772],[135.43227,34.67756],[135.43321,34.67804],[135.43337,34.67814],[135.43357,34.67823],[135.4338,34.67831],[135.43432,34.67852],[135.43462,34.67863],[135.43555,34.67893],[135.43602,34.67905],[135.43687,34.67922],[135.4374,34.67929],[135.43739,34.67937],[135.43781,34.67943],[135.43841,34.67952],[135.43888,34.67958],[135.43889,34.67953],[135.43921,34.67958],[135.43933,34.6796]]]}},{"type":"Feature","properties":{"name":"島屋三丁目","setai":524,"jinko":1246,"key":"27104011003","units":1},"geometry":{"type":"Polygon","coordinates":[[[135.44557,34.67527],[135.44529,34.67502],[135.44505,34.67482],[135.4449,34.67472],[135.44437,34.67503],[135.44424,34.67498],[135.44384,34.67493],[135.44355,34.67494],[135.4433,34.67497],[135.44304,34.67504],[135.4425,34.67522],[135.44221,34.6753],[135.44193,34.67541],[135.44179,34.67545],[135.44149,34.67556],[135.4408,34.67581],[135.44072,34.67583],[135.44055,34.67587],[135.44022,34.67603],[135.44063,34.67625],[135.44139,34.67663],[135.44154,34.6767],[135.44294,34.67738],[135.44389,34.67782],[135.44442,34.67809],[135.44455,34.67791],[135.44485,34.67749],[135.44507,34.67685],[135.44523,34.67641],[135.44524,34.67629],[135.44607,34.67572],[135.44601,34.67569],[135.44597,34.67562],[135.44581,34.67554],[135.44557,34.67527]]]}},{"type":"Feature","properties":{"name":"島屋四丁目","setai":1,"jinko":97,"key":"27104011004","units":1},"geometry":{"type":"Polygon","coordinates":[[[135.44355,34.67494],[135.44384,34.67493],[135.44424,34.67498],[135.44437,34.67503],[135.4449,34.67472],[135.44488,34.67471],[135.44479,34.67465],[135.44416,34.67406],[135.44378,34.6737],[135.44328,34.67324],[135.44243,34.67245],[135.44232,34.67236],[135.4423,34.67234],[135.4413,34.67138],[135.44127,34.67134],[135.43956,34.67281],[135.43951,34.67286],[135.43876,34.67359],[135.43792,34.67484],[135.43879,34.67529],[135.43886,34.67533],[135.43986,34.67585],[135.44022,34.67603],[135.44055,34.67587],[135.44072,34.67583],[135.4408,34.67581],[135.44149,34.67556],[135.44179,34.67545],[135.44193,34.67541],[135.44221,34.6753],[135.4425,34.67522],[135.44304,34.67504],[135.4433,34.67497],[135.44355,34.67494]]]}},{"type":"Feature","properties":{"name":"島屋五丁目","setai":0,"jinko":0,"key":"27104011005","units":1},"geometry":{"type":"Polygon","coordinates":[[[135.43951,34.67286],[135.43956,34.67281],[135.44127,34.67134],[135.44095,34.67102],[135.44067,34.67083],[135.44047,34.67071],[135.44001,34.67043],[135.43917,34.66991],[135.43837,34.66947],[135.43778,34.66915],[135.43736,34.66906],[135.43718,34.66899],[135.43681,34.66894],[135.43662,34.66888],[135.43651,34.66885],[135.43555,34.66841],[135.43538,34.6684],[135.43494,34.66839],[135.43371,34.66933],[135.43291,34.66996],[135.43266,34.67017],[135.43247,34.67037],[135.43221,34.67067],[135.4319,34.67108],[135.43148,34.67163],[135.43143,34.67169],[135.43156,34.67176],[135.43177,34.67186],[135.43792,34.67484],[135.43876,34.67359],[135.43951,34.67286]]]}},{"type":"Feature","properties":{"name":"島屋六丁目","setai":1628,"jinko":4094,"key":"27104011006","units":1},"geometry":{"type":"Polygon","coordinates":[[[135.44112,34.6675],[135.44106,34.66748],[135.44095,34.66749],[135.44083,34.66745],[135.44056,34.66721],[135.4406,34.66714],[135.44058,34.667],[135.44054,34.66696],[135.44029,34.66671],[135.43998,34.66642],[135.43957,34.66598],[135.43947,34.66597],[135.43933,34.66586],[135.4393,34.66584],[135.43843,34.66635],[135.43791,34.66669],[135.43769,34.66676],[135.43764,34.66678],[135.4376,34.66679],[135.43733,34.66692],[135.43721,34.66697],[135.43647,34.66736],[135.4359,34.66768],[135.43525,34.66816],[135.43508,34.66828],[135.43494,34.66839],[135.43538,34.6684],[135.43555,34.66841],[135.43651,34.66885],[135.43662,34.66888],[135.43681,34.66894],[135.43718,34.66899],[135.43736,34.66906],[135.43778,34.66915],[135.43837,34.66947],[135.43917,34.66991],[135.44001,34.67043],[135.44047,34.67071],[135.44067,34.67083],[135.44095,34.67102],[135.44127,34.67134],[135.4413,34.67138],[135.4423,34.67234],[135.44232,34.67236],[135.44243,34.67245],[135.44328,34.67324],[135.44378,34.6737],[135.44416,34.67406],[135.44479,34.67465],[135.44488,34.67471],[135.44491,34.67462],[135.44524,34.67438],[135.44535,34.67429],[135.44552,34.67394],[135.44554,34.6739],[135.44563,34.67375],[135.44568,34.67368],[135.4462,34.67297],[135.44603,34.67291],[135.44599,34.67286],[135.44535,34.67253],[135.44522,34.67244],[135.44452,34.67191],[135.44441,34.67186],[135.44419,34.67165],[135.44397,34.67139],[135.44377,34.67112],[135.44327,34.67046],[135.44266,34.66964],[135.44236,34.66925],[135.4422,34.66903],[135.44194,34.66865],[135.44169,34.66826],[135.4412,34.66757],[135.44112,34.6675]]]}},{"type":"Feature","properties":{"name":"常吉一丁目","setai":0,"jinko":0,"key":"27104012001","units":1},"geometry":{"type":"Polygon","coordinates":[[[135.42214,34.67496],[135.42218,34.67477],[135.42105,34.67446],[135.421,34.67458],[135.41776,34.67368],[135.41765,34.67365],[135.41744,34.67418],[135.41696,34.67536],[135.41643,34.67664],[135.41467,34.68155],[135.41579,34.68186],[135.41732,34.68228],[135.41897,34.68272],[135.42039,34.67932],[135.42214,34.67496]]]}},{"type":"Feature","properties":{"name":"常吉二丁目","setai":0,"jinko":0,"key":"27104012002","units":1},"geometry":{"type":"Polygon","coordinates":[[[135.41643,34.67664],[135.41696,34.67536],[135.41744,34.67418],[135.41765,34.67365],[135.41776,34.67368],[135.41781,34.67352],[135.41594,34.67302],[135.41416,34.67251],[135.41408,34.67249],[135.41405,34.67254],[135.41245,34.67209],[135.41241,34.67212],[135.41222,34.67216],[135.4118,34.67207],[135.41179,34.67197],[135.4111,34.67175],[135.41105,34.67183],[135.41065,34.67175],[135.41044,34.67156],[135.41022,34.67154],[135.40951,34.66964],[135.40935,34.66968],[135.40976,34.67083],[135.40774,34.67213],[135.40775,34.67216],[135.40825,34.67184],[135.40847,34.67238],[135.40869,34.67234],[135.40897,34.6731],[135.40875,34.67317],[135.40932,34.67467],[135.40888,34.67549],[135.40724,34.67489],[135.40722,34.67485],[135.40681,34.6738],[135.40676,34.67383],[135.40714,34.67494],[135.41192,34.67666],[135.41067,34.67979],[135.41049,34.6804],[135.4129,34.68106],[135.41467,34.68155],[135.41643,34.67664]]]}},{"type":"Feature","properties":{"name":"北港一丁目","setai":0,"jinko":0,"key":"27104013001","units":1},"geometry":{"type":"Polygon","coordinates":[[[135.43017,34.67453],[135.43053,34.67381],[135.43074,34.67389],[135.43109,34.67324],[135.4312,34.67313],[135.43128,34.67304],[135.43131,34.67287],[135.43177,34.67186],[135.43156,34.67176],[135.43143,34.67169],[135.43148,34.67163],[135.43004,34.67089],[135.4271,34.66938],[135.42704,34.66943],[135.42691,34.66935],[135.42626,34.66906],[135.42623,34.66905],[135.42603,34.66896],[135.42605,34.66894],[135.42578,34.66891],[135.4256,34.66887],[135.42538,34.6688],[135.42486,34.66865],[135.4218,34.66774],[135.42033,34.67111],[135.42374,34.67206],[135.42428,34.67222],[135.42436,34.67238],[135.42444,34.67236],[135.4292,34.67476],[135.4293,34.67479],[135.42989,34.67508],[135.43017,34.67453]]]}},{"type":"Feature","properties":{"name":"北港二丁目","setai":0,"jinko":0,"key":"27104013002","units":1},"geometry":{"type":"Polygon","coordinates":[[[135.42033,34.67111],[135.4218,34.66774],[135.42486,34.66865],[135.42538,34.6688],[135.4256,34.66887],[135.42578,34.66891],[135.42605,34.66894],[135.4263,34.66843],[135.42648,34.66811],[135.42619,34.668],[135.42611,34.66813],[135.42603,34.66819],[135.42587,34.66813],[135.42486,34.66634],[135.42454,34.66575],[135.42422,34.66567],[135.4219,34.66497],[135.42183,34.66495],[135.42189,34.66477],[135.42133,34.66461],[135.42122,34.66485],[135.41925,34.66429],[135.41794,34.66391],[135.41803,34.66368],[135.41744,34.66351],[135.4174,34.66362],[135.41744,34.66364],[135.4174,34.66375],[135.41728,34.66371],[135.41693,34.66388],[135.41697,34.66473],[135.41705,34.66591],[135.41709,34.66729],[135.41714,34.66806],[135.41716,34.66883],[135.4185,34.67059],[135.42033,34.67111]]]}},{"type":"Feature","properties":{"name":"梅町一丁目","setai":0,"jinko":0,"key":"27104014001","units":1},"geometry":{"type":"Polygon","coordinates":[[[135.42345,34.65864],[135.42304,34.6579],[135.4227,34.6573],[135.42279,34.65726],[135.42266,34.65702],[135.42265,34.6569],[135.42277,34.65685],[135.4227,34.65671],[135.42248,34.6568],[135.42202,34.65597],[135.42093,34.65398],[135.4208,34.6538],[135.42074,34.65373],[135.41939,34.65324],[135.4192,34.65337],[135.41934,34.65423],[135.41967,34.65596],[135.41992,34.65731],[135.42018,34.65863],[135.42032,34.65936],[135.42045,34.66006],[135.42163,34.6604],[135.42492,34.66131],[135.42345,34.65864],[135.42345,34.65864]]]}},{"type":"Feature","properties":{"name":"梅町二丁目","setai":0,"jinko":0,"key":"27104014002","units":1},"geometry":{"type":"Polygon","coordinates":[[[135.42583,34.66294],[135.42492,34.66131],[135.42163,34.6604],[135.42045,34.66006],[135.42047,34.66019],[135.41808,34.65952],[135.41787,34.65861],[135.41765,34.65762],[135.41751,34.65762],[135.41737,34.65699],[135.41749,34.65696],[135.41746,34.65686],[135.41734,34.65689],[135.41733,34.65682],[135.41744,34.65678],[135.41739,34.65655],[135.41727,34.65656],[135.41725,34.65645],[135.41736,34.65642],[135.41735,34.65634],[135.41722,34.65635],[135.41689,34.65488],[135.41657,34.65486],[135.41657,34.65477],[135.41639,34.65404],[135.41625,34.6535],[135.41611,34.6529],[135.41595,34.65226],[135.41574,34.6522],[135.41577,34.65213],[135.41571,34.65199],[135.4145,34.65156],[135.41428,34.65165],[135.41423,34.6518],[135.41428,34.65188],[135.41429,34.65197],[135.41437,34.65205],[135.41456,34.65291],[135.4148,34.65395],[135.41524,34.6558],[135.41527,34.65599],[135.41585,34.65861],[135.41617,34.66005],[135.4162,34.66021],[135.41634,34.66093],[135.41644,34.66139],[135.41651,34.66148],[135.41663,34.66155],[135.41776,34.66185],[135.41784,34.66172],[135.4188,34.66199],[135.42002,34.66235],[135.42164,34.66282],[135.42268,34.66312],[135.42263,34.6632],[135.4239,34.66359],[135.4243,34.66429],[135.42523,34.66592],[135.42565,34.6667],[135.42626,34.66781],[135.42629,34.66782],[135.42619,34.668],[135.42648,34.66811],[135.42812,34.66529],[135.42771,34.66517],[135.42702,34.66496],[135.42594,34.66297],[135.42583,34.66294]]]}},{"type":"Feature","properties":{"name":"桜島一丁目","setai":0,"jinko":0,"key":"27104015001","units":1},"geometry":{"type":"Polygon","coordinates":[[[135.4393,34.66584],[135.43891,34.66552],[135.43842,34.66595],[135.43808,34.66563],[135.43788,34.66535],[135.43764,34.665],[135.43757,34.66489],[135.43762,34.66486],[135.43811,34.66447],[135.4383,34.66431],[135.43831,34.66428],[135.43812,34.66396],[135.438,34.66387],[135.43717,34.66321],[135.43714,34.66321],[135.43682,34.66297],[135.43682,34.66294],[135.4365,34.66271],[135.4365,34.66267],[135.43564,34.66197],[135.43369,34.66104],[135.43362,34.66098],[135.43344,34.66089],[135.43323,34.66082],[135.43239,34.66043],[135.43223,34.66035],[135.43219,34.66035],[135.43162,34.66025],[135.43132,34.66019],[135.43123,34.66019],[135.43115,34.66021],[135.43109,34.66025],[135.43104,34.66032],[135.4307,34.66092],[135.43054,34.66119],[135.43017,34.66184],[135.43004,34.66206],[135.42993,34.66226],[135.42973,34.66219],[135.42954,34.66257],[135.42996,34.66277],[135.43015,34.66254],[135.43086,34.66157],[135.43101,34.66149],[135.43117,34.66141],[135.43146,34.66142],[135.43162,34.66148],[135.43487,34.66303],[135.43516,34.6632],[135.43564,34.66361],[135.4359,34.66396],[135.43619,34.66449],[135.43683,34.66564],[135.43705,34.66602],[135.43713,34.66614],[135.43769,34.66676],[135.43791,34.66669],[135.43843,34.66635],[135.4393,34.66584]]]}},{"type":"Feature","properties":{"name":"桜島二丁目","setai":0,"jinko":0,"key":"27104015002","units":1},"geometry":{"type":"Polygon","coordinates":[[[135.43494,34.66839],[135.43508,34.66828],[135.43525,34.66816],[135.4359,34.66768],[135.43647,34.66736],[135.43721,34.66697],[135.43733,34.66692],[135.4376,34.66679],[135.43764,34.66678],[135.43769,34.66676],[135.43713,34.66614],[135.43705,34.66602],[135.43683,34.66564],[135.43619,34.66449],[135.4359,34.66396],[135.43564,34.66361],[135.43516,34.6632],[135.43487,34.66303],[135.43162,34.66148],[135.43146,34.66142],[135.43117,34.66141],[135.43101,34.66149],[135.43086,34.66157],[135.43015,34.66254],[135.42996,34.66277],[135.42986,34.66288],[135.42974,34.66298],[135.42951,34.66323],[135.42939,34.66334],[135.4293,34.66327],[135.42924,34.66331],[135.42886,34.66401],[135.42812,34.66529],[135.42648,34.66811],[135.4263,34.66843],[135.42605,34.66894],[135.42603,34.66896],[135.42623,34.66905],[135.42626,34.66906],[135.42691,34.66935],[135.42704,34.66943],[135.4271,34.66938],[135.43004,34.67089],[135.43148,34.67163],[135.4319,34.67108],[135.43221,34.67067],[135.43247,34.67037],[135.43266,34.67017],[135.43291,34.66996],[135.43371,34.66933],[135.43494,34.66839]]]}},{"type":"Feature","properties":{"name":"桜島三丁目","setai":170,"jinko":282,"key":"27104015003","units":1},"geometry":{"type":"Polygon","coordinates":[[[135.42924,34.66331],[135.4293,34.66327],[135.42939,34.66334],[135.42951,34.66323],[135.42974,34.66298],[135.42986,34.66288],[135.42996,34.66277],[135.42954,34.66257],[135.42973,34.66219],[135.42963,34.66215],[135.4302,34.66111],[135.43013,34.66108],[135.43068,34.66007],[135.43059,34.66003],[135.43065,34.65994],[135.43022,34.65981],[135.43018,34.65986],[135.42879,34.65935],[135.42887,34.65905],[135.42777,34.65866],[135.42651,34.65822],[135.4251,34.6577],[135.42353,34.65714],[135.42336,34.65744],[135.42279,34.65726],[135.4227,34.6573],[135.42304,34.6579],[135.42345,34.65864],[135.42345,34.65864],[135.42492,34.66131],[135.42583,34.66294],[135.42594,34.66297],[135.42702,34.66496],[135.42771,34.66517],[135.42812,34.66529],[135.42886,34.66401],[135.42924,34.66331]]]}},{"type":"Feature","properties":{"name":"北港白津一丁目","setai":0,"jinko":0,"key":"27104016001","units":1},"geometry":{"type":"Polygon","coordinates":[[[135.40991,34.65952],[135.40982,34.659],[135.40764,34.65934],[135.40162,34.6603],[135.40167,34.66056],[135.40187,34.66136],[135.4019,34.66149],[135.40216,34.66256],[135.4028,34.66513],[135.40282,34.6652],[135.40282,34.66522],[135.40295,34.667],[135.40452,34.66695],[135.4047,34.66695],[135.40579,34.66691],[135.40615,34.6669],[135.40698,34.66688],[135.40721,34.66687],[135.40723,34.66687],[135.40773,34.66685],[135.40894,34.66682],[135.40898,34.66681],[135.40898,34.66681],[135.40885,34.66613],[135.4089,34.66612],[135.41098,34.66573],[135.40991,34.65952]]]}},{"type":"Feature","properties":{"name":"北港白津二丁目","setai":47,"jinko":47,"key":"27104016002","units":1},"geometry":{"type":"Polygon","coordinates":[[[135.40915,34.66783],[135.40898,34.66681],[135.40894,34.66682],[135.40773,34.66685],[135.40723,34.66687],[135.40721,34.66687],[135.40698,34.66688],[135.40615,34.6669],[135.40579,34.66691],[135.4047,34.66695],[135.40452,34.66695],[135.40295,34.667],[135.40308,34.66872],[135.4032,34.66903],[135.40347,34.66923],[135.40493,34.66987],[135.4067,34.67054],[135.40825,34.66954],[135.40836,34.66946],[135.40934,34.66883],[135.40915,34.66783]]]}},{"type":"Feature","properties":{"name":"北港緑地一丁目","setai":0,"jinko":0,"key":"27104017001","units":1},"geometry":{"type":"Polygon","coordinates":[[[135.40187,34.66136],[135.40167,34.66056],[135.39755,34.66118],[135.39827,34.66411],[135.39828,34.66415],[135.39868,34.66578],[135.3987,34.66586],[135.39901,34.66712],[135.40295,34.667],[135.40282,34.66522],[135.40282,34.6652],[135.4028,34.66513],[135.40216,34.66256],[135.4019,34.66149],[135.40187,34.66136]]]}},{"type":"Feature","properties":{"name":"北港緑地二丁目","setai":31,"jinko":31,"key":"27104017002","units":1},"geometry":{"type":"Polygon","coordinates":[[[135.40308,34.66872],[135.40295,34.667],[135.39901,34.66712],[135.3987,34.66586],[135.39868,34.66578],[135.39828,34.66415],[135.39827,34.66411],[135.39755,34.66118],[135.39616,34.6614],[135.39416,34.66141],[135.39383,34.66145],[135.39161,34.66182],[135.38924,34.6622],[135.38827,34.66239],[135.38682,34.66267],[135.38743,34.66508],[135.38819,34.66792],[135.39156,34.66915],[135.40271,34.67321],[135.40532,34.67155],[135.40555,34.67128],[135.4067,34.67054],[135.40493,34.66987],[135.40347,34.66923],[135.4032,34.66903],[135.40308,34.66872]]]}},{"type":"Feature","properties":{"name":"夢洲東","setai":0,"jinko":0,"key":"271040180","units":1},"geometry":{"type":"Polygon","coordinates":[[[135.40455,34.65372],[135.40117,34.65028],[135.39972,34.64881],[135.3974,34.64653],[135.39486,34.64397],[135.39353,34.64262],[135.39002,34.64501],[135.38803,34.64718],[135.38797,34.64724],[135.38804,34.64728],[135.38841,34.64746],[135.38846,34.64791],[135.38872,34.65051],[135.39212,34.65026],[135.39566,34.6538],[135.39838,34.65716],[135.39973,34.65695],[135.40455,34.65372]]]}},{"type":"Feature","properties":{"name":"夢洲","setai":0,"jinko":0,"key":"271040190","units":1},"geometry":{"type":"Polygon","coordinates":[[[135.39235,34.6581],[135.38565,34.65073],[135.38872,34.65051],[135.38846,34.64791],[135.38841,34.64746],[135.38804,34.64728],[135.38797,34.64724],[135.38803,34.64718],[135.39002,34.64501],[135.39353,34.64262],[135.39353,34.64262],[135.39277,34.64185],[135.39203,34.64231],[135.37892,34.64317],[135.37286,34.65207],[135.37941,34.66013],[135.39235,34.6581]]]}},{"type":"Feature","properties":{"name":"夢洲中","setai":0,"jinko":0,"key":"271040200","units":1},"geometry":{"type":"Polygon","coordinates":[[[135.39838,34.65716],[135.39566,34.6538],[135.39212,34.65026],[135.38872,34.65051],[135.38565,34.65073],[135.39235,34.6581],[135.39838,34.65716]]]}}]}