{"type":"FeatureCollection","features":[{"type":"Feature","properties":{"name":"天王寺町北一丁目","setai":642,"jinko":1114,"key":"27119001001","units":1,"m":486,"f":628,"gk":36,"a0":85,"a1":599,"a2":388,"a75":207,"ag":[22,27,36,37,53,55,42,69,60,67,70,71,75,89,92,93,50,38,19,6,1],"nf":42},"geometry":{"type":"Polygon","coordinates":[[[135.52269,34.64583],[135.52268,34.64562],[135.52272,34.64555],[135.52279,34.64543],[135.52281,34.6453],[135.5228,34.64516],[135.5228,34.64504],[135.52279,34.64487],[135.52279,34.64479],[135.52279,34.64443],[135.52277,34.64416],[135.52276,34.64412],[135.52264,34.64416],[135.52258,34.64418],[135.52248,34.64422],[135.5224,34.64426],[135.52223,34.64432],[135.52213,34.64437],[135.52112,34.64478],[135.521,34.64483],[135.52082,34.64489],[135.5194,34.64547],[135.51933,34.64548],[135.51933,34.6455],[135.51909,34.64558],[135.51847,34.64575],[135.51819,34.64583],[135.51852,34.64585],[135.51891,34.64583],[135.51956,34.64581],[135.5199,34.64582],[135.52005,34.64582],[135.52018,34.64584],[135.52041,34.6459],[135.52073,34.64596],[135.52078,34.64597],[135.52086,34.646],[135.52101,34.64604],[135.52124,34.64612],[135.5215,34.64624],[135.52167,34.64633],[135.52178,34.64639],[135.52187,34.64645],[135.5219,34.64646],[135.52202,34.64654],[135.5222,34.64667],[135.52229,34.64676],[135.52231,34.64677],[135.52248,34.64692],[135.52262,34.64704],[135.52275,34.64712],[135.52276,34.64709],[135.52269,34.64702],[135.52268,34.64632],[135.52268,34.64627],[135.52269,34.64614],[135.52269,34.64583]]]}},{"type":"Feature","properties":{"name":"天王寺町北二丁目","setai":1119,"jinko":2185,"key":"27119001002","units":1,"m":1029,"f":1156,"gk":122,"a0":198,"a1":1333,"a2":594,"a75":299,"ag":[60,71,67,98,172,124,133,119,123,150,140,124,150,131,164,124,78,59,31,7,0],"nf":60},"geometry":{"type":"Polygon","coordinates":[[[135.52417,34.64395],[135.52388,34.64374],[135.52373,34.6438],[135.52367,34.64382],[135.52277,34.64416],[135.52279,34.64443],[135.52279,34.64479],[135.52279,34.64487],[135.5228,34.64504],[135.5228,34.64516],[135.52281,34.6453],[135.52279,34.64543],[135.52272,34.64555],[135.52268,34.64562],[135.52269,34.64583],[135.52269,34.64614],[135.52268,34.64627],[135.52268,34.64632],[135.52269,34.64702],[135.52276,34.64709],[135.52275,34.64712],[135.52284,34.64718],[135.52289,34.64722],[135.52292,34.64724],[135.52307,34.64738],[135.52338,34.64767],[135.52361,34.64789],[135.52414,34.64839],[135.52491,34.64775],[135.52505,34.64763],[135.52535,34.64738],[135.52588,34.64693],[135.52632,34.64655],[135.5263,34.64641],[135.52625,34.64615],[135.52597,34.64577],[135.52571,34.64541],[135.52571,34.6454],[135.52538,34.64493],[135.52526,34.64476],[135.52516,34.64466],[135.52491,34.64443],[135.52485,34.64439],[135.52441,34.64412],[135.52417,34.64395]]]}},{"type":"Feature","properties":{"name":"天王寺町北三丁目","setai":1563,"jinko":3297,"key":"27119001003","units":1,"m":1541,"f":1756,"gk":147,"a0":472,"a1":1859,"a2":913,"a75":481,"ag":[132,189,151,95,151,166,182,237,257,228,198,172,173,196,236,171,132,111,46,14,7],"nf":53},"geometry":{"type":"Polygon","coordinates":[[[135.52855,34.64339],[135.52817,34.64258],[135.52815,34.64259],[135.52812,34.64254],[135.528,34.6423],[135.52789,34.6421],[135.52785,34.64202],[135.52728,34.64225],[135.5266,34.64253],[135.52603,34.64277],[135.52526,34.6431],[135.5251,34.64316],[135.52508,34.64313],[135.52379,34.64366],[135.52388,34.64374],[135.52417,34.64395],[135.52441,34.64412],[135.52485,34.64439],[135.52491,34.64443],[135.52516,34.64466],[135.52526,34.64476],[135.52538,34.64493],[135.52571,34.6454],[135.52571,34.64541],[135.52597,34.64577],[135.52625,34.64615],[135.5263,34.64641],[135.52632,34.64655],[135.52652,34.6464],[135.52665,34.64628],[135.52698,34.646],[135.52716,34.64585],[135.52735,34.6457],[135.52742,34.64565],[135.52752,34.64558],[135.52759,34.64553],[135.52785,34.64532],[135.52837,34.64494],[135.52855,34.6448],[135.52892,34.64455],[135.52896,34.64431],[135.52897,34.64428],[135.5288,34.64393],[135.52855,34.64339]]]}},{"type":"Feature","properties":{"name":"天王寺町南一丁目","setai":98,"jinko":197,"key":"27119002001","units":1,"m":96,"f":101,"gk":4,"a0":17,"a1":105,"a2":66,"a75":35,"ag":[5,5,7,14,9,9,7,9,12,13,15,12,5,13,18,15,11,8,1,0,0],"nf":9},"geometry":{"type":"Polygon","coordinates":[[[135.52287,34.64214],[135.52315,34.64173],[135.5228,34.64192],[135.52265,34.64201],[135.52226,34.64223],[135.52224,34.64224],[135.52216,34.6423],[135.52145,34.64269],[135.52142,34.64271],[135.5211,34.64289],[135.52089,34.64301],[135.52083,34.64305],[135.52023,34.6434],[135.52022,34.64341],[135.52011,34.64346],[135.51979,34.64363],[135.51972,34.64367],[135.51933,34.6438],[135.51919,34.64382],[135.51919,34.64383],[135.51929,34.64434],[135.51927,34.64475],[135.51931,34.64513],[135.51933,34.64548],[135.5194,34.64547],[135.52082,34.64489],[135.52094,34.64475],[135.52116,34.64444],[135.52123,34.64434],[135.52132,34.6443],[135.52151,34.644],[135.52191,34.64343],[135.52211,34.64315],[135.52253,34.64259],[135.52265,34.64243],[135.52287,34.64214]]]}},{"type":"Feature","properties":{"name":"天王寺町南二丁目","setai":907,"jinko":1359,"key":"27119002002","units":1,"m":682,"f":677,"gk":79,"a0":79,"a1":852,"a2":305,"a75":182,"ag":[21,29,29,52,131,142,103,92,80,82,49,69,52,58,65,51,44,55,24,7,1],"nf":123},"geometry":{"type":"Polygon","coordinates":[[[135.52264,34.64416],[135.52276,34.64412],[135.52277,34.64416],[135.52367,34.64382],[135.52373,34.6438],[135.52388,34.64374],[135.52379,34.64366],[135.52508,34.64313],[135.5251,34.64316],[135.52526,34.6431],[135.52603,34.64277],[135.52583,34.64246],[135.52588,34.64243],[135.52556,34.6419],[135.52532,34.64151],[135.52523,34.64135],[135.52519,34.6413],[135.52506,34.64108],[135.52485,34.64072],[135.52464,34.64088],[135.52441,34.64103],[135.52399,34.64128],[135.5234,34.64159],[135.52323,34.64168],[135.52316,34.64172],[135.52315,34.64173],[135.52287,34.64214],[135.52265,34.64243],[135.52253,34.64259],[135.52211,34.64315],[135.52191,34.64343],[135.52151,34.644],[135.52132,34.6443],[135.52123,34.64434],[135.52116,34.64444],[135.52094,34.64475],[135.52082,34.64489],[135.521,34.64483],[135.52112,34.64478],[135.52213,34.64437],[135.52223,34.64432],[135.5224,34.64426],[135.52248,34.64422],[135.52258,34.64418],[135.52264,34.64416]]]}},{"type":"Feature","properties":{"name":"天王寺町南三丁目","setai":1058,"jinko":2119,"key":"27119002003","units":1,"m":1033,"f":1086,"gk":93,"a0":345,"a1":1393,"a2":305,"a75":145,"ag":[158,115,72,67,109,153,195,171,182,148,162,103,103,79,81,53,52,28,10,2,0],"nf":76},"geometry":{"type":"Polygon","coordinates":[[[135.52646,34.639],[135.52639,34.63889],[135.52624,34.63916],[135.52622,34.63921],[135.52612,34.63937],[135.52601,34.63951],[135.52599,34.63953],[135.52577,34.63983],[135.52554,34.64008],[135.52539,34.64023],[135.52531,34.64031],[135.52526,34.64037],[135.52523,34.6404],[135.52514,34.64048],[135.52486,34.64072],[135.52485,34.64072],[135.52506,34.64108],[135.52519,34.6413],[135.52523,34.64135],[135.52532,34.64151],[135.52556,34.6419],[135.52588,34.64243],[135.52583,34.64246],[135.52603,34.64277],[135.5266,34.64253],[135.52728,34.64225],[135.52785,34.64202],[135.52789,34.64201],[135.52786,34.64194],[135.52784,34.6419],[135.52771,34.64185],[135.52764,34.64172],[135.52761,34.64167],[135.52759,34.64162],[135.52762,34.64154],[135.52757,34.64142],[135.52744,34.64111],[135.52747,34.6411],[135.52718,34.6405],[135.527,34.64013],[135.52683,34.63978],[135.52681,34.63974],[135.52672,34.63955],[135.5266,34.6393],[135.52646,34.639]]]}},{"type":"Feature","properties":{"name":"阿倍野筋一丁目","setai":507,"jinko":941,"key":"27119003001","units":1,"m":401,"f":540,"gk":27,"a0":100,"a1":522,"a2":244,"a75":125,"ag":[23,43,34,31,27,16,32,35,59,89,86,90,57,55,64,47,34,29,13,2,0],"nf":75},"geometry":{"type":"Polygon","coordinates":[[[135.51286,34.64699],[135.51312,34.64688],[135.51365,34.64666],[135.51503,34.64632],[135.51574,34.64614],[135.51562,34.64579],[135.5156,34.64545],[135.5156,34.64518],[135.51559,34.64513],[135.51559,34.64513],[135.51523,34.64521],[135.51473,34.64532],[135.51472,34.64531],[135.51431,34.64539],[135.51418,34.6446],[135.51417,34.6446],[135.51313,34.64475],[135.51262,34.64482],[135.5126,34.6447],[135.51246,34.64413],[135.51246,34.64411],[135.51241,34.64392],[135.51202,34.64395],[135.51202,34.64394],[135.51186,34.6433],[135.51184,34.64324],[135.51182,34.64318],[135.51136,34.64332],[135.51081,34.6435],[135.5097,34.64384],[135.50974,34.64402],[135.50977,34.64416],[135.5098,34.64424],[135.50981,34.6443],[135.50983,34.64437],[135.50984,34.64442],[135.50986,34.64448],[135.50989,34.64462],[135.5099,34.64467],[135.50992,34.64475],[135.50994,34.64481],[135.50997,34.64495],[135.50999,34.64507],[135.51002,34.64521],[135.51005,34.64532],[135.51007,34.64539],[135.51005,34.64539],[135.51023,34.64617],[135.51036,34.64616],[135.51053,34.64613],[135.51055,34.64619],[135.51055,34.64619],[135.51055,34.64619],[135.51072,34.64692],[135.51085,34.64699],[135.51146,34.64685],[135.51152,34.647],[135.51176,34.64695],[135.51179,34.64703],[135.51188,34.64727],[135.51191,34.64726],[135.51241,34.64713],[135.51286,34.64699]]]}},{"type":"Feature","properties":{"name":"阿倍野筋二丁目","setai":457,"jinko":1027,"key":"27119003002","units":1,"m":471,"f":556,"gk":27,"a0":164,"a1":666,"a2":153,"a75":68,"ag":[42,56,66,69,38,42,57,64,101,93,93,64,45,34,51,26,21,12,9,0,0],"nf":44},"geometry":{"type":"Polygon","coordinates":[[[135.51409,34.644],[135.51412,34.64378],[135.51415,34.64347],[135.51416,34.64335],[135.51416,34.64323],[135.51416,34.64312],[135.51415,34.64266],[135.51373,34.64271],[135.51359,34.64273],[135.51319,34.64277],[135.5128,34.64282],[135.51279,34.64278],[135.51276,34.6427],[135.51275,34.64261],[135.51273,34.64253],[135.51275,34.64219],[135.51276,34.64194],[135.51243,34.64189],[135.51245,34.64201],[135.51233,34.64235],[135.5123,34.64256],[135.51229,34.64259],[135.51207,34.64265],[135.51214,34.64288],[135.51218,34.64307],[135.51182,34.64318],[135.51184,34.64324],[135.51186,34.6433],[135.51202,34.64394],[135.51202,34.64395],[135.51241,34.64392],[135.51246,34.64411],[135.51246,34.64413],[135.5126,34.6447],[135.51262,34.64482],[135.51313,34.64475],[135.51417,34.6446],[135.51414,34.64438],[135.51412,34.64423],[135.51409,34.644]]]}},{"type":"Feature","properties":{"name":"阿倍野筋三丁目","setai":1185,"jinko":2329,"key":"27119003003","units":1,"m":1009,"f":1320,"gk":82,"a0":239,"a1":1400,"a2":622,"a75":332,"ag":[76,87,76,101,101,113,121,136,159,179,192,167,131,142,148,114,98,63,45,10,2],"nf":68},"geometry":{"type":"Polygon","coordinates":[[[135.51182,34.64318],[135.51218,34.64307],[135.51214,34.64288],[135.51207,34.64265],[135.51229,34.64259],[135.5123,34.64256],[135.51233,34.64235],[135.51245,34.64201],[135.51243,34.64189],[135.51276,34.64194],[135.51275,34.64219],[135.51273,34.64253],[135.51275,34.64261],[135.51276,34.6427],[135.51279,34.64278],[135.5128,34.64282],[135.51319,34.64277],[135.51359,34.64273],[135.51373,34.64271],[135.51415,34.64266],[135.51414,34.64225],[135.51414,34.64224],[135.51414,34.6422],[135.51413,34.64192],[135.51394,34.6419],[135.51364,34.64191],[135.51361,34.64178],[135.51358,34.64163],[135.51355,34.64142],[135.51356,34.64142],[135.5136,34.64114],[135.5136,34.64109],[135.51362,34.64092],[135.5138,34.64094],[135.51376,34.64073],[135.51378,34.64072],[135.51377,34.64069],[135.51374,34.64054],[135.51373,34.64052],[135.51371,34.6404],[135.51349,34.64051],[135.51338,34.64056],[135.51335,34.64057],[135.51317,34.64065],[135.51231,34.64101],[135.5122,34.64105],[135.51165,34.64125],[135.51158,34.64127],[135.51139,34.64131],[135.51118,34.64137],[135.51092,34.6414],[135.5104,34.64146],[135.51035,34.64146],[135.51007,34.6415],[135.51002,34.64151],[135.50954,34.64156],[135.5095,34.64159],[135.50946,34.64159],[135.50946,34.6422],[135.50946,34.64232],[135.50946,34.64267],[135.50946,34.6427],[135.50946,34.64285],[135.50946,34.64308],[135.50946,34.6431],[135.50955,34.64309],[135.50958,34.64326],[135.50959,34.64334],[135.50966,34.64365],[135.5097,34.64384],[135.51081,34.6435],[135.51136,34.64332],[135.51182,34.64318]]]}},{"type":"Feature","properties":{"name":"阿倍野筋四丁目","setai":942,"jinko":1794,"key":"27119003004","units":1,"m":805,"f":989,"gk":40,"a0":165,"a1":1116,"a2":454,"a75":228,"ag":[53,60,52,79,100,112,84,93,106,162,157,132,91,119,107,85,76,45,20,2,0],"nf":59},"geometry":{"type":"Polygon","coordinates":[[[135.50869,34.64166],[135.50911,34.64161],[135.50923,34.64162],[135.50935,34.6416],[135.50946,34.64159],[135.5095,34.64159],[135.50954,34.64156],[135.51002,34.64151],[135.51007,34.6415],[135.51035,34.64146],[135.5104,34.64146],[135.51092,34.6414],[135.51118,34.64137],[135.51139,34.64131],[135.51158,34.64127],[135.51165,34.64125],[135.5122,34.64105],[135.51231,34.64101],[135.51317,34.64065],[135.51335,34.64057],[135.51338,34.64056],[135.51349,34.64051],[135.51371,34.6404],[135.51372,34.64039],[135.51363,34.64027],[135.51355,34.63993],[135.51351,34.63977],[135.51351,34.63939],[135.51342,34.63904],[135.5134,34.63896],[135.51337,34.63863],[135.51337,34.63859],[135.51336,34.63851],[135.51309,34.63853],[135.51271,34.6386],[135.51225,34.6387],[135.51224,34.63871],[135.51199,34.63876],[135.51195,34.63884],[135.51194,34.63884],[135.51193,34.63885],[135.51164,34.6389],[135.511,34.63903],[135.51097,34.63901],[135.51045,34.63908],[135.51044,34.63908],[135.51004,34.63914],[135.50975,34.63919],[135.50958,34.63922],[135.50957,34.63922],[135.50941,34.63925],[135.50942,34.63932],[135.50943,34.63931],[135.50944,34.63935],[135.50949,34.63961],[135.50951,34.63961],[135.50955,34.6396],[135.50966,34.63959],[135.50969,34.63959],[135.50976,34.63963],[135.50982,34.63973],[135.50987,34.63986],[135.50989,34.63996],[135.50849,34.64013],[135.50745,34.64026],[135.50697,34.64032],[135.50552,34.64052],[135.50564,34.64076],[135.5057,34.64086],[135.50575,34.64097],[135.50584,34.64117],[135.50605,34.64161],[135.5062,34.64191],[135.50622,34.64195],[135.50623,34.642],[135.50647,34.64194],[135.50681,34.64189],[135.50805,34.64174],[135.50869,34.64166]]]}},{"type":"Feature","properties":{"name":"阿倍野筋五丁目","setai":921,"jinko":1604,"key":"27119003005","units":1,"m":766,"f":838,"gk":41,"a0":136,"a1":930,"a2":421,"a75":228,"ag":[46,43,47,50,94,101,100,78,100,107,112,101,87,95,98,83,70,57,15,2,1],"nf":117},"geometry":{"type":"Polygon","coordinates":[[[135.51045,34.63908],[135.51097,34.63901],[135.511,34.63903],[135.51164,34.6389],[135.51193,34.63885],[135.51194,34.63884],[135.51195,34.63884],[135.51199,34.63876],[135.51224,34.63871],[135.51225,34.6387],[135.51271,34.6386],[135.51252,34.63789],[135.51246,34.63768],[135.51238,34.63736],[135.51233,34.63719],[135.51217,34.63656],[135.51215,34.63648],[135.5117,34.63655],[135.51103,34.63665],[135.51037,34.63674],[135.5104,34.63688],[135.51046,34.63718],[135.51053,34.63746],[135.51053,34.63747],[135.51056,34.63756],[135.51017,34.63761],[135.50997,34.63764],[135.50979,34.63767],[135.50976,34.63767],[135.50968,34.63768],[135.50972,34.63771],[135.50965,34.63782],[135.50942,34.63795],[135.50932,34.63809],[135.50939,34.63823],[135.5094,34.63832],[135.50937,34.63843],[135.50936,34.63846],[135.50933,34.63863],[135.50935,34.63872],[135.50936,34.63878],[135.50943,34.63892],[135.50943,34.63893],[135.50957,34.63922],[135.50958,34.63922],[135.50975,34.63919],[135.51004,34.63914],[135.51044,34.63908],[135.51045,34.63908]]]}},{"type":"Feature","properties":{"name":"松崎町一丁目","setai":138,"jinko":191,"key":"27119004001","units":1,"m":50,"f":141,"gk":9,"a0":9,"a1":147,"a2":29,"a75":11,"ag":[4,2,3,19,43,16,7,14,9,10,11,8,10,8,10,3,4,3,1,0,0],"nf":6},"geometry":{"type":"Polygon","coordinates":[[[135.51668,34.64591],[135.51741,34.64574],[135.51768,34.64581],[135.518,34.64582],[135.51819,34.64583],[135.51847,34.64575],[135.51909,34.64558],[135.51933,34.6455],[135.51933,34.64548],[135.51931,34.64513],[135.51927,34.64475],[135.51929,34.64434],[135.51919,34.64383],[135.51896,34.64387],[135.51875,34.64391],[135.5187,34.6438],[135.51848,34.64385],[135.51822,34.64395],[135.51788,34.6441],[135.51765,34.64422],[135.51713,34.64446],[135.51713,34.64445],[135.51559,34.64513],[135.51559,34.64513],[135.5156,34.64518],[135.5156,34.64545],[135.51562,34.64579],[135.51574,34.64614],[135.51668,34.64591]]]}},{"type":"Feature","properties":{"name":"松崎町二丁目","setai":1902,"jinko":4037,"key":"27119004002","units":1,"m":1773,"f":2264,"gk":81,"a0":504,"a1":2375,"a2":1073,"a75":616,"ag":[163,154,187,185,154,208,219,227,311,343,270,253,205,225,232,166,155,169,90,29,7],"nf":85},"geometry":{"type":"Polygon","coordinates":[[[135.51431,34.64539],[135.51472,34.64531],[135.51473,34.64532],[135.51523,34.64521],[135.51559,34.64513],[135.51559,34.64513],[135.51559,34.64513],[135.51713,34.64445],[135.51713,34.64446],[135.51765,34.64422],[135.51788,34.6441],[135.51822,34.64395],[135.51848,34.64385],[135.5187,34.6438],[135.51875,34.64391],[135.51896,34.64387],[135.51919,34.64383],[135.51919,34.64382],[135.51916,34.64367],[135.51913,34.64354],[135.51904,34.64307],[135.51901,34.64297],[135.51896,34.64278],[135.51895,34.64273],[135.51889,34.64247],[135.51887,34.64237],[135.51881,34.64213],[135.51878,34.64196],[135.51832,34.64203],[135.51819,34.642],[135.518,34.64197],[135.5179,34.64199],[135.51779,34.64203],[135.51761,34.6422],[135.51759,34.64212],[135.51692,34.64223],[135.51638,34.64221],[135.51627,34.64221],[135.5161,34.6422],[135.51598,34.6422],[135.51571,34.6422],[135.51557,34.6422],[135.51541,34.64256],[135.51536,34.64254],[135.51497,34.64256],[135.51466,34.64259],[135.51415,34.64266],[135.51416,34.64312],[135.51416,34.64323],[135.51416,34.64335],[135.51415,34.64347],[135.51412,34.64378],[135.51409,34.644],[135.51412,34.64423],[135.51414,34.64438],[135.51417,34.6446],[135.51418,34.6446],[135.51431,34.64539]]]}},{"type":"Feature","properties":{"name":"松崎町三丁目","setai":1654,"jinko":3410,"key":"27119004003","units":1,"m":1564,"f":1846,"gk":66,"a0":527,"a1":2219,"a2":588,"a75":306,"ag":[159,214,154,167,195,208,196,222,265,275,277,235,179,128,154,117,94,58,32,5,0],"nf":76},"geometry":{"type":"Polygon","coordinates":[[[135.51497,34.64256],[135.51536,34.64254],[135.51541,34.64256],[135.51557,34.6422],[135.51571,34.6422],[135.51598,34.6422],[135.5161,34.6422],[135.51627,34.64221],[135.51638,34.64221],[135.51692,34.64223],[135.51759,34.64212],[135.51761,34.6422],[135.51779,34.64203],[135.5179,34.64199],[135.518,34.64197],[135.51819,34.642],[135.51832,34.64203],[135.51878,34.64196],[135.51877,34.64195],[135.51862,34.64126],[135.51855,34.64093],[135.51855,34.64091],[135.51848,34.64063],[135.51842,34.64041],[135.51842,34.64039],[135.51837,34.64014],[135.5183,34.63985],[135.51819,34.63937],[135.51769,34.63949],[135.51738,34.63957],[135.51715,34.63962],[135.51714,34.63962],[135.51648,34.6398],[135.51597,34.63994],[135.51582,34.63998],[135.51546,34.64007],[135.51534,34.6401],[135.51512,34.64015],[135.51464,34.64028],[135.51384,34.64049],[135.51373,34.64052],[135.51374,34.64054],[135.51377,34.64069],[135.51378,34.64072],[135.51376,34.64073],[135.5138,34.64094],[135.51362,34.64092],[135.5136,34.64109],[135.5136,34.64114],[135.51356,34.64142],[135.51355,34.64142],[135.51358,34.64163],[135.51361,34.64178],[135.51364,34.64191],[135.51394,34.6419],[135.51413,34.64192],[135.51414,34.6422],[135.51414,34.64224],[135.51414,34.64225],[135.51415,34.64266],[135.51466,34.64259],[135.51497,34.64256]]]}},{"type":"Feature","properties":{"name":"松崎町四丁目","setai":688,"jinko":1559,"key":"27119004004","units":1,"m":719,"f":840,"gk":71,"a0":280,"a1":983,"a2":289,"a75":161,"ag":[87,93,100,87,72,85,97,126,141,125,124,68,58,59,69,51,53,38,16,3,0],"nf":7},"geometry":{"type":"Polygon","coordinates":[[[135.51762,34.63669],[135.5176,34.63662],[135.51732,34.6369],[135.51706,34.63717],[135.51692,34.63732],[135.51686,34.63738],[135.51643,34.63784],[135.51625,34.63803],[135.5157,34.6386],[135.51566,34.63864],[135.51564,34.63867],[135.51515,34.63917],[135.51483,34.63949],[135.51464,34.63967],[135.51457,34.63975],[135.51447,34.63985],[135.51415,34.64012],[135.51395,34.64024],[135.5138,34.64034],[135.51372,34.64039],[135.51371,34.6404],[135.51373,34.64052],[135.51384,34.64049],[135.51464,34.64028],[135.51512,34.64015],[135.51534,34.6401],[135.51546,34.64007],[135.51582,34.63998],[135.51597,34.63994],[135.51648,34.6398],[135.51714,34.63962],[135.51715,34.63962],[135.51738,34.63957],[135.51769,34.63949],[135.51819,34.63937],[135.51819,34.63933],[135.51808,34.63892],[135.51809,34.63892],[135.51792,34.6382],[135.51792,34.63819],[135.51788,34.63803],[135.5177,34.6371],[135.51765,34.63687],[135.51762,34.63669]]]}},{"type":"Feature","properties":{"name":"三明町一丁目","setai":729,"jinko":1616,"key":"27119005001","units":1,"m":778,"f":838,"gk":48,"a0":232,"a1":1035,"a2":320,"a75":175,"ag":[62,80,90,92,97,68,75,93,127,168,127,115,73,63,82,59,62,37,12,4,1],"nf":29},"geometry":{"type":"Polygon","coordinates":[[[135.5228,34.64192],[135.52265,34.64174],[135.52245,34.6415],[135.52234,34.64135],[135.5223,34.64125],[135.52219,34.641],[135.52218,34.64096],[135.5221,34.64074],[135.52203,34.64056],[135.52167,34.64065],[135.52143,34.64074],[135.52116,34.64085],[135.52098,34.64096],[135.52083,34.64107],[135.52067,34.6412],[135.5202,34.64176],[135.52007,34.64166],[135.51994,34.64178],[135.51877,34.64195],[135.51878,34.64196],[135.51881,34.64213],[135.51887,34.64237],[135.51889,34.64247],[135.51895,34.64273],[135.51896,34.64278],[135.51901,34.64297],[135.51904,34.64307],[135.51913,34.64354],[135.51916,34.64367],[135.51919,34.64382],[135.51933,34.6438],[135.51972,34.64367],[135.51979,34.64363],[135.52011,34.64346],[135.52022,34.64341],[135.52023,34.6434],[135.52083,34.64305],[135.52089,34.64301],[135.5211,34.64289],[135.52142,34.64271],[135.52145,34.64269],[135.52216,34.6423],[135.52224,34.64224],[135.52226,34.64223],[135.52265,34.64201],[135.5228,34.64192]]]}},{"type":"Feature","properties":{"name":"三明町二丁目","setai":737,"jinko":1584,"key":"27119005002","units":1,"m":773,"f":811,"gk":74,"a0":305,"a1":1019,"a2":221,"a75":112,"ag":[86,110,109,86,86,89,84,117,123,159,122,80,73,50,59,42,31,31,7,1,0],"nf":39},"geometry":{"type":"Polygon","coordinates":[[[135.51994,34.64178],[135.52007,34.64166],[135.5202,34.64176],[135.52067,34.6412],[135.52083,34.64107],[135.52098,34.64096],[135.52116,34.64085],[135.52143,34.64074],[135.52167,34.64065],[135.52203,34.64056],[135.5218,34.63988],[135.5218,34.63971],[135.5218,34.63947],[135.52181,34.63939],[135.52178,34.63924],[135.52174,34.63908],[135.52166,34.63879],[135.52156,34.63848],[135.5214,34.63852],[135.52122,34.63857],[135.52105,34.63861],[135.5205,34.63875],[135.52025,34.63882],[135.51984,34.63892],[135.51898,34.63913],[135.51819,34.63933],[135.51819,34.63937],[135.5183,34.63985],[135.51837,34.64014],[135.51842,34.64039],[135.51842,34.64041],[135.51848,34.64063],[135.51855,34.64091],[135.51855,34.64093],[135.51862,34.64126],[135.51877,34.64195],[135.51994,34.64178]]]}},{"type":"Feature","properties":{"name":"美章園一丁目","setai":482,"jinko":803,"key":"27119006001","units":1,"m":362,"f":441,"gk":42,"a0":85,"a1":497,"a2":165,"a75":89,"ag":[30,35,20,33,58,71,40,64,45,48,54,38,46,32,44,31,17,30,9,2,0],"nf":56},"geometry":{"type":"Polygon","coordinates":[[[135.52363,34.63815],[135.5237,34.63794],[135.52343,34.63801],[135.52267,34.6382],[135.52261,34.63822],[135.52258,34.63822],[135.52204,34.63836],[135.52171,34.63844],[135.52156,34.63848],[135.52166,34.63879],[135.52174,34.63908],[135.52178,34.63924],[135.52181,34.63939],[135.5218,34.63947],[135.5218,34.63971],[135.5218,34.63988],[135.52203,34.64056],[135.5221,34.64074],[135.52218,34.64096],[135.52219,34.641],[135.5223,34.64125],[135.52234,34.64135],[135.52245,34.6415],[135.52265,34.64174],[135.5228,34.64192],[135.52315,34.64173],[135.52316,34.64172],[135.52325,34.64149],[135.52334,34.64129],[135.52353,34.64079],[135.52357,34.64064],[135.52362,34.64044],[135.52367,34.64011],[135.5237,34.63984],[135.52373,34.63954],[135.52372,34.63942],[135.52372,34.63899],[135.52371,34.63854],[135.52372,34.63836],[135.52369,34.63831],[135.52363,34.63815]]]}},{"type":"Feature","properties":{"name":"美章園二丁目","setai":862,"jinko":1734,"key":"27119006002","units":1,"m":811,"f":923,"gk":47,"a0":218,"a1":1020,"a2":445,"a75":227,"ag":[59,82,77,81,82,92,85,123,117,130,125,99,86,93,125,91,58,49,22,7,0],"nf":51},"geometry":{"type":"Polygon","coordinates":[[[135.52586,34.63781],[135.52569,34.63743],[135.52513,34.63759],[135.52461,34.63772],[135.52426,34.6378],[135.52406,34.63786],[135.52386,34.6379],[135.5237,34.63794],[135.52363,34.63815],[135.52369,34.63831],[135.52372,34.63836],[135.52371,34.63854],[135.52372,34.63899],[135.52372,34.63942],[135.52373,34.63954],[135.5237,34.63984],[135.52367,34.64011],[135.52362,34.64044],[135.52357,34.64064],[135.52353,34.64079],[135.52334,34.64129],[135.52325,34.64149],[135.52316,34.64172],[135.52323,34.64168],[135.5234,34.64159],[135.52399,34.64128],[135.52441,34.64103],[135.52464,34.64088],[135.52485,34.64072],[135.52486,34.64072],[135.52514,34.64048],[135.52523,34.6404],[135.52526,34.64037],[135.52531,34.64031],[135.52539,34.64023],[135.52554,34.64008],[135.52577,34.63983],[135.52599,34.63953],[135.52601,34.63951],[135.52612,34.63937],[135.52622,34.63921],[135.52624,34.63916],[135.52639,34.63889],[135.52632,34.63876],[135.52605,34.6382],[135.52586,34.63781]]]}},{"type":"Feature","properties":{"name":"美章園三丁目","setai":363,"jinko":897,"key":"27119006003","units":1,"m":421,"f":476,"gk":16,"a0":130,"a1":595,"a2":155,"a75":61,"ag":[38,49,43,64,43,43,43,64,61,91,70,67,49,50,44,15,25,10,7,4,0],"nf":17},"geometry":{"type":"Polygon","coordinates":[[[135.52367,34.63735],[135.52367,34.63683],[135.52307,34.63698],[135.52268,34.63709],[135.5225,34.63713],[135.5221,34.63713],[135.52195,34.63712],[135.52163,34.63711],[135.52156,34.63711],[135.52133,34.63711],[135.52142,34.63763],[135.52146,34.63791],[135.52147,34.63791],[135.52102,34.63803],[135.52111,34.63828],[135.52122,34.63857],[135.5214,34.63852],[135.52156,34.63848],[135.52171,34.63844],[135.52204,34.63836],[135.52258,34.63822],[135.52261,34.63822],[135.52267,34.6382],[135.52343,34.63801],[135.5237,34.63794],[135.52367,34.63735]]]}},{"type":"Feature","properties":{"name":"旭町一丁目","setai":505,"jinko":869,"key":"27119007001","units":1,"m":379,"f":490,"gk":22,"a0":37,"a1":403,"a2":388,"a75":254,"ag":[22,9,6,14,39,34,41,37,32,53,61,53,39,56,78,66,53,67,54,12,2],"nf":41},"geometry":{"type":"Polygon","coordinates":[[[135.51188,34.64727],[135.51179,34.64703],[135.51176,34.64695],[135.51152,34.647],[135.51146,34.64685],[135.51085,34.64699],[135.51072,34.64692],[135.51055,34.64619],[135.51055,34.64619],[135.51055,34.64619],[135.51053,34.64613],[135.51036,34.64616],[135.51023,34.64617],[135.51005,34.64539],[135.51007,34.64539],[135.51005,34.64532],[135.50961,34.64538],[135.50913,34.64517],[135.50861,34.64495],[135.50851,34.6449],[135.50845,34.64486],[135.50816,34.64472],[135.50811,34.64469],[135.50766,34.64448],[135.50732,34.64431],[135.50728,34.64433],[135.50731,34.64435],[135.50732,34.64442],[135.50732,34.64444],[135.50737,34.64457],[135.5074,34.64465],[135.50745,34.64473],[135.50749,34.6448],[135.50756,34.64488],[135.50757,34.64488],[135.50764,34.64497],[135.50765,34.64499],[135.50767,34.64503],[135.5077,34.64511],[135.5077,34.64514],[135.50771,34.64514],[135.50774,34.64523],[135.50773,34.64526],[135.50772,34.64535],[135.50775,34.64541],[135.50786,34.64575],[135.50789,34.64575],[135.50796,34.64574],[135.50796,34.64575],[135.50813,34.64632],[135.50814,34.64634],[135.5082,34.64648],[135.50795,34.64654],[135.50796,34.64655],[135.50807,34.64684],[135.50816,34.64708],[135.50818,34.64708],[135.50823,34.64708],[135.50823,34.64708],[135.50825,34.64708],[135.50847,34.64723],[135.50868,34.64777],[135.50849,34.64782],[135.50849,34.64786],[135.50849,34.64786],[135.50849,34.64793],[135.50849,34.648],[135.50875,34.64799],[135.50907,34.64793],[135.51188,34.64727]]]}},{"type":"Feature","properties":{"name":"旭町二丁目","setai":563,"jinko":1127,"key":"27119007002","units":1,"m":514,"f":613,"gk":51,"a0":113,"a1":693,"a2":296,"a75":146,"ag":[39,36,38,28,69,59,61,59,60,71,96,98,92,72,78,61,43,27,11,4,0],"nf":25},"geometry":{"type":"Polygon","coordinates":[[[135.50983,34.64437],[135.50981,34.6443],[135.5098,34.64424],[135.50977,34.64416],[135.50974,34.64402],[135.5097,34.64384],[135.50962,34.64386],[135.50902,34.64396],[135.50884,34.64396],[135.50819,34.64394],[135.50812,34.64401],[135.50797,34.64392],[135.50771,34.64385],[135.50695,34.64371],[135.50696,34.64378],[135.50696,34.64393],[135.50697,34.64398],[135.50698,34.64411],[135.50699,34.64419],[135.50704,34.6442],[135.50713,34.64422],[135.50728,34.64433],[135.50732,34.64431],[135.50766,34.64448],[135.50811,34.64469],[135.50816,34.64472],[135.50845,34.64486],[135.50851,34.6449],[135.50861,34.64495],[135.50913,34.64517],[135.50961,34.64538],[135.51005,34.64532],[135.51002,34.64521],[135.50999,34.64507],[135.50997,34.64495],[135.50994,34.64481],[135.50992,34.64475],[135.5099,34.64467],[135.50989,34.64462],[135.50986,34.64448],[135.50984,34.64442],[135.50983,34.64437]]]}},{"type":"Feature","properties":{"name":"旭町三丁目","setai":919,"jinko":1927,"key":"27119007003","units":1,"m":844,"f":1083,"gk":68,"a0":219,"a1":1141,"a2":528,"a75":250,"ag":[67,88,64,61,75,59,87,89,118,175,180,149,148,136,142,113,73,48,16,0,0],"nf":39},"geometry":{"type":"Polygon","coordinates":[[[135.50812,34.64401],[135.50819,34.64394],[135.50884,34.64396],[135.50902,34.64396],[135.50962,34.64386],[135.5097,34.64384],[135.50966,34.64365],[135.50959,34.64334],[135.50958,34.64326],[135.50955,34.64309],[135.50946,34.6431],[135.50946,34.64308],[135.50946,34.64285],[135.50946,34.6427],[135.50946,34.64267],[135.50946,34.64232],[135.50946,34.6422],[135.50946,34.64159],[135.50935,34.6416],[135.50923,34.64162],[135.50911,34.64161],[135.50869,34.64166],[135.50805,34.64174],[135.50681,34.64189],[135.50647,34.64194],[135.50623,34.642],[135.50624,34.64204],[135.50628,34.64217],[135.50633,34.64239],[135.50638,34.64256],[135.50639,34.64259],[135.50659,34.64294],[135.50667,34.64305],[135.50679,34.64322],[135.50688,34.64337],[135.50697,34.64356],[135.50695,34.64371],[135.50771,34.64385],[135.50797,34.64392],[135.50812,34.64401]]]}},{"type":"Feature","properties":{"name":"文の里一丁目","setai":418,"jinko":914,"key":"27119008001","units":1,"m":425,"f":489,"gk":27,"a0":179,"a1":553,"a2":148,"a75":79,"ag":[51,76,52,40,49,40,31,76,82,84,63,55,33,33,36,33,23,12,6,5,0],"nf":34},"geometry":{"type":"Polygon","coordinates":[[[135.52073,34.63734],[135.52072,34.63713],[135.52046,34.63713],[135.5201,34.63714],[135.51994,34.63715],[135.5195,34.63715],[135.5192,34.63718],[135.51891,34.63714],[135.51856,34.6371],[135.51855,34.6371],[135.51798,34.63709],[135.51789,34.63709],[135.5177,34.6371],[135.51788,34.63803],[135.51792,34.63819],[135.51792,34.6382],[135.51809,34.63892],[135.51808,34.63892],[135.51819,34.63933],[135.51898,34.63913],[135.51984,34.63892],[135.52025,34.63882],[135.5205,34.63875],[135.52105,34.63861],[135.52122,34.63857],[135.52111,34.63828],[135.52102,34.63803],[135.521,34.63799],[135.52088,34.63772],[135.52086,34.63768],[135.52074,34.63743],[135.52073,34.63734]]]}},{"type":"Feature","properties":{"name":"文の里二丁目","setai":542,"jinko":1097,"key":"27119008002","units":1,"m":511,"f":586,"gk":27,"a0":153,"a1":622,"a2":269,"a75":169,"ag":[53,54,46,36,46,65,82,64,86,75,68,53,47,55,45,47,49,46,22,4,1],"nf":53},"geometry":{"type":"Polygon","coordinates":[[[135.52072,34.63713],[135.52071,34.63697],[135.52055,34.63607],[135.52071,34.63604],[135.52072,34.63581],[135.52074,34.63519],[135.52075,34.63481],[135.52011,34.63479],[135.5199,34.63478],[135.5195,34.63475],[135.51927,34.63499],[135.51924,34.63502],[135.51886,34.63544],[135.51841,34.6359],[135.51826,34.63606],[135.51784,34.63651],[135.51782,34.63653],[135.51762,34.63669],[135.51765,34.63687],[135.5177,34.6371],[135.51789,34.63709],[135.51798,34.63709],[135.51855,34.6371],[135.51856,34.6371],[135.51891,34.63714],[135.5192,34.63718],[135.5195,34.63715],[135.51994,34.63715],[135.5201,34.63714],[135.52046,34.63713],[135.52072,34.63713]]]}},{"type":"Feature","properties":{"name":"文の里三丁目","setai":427,"jinko":1018,"key":"27119008003","units":1,"m":470,"f":548,"gk":7,"a0":139,"a1":595,"a2":258,"a75":142,"ag":[41,44,54,60,46,30,42,81,57,86,76,70,47,46,70,53,41,29,16,3,0],"nf":26},"geometry":{"type":"Polygon","coordinates":[[[135.52133,34.63711],[135.52156,34.63711],[135.52163,34.63711],[135.52195,34.63712],[135.5221,34.63713],[135.5225,34.63713],[135.52268,34.63709],[135.52307,34.63698],[135.52367,34.63683],[135.52366,34.6365],[135.52366,34.63616],[135.52365,34.63585],[135.52364,34.6356],[135.52363,34.6353],[135.52363,34.63495],[135.52312,34.63493],[135.52311,34.63493],[135.52269,34.63491],[135.52247,34.6349],[135.52246,34.63489],[135.52194,34.63487],[135.52142,34.63485],[135.52075,34.63481],[135.52074,34.63519],[135.52072,34.63581],[135.52071,34.63604],[135.52055,34.63607],[135.52071,34.63697],[135.52072,34.63713],[135.52073,34.63734],[135.52074,34.63743],[135.52086,34.63768],[135.52088,34.63772],[135.521,34.63799],[135.52102,34.63803],[135.52147,34.63791],[135.52146,34.63791],[135.52142,34.63763],[135.52133,34.63711]]]}},{"type":"Feature","properties":{"name":"文の里四丁目","setai":706,"jinko":1529,"key":"27119008004","units":1,"m":708,"f":821,"gk":14,"a0":220,"a1":973,"a2":320,"a75":169,"ag":[76,81,63,72,66,91,105,126,93,113,103,99,105,76,75,39,57,49,21,3,0],"nf":16},"geometry":{"type":"Polygon","coordinates":[[[135.52311,34.6309],[135.52308,34.63084],[135.52271,34.63122],[135.52257,34.63137],[135.52213,34.63184],[135.52205,34.63198],[135.52213,34.63199],[135.52153,34.63261],[135.52135,34.63281],[135.52098,34.63319],[135.52095,34.63322],[135.52076,34.63342],[135.51996,34.63426],[135.51986,34.63436],[135.5195,34.63475],[135.5199,34.63478],[135.52011,34.63479],[135.52075,34.63481],[135.52142,34.63485],[135.52194,34.63487],[135.52246,34.63489],[135.52247,34.6349],[135.52269,34.63491],[135.52311,34.63493],[135.52312,34.63493],[135.52363,34.63495],[135.52363,34.63494],[135.52362,34.63457],[135.52361,34.63419],[135.52361,34.63383],[135.52361,34.63353],[135.5236,34.63314],[135.52359,34.63274],[135.52355,34.63235],[135.52349,34.63203],[135.52344,34.63184],[135.52344,34.6318],[135.52342,34.63176],[135.52336,34.63157],[135.52325,34.63126],[135.52312,34.63095],[135.52311,34.6309]]]}},{"type":"Feature","properties":{"name":"昭和町一丁目","setai":1548,"jinko":2466,"key":"27119009001","units":1,"m":1164,"f":1302,"gk":87,"a0":192,"a1":1569,"a2":539,"a75":277,"ag":[71,64,57,102,176,172,154,140,171,197,155,161,141,112,150,122,83,48,20,3,1],"nf":166},"geometry":{"type":"Polygon","coordinates":[[[135.52091,34.63247],[135.52092,34.63206],[135.51979,34.63224],[135.5193,34.63232],[135.51875,34.6324],[135.51869,34.63242],[135.51844,34.63246],[135.51808,34.63251],[135.51807,34.63251],[135.51751,34.63261],[135.51677,34.63273],[135.51675,34.63273],[135.51682,34.63312],[135.51683,34.63315],[135.5169,34.63349],[135.51698,34.63384],[135.51699,34.63386],[135.51706,34.6342],[135.51706,34.63423],[135.51714,34.63458],[135.51714,34.63458],[135.51722,34.63491],[135.51731,34.63528],[135.51739,34.63565],[135.51739,34.63565],[135.51748,34.63609],[135.51756,34.63641],[135.51758,34.63651],[135.5176,34.63662],[135.51762,34.63669],[135.51782,34.63653],[135.51784,34.63651],[135.51826,34.63606],[135.51841,34.6359],[135.51886,34.63544],[135.51924,34.63502],[135.51927,34.63499],[135.5195,34.63475],[135.51986,34.63436],[135.51996,34.63426],[135.52076,34.63342],[135.52095,34.63322],[135.5209,34.63287],[135.5209,34.63284],[135.52091,34.63247]]]}},{"type":"Feature","properties":{"name":"昭和町二丁目","setai":1182,"jinko":2156,"key":"27119009002","units":1,"m":1000,"f":1156,"gk":41,"a0":225,"a1":1233,"a2":544,"a75":289,"ag":[82,77,66,54,102,151,130,123,146,160,136,111,120,116,139,105,83,65,27,7,2],"nf":154},"geometry":{"type":"Polygon","coordinates":[[[135.51951,34.63013],[135.51935,34.62987],[135.51896,34.6299],[135.51895,34.62991],[135.51835,34.62996],[135.51835,34.62996],[135.51772,34.63001],[135.51634,34.63012],[135.5164,34.6305],[135.51645,34.6309],[135.51645,34.63091],[135.51651,34.63127],[135.51655,34.63161],[135.51655,34.63162],[135.51662,34.63197],[135.51669,34.63232],[135.51669,34.63233],[135.51677,34.63273],[135.51751,34.63261],[135.51807,34.63251],[135.51808,34.63251],[135.51844,34.63246],[135.51869,34.63242],[135.51875,34.6324],[135.5193,34.63232],[135.51979,34.63224],[135.52092,34.63206],[135.52096,34.63205],[135.52064,34.6317],[135.52036,34.63139],[135.52035,34.63137],[135.52008,34.63106],[135.51998,34.63091],[135.51987,34.63074],[135.51967,34.6304],[135.51951,34.63014],[135.51951,34.63013]]]}},{"type":"Feature","properties":{"name":"昭和町三丁目","setai":521,"jinko":1098,"key":"27119009003","units":1,"m":470,"f":628,"gk":10,"a0":108,"a1":623,"a2":336,"a75":214,"ag":[20,42,46,44,60,50,44,38,65,79,92,87,64,55,67,66,65,42,31,5,5],"nf":31},"geometry":{"type":"Polygon","coordinates":[[[135.51854,34.62679],[135.51848,34.62642],[135.51786,34.62648],[135.51783,34.62649],[135.51723,34.62655],[135.51722,34.62655],[135.51645,34.62662],[135.51586,34.62668],[135.51585,34.62669],[135.51584,34.62671],[135.51589,34.62705],[135.51595,34.6274],[135.51595,34.62741],[135.51599,34.62777],[135.51604,34.62812],[135.51609,34.62848],[135.51615,34.62884],[135.51617,34.62902],[135.5162,34.62919],[135.51626,34.62956],[135.51634,34.63012],[135.51634,34.63012],[135.51772,34.63001],[135.51835,34.62996],[135.51835,34.62996],[135.51895,34.62991],[135.51896,34.6299],[135.51887,34.62927],[135.51874,34.6283],[135.51868,34.62787],[135.5187,34.62787],[135.51865,34.62752],[135.51865,34.62751],[135.5186,34.62715],[135.51854,34.62679]]]}},{"type":"Feature","properties":{"name":"昭和町四丁目","setai":640,"jinko":1339,"key":"27119009004","units":1,"m":638,"f":701,"gk":50,"a0":177,"a1":822,"a2":301,"a75":168,"ag":[69,67,41,39,65,92,91,96,106,90,93,93,57,53,80,59,58,34,13,4,0],"nf":39},"geometry":{"type":"Polygon","coordinates":[[[135.51832,34.62534],[135.51826,34.62498],[135.51818,34.62499],[135.51796,34.62464],[135.51795,34.62463],[135.51778,34.62435],[135.51774,34.62431],[135.51692,34.6244],[135.5155,34.62453],[135.51555,34.62488],[135.51555,34.62489],[135.51561,34.62524],[135.51566,34.6256],[135.51571,34.62596],[135.51571,34.62597],[135.51576,34.62631],[135.51576,34.62632],[135.51582,34.62668],[135.51585,34.62669],[135.51586,34.62668],[135.51645,34.62662],[135.51722,34.62655],[135.51723,34.62655],[135.51783,34.62649],[135.51786,34.62648],[135.51848,34.62642],[135.51843,34.62606],[135.51837,34.62571],[135.51837,34.6257],[135.51832,34.62534]]]}},{"type":"Feature","properties":{"name":"昭和町五丁目","setai":520,"jinko":1000,"key":"27119009005","units":1,"m":486,"f":514,"gk":25,"a0":118,"a1":617,"a2":236,"a75":133,"ag":[49,35,34,30,37,71,64,70,71,85,60,76,53,44,59,54,34,31,10,2,2],"nf":29},"geometry":{"type":"Polygon","coordinates":[[[135.51731,34.62285],[135.51722,34.62256],[135.51705,34.6226],[135.51688,34.62259],[135.51686,34.62247],[135.51664,34.62249],[135.51664,34.62249],[135.51659,34.62213],[135.51657,34.62199],[135.51654,34.62178],[135.5165,34.62144],[135.51627,34.62146],[135.51584,34.62149],[135.51508,34.62157],[135.51512,34.62193],[135.51517,34.62229],[135.51523,34.62264],[135.51523,34.62264],[135.51528,34.62298],[135.51528,34.62299],[135.51528,34.623],[135.51534,34.62337],[135.51534,34.62338],[135.51539,34.62376],[135.5154,34.62376],[135.51544,34.62414],[135.51544,34.62415],[135.51544,34.62416],[135.5155,34.62453],[135.51692,34.6244],[135.51774,34.62431],[135.51755,34.62401],[135.51754,34.62393],[135.51733,34.62357],[135.51737,34.62357],[135.51738,34.62357],[135.51738,34.62317],[135.51738,34.62317],[135.51739,34.62304],[135.51737,34.62299],[135.51731,34.62285]]]}},{"type":"Feature","properties":{"name":"阪南町一丁目","setai":2816,"jinko":5700,"key":"27119010001","units":1,"m":2661,"f":3039,"gk":142,"a0":616,"a1":3260,"a2":1518,"a75":775,"ag":[177,222,217,246,275,272,261,316,373,422,360,388,347,358,385,284,216,173,75,25,2],"nf":306},"geometry":{"type":"Polygon","coordinates":[[[135.5157,34.6386],[135.51625,34.63803],[135.51643,34.63784],[135.51686,34.63738],[135.51692,34.63732],[135.51706,34.63717],[135.51732,34.6369],[135.5176,34.63662],[135.51758,34.63651],[135.51756,34.63641],[135.51748,34.63609],[135.51739,34.63565],[135.51739,34.63565],[135.51731,34.63528],[135.51722,34.63491],[135.51714,34.63458],[135.51714,34.63458],[135.51706,34.63423],[135.51706,34.6342],[135.51699,34.63386],[135.51698,34.63384],[135.5169,34.63349],[135.51683,34.63315],[135.51682,34.63312],[135.51675,34.63273],[135.51667,34.63274],[135.51573,34.63289],[135.51544,34.63294],[135.51544,34.63294],[135.51497,34.63299],[135.51446,34.63307],[135.5143,34.6331],[135.51415,34.63312],[135.51402,34.63314],[135.51394,34.63316],[135.51382,34.63318],[135.51368,34.63321],[135.51368,34.63321],[135.51324,34.63328],[135.51323,34.63328],[135.51254,34.63339],[135.51245,34.63342],[135.51241,34.63343],[135.51173,34.63353],[135.51175,34.63374],[135.51177,34.6339],[135.51181,34.63413],[135.51184,34.63434],[135.51187,34.63452],[135.5119,34.63477],[135.51191,34.63489],[135.51193,34.63503],[135.51197,34.63546],[135.51201,34.63574],[135.51202,34.63577],[135.51206,34.63601],[135.51215,34.63648],[135.51217,34.63656],[135.51233,34.63719],[135.51238,34.63736],[135.51246,34.63768],[135.51252,34.63789],[135.51271,34.6386],[135.51309,34.63853],[135.51336,34.63851],[135.51337,34.63859],[135.51337,34.63863],[135.5134,34.63896],[135.51342,34.63904],[135.51351,34.63939],[135.51351,34.63977],[135.51355,34.63993],[135.51363,34.64027],[135.51372,34.64039],[135.5138,34.64034],[135.51395,34.64024],[135.51415,34.64012],[135.51447,34.63985],[135.51457,34.63975],[135.51464,34.63967],[135.51483,34.63949],[135.51515,34.63917],[135.51564,34.63867],[135.51566,34.63864],[135.5157,34.6386]]]}},{"type":"Feature","properties":{"name":"阪南町二丁目","setai":1474,"jinko":2854,"key":"27119010002","units":1,"m":1305,"f":1549,"gk":33,"a0":358,"a1":1843,"a2":619,"a75":338,"ag":[147,120,91,101,138,283,253,233,204,207,165,146,113,124,157,130,96,72,32,6,2],"nf":34},"geometry":{"type":"Polygon","coordinates":[[[135.51645,34.6309],[135.5164,34.6305],[135.51634,34.63012],[135.51634,34.63012],[135.51578,34.6302],[135.51505,34.6303],[135.51457,34.63037],[135.51456,34.63037],[135.51379,34.63048],[135.51378,34.63048],[135.51316,34.63057],[135.51316,34.63056],[135.51253,34.63065],[135.51136,34.63074],[135.5114,34.63103],[135.51141,34.63118],[135.51143,34.63129],[135.51147,34.63165],[135.5115,34.63187],[135.51153,34.6321],[135.51153,34.6321],[135.51158,34.6324],[135.5116,34.63258],[135.51161,34.63263],[135.51169,34.63315],[135.51173,34.63352],[135.51173,34.63353],[135.51241,34.63343],[135.51245,34.63342],[135.51254,34.63339],[135.51323,34.63328],[135.51324,34.63328],[135.51368,34.63321],[135.51368,34.63321],[135.51382,34.63318],[135.51394,34.63316],[135.51402,34.63314],[135.51415,34.63312],[135.5143,34.6331],[135.51446,34.63307],[135.51497,34.63299],[135.51544,34.63294],[135.51544,34.63294],[135.51573,34.63289],[135.51667,34.63274],[135.51675,34.63273],[135.51677,34.63273],[135.51669,34.63233],[135.51669,34.63232],[135.51662,34.63197],[135.51655,34.63162],[135.51655,34.63161],[135.51651,34.63127],[135.51645,34.63091],[135.51645,34.6309]]]}},{"type":"Feature","properties":{"name":"阪南町三丁目","setai":1732,"jinko":3926,"key":"27119010003","units":1,"m":1892,"f":2034,"gk":83,"a0":524,"a1":2227,"a2":1112,"a75":602,"ag":[160,186,178,171,172,153,201,221,264,308,279,235,223,221,289,213,175,135,63,14,2],"nf":63},"geometry":{"type":"Polygon","coordinates":[[[135.51253,34.63065],[135.51316,34.63056],[135.51316,34.63057],[135.51378,34.63048],[135.51379,34.63048],[135.51456,34.63037],[135.51457,34.63037],[135.51505,34.6303],[135.51578,34.6302],[135.51634,34.63012],[135.51626,34.62956],[135.5162,34.62919],[135.51617,34.62902],[135.51615,34.62884],[135.51609,34.62848],[135.51604,34.62812],[135.51599,34.62777],[135.51595,34.62741],[135.51595,34.6274],[135.51589,34.62705],[135.51584,34.62671],[135.51585,34.62669],[135.51582,34.62668],[135.51582,34.62668],[135.51458,34.62681],[135.51456,34.62681],[135.514,34.62686],[135.51396,34.62687],[135.51393,34.62687],[135.51329,34.62693],[135.51328,34.62693],[135.5127,34.62698],[135.51265,34.62699],[135.51261,34.62699],[135.51208,34.62705],[135.51206,34.62705],[135.51192,34.62706],[135.51186,34.62707],[135.5118,34.62707],[135.5118,34.62707],[135.51088,34.62716],[135.51085,34.62716],[135.51087,34.62736],[135.51088,34.62751],[135.51091,34.62766],[135.51092,34.62773],[135.51095,34.62798],[135.51095,34.62803],[135.51097,34.62822],[135.51101,34.62839],[135.51104,34.6285],[135.51106,34.62862],[135.51113,34.62895],[135.51113,34.62896],[135.51119,34.62921],[135.51122,34.62935],[135.51123,34.6295],[135.51125,34.6297],[135.51125,34.62972],[135.51129,34.63005],[135.5113,34.63008],[135.51133,34.63033],[135.51135,34.63057],[135.51136,34.63074],[135.51253,34.63065]]]}},{"type":"Feature","properties":{"name":"阪南町四丁目","setai":834,"jinko":1794,"key":"27119010004","units":1,"m":807,"f":987,"gk":65,"a0":233,"a1":1030,"a2":522,"a75":307,"ag":[75,75,83,82,74,69,98,109,116,134,118,126,104,92,123,103,90,68,37,8,1],"nf":9},"geometry":{"type":"Polygon","coordinates":[[[135.51555,34.62488],[135.5155,34.62453],[135.51424,34.62466],[135.51374,34.62471],[135.51359,34.62472],[135.51298,34.62478],[135.51297,34.62478],[135.51257,34.62482],[135.51236,34.62484],[135.51229,34.62485],[135.51198,34.62488],[135.51174,34.6249],[135.51179,34.62519],[135.51179,34.62524],[135.51182,34.62544],[135.51184,34.6256],[135.51185,34.62561],[135.5119,34.62596],[135.5119,34.62596],[135.51191,34.62603],[135.51195,34.62632],[135.51195,34.62633],[135.51197,34.62648],[135.512,34.62668],[135.512,34.62668],[135.51203,34.62685],[135.51206,34.62704],[135.51206,34.62705],[135.51208,34.62705],[135.51261,34.62699],[135.51265,34.62699],[135.5127,34.62698],[135.51328,34.62693],[135.51329,34.62693],[135.51393,34.62687],[135.51396,34.62687],[135.514,34.62686],[135.51456,34.62681],[135.51458,34.62681],[135.51582,34.62668],[135.51582,34.62668],[135.51576,34.62632],[135.51576,34.62631],[135.51571,34.62597],[135.51571,34.62596],[135.51566,34.6256],[135.51561,34.62524],[135.51555,34.62489],[135.51555,34.62488]]]}},{"type":"Feature","properties":{"name":"阪南町五丁目","setai":1205,"jinko":2304,"key":"27119010005","units":1,"m":1025,"f":1279,"gk":53,"a0":304,"a1":1501,"a2":487,"a75":263,"ag":[112,101,91,100,126,164,165,149,171,200,160,154,112,109,115,94,90,47,24,5,3],"nf":12},"geometry":{"type":"Polygon","coordinates":[[[135.51512,34.62193],[135.51508,34.62157],[135.51507,34.62154],[135.51454,34.6216],[135.51448,34.62121],[135.51417,34.6212],[135.51379,34.62127],[135.51323,34.62137],[135.51321,34.62138],[135.51293,34.62142],[135.51251,34.62147],[135.512,34.62151],[135.51187,34.62153],[135.51131,34.62158],[135.51127,34.62159],[135.51131,34.62193],[135.51137,34.6223],[135.51142,34.62265],[135.51142,34.62266],[135.51147,34.62297],[135.51147,34.62301],[135.51147,34.62305],[135.51152,34.62337],[135.51158,34.62375],[135.51158,34.62375],[135.51163,34.62412],[135.51163,34.62415],[135.51169,34.6245],[135.51169,34.62451],[135.51174,34.6249],[135.51198,34.62488],[135.51229,34.62485],[135.51236,34.62484],[135.51257,34.62482],[135.51297,34.62478],[135.51298,34.62478],[135.51359,34.62472],[135.51374,34.62471],[135.51424,34.62466],[135.5155,34.62453],[135.51544,34.62416],[135.51544,34.62415],[135.51544,34.62414],[135.5154,34.62376],[135.51539,34.62376],[135.51534,34.62338],[135.51534,34.62337],[135.51528,34.623],[135.51528,34.62299],[135.51528,34.62298],[135.51523,34.62264],[135.51523,34.62264],[135.51517,34.62229],[135.51512,34.62193]]]}},{"type":"Feature","properties":{"name":"阪南町六丁目","setai":639,"jinko":1431,"key":"27119010006","units":1,"m":671,"f":760,"gk":25,"a0":227,"a1":877,"a2":314,"a75":187,"ag":[108,64,55,57,62,55,93,125,109,134,84,84,74,58,69,65,56,46,14,4,2],"nf":13},"geometry":{"type":"Polygon","coordinates":[[[135.51354,34.61926],[135.51351,34.61907],[135.51277,34.61915],[135.51269,34.61916],[135.5124,34.61919],[135.5122,34.61921],[135.51218,34.61921],[135.51209,34.61922],[135.51157,34.61928],[135.51132,34.6193],[135.51097,34.61934],[135.51099,34.61953],[135.51102,34.61971],[135.51108,34.62009],[135.51114,34.62046],[135.51119,34.62083],[135.51124,34.62121],[135.51131,34.62158],[135.51187,34.62153],[135.512,34.62151],[135.51251,34.62147],[135.51293,34.62142],[135.51321,34.62138],[135.51323,34.62137],[135.51379,34.62127],[135.51377,34.62114],[135.51375,34.62095],[135.51372,34.62078],[135.51369,34.62058],[135.51366,34.62025],[135.51366,34.62021],[135.51361,34.61984],[135.51356,34.61944],[135.51354,34.61926]]]}},{"type":"Feature","properties":{"name":"阪南町七丁目","setai":657,"jinko":1460,"key":"27119010007","units":1,"m":707,"f":753,"gk":32,"a0":221,"a1":943,"a2":260,"a75":158,"ag":[95,61,65,60,82,89,121,101,96,114,115,98,67,53,49,38,38,50,20,11,1],"nf":36},"geometry":{"type":"Polygon","coordinates":[[[135.51331,34.61706],[135.51324,34.61649],[135.51319,34.61649],[135.51228,34.61656],[135.5119,34.61661],[135.5106,34.61672],[135.51068,34.61729],[135.51075,34.61781],[135.51082,34.61835],[135.51083,34.61843],[135.51087,34.61874],[135.51088,34.61884],[135.5109,34.61903],[135.51097,34.61934],[135.51132,34.6193],[135.51157,34.61928],[135.51209,34.61922],[135.51218,34.61921],[135.5122,34.61921],[135.5124,34.61919],[135.51269,34.61916],[135.51277,34.61915],[135.51351,34.61907],[135.51346,34.61865],[135.5134,34.61812],[135.51334,34.61759],[135.51327,34.61707],[135.51331,34.61706]]]}},{"type":"Feature","properties":{"name":"王子町一丁目","setai":663,"jinko":1329,"key":"27119011001","units":1,"m":595,"f":734,"gk":40,"a0":125,"a1":754,"a2":402,"a75":213,"ag":[37,45,43,48,69,71,76,64,69,88,101,98,70,75,114,83,76,37,16,1,0],"nf":48},"geometry":{"type":"Polygon","coordinates":[[[135.51177,34.6339],[135.51175,34.63374],[135.51162,34.6338],[135.51131,34.63389],[135.5109,34.634],[135.51001,34.63421],[135.50995,34.63422],[135.50994,34.63423],[135.50997,34.63444],[135.51001,34.63467],[135.51005,34.63498],[135.51004,34.63498],[135.5101,34.63544],[135.51014,34.6357],[135.51018,34.63597],[135.51021,34.6363],[135.51017,34.63636],[135.51034,34.63657],[135.51036,34.63666],[135.51037,34.63674],[135.51103,34.63665],[135.5117,34.63655],[135.51215,34.63648],[135.51206,34.63601],[135.51202,34.63577],[135.51201,34.63574],[135.51197,34.63546],[135.51193,34.63503],[135.51191,34.63489],[135.5119,34.63477],[135.51187,34.63452],[135.51184,34.63434],[135.51181,34.63413],[135.51177,34.6339]]]}},{"type":"Feature","properties":{"name":"王子町二丁目","setai":594,"jinko":1218,"key":"27119011002","units":1,"m":575,"f":643,"gk":21,"a0":158,"a1":684,"a2":349,"a75":172,"ag":[72,55,31,31,56,53,88,100,71,83,85,56,61,66,111,73,49,32,15,2,1],"nf":27},"geometry":{"type":"Polygon","coordinates":[[[135.5114,34.63103],[135.51136,34.63074],[135.51087,34.63079],[135.51048,34.63083],[135.50965,34.63093],[135.50965,34.63109],[135.50965,34.63113],[135.50972,34.63159],[135.50976,34.63185],[135.50978,34.63187],[135.50984,34.63227],[135.50985,34.63244],[135.50988,34.63271],[135.50993,34.63297],[135.50995,34.63305],[135.50995,34.63336],[135.50995,34.63361],[135.50992,34.63368],[135.50986,34.63377],[135.50976,34.6338],[135.50979,34.63393],[135.5099,34.63399],[135.50993,34.63407],[135.50995,34.63422],[135.51001,34.63421],[135.5109,34.634],[135.51131,34.63389],[135.51162,34.6338],[135.51175,34.63374],[135.51173,34.63353],[135.51173,34.63352],[135.51169,34.63315],[135.51161,34.63263],[135.5116,34.63258],[135.51158,34.6324],[135.51153,34.6321],[135.51153,34.6321],[135.5115,34.63187],[135.51147,34.63165],[135.51143,34.63129],[135.51141,34.63118],[135.5114,34.63103]]]}},{"type":"Feature","properties":{"name":"王子町三丁目","setai":598,"jinko":1187,"key":"27119011003","units":1,"m":588,"f":599,"gk":32,"a0":137,"a1":659,"a2":355,"a75":205,"ag":[35,53,49,41,58,60,73,71,70,84,71,69,62,73,77,82,73,34,15,0,1],"nf":36},"geometry":{"type":"Polygon","coordinates":[[[135.51087,34.62736],[135.51085,34.62716],[135.51021,34.62734],[135.51003,34.62739],[135.50963,34.6275],[135.50917,34.62755],[135.50912,34.62755],[135.50923,34.62817],[135.50927,34.62842],[135.50935,34.62887],[135.50935,34.62891],[135.50937,34.62902],[135.50945,34.62952],[135.50948,34.62986],[135.50953,34.63024],[135.50954,34.63031],[135.5096,34.63073],[135.50965,34.63093],[135.51048,34.63083],[135.51087,34.63079],[135.51136,34.63074],[135.51135,34.63057],[135.51133,34.63033],[135.5113,34.63008],[135.51129,34.63005],[135.51125,34.62972],[135.51125,34.6297],[135.51123,34.6295],[135.51122,34.62935],[135.51119,34.62921],[135.51113,34.62896],[135.51113,34.62895],[135.51106,34.62862],[135.51104,34.6285],[135.51101,34.62839],[135.51097,34.62822],[135.51095,34.62803],[135.51095,34.62798],[135.51092,34.62773],[135.51091,34.62766],[135.51088,34.62751],[135.51087,34.62736]]]}},{"type":"Feature","properties":{"name":"王子町四丁目","setai":862,"jinko":2135,"key":"27119011004","units":1,"m":945,"f":1190,"gk":47,"a0":424,"a1":1124,"a2":569,"a75":381,"ag":[192,168,64,64,45,57,133,205,191,160,107,96,66,82,106,92,100,95,66,26,2],"nf":18},"geometry":{"type":"Polygon","coordinates":[[[135.51179,34.62524],[135.51179,34.62519],[135.51178,34.62519],[135.51155,34.6252],[135.51131,34.62521],[135.50996,34.62529],[135.50906,34.62535],[135.50894,34.62535],[135.50894,34.62541],[135.50897,34.62563],[135.50897,34.62567],[135.50898,34.62574],[135.50899,34.62578],[135.509,34.62585],[135.509,34.62587],[135.50901,34.62601],[135.50902,34.62608],[135.50905,34.62637],[135.50905,34.62643],[135.50907,34.62663],[135.50908,34.62672],[135.50914,34.62733],[135.50917,34.62755],[135.50963,34.6275],[135.51003,34.62739],[135.51021,34.62734],[135.51085,34.62716],[135.51088,34.62716],[135.5118,34.62707],[135.5118,34.62707],[135.51186,34.62707],[135.51192,34.62706],[135.51206,34.62705],[135.51206,34.62704],[135.51203,34.62685],[135.512,34.62668],[135.512,34.62668],[135.51197,34.62648],[135.51195,34.62633],[135.51195,34.62632],[135.51191,34.62603],[135.5119,34.62596],[135.5119,34.62596],[135.51185,34.62561],[135.51184,34.6256],[135.51182,34.62544],[135.51179,34.62524]]]}},{"type":"Feature","properties":{"name":"共立通一丁目","setai":456,"jinko":929,"key":"27119012001","units":1,"m":458,"f":471,"gk":16,"a0":86,"a1":523,"a2":295,"a75":159,"ag":[20,26,40,61,38,38,38,44,47,83,68,50,56,63,73,76,42,27,13,1,0],"nf":25},"geometry":{"type":"Polygon","coordinates":[[[135.50976,34.63963],[135.50969,34.63959],[135.50966,34.63959],[135.50955,34.6396],[135.50951,34.63961],[135.50949,34.63961],[135.50944,34.63935],[135.50943,34.63931],[135.50942,34.63932],[135.50941,34.63925],[135.50957,34.63922],[135.50943,34.63893],[135.50943,34.63892],[135.50936,34.63878],[135.50935,34.63872],[135.50933,34.63863],[135.50936,34.63846],[135.50937,34.63843],[135.5094,34.63832],[135.50939,34.63823],[135.50932,34.63809],[135.50908,34.63815],[135.50857,34.63821],[135.5083,34.63824],[135.50826,34.63822],[135.50794,34.63814],[135.5076,34.63804],[135.50742,34.63813],[135.50727,34.63815],[135.50726,34.63815],[135.50709,34.63837],[135.50702,34.63851],[135.50701,34.63863],[135.50707,34.63878],[135.50712,34.63908],[135.50716,34.63928],[135.50728,34.63926],[135.5073,34.63928],[135.50738,34.63942],[135.50744,34.63973],[135.50742,34.63974],[135.50741,34.63977],[135.50745,34.64026],[135.50849,34.64013],[135.50989,34.63996],[135.50987,34.63986],[135.50982,34.63973],[135.50976,34.63963]]]}},{"type":"Feature","properties":{"name":"共立通二丁目","setai":340,"jinko":809,"key":"27119012002","units":1,"m":382,"f":427,"gk":31,"a0":132,"a1":457,"a2":203,"a75":111,"ag":[43,48,41,43,32,34,52,43,53,71,48,53,28,45,47,52,36,15,5,3,0],"nf":17},"geometry":{"type":"Polygon","coordinates":[[[135.50738,34.63942],[135.5073,34.63928],[135.50728,34.63926],[135.50716,34.63928],[135.50712,34.63908],[135.50707,34.63878],[135.50701,34.63863],[135.50702,34.63851],[135.50709,34.63837],[135.50726,34.63815],[135.50727,34.63815],[135.50742,34.63813],[135.5076,34.63804],[135.50752,34.63799],[135.50736,34.63793],[135.50721,34.63788],[135.50707,34.63783],[135.5067,34.63778],[135.50656,34.63778],[135.50651,34.63781],[135.50649,34.63781],[135.50645,34.63784],[135.50625,34.6379],[135.50616,34.63793],[135.50597,34.63816],[135.50557,34.63815],[135.50499,34.63803],[135.50476,34.63809],[135.50452,34.63808],[135.50422,34.63807],[135.50428,34.63818],[135.50432,34.63825],[135.50439,34.63835],[135.50444,34.63846],[135.50444,34.63847],[135.50453,34.63865],[135.50463,34.63885],[135.50471,34.63899],[135.50476,34.63908],[135.50484,34.63922],[135.50493,34.63938],[135.50494,34.6394],[135.50502,34.63956],[135.50509,34.63974],[135.5051,34.63976],[135.50515,34.63984],[135.5053,34.64005],[135.50532,34.64012],[135.5054,34.64028],[135.50552,34.64052],[135.50697,34.64032],[135.50745,34.64026],[135.50741,34.63977],[135.50742,34.63974],[135.50744,34.63973],[135.50738,34.63942]]]}},{"type":"Feature","properties":{"name":"丸山通一丁目","setai":593,"jinko":1154,"key":"27119013001","units":1,"m":526,"f":628,"gk":45,"a0":117,"a1":696,"a2":286,"a75":183,"ag":[21,44,52,55,85,71,52,45,82,90,89,79,48,42,61,50,39,45,32,16,1],"nf":55},"geometry":{"type":"Polygon","coordinates":[[[135.50965,34.63782],[135.50972,34.63771],[135.50968,34.63768],[135.50976,34.63767],[135.50979,34.63767],[135.50997,34.63764],[135.51017,34.63761],[135.51056,34.63756],[135.51053,34.63747],[135.51053,34.63746],[135.51046,34.63718],[135.5104,34.63688],[135.51037,34.63674],[135.51036,34.63666],[135.51034,34.63657],[135.51017,34.63636],[135.51008,34.6362],[135.50996,34.63588],[135.50959,34.63593],[135.50949,34.63595],[135.50922,34.63599],[135.50808,34.63619],[135.50809,34.63621],[135.50806,34.63622],[135.50794,34.63624],[135.50767,34.63638],[135.5076,34.63641],[135.5074,34.63647],[135.50721,34.63651],[135.50712,34.63649],[135.50705,34.63649],[135.50683,34.63651],[135.50622,34.63689],[135.5063,34.63701],[135.50628,34.63734],[135.50626,34.63734],[135.50651,34.63781],[135.50656,34.63778],[135.5067,34.63778],[135.50707,34.63783],[135.50721,34.63788],[135.50736,34.63793],[135.50752,34.63799],[135.5076,34.63804],[135.50794,34.63814],[135.50826,34.63822],[135.5083,34.63824],[135.50857,34.63821],[135.50908,34.63815],[135.50932,34.63809],[135.50942,34.63795],[135.50965,34.63782]]]}},{"type":"Feature","properties":{"name":"丸山通二丁目","setai":464,"jinko":1007,"key":"27119013002","units":1,"m":457,"f":550,"gk":31,"a0":116,"a1":607,"a2":262,"a75":134,"ag":[28,41,47,56,52,37,51,58,45,78,76,79,75,70,58,52,43,24,12,3,0],"nf":22},"geometry":{"type":"Polygon","coordinates":[[[135.50597,34.63816],[135.50616,34.63793],[135.50625,34.6379],[135.50645,34.63784],[135.50649,34.63781],[135.50651,34.63781],[135.50626,34.63734],[135.50628,34.63734],[135.5063,34.63701],[135.50622,34.63689],[135.5061,34.63681],[135.5058,34.63679],[135.50555,34.63687],[135.50546,34.63687],[135.50542,34.63685],[135.50528,34.63667],[135.50508,34.63649],[135.50502,34.63643],[135.50494,34.6364],[135.50487,34.63637],[135.50425,34.63632],[135.50408,34.63632],[135.50396,34.63632],[135.50371,34.63629],[135.50358,34.63629],[135.5034,34.63633],[135.50325,34.63631],[135.50306,34.63633],[135.50307,34.63637],[135.50318,34.63662],[135.50349,34.63729],[135.50354,34.63727],[135.50365,34.63754],[135.50382,34.63786],[135.50384,34.63786],[135.50392,34.638],[135.50398,34.63812],[135.50418,34.63803],[135.50422,34.63807],[135.50452,34.63808],[135.50476,34.63809],[135.50499,34.63803],[135.50557,34.63815],[135.50597,34.63816]]]}},{"type":"Feature","properties":{"name":"松虫通一丁目","setai":396,"jinko":791,"key":"27119014001","units":1,"m":375,"f":416,"gk":24,"a0":105,"a1":436,"a2":216,"a75":115,"ag":[35,29,41,33,38,50,31,55,53,63,44,33,36,47,54,42,35,31,7,0,0],"nf":34},"geometry":{"type":"Polygon","coordinates":[[[135.5092,34.6339],[135.5092,34.63386],[135.50916,34.63386],[135.50901,34.63361],[135.50898,34.63361],[135.50834,34.63379],[135.50832,34.6338],[135.508,34.6339],[135.50796,34.63397],[135.50766,34.634],[135.50765,34.634],[135.50769,34.63408],[135.50773,34.63421],[135.50786,34.6345],[135.50804,34.63497],[135.50759,34.63518],[135.50758,34.63519],[135.50762,34.63525],[135.50768,34.63541],[135.50778,34.63554],[135.50781,34.63563],[135.50784,34.63581],[135.50789,34.63587],[135.50777,34.63596],[135.50731,34.63623],[135.50721,34.6363],[135.50703,34.63636],[135.5071,34.63641],[135.50712,34.63649],[135.50721,34.63651],[135.5074,34.63647],[135.5076,34.63641],[135.50767,34.63638],[135.50794,34.63624],[135.50806,34.63622],[135.50809,34.63621],[135.50808,34.63619],[135.50922,34.63599],[135.50949,34.63595],[135.50959,34.63593],[135.50996,34.63588],[135.50982,34.63543],[135.50969,34.635],[135.5097,34.635],[135.50967,34.63488],[135.50957,34.63466],[135.50943,34.63435],[135.50939,34.63428],[135.5092,34.6339]]]}},{"type":"Feature","properties":{"name":"松虫通二丁目","setai":560,"jinko":1251,"key":"27119014002","units":1,"m":616,"f":635,"gk":13,"a0":207,"a1":713,"a2":279,"a75":156,"ag":[59,78,70,55,55,51,77,89,99,96,78,65,48,53,70,58,54,39,4,1,0],"nf":52},"geometry":{"type":"Polygon","coordinates":[[[135.50683,34.63651],[135.50705,34.63649],[135.50712,34.63649],[135.5071,34.63641],[135.50703,34.63636],[135.50721,34.6363],[135.50731,34.63623],[135.50777,34.63596],[135.50789,34.63587],[135.50784,34.63581],[135.50781,34.63563],[135.50778,34.63554],[135.50768,34.63541],[135.50762,34.63525],[135.50758,34.63519],[135.50759,34.63518],[135.50804,34.63497],[135.50786,34.6345],[135.50773,34.63421],[135.50769,34.63408],[135.50765,34.634],[135.50734,34.63404],[135.50669,34.63411],[135.50662,34.63411],[135.50603,34.63418],[135.50573,34.63422],[135.50574,34.6343],[135.50575,34.6345],[135.50572,34.63454],[135.50564,34.63469],[135.50557,34.63495],[135.50557,34.63518],[135.50546,34.63548],[135.50547,34.63548],[135.50558,34.63596],[135.50558,34.63605],[135.50561,34.63627],[135.50568,34.63653],[135.5058,34.63679],[135.5061,34.63681],[135.50622,34.63689],[135.50683,34.63651]]]}},{"type":"Feature","properties":{"name":"松虫通三丁目","setai":202,"jinko":446,"key":"27119014003","units":1,"m":197,"f":249,"gk":12,"a0":54,"a1":246,"a2":135,"a75":75,"ag":[22,13,19,24,22,16,18,25,35,31,29,25,21,31,29,26,30,14,4,0,1],"nf":11},"geometry":{"type":"Polygon","coordinates":[[[135.50568,34.63653],[135.50561,34.63627],[135.50558,34.63605],[135.50558,34.63596],[135.50547,34.63548],[135.50546,34.63548],[135.50557,34.63518],[135.50557,34.63495],[135.50564,34.63469],[135.50572,34.63454],[135.50575,34.6345],[135.50574,34.6343],[135.50573,34.63422],[135.50558,34.63422],[135.5054,34.63412],[135.50523,34.6341],[135.50522,34.6341],[135.50501,34.63409],[135.50472,34.63417],[135.50437,34.63422],[135.50422,34.63425],[135.5042,34.63425],[135.50404,34.63431],[135.50402,34.63431],[135.50385,34.63439],[135.50378,34.6344],[135.50362,34.63435],[135.50353,34.63437],[135.5032,34.63461],[135.50313,34.63466],[135.50301,34.63468],[135.50258,34.63475],[135.50238,34.63479],[135.50239,34.63484],[135.50243,34.63505],[135.50238,34.6351],[135.50236,34.6353],[135.50238,34.63547],[135.50244,34.63547],[135.50244,34.63547],[135.50244,34.63549],[135.50254,34.63566],[135.50262,34.63582],[135.50263,34.63588],[135.50264,34.6359],[135.50272,34.63599],[135.50282,34.63612],[135.50292,34.63626],[135.50295,34.63627],[135.50303,34.6363],[135.50306,34.63633],[135.50325,34.63631],[135.5034,34.63633],[135.50358,34.63629],[135.50371,34.63629],[135.50396,34.63632],[135.50408,34.63632],[135.50425,34.63632],[135.50487,34.63637],[135.50494,34.6364],[135.50502,34.63643],[135.50508,34.63649],[135.50528,34.63667],[135.50542,34.63685],[135.50546,34.63687],[135.50555,34.63687],[135.5058,34.63679],[135.50568,34.63653]]]}},{"type":"Feature","properties":{"name":"阿倍野元町","setai":1012,"jinko":2171,"key":"271190150","units":1,"m":1011,"f":1160,"gk":55,"a0":249,"a1":1327,"a2":548,"a75":271,"ag":[79,86,84,116,117,112,103,96,161,161,152,179,130,111,166,107,77,47,32,8,0],"nf":47},"geometry":{"type":"Polygon","coordinates":[[[135.50979,34.63393],[135.50976,34.6338],[135.50986,34.63377],[135.50992,34.63368],[135.50995,34.63361],[135.50995,34.63336],[135.50995,34.63305],[135.50993,34.63297],[135.50988,34.63271],[135.50985,34.63244],[135.50984,34.63227],[135.50978,34.63187],[135.50976,34.63185],[135.50972,34.63159],[135.50965,34.63113],[135.50965,34.63109],[135.50965,34.63093],[135.5096,34.63073],[135.50954,34.63031],[135.50953,34.63024],[135.50948,34.62986],[135.50945,34.62952],[135.50937,34.62902],[135.50935,34.62891],[135.50935,34.62887],[135.50927,34.62842],[135.50923,34.62817],[135.50832,34.62828],[135.50766,34.62836],[135.50757,34.62837],[135.50733,34.6284],[135.50702,34.62844],[135.50679,34.62846],[135.5064,34.62856],[135.50633,34.62858],[135.50636,34.62864],[135.50651,34.6289],[135.50692,34.62966],[135.50723,34.63025],[135.5075,34.63074],[135.5076,34.63092],[135.50776,34.63122],[135.50787,34.63142],[135.50818,34.63203],[135.50857,34.63278],[135.50858,34.63278],[135.50888,34.63334],[135.50901,34.63361],[135.50916,34.63386],[135.5092,34.63386],[135.5092,34.6339],[135.50939,34.63428],[135.50943,34.63435],[135.50957,34.63466],[135.50967,34.63488],[135.5097,34.635],[135.50969,34.635],[135.50982,34.63543],[135.50996,34.63588],[135.51008,34.6362],[135.51017,34.63636],[135.51021,34.6363],[135.51018,34.63597],[135.51014,34.6357],[135.5101,34.63544],[135.51004,34.63498],[135.51005,34.63498],[135.51001,34.63467],[135.50997,34.63444],[135.50994,34.63423],[135.50995,34.63422],[135.50993,34.63407],[135.5099,34.63399],[135.50979,34.63393]]]}},{"type":"Feature","properties":{"name":"桃ケ池町一丁目","setai":464,"jinko":949,"key":"27119016001","units":1,"m":425,"f":524,"gk":14,"a0":99,"a1":488,"a2":318,"a75":149,"ag":[39,25,35,38,35,29,34,58,55,57,58,75,49,63,106,56,50,33,8,2,0],"nf":44},"geometry":{"type":"Polygon","coordinates":[[[135.5227,34.62999],[135.52265,34.62986],[135.52209,34.6286],[135.52109,34.62894],[135.52081,34.62839],[135.52066,34.6281],[135.52051,34.62779],[135.52046,34.62769],[135.52042,34.6277],[135.51993,34.62775],[135.5187,34.62787],[135.51868,34.62787],[135.51874,34.6283],[135.51887,34.62927],[135.51896,34.6299],[135.51935,34.62987],[135.51951,34.63013],[135.51951,34.63014],[135.51967,34.6304],[135.51987,34.63074],[135.51998,34.63091],[135.52008,34.63106],[135.52035,34.63137],[135.52036,34.63139],[135.52064,34.6317],[135.52096,34.63205],[135.52092,34.63206],[135.52091,34.63247],[135.5209,34.63284],[135.5209,34.63287],[135.52095,34.63322],[135.52098,34.63319],[135.52135,34.63281],[135.52153,34.63261],[135.52213,34.63199],[135.52205,34.63198],[135.52213,34.63184],[135.52257,34.63137],[135.52271,34.63122],[135.52308,34.63084],[135.52272,34.63004],[135.5227,34.62999]]]}},{"type":"Feature","properties":{"name":"桃ケ池町二丁目","setai":454,"jinko":853,"key":"27119016002","units":1,"m":394,"f":459,"gk":23,"a0":114,"a1":467,"a2":213,"a75":117,"ag":[33,43,38,32,26,41,46,43,67,63,66,44,39,41,55,42,32,29,13,1,0],"nf":59},"geometry":{"type":"Polygon","coordinates":[[[135.5217,34.62775],[135.52165,34.62764],[135.52151,34.6273],[135.5214,34.62703],[135.52121,34.6266],[135.52117,34.62653],[135.52101,34.62619],[135.52027,34.62625],[135.51955,34.62632],[135.51848,34.62642],[135.51854,34.62679],[135.5186,34.62715],[135.51865,34.62751],[135.51865,34.62752],[135.5187,34.62787],[135.51993,34.62775],[135.52042,34.6277],[135.52046,34.62769],[135.52051,34.62779],[135.52066,34.6281],[135.52081,34.62839],[135.52109,34.62894],[135.52209,34.6286],[135.52186,34.6281],[135.5217,34.62775]]]}},{"type":"Feature","properties":{"name":"長池町","setai":602,"jinko":1211,"key":"271190170","units":1,"m":551,"f":660,"gk":30,"a0":133,"a1":682,"a2":354,"a75":190,"ag":[39,44,50,51,46,67,71,71,80,84,62,74,76,73,91,63,60,45,18,2,2],"nf":42},"geometry":{"type":"Polygon","coordinates":[[[135.52056,34.62508],[135.52037,34.62465],[135.5203,34.62449],[135.52026,34.6244],[135.52022,34.6243],[135.51999,34.62377],[135.51978,34.62335],[135.51959,34.623],[135.51945,34.62274],[135.51897,34.6218],[135.5187,34.62125],[135.51794,34.62131],[135.51664,34.62142],[135.51653,34.62143],[135.5165,34.62144],[135.51654,34.62178],[135.51657,34.62199],[135.51659,34.62213],[135.51664,34.62249],[135.51664,34.62249],[135.51686,34.62247],[135.51688,34.62259],[135.51705,34.6226],[135.51722,34.62256],[135.51731,34.62285],[135.51737,34.62299],[135.51739,34.62304],[135.51738,34.62317],[135.51738,34.62317],[135.51738,34.62357],[135.51737,34.62357],[135.51733,34.62357],[135.51754,34.62393],[135.51755,34.62401],[135.51774,34.62431],[135.51778,34.62435],[135.51795,34.62463],[135.51796,34.62464],[135.51818,34.62499],[135.51826,34.62498],[135.51832,34.62534],[135.51837,34.6257],[135.51837,34.62571],[135.51843,34.62606],[135.51848,34.62642],[135.51955,34.62632],[135.52027,34.62625],[135.52101,34.62619],[135.52076,34.62559],[135.52058,34.6252],[135.52057,34.62514],[135.52056,34.62508]]]}},{"type":"Feature","properties":{"name":"西田辺町一丁目","setai":808,"jinko":1474,"key":"27119018001","units":1,"m":647,"f":827,"gk":25,"a0":145,"a1":813,"a2":412,"a75":248,"ag":[51,47,47,38,70,93,94,94,84,101,81,84,74,85,79,81,55,62,33,14,3],"nf":104},"geometry":{"type":"Polygon","coordinates":[[[135.51454,34.6216],[135.51507,34.62154],[135.51508,34.62157],[135.51584,34.62149],[135.51627,34.62146],[135.5165,34.62144],[135.51653,34.62143],[135.51664,34.62142],[135.51794,34.62131],[135.5187,34.62125],[135.51855,34.62097],[135.51854,34.62094],[135.51846,34.62078],[135.51841,34.62068],[135.51796,34.6198],[135.51768,34.61926],[135.51745,34.61885],[135.51742,34.61884],[135.51739,34.61882],[135.51713,34.61835],[135.51638,34.61841],[135.51597,34.61844],[135.51549,34.61848],[135.5147,34.61855],[135.51433,34.61858],[135.51403,34.6186],[135.51346,34.61865],[135.51351,34.61907],[135.51354,34.61926],[135.51356,34.61944],[135.51361,34.61984],[135.51366,34.62021],[135.51366,34.62025],[135.51369,34.62058],[135.51372,34.62078],[135.51375,34.62095],[135.51377,34.62114],[135.51379,34.62127],[135.51417,34.6212],[135.51448,34.62121],[135.51454,34.6216]]]}},{"type":"Feature","properties":{"name":"西田辺町二丁目","setai":923,"jinko":1574,"key":"27119018002","units":1,"m":740,"f":834,"gk":41,"a0":161,"a1":1025,"a2":304,"a75":153,"ag":[42,57,62,56,82,107,105,102,125,133,100,120,95,71,80,58,42,40,12,1,0],"nf":84},"geometry":{"type":"Polygon","coordinates":[[[135.51594,34.61629],[135.51593,34.61627],[135.51452,34.61638],[135.51445,34.61639],[135.51376,34.61645],[135.51376,34.61645],[135.51347,34.61647],[135.51324,34.61649],[135.51331,34.61706],[135.51327,34.61707],[135.51334,34.61759],[135.5134,34.61812],[135.51346,34.61865],[135.51403,34.6186],[135.51433,34.61858],[135.5147,34.61855],[135.51549,34.61848],[135.51597,34.61844],[135.51638,34.61841],[135.51713,34.61835],[135.51679,34.61771],[135.51669,34.61761],[135.51655,34.61745],[135.51663,34.61741],[135.51665,34.6174],[135.51664,34.61738],[135.5166,34.61733],[135.51658,34.6173],[135.5165,34.61718],[135.51639,34.617],[135.51638,34.61699],[135.5163,34.61687],[135.51609,34.61651],[135.516,34.61637],[135.51594,34.61629]]]}},{"type":"Feature","properties":{"name":"晴明通","setai":753,"jinko":1913,"key":"271190190","units":1,"m":885,"f":1028,"gk":31,"a0":278,"a1":1083,"a2":524,"a75":297,"ag":[77,90,111,102,93,59,85,112,121,132,141,130,108,122,105,92,76,68,49,11,1],"nf":28},"geometry":{"type":"Polygon","coordinates":[[[135.50603,34.63418],[135.50662,34.63411],[135.50669,34.63411],[135.50734,34.63404],[135.50765,34.634],[135.50766,34.634],[135.50796,34.63397],[135.508,34.6339],[135.50832,34.6338],[135.50834,34.63379],[135.50898,34.63361],[135.50901,34.63361],[135.50888,34.63334],[135.50858,34.63278],[135.50857,34.63278],[135.50818,34.63203],[135.50787,34.63142],[135.50751,34.63143],[135.50727,34.63141],[135.50712,34.6314],[135.50604,34.63134],[135.50582,34.63132],[135.50569,34.63128],[135.50558,34.6312],[135.50546,34.63114],[135.50533,34.63112],[135.50519,34.63112],[135.50494,34.63119],[135.50481,34.63125],[135.50455,34.63142],[135.50445,34.63146],[135.50417,34.63149],[135.50409,34.63165],[135.50406,34.63167],[135.50373,34.63176],[135.50363,34.63184],[135.50376,34.6327],[135.5044,34.63264],[135.50449,34.63345],[135.50449,34.63352],[135.50451,34.63363],[135.50472,34.63417],[135.50501,34.63409],[135.50522,34.6341],[135.50523,34.6341],[135.5054,34.63412],[135.50558,34.63422],[135.50573,34.63422],[135.50603,34.63418]]]}},{"type":"Feature","properties":{"name":"橋本町","setai":604,"jinko":1534,"key":"271190200","units":1,"m":715,"f":819,"gk":22,"a0":223,"a1":939,"a2":357,"a75":176,"ag":[45,87,91,80,71,56,47,75,89,149,128,133,111,88,93,62,51,37,24,2,0],"nf":15},"geometry":{"type":"Polygon","coordinates":[[[135.50238,34.63479],[135.50258,34.63475],[135.50301,34.63468],[135.50313,34.63466],[135.5032,34.63461],[135.50353,34.63437],[135.50362,34.63435],[135.50378,34.6344],[135.50385,34.63439],[135.50402,34.63431],[135.50404,34.63431],[135.5042,34.63425],[135.50422,34.63425],[135.50437,34.63422],[135.50472,34.63417],[135.50451,34.63363],[135.50449,34.63352],[135.50449,34.63345],[135.5044,34.63264],[135.50376,34.6327],[135.50363,34.63184],[135.50313,34.63188],[135.50282,34.63192],[135.50271,34.63193],[135.50237,34.63193],[135.50229,34.63192],[135.50212,34.63186],[135.50194,34.63168],[135.5018,34.63161],[135.50159,34.63147],[135.50149,34.63135],[135.50141,34.63133],[135.50103,34.63125],[135.50043,34.63113],[135.50041,34.63117],[135.50048,34.6317],[135.50057,34.63187],[135.50077,34.63218],[135.50078,34.63225],[135.50079,34.63227],[135.50079,34.63229],[135.5008,34.63234],[135.50082,34.6324],[135.50087,34.63249],[135.50087,34.63251],[135.50091,34.63252],[135.50096,34.63264],[135.50098,34.63268],[135.50103,34.63266],[135.50114,34.63262],[135.5014,34.63328],[135.50154,34.63364],[135.50179,34.6342],[135.50186,34.63436],[135.50187,34.63437],[135.50189,34.63441],[135.50188,34.63442],[135.50188,34.63442],[135.50186,34.63442],[135.50185,34.63442],[135.50182,34.63443],[135.50181,34.63444],[135.50179,34.63444],[135.50178,34.63445],[135.50177,34.63445],[135.50175,34.63445],[135.50174,34.63446],[135.50173,34.63446],[135.50172,34.63446],[135.50173,34.63448],[135.50174,34.63451],[135.50177,34.63456],[135.50178,34.6346],[135.5018,34.63463],[135.50183,34.6347],[135.50184,34.63473],[135.50185,34.63474],[135.50185,34.63474],[135.50185,34.63474],[135.50188,34.63475],[135.50207,34.63478],[135.50207,34.63478],[135.50207,34.63478],[135.50235,34.63479],[135.50238,34.63479]]]}},{"type":"Feature","properties":{"name":"相生通一丁目","setai":683,"jinko":1574,"key":"27119021001","units":1,"m":718,"f":856,"gk":20,"a0":205,"a1":893,"a2":448,"a75":273,"ag":[62,73,70,94,75,41,62,77,83,119,125,117,100,68,107,102,93,50,23,4,1],"nf":28},"geometry":{"type":"Polygon","coordinates":[[[135.50776,34.63122],[135.5076,34.63092],[135.5075,34.63074],[135.50723,34.63025],[135.50692,34.62966],[135.50651,34.6289],[135.50636,34.62864],[135.50633,34.62858],[135.50617,34.62836],[135.50613,34.62829],[135.50584,34.62846],[135.50545,34.62849],[135.5053,34.62813],[135.5053,34.62813],[135.5053,34.62809],[135.50494,34.62755],[135.50475,34.62763],[135.50387,34.62801],[135.5031,34.62838],[135.50337,34.62868],[135.50346,34.62882],[135.50347,34.62886],[135.50347,34.6289],[135.50339,34.62913],[135.50321,34.62931],[135.50311,34.62939],[135.50312,34.62948],[135.50315,34.6298],[135.50315,34.62981],[135.50362,34.62973],[135.50365,34.62975],[135.50385,34.62984],[135.50417,34.62998],[135.50457,34.6301],[135.50478,34.63017],[135.50482,34.63018],[135.50469,34.63037],[135.50462,34.63048],[135.50463,34.63052],[135.50474,34.63072],[135.50489,34.63093],[135.50491,34.631],[135.50492,34.63113],[135.50494,34.63119],[135.50519,34.63112],[135.50533,34.63112],[135.50546,34.63114],[135.50558,34.6312],[135.50569,34.63128],[135.50582,34.63132],[135.50604,34.63134],[135.50712,34.6314],[135.50727,34.63141],[135.50751,34.63143],[135.50787,34.63142],[135.50776,34.63122]]]}},{"type":"Feature","properties":{"name":"相生通二丁目","setai":661,"jinko":1526,"key":"27119021002","units":1,"m":711,"f":815,"gk":15,"a0":174,"a1":924,"a2":377,"a75":186,"ag":[52,58,64,94,84,55,53,72,89,113,133,118,113,103,88,80,44,41,19,2,0],"nf":51},"geometry":{"type":"Polygon","coordinates":[[[135.50469,34.63037],[135.50482,34.63018],[135.50478,34.63017],[135.50457,34.6301],[135.50417,34.62998],[135.50385,34.62984],[135.50365,34.62975],[135.50362,34.62973],[135.50315,34.62981],[135.50315,34.6298],[135.50312,34.62948],[135.5026,34.62958],[135.50255,34.62958],[135.5025,34.62956],[135.50228,34.62959],[135.50186,34.62975],[135.50159,34.62979],[135.50143,34.62988],[135.50103,34.62998],[135.50092,34.63002],[135.50026,34.6301],[135.50023,34.63014],[135.50026,34.6303],[135.50028,34.6303],[135.50039,34.63059],[135.50039,34.63061],[135.50039,34.63088],[135.50045,34.63112],[135.50043,34.63113],[135.50103,34.63125],[135.50141,34.63133],[135.50149,34.63135],[135.50159,34.63147],[135.5018,34.63161],[135.50194,34.63168],[135.50212,34.63186],[135.50229,34.63192],[135.50237,34.63193],[135.50271,34.63193],[135.50282,34.63192],[135.50313,34.63188],[135.50363,34.63184],[135.50373,34.63176],[135.50406,34.63167],[135.50409,34.63165],[135.50417,34.63149],[135.50445,34.63146],[135.50455,34.63142],[135.50481,34.63125],[135.50494,34.63119],[135.50492,34.63113],[135.50491,34.631],[135.50489,34.63093],[135.50474,34.63072],[135.50463,34.63052],[135.50462,34.63048],[135.50469,34.63037]]]}},{"type":"Feature","properties":{"name":"北畠一丁目","setai":959,"jinko":2328,"key":"27119022001","units":1,"m":1068,"f":1260,"gk":45,"a0":315,"a1":1431,"a2":524,"a75":262,"ag":[79,109,127,143,137,91,88,123,145,184,211,179,130,130,132,85,81,69,20,7,0],"nf":58},"geometry":{"type":"Polygon","coordinates":[[[135.50797,34.6237],[135.50785,34.62351],[135.50701,34.62385],[135.5058,34.62433],[135.50529,34.62454],[135.50487,34.62471],[135.50431,34.62493],[135.50387,34.6251],[135.50411,34.62545],[135.50424,34.62564],[135.50434,34.62576],[135.50436,34.62579],[135.50478,34.62638],[135.50508,34.6268],[135.50544,34.62731],[135.50556,34.62748],[135.50583,34.62785],[135.50587,34.62792],[135.5061,34.62825],[135.50613,34.62829],[135.50617,34.62836],[135.50633,34.62858],[135.5064,34.62856],[135.50679,34.62846],[135.50702,34.62844],[135.50733,34.6284],[135.50757,34.62837],[135.50766,34.62836],[135.50832,34.62828],[135.50923,34.62817],[135.50912,34.62755],[135.50917,34.62755],[135.50914,34.62733],[135.50908,34.62672],[135.50907,34.62663],[135.50905,34.62643],[135.50905,34.62637],[135.50902,34.62608],[135.50901,34.62601],[135.509,34.62587],[135.509,34.62585],[135.50899,34.62578],[135.50898,34.62574],[135.50897,34.62567],[135.50897,34.62563],[135.50894,34.62541],[135.50894,34.62535],[135.50894,34.62535],[135.50888,34.62526],[135.5085,34.62461],[135.5082,34.6241],[135.50818,34.62406],[135.50797,34.6237]]]}},{"type":"Feature","properties":{"name":"北畠二丁目","setai":326,"jinko":820,"key":"27119022002","units":1,"m":376,"f":444,"gk":10,"a0":128,"a1":451,"a2":220,"a75":115,"ag":[38,40,50,39,24,37,38,39,44,61,58,62,49,49,56,39,37,23,14,2,0],"nf":21},"geometry":{"type":"Polygon","coordinates":[[[135.50228,34.62959],[135.5025,34.62956],[135.50255,34.62958],[135.5026,34.62958],[135.50312,34.62948],[135.50311,34.62939],[135.50321,34.62931],[135.50339,34.62913],[135.50347,34.6289],[135.50347,34.62886],[135.50346,34.62882],[135.50337,34.62868],[135.5031,34.62838],[135.50387,34.62801],[135.50475,34.62763],[135.50494,34.62755],[135.5053,34.62809],[135.5053,34.62813],[135.5053,34.62813],[135.50545,34.62849],[135.50584,34.62846],[135.50613,34.62829],[135.5061,34.62825],[135.50587,34.62792],[135.50583,34.62785],[135.50556,34.62748],[135.50544,34.62731],[135.50508,34.6268],[135.50478,34.62638],[135.50436,34.62579],[135.50434,34.62576],[135.50424,34.62564],[135.50411,34.62545],[135.50345,34.62553],[135.50287,34.6256],[135.50188,34.6257],[135.50165,34.62572],[135.50134,34.62576],[135.50119,34.62578],[135.50084,34.62581],[135.50022,34.62589],[135.50027,34.62605],[135.50027,34.62607],[135.50022,34.62632],[135.50025,34.62649],[135.50028,34.62648],[135.50068,34.62647],[135.50095,34.62651],[135.50117,34.62655],[135.50117,34.62651],[135.50136,34.62655],[135.50151,34.62656],[135.50184,34.62711],[135.50177,34.62726],[135.5017,34.62732],[135.50165,34.62741],[135.50148,34.62752],[135.5015,34.62753],[135.50165,34.62759],[135.50191,34.62771],[135.50189,34.62772],[135.50192,34.62781],[135.50204,34.62788],[135.50217,34.62798],[135.50223,34.62813],[135.50228,34.62853],[135.50232,34.62899],[135.50228,34.62927],[135.50228,34.62928],[135.50222,34.62937],[135.50225,34.62946],[135.50228,34.62959]]]}},{"type":"Feature","properties":{"name":"北畠三丁目","setai":899,"jinko":2074,"key":"27119022003","units":1,"m":924,"f":1150,"gk":25,"a0":267,"a1":1147,"a2":607,"a75":319,"ag":[81,84,102,103,83,85,84,92,110,174,148,140,128,133,155,124,89,70,28,7,1],"nf":53},"geometry":{"type":"Polygon","coordinates":[[[135.50006,34.63034],[135.50023,34.63014],[135.50023,34.63014],[135.50026,34.6301],[135.50092,34.63002],[135.50103,34.62998],[135.50143,34.62988],[135.50159,34.62979],[135.50186,34.62975],[135.50228,34.62959],[135.50225,34.62946],[135.50222,34.62937],[135.50228,34.62928],[135.50228,34.62927],[135.50232,34.62899],[135.50228,34.62853],[135.50223,34.62813],[135.50217,34.62798],[135.50204,34.62788],[135.50192,34.62781],[135.50189,34.62772],[135.50191,34.62771],[135.50165,34.62759],[135.5015,34.62753],[135.50148,34.62752],[135.50165,34.62741],[135.5017,34.62732],[135.50177,34.62726],[135.50184,34.62711],[135.50151,34.62656],[135.50136,34.62655],[135.50117,34.62651],[135.50117,34.62655],[135.50095,34.62651],[135.50068,34.62647],[135.50028,34.62648],[135.50025,34.62649],[135.50022,34.62632],[135.50027,34.62607],[135.50027,34.62605],[135.50022,34.62589],[135.50017,34.62589],[135.49978,34.62595],[135.49921,34.62602],[135.49882,34.62609],[135.49877,34.62612],[135.49822,34.62645],[135.49754,34.62685],[135.49745,34.62684],[135.49743,34.62687],[135.49743,34.62688],[135.49722,34.62714],[135.49723,34.62717],[135.49729,34.6272],[135.49731,34.62721],[135.49743,34.62721],[135.49743,34.62723],[135.49743,34.6273],[135.49756,34.62729],[135.49757,34.62729],[135.49757,34.62729],[135.49758,34.62728],[135.49758,34.62728],[135.49758,34.62728],[135.49758,34.62728],[135.49759,34.62728],[135.49759,34.62728],[135.49759,34.62728],[135.4976,34.62728],[135.4976,34.62728],[135.49761,34.62728],[135.49761,34.62728],[135.49762,34.62728],[135.49763,34.62728],[135.49764,34.62728],[135.49764,34.62728],[135.49765,34.62728],[135.49766,34.62727],[135.49766,34.62727],[135.49767,34.62727],[135.49767,34.62727],[135.49766,34.62735],[135.49761,34.62741],[135.49783,34.62773],[135.49786,34.62777],[135.49787,34.62778],[135.49803,34.6277],[135.4983,34.62784],[135.49834,34.62786],[135.49818,34.62792],[135.49819,34.62794],[135.49809,34.62798],[135.4981,34.62799],[135.4981,34.62799],[135.49794,34.62805],[135.49816,34.62845],[135.49814,34.62847],[135.49811,34.62852],[135.49812,34.62853],[135.49824,34.62874],[135.49849,34.62863],[135.4985,34.62864],[135.49863,34.6288],[135.49869,34.62887],[135.49878,34.62899],[135.499,34.62933],[135.49902,34.62936],[135.49925,34.62973],[135.49934,34.62986],[135.49961,34.6302],[135.49958,34.63021],[135.49965,34.63039],[135.4998,34.63036],[135.50006,34.63034]]]}},{"type":"Feature","properties":{"name":"帝塚山","setai":1202,"jinko":2668,"key":"271190230","units":1,"m":1167,"f":1501,"gk":55,"a0":339,"a1":1446,"a2":794,"a75":434,"ag":[70,130,139,134,115,79,83,102,187,232,177,174,163,180,180,131,106,100,70,20,7],"nf":89},"geometry":{"type":"Polygon","coordinates":[[[135.49722,34.62714],[135.49743,34.62688],[135.49743,34.62687],[135.49745,34.62684],[135.49754,34.62685],[135.49822,34.62645],[135.49877,34.62612],[135.49882,34.62609],[135.49921,34.62602],[135.49978,34.62595],[135.50017,34.62589],[135.50022,34.62589],[135.50084,34.62581],[135.50119,34.62578],[135.50134,34.62576],[135.50165,34.62572],[135.50188,34.6257],[135.50287,34.6256],[135.50345,34.62553],[135.50411,34.62545],[135.50387,34.6251],[135.50431,34.62493],[135.50487,34.62471],[135.50529,34.62454],[135.50495,34.62394],[135.50494,34.62392],[135.50463,34.62341],[135.5045,34.62319],[135.50448,34.62316],[135.50403,34.62329],[135.50287,34.62366],[135.50248,34.62378],[135.50219,34.62387],[135.50147,34.62411],[135.50089,34.62429],[135.49977,34.62463],[135.49971,34.62464],[135.49957,34.62467],[135.49938,34.62468],[135.49919,34.62467],[135.49898,34.62462],[135.49896,34.62462],[135.49857,34.62447],[135.49853,34.62445],[135.4984,34.6244],[135.49833,34.62474],[135.49832,34.62478],[135.49831,34.62479],[135.49815,34.62465],[135.4979,34.62445],[135.49767,34.62427],[135.49743,34.62409],[135.49739,34.62407],[135.49734,34.62408],[135.49732,34.62406],[135.49702,34.62385],[135.49695,34.6238],[135.49651,34.6235],[135.49645,34.62346],[135.4962,34.62333],[135.49607,34.6233],[135.49592,34.62325],[135.49587,34.62326],[135.49585,34.62326],[135.49584,34.62326],[135.49582,34.62326],[135.4957,34.62333],[135.49566,34.62336],[135.49569,34.62354],[135.49573,34.62366],[135.49578,34.62388],[135.49585,34.62417],[135.49588,34.62428],[135.49595,34.62454],[135.49608,34.62494],[135.49618,34.62498],[135.49618,34.62509],[135.49622,34.62527],[135.49625,34.6254],[135.49629,34.62557],[135.49633,34.62575],[135.49635,34.62577],[135.49644,34.62615],[135.49669,34.62649],[135.49672,34.62653],[135.49683,34.62648],[135.497,34.62668],[135.4969,34.62672],[135.49704,34.62699],[135.49706,34.62704],[135.49706,34.62704],[135.49715,34.62702],[135.49717,34.62701],[135.49722,34.62714]]]}},{"type":"Feature","properties":{"name":"万代","setai":208,"jinko":483,"key":"271190240","units":1,"m":220,"f":263,"gk":8,"a0":63,"a1":275,"a2":134,"a75":61,"ag":[24,17,22,25,22,6,27,33,30,32,23,39,38,36,37,28,12,10,9,1,1],"nf":11},"geometry":{"type":"Polygon","coordinates":[[[135.50737,34.62269],[135.50714,34.62228],[135.50713,34.6223],[135.50708,34.62231],[135.50706,34.62238],[135.50627,34.62262],[135.50524,34.62294],[135.50501,34.62301],[135.50448,34.62316],[135.5045,34.62319],[135.50463,34.62341],[135.50494,34.62392],[135.50495,34.62394],[135.50529,34.62454],[135.5058,34.62433],[135.50701,34.62385],[135.50785,34.62351],[135.50757,34.62302],[135.50753,34.62295],[135.50749,34.62288],[135.50737,34.62269]]]}},{"type":"Feature","properties":{"name":"播磨町一丁目","setai":1228,"jinko":2656,"key":"27119025001","units":1,"m":1218,"f":1438,"gk":43,"a0":339,"a1":1632,"a2":650,"a75":340,"ag":[116,106,117,115,131,152,163,178,169,224,165,176,159,142,168,125,97,76,35,6,1],"nf":35},"geometry":{"type":"Polygon","coordinates":[[[135.51142,34.62265],[135.51137,34.6223],[135.51131,34.62193],[135.51127,34.62159],[135.51088,34.62162],[135.51084,34.62163],[135.51061,34.62165],[135.51012,34.6217],[135.50946,34.62176],[135.50877,34.62183],[135.50871,34.62183],[135.50874,34.62215],[135.50843,34.62218],[135.5078,34.62224],[135.5074,34.62228],[135.5072,34.62226],[135.50714,34.62228],[135.50737,34.62269],[135.50749,34.62288],[135.50753,34.62295],[135.50757,34.62302],[135.50785,34.62351],[135.50797,34.6237],[135.50818,34.62406],[135.5082,34.6241],[135.5085,34.62461],[135.50888,34.62526],[135.50894,34.62535],[135.50894,34.62535],[135.50906,34.62535],[135.50996,34.62529],[135.51131,34.62521],[135.51155,34.6252],[135.51178,34.62519],[135.51179,34.62519],[135.51174,34.6249],[135.51169,34.62451],[135.51169,34.6245],[135.51163,34.62415],[135.51163,34.62412],[135.51158,34.62375],[135.51158,34.62375],[135.51152,34.62337],[135.51147,34.62305],[135.51147,34.62301],[135.51147,34.62297],[135.51142,34.62266],[135.51142,34.62265]]]}},{"type":"Feature","properties":{"name":"播磨町二丁目","setai":418,"jinko":1022,"key":"27119025002","units":1,"m":463,"f":559,"gk":14,"a0":159,"a1":596,"a2":251,"a75":148,"ag":[38,59,62,65,42,46,33,57,72,120,62,56,43,49,54,52,53,27,13,3,0],"nf":16},"geometry":{"type":"Polygon","coordinates":[[[135.51099,34.61953],[135.51097,34.61934],[135.51063,34.61938],[135.51054,34.61939],[135.51048,34.61939],[135.5102,34.61942],[135.50989,34.61945],[135.5098,34.61946],[135.50925,34.61952],[135.50843,34.61961],[135.50839,34.61962],[135.50839,34.61967],[135.50838,34.61977],[135.5085,34.62041],[135.50853,34.62072],[135.50859,34.62111],[135.50867,34.62147],[135.50869,34.62155],[135.50871,34.62183],[135.50877,34.62183],[135.50946,34.62176],[135.51012,34.6217],[135.51061,34.62165],[135.51084,34.62163],[135.51088,34.62162],[135.51127,34.62159],[135.51131,34.62158],[135.51124,34.62121],[135.51119,34.62083],[135.51114,34.62046],[135.51108,34.62009],[135.51102,34.61971],[135.51099,34.61953]]]}},{"type":"Feature","properties":{"name":"播磨町三丁目","setai":915,"jinko":2103,"key":"27119025003","units":1,"m":966,"f":1137,"gk":36,"a0":351,"a1":1242,"a2":488,"a75":293,"ag":[104,144,103,86,75,71,81,151,204,192,161,123,98,89,106,104,76,74,32,7,0],"nf":22},"geometry":{"type":"Polygon","coordinates":[[[135.51068,34.61729],[135.5106,34.61672],[135.51033,34.61674],[135.50989,34.61676],[135.50983,34.61677],[135.50982,34.61683],[135.50944,34.61687],[135.50931,34.61687],[135.50923,34.61688],[135.50858,34.61689],[135.50855,34.61694],[135.50856,34.61701],[135.50855,34.61701],[135.50829,34.61703],[135.50834,34.61712],[135.50826,34.61717],[135.50828,34.61752],[135.50833,34.61791],[135.50808,34.61801],[135.50824,34.61832],[135.50825,34.61833],[135.50827,34.61837],[135.5083,34.61843],[135.50832,34.61847],[135.50834,34.61851],[135.50824,34.61854],[135.50839,34.61882],[135.50845,34.61896],[135.50833,34.61902],[135.5085,34.6193],[135.50847,34.61935],[135.50839,34.61962],[135.50843,34.61961],[135.50925,34.61952],[135.5098,34.61946],[135.50989,34.61945],[135.5102,34.61942],[135.51048,34.61939],[135.51054,34.61939],[135.51063,34.61938],[135.51097,34.61934],[135.5109,34.61903],[135.51088,34.61884],[135.51087,34.61874],[135.51083,34.61843],[135.51082,34.61835],[135.51075,34.61781],[135.51068,34.61729]]]}}]}