{"type":"FeatureCollection","features":[{"type":"Feature","properties":{"name":"大原六丁目","setai":194,"jinko":441,"key":"11103001006","units":1,"m":223,"f":218,"gk":9,"a0":38,"a1":321,"a2":80,"a75":38,"ag":[10,9,19,33,32,19,25,19,34,63,38,33,25,11,31,16,16,3,2,1,0],"nf":2},"geometry":{"type":"Polygon","coordinates":[[[139.64229,35.898],[139.64223,35.89798],[139.64221,35.89799],[139.64117,35.89819],[139.64115,35.89819],[139.6412,35.89829],[139.64121,35.89832],[139.64123,35.89835],[139.64102,35.89852],[139.64085,35.89865],[139.64068,35.89879],[139.64056,35.89892],[139.64044,35.89907],[139.64038,35.89918],[139.64078,35.89937],[139.641,35.89946],[139.64112,35.89934],[139.64118,35.89927],[139.64126,35.89923],[139.64133,35.89921],[139.64143,35.89919],[139.64157,35.89916],[139.64158,35.89915],[139.64198,35.89911],[139.64212,35.89908],[139.64233,35.899],[139.64242,35.89895],[139.64263,35.89885],[139.64269,35.89864],[139.64272,35.89854],[139.64274,35.89848],[139.64276,35.89841],[139.64281,35.89825],[139.64288,35.89803],[139.64257,35.89803],[139.64243,35.89802],[139.64234,35.89801],[139.64229,35.898]]]}},{"type":"Feature","properties":{"name":"大原七丁目","setai":233,"jinko":478,"key":"11103001007","units":1,"m":225,"f":253,"gk":17,"a0":57,"a1":247,"a2":172,"a75":88,"ag":[20,26,11,18,21,12,14,36,36,44,31,13,22,33,51,29,35,16,6,2,0],"nf":2},"geometry":{"type":"Polygon","coordinates":[[[139.64408,35.90057],[139.64399,35.90015],[139.64374,35.90016],[139.64368,35.90019],[139.64363,35.90022],[139.64346,35.90035],[139.64334,35.90045],[139.64326,35.90052],[139.64317,35.90057],[139.64303,35.9006],[139.64272,35.90067],[139.64258,35.90071],[139.64225,35.90079],[139.64217,35.90082],[139.64212,35.90086],[139.64197,35.90102],[139.64193,35.90106],[139.6419,35.9011],[139.64153,35.90154],[139.64152,35.90166],[139.64149,35.90177],[139.64141,35.90188],[139.64134,35.90197],[139.64125,35.90206],[139.64115,35.90217],[139.64094,35.90239],[139.64112,35.90252],[139.64116,35.90255],[139.64156,35.90282],[139.64209,35.90235],[139.64224,35.9022],[139.64233,35.90212],[139.64243,35.90201],[139.6425,35.90193],[139.64275,35.90168],[139.64279,35.90163],[139.64286,35.9016],[139.64328,35.90139],[139.64329,35.90139],[139.64433,35.90104],[139.64425,35.90099],[139.64419,35.90092],[139.64414,35.90083],[139.6441,35.9007],[139.64408,35.9006],[139.64408,35.90057]]]}},{"type":"Feature","properties":{"name":"北袋町一丁目","setai":1447,"jinko":3290,"key":"11103002001","units":1,"m":1591,"f":1699,"gk":43,"a0":560,"a1":2053,"a2":658,"a75":303,"ag":[224,194,142,106,124,178,257,297,281,285,234,157,134,161,194,152,91,41,19,0,0],"nf":19},"geometry":{"type":"Polygon","coordinates":[[[139.64069,35.89721],[139.64084,35.89714],[139.6409,35.89715],[139.64095,35.89719],[139.6411,35.89677],[139.64134,35.89604],[139.64151,35.89548],[139.64183,35.89481],[139.64212,35.8943],[139.64226,35.89403],[139.64233,35.89388],[139.6429,35.89301],[139.64305,35.89275],[139.64308,35.89271],[139.64327,35.89242],[139.64274,35.89215],[139.64263,35.89227],[139.6418,35.89203],[139.64188,35.89183],[139.6419,35.89176],[139.64193,35.89166],[139.64197,35.89158],[139.64198,35.89155],[139.64207,35.89135],[139.64215,35.89123],[139.64219,35.89116],[139.64225,35.89108],[139.64191,35.89105],[139.64193,35.89081],[139.64197,35.89056],[139.64177,35.89053],[139.64128,35.89047],[139.64068,35.8904],[139.64057,35.89039],[139.64047,35.89046],[139.64023,35.89037],[139.64041,35.8901],[139.63962,35.88975],[139.63911,35.88953],[139.63761,35.8889],[139.63715,35.88961],[139.63714,35.88962],[139.63712,35.88965],[139.63675,35.88954],[139.63672,35.88953],[139.63594,35.88928],[139.63527,35.89037],[139.635,35.89082],[139.63421,35.89208],[139.63413,35.89221],[139.63414,35.89221],[139.63448,35.89269],[139.6343,35.89295],[139.6344,35.893],[139.63455,35.89307],[139.63458,35.89303],[139.63491,35.89317],[139.63512,35.89327],[139.63549,35.89344],[139.63593,35.89362],[139.63612,35.89367],[139.63631,35.89375],[139.63658,35.89385],[139.63691,35.89397],[139.6374,35.8942],[139.63767,35.89434],[139.63779,35.8944],[139.63823,35.89467],[139.63841,35.89478],[139.63856,35.89488],[139.63863,35.89498],[139.6387,35.89508],[139.63876,35.89515],[139.63879,35.8952],[139.63892,35.89536],[139.63897,35.89545],[139.63907,35.89564],[139.63914,35.89573],[139.63926,35.89592],[139.63941,35.89609],[139.63941,35.8961],[139.63943,35.89611],[139.63945,35.89613],[139.63995,35.89662],[139.63998,35.89666],[139.64037,35.89699],[139.64058,35.89717],[139.64064,35.89721],[139.64069,35.89721]]]}},{"type":"Feature","properties":{"name":"北袋町二丁目","setai":1395,"jinko":3069,"key":"11103002002","units":1,"m":1594,"f":1475,"gk":51,"a0":423,"a1":1986,"a2":647,"a75":328,"ag":[139,161,123,111,129,207,233,250,269,233,211,177,166,140,179,142,93,70,17,5,1],"nf":13},"geometry":{"type":"Polygon","coordinates":[[[139.64557,35.89817],[139.64582,35.89769],[139.64606,35.89724],[139.64607,35.89723],[139.64604,35.89722],[139.6449,35.8968],[139.64508,35.89651],[139.64516,35.89639],[139.64518,35.89636],[139.64534,35.89616],[139.64549,35.89595],[139.64553,35.89591],[139.64594,35.8954],[139.64602,35.8953],[139.64603,35.89529],[139.64604,35.8953],[139.64611,35.89533],[139.64617,35.89535],[139.64625,35.89515],[139.64626,35.89509],[139.64625,35.89507],[139.64622,35.89503],[139.64619,35.89497],[139.64623,35.89497],[139.64624,35.89472],[139.64618,35.89472],[139.64667,35.89351],[139.6467,35.89339],[139.6467,35.89336],[139.6467,35.89336],[139.64679,35.89337],[139.64684,35.89337],[139.64688,35.89336],[139.64693,35.89335],[139.64699,35.89331],[139.64703,35.89326],[139.64712,35.89316],[139.64712,35.89316],[139.64715,35.89312],[139.64718,35.89308],[139.64682,35.89304],[139.64682,35.89304],[139.64684,35.8928],[139.64665,35.8927],[139.64659,35.89233],[139.6466,35.89195],[139.64664,35.89165],[139.64664,35.89159],[139.64664,35.89156],[139.64665,35.89154],[139.64667,35.89143],[139.6471,35.89145],[139.64713,35.89127],[139.64716,35.89114],[139.64718,35.89091],[139.64719,35.89061],[139.64714,35.89061],[139.64714,35.89058],[139.64716,35.89025],[139.64717,35.89014],[139.64717,35.89005],[139.64719,35.88985],[139.64719,35.88983],[139.64653,35.88983],[139.64653,35.89006],[139.64621,35.89007],[139.64548,35.89008],[139.64548,35.89001],[139.64546,35.89],[139.64493,35.88993],[139.64506,35.88946],[139.64516,35.88919],[139.64513,35.88919],[139.64489,35.88914],[139.64501,35.88878],[139.64472,35.88868],[139.64445,35.88903],[139.64437,35.88915],[139.64435,35.88921],[139.64433,35.88933],[139.64427,35.88962],[139.64426,35.88971],[139.64424,35.88981],[139.64424,35.88991],[139.64407,35.89019],[139.64402,35.89027],[139.644,35.8903],[139.64388,35.89026],[139.64387,35.89025],[139.64372,35.89037],[139.64381,35.89046],[139.64337,35.8907],[139.64333,35.89072],[139.6427,35.89121],[139.64258,35.89118],[139.64254,35.89129],[139.64253,35.89131],[139.64292,35.89149],[139.64303,35.89139],[139.64333,35.89141],[139.64335,35.89133],[139.6438,35.8917],[139.64405,35.89191],[139.64411,35.89197],[139.64413,35.892],[139.64417,35.89216],[139.64418,35.89218],[139.6442,35.89233],[139.64422,35.89272],[139.64426,35.89318],[139.64427,35.89321],[139.64435,35.89324],[139.64449,35.89329],[139.6445,35.89332],[139.64464,35.89336],[139.64462,35.89341],[139.64456,35.89341],[139.64454,35.89346],[139.64437,35.8935],[139.64433,35.8934],[139.64419,35.89349],[139.64418,35.8935],[139.64411,35.89363],[139.64398,35.89357],[139.64403,35.89345],[139.64406,35.89339],[139.6441,35.89322],[139.6442,35.89321],[139.64416,35.89283],[139.64359,35.89284],[139.64319,35.89275],[139.64308,35.89271],[139.64305,35.89275],[139.6429,35.89301],[139.64233,35.89388],[139.64226,35.89403],[139.64212,35.8943],[139.64183,35.89481],[139.64151,35.89548],[139.64134,35.89604],[139.6411,35.89677],[139.64095,35.89719],[139.64104,35.89725],[139.64132,35.89742],[139.64147,35.89749],[139.64158,35.8975],[139.64172,35.89752],[139.6418,35.89753],[139.64186,35.89757],[139.64195,35.89782],[139.64205,35.89791],[139.64219,35.89797],[139.64221,35.89799],[139.64223,35.89798],[139.64229,35.898],[139.64234,35.89801],[139.64243,35.89802],[139.64257,35.89803],[139.64288,35.89803],[139.64292,35.89804],[139.64293,35.89805],[139.64322,35.89814],[139.64347,35.89822],[139.64366,35.8983],[139.64415,35.89848],[139.64435,35.89857],[139.64446,35.8986],[139.64501,35.89878],[139.64505,35.89879],[139.64511,35.8988],[139.64521,35.89883],[139.64557,35.89817]]]}},{"type":"Feature","properties":{"name":"吉敷町一丁目","setai":624,"jinko":1270,"key":"11103003001","units":1,"m":640,"f":630,"gk":47,"a0":187,"a1":916,"a2":155,"a75":64,"ag":[77,68,42,22,40,120,117,121,149,119,85,80,63,49,42,28,21,11,4,0,0],"nf":12},"geometry":{"type":"Polygon","coordinates":[[[139.63124,35.9032],[139.63131,35.90225],[139.63134,35.90158],[139.63136,35.90104],[139.63122,35.90104],[139.63091,35.90102],[139.63034,35.90095],[139.63027,35.90095],[139.62966,35.90079],[139.6294,35.90071],[139.62908,35.90062],[139.62834,35.90031],[139.62824,35.90042],[139.62794,35.9007],[139.62777,35.90087],[139.62766,35.90097],[139.62749,35.90116],[139.62737,35.90129],[139.62708,35.90168],[139.62678,35.90208],[139.62813,35.9024],[139.6281,35.90245],[139.62939,35.90283],[139.62945,35.90272],[139.62954,35.90253],[139.63017,35.90258],[139.63011,35.90277],[139.63046,35.90276],[139.63045,35.90291],[139.63045,35.90307],[139.63044,35.90321],[139.63124,35.90326],[139.63124,35.9032]]]}},{"type":"Feature","properties":{"name":"吉敷町二丁目","setai":828,"jinko":1566,"key":"11103003002","units":1,"m":777,"f":789,"gk":43,"a0":233,"a1":1093,"a2":224,"a75":92,"ag":[105,74,54,40,67,129,152,167,169,122,124,78,45,68,64,37,27,15,11,2,0],"nf":16},"geometry":{"type":"MultiPolygon","coordinates":[[[[139.63143,35.89915],[139.63141,35.89888],[139.63129,35.89894],[139.63101,35.89885],[139.63089,35.89881],[139.63079,35.89878],[139.63053,35.89871],[139.63034,35.89894],[139.63017,35.89887],[139.62996,35.89878],[139.62989,35.89885],[139.62991,35.89893],[139.6298,35.89903],[139.62969,35.89916],[139.62961,35.89924],[139.62953,35.89935],[139.62937,35.89946],[139.62931,35.8995],[139.6291,35.89967],[139.62891,35.89981],[139.62872,35.89997],[139.62856,35.90011],[139.62834,35.90031],[139.62908,35.90062],[139.6294,35.90071],[139.62966,35.90079],[139.63027,35.90095],[139.63034,35.90095],[139.63091,35.90102],[139.63122,35.90104],[139.63136,35.90104],[139.63137,35.90064],[139.63138,35.90039],[139.63138,35.90031],[139.6314,35.90006],[139.6314,35.89993],[139.63139,35.89968],[139.63143,35.89915]]],[[[139.62824,35.89821],[139.62838,35.89785],[139.62846,35.89787],[139.62903,35.89637],[139.62901,35.89636],[139.62889,35.89634],[139.6288,35.89633],[139.62874,35.89637],[139.62857,35.89636],[139.62814,35.89688],[139.6278,35.89734],[139.62759,35.89759],[139.62739,35.89786],[139.62711,35.89824],[139.62696,35.89843],[139.62695,35.89845],[139.62688,35.89856],[139.62667,35.8989],[139.62649,35.89918],[139.62639,35.89933],[139.62654,35.8994],[139.62606,35.89994],[139.62585,35.90017],[139.62542,35.90067],[139.62558,35.90069],[139.62572,35.90066],[139.62581,35.90064],[139.62596,35.90057],[139.62703,35.89965],[139.62779,35.89906],[139.6279,35.89894],[139.62795,35.89884],[139.62814,35.89847],[139.62824,35.89821]]]]}},{"type":"Feature","properties":{"name":"吉敷町三丁目","setai":660,"jinko":1301,"key":"11103003003","units":1,"m":617,"f":684,"gk":33,"a0":134,"a1":850,"a2":309,"a75":179,"ag":[44,44,46,52,92,90,102,105,98,91,79,75,66,65,65,58,58,38,20,4,1],"nf":8},"geometry":{"type":"Polygon","coordinates":[[[139.63601,35.89903],[139.63472,35.89898],[139.63472,35.899],[139.63325,35.89893],[139.63288,35.89891],[139.63281,35.89891],[139.63241,35.89889],[139.63206,35.89888],[139.63176,35.89887],[139.63143,35.89887],[139.63141,35.89888],[139.63143,35.89915],[139.63139,35.89968],[139.6314,35.89993],[139.6314,35.90006],[139.63138,35.90031],[139.63138,35.90039],[139.63137,35.90064],[139.63136,35.90104],[139.63164,35.90105],[139.63227,35.90107],[139.63312,35.9011],[139.63459,35.90114],[139.63607,35.90121],[139.63768,35.90128],[139.6377,35.90073],[139.63764,35.90072],[139.63708,35.9007],[139.6367,35.90069],[139.63611,35.90067],[139.63613,35.90013],[139.63617,35.89959],[139.63621,35.89903],[139.63601,35.89903]]]}},{"type":"Feature","properties":{"name":"吉敷町四丁目","setai":765,"jinko":1348,"key":"11103003004","units":1,"m":623,"f":725,"gk":8,"a0":118,"a1":888,"a2":326,"a75":218,"ag":[47,35,36,23,96,149,134,115,84,102,77,58,50,52,56,60,51,57,41,9,0],"nf":16},"geometry":{"type":"Polygon","coordinates":[[[139.63621,35.89903],[139.63623,35.89878],[139.63623,35.89874],[139.63623,35.89868],[139.63626,35.89851],[139.63644,35.89851],[139.63784,35.89857],[139.63786,35.89807],[139.63788,35.89771],[139.63796,35.89691],[139.63813,35.89587],[139.63871,35.8959],[139.6388,35.8959],[139.63907,35.89591],[139.63926,35.89592],[139.63914,35.89573],[139.63907,35.89564],[139.63897,35.89545],[139.63892,35.89536],[139.63879,35.8952],[139.63876,35.89515],[139.6387,35.89508],[139.63863,35.89498],[139.63856,35.89488],[139.63841,35.89478],[139.63823,35.89467],[139.63779,35.8944],[139.63767,35.89434],[139.6374,35.8942],[139.63691,35.89397],[139.63658,35.89385],[139.63631,35.89375],[139.63612,35.89367],[139.63593,35.89362],[139.63549,35.89344],[139.63512,35.89327],[139.63491,35.89317],[139.63458,35.89303],[139.63455,35.89307],[139.6344,35.893],[139.6343,35.89295],[139.63425,35.89304],[139.63416,35.89319],[139.63412,35.89326],[139.63408,35.89335],[139.63401,35.8935],[139.634,35.89352],[139.63388,35.89386],[139.63355,35.89412],[139.63344,35.89421],[139.63333,35.89432],[139.63329,35.89437],[139.63312,35.89466],[139.63299,35.89487],[139.63278,35.89513],[139.63276,35.89515],[139.63265,35.89531],[139.63252,35.89548],[139.63239,35.89566],[139.63226,35.89584],[139.63213,35.89602],[139.63201,35.89619],[139.63188,35.89637],[139.63173,35.89658],[139.63154,35.89684],[139.63134,35.89712],[139.63127,35.89722],[139.63116,35.89737],[139.63097,35.89764],[139.63082,35.89782],[139.63069,35.89799],[139.63046,35.89826],[139.63029,35.89844],[139.63012,35.89862],[139.62996,35.89878],[139.63017,35.89887],[139.63034,35.89894],[139.63053,35.89871],[139.63079,35.89878],[139.63089,35.89881],[139.63101,35.89885],[139.63129,35.89894],[139.63141,35.89888],[139.63143,35.89887],[139.63176,35.89887],[139.63206,35.89888],[139.63241,35.89889],[139.63281,35.89891],[139.63288,35.89891],[139.63325,35.89893],[139.63472,35.899],[139.63472,35.89898],[139.63601,35.89903],[139.63621,35.89903]]]}},{"type":"Feature","properties":{"name":"浅間町一丁目","setai":618,"jinko":1206,"key":"11103004001","units":1,"m":591,"f":615,"gk":41,"a0":107,"a1":746,"a2":344,"a75":196,"ag":[34,44,29,45,71,110,84,77,69,88,88,64,50,64,84,66,52,43,23,11,1],"nf":9},"geometry":{"type":"Polygon","coordinates":[[[139.63297,35.90324],[139.63156,35.90318],[139.63149,35.90321],[139.63124,35.9032],[139.63124,35.90326],[139.63114,35.90507],[139.63114,35.90513],[139.63144,35.90521],[139.63221,35.90539],[139.63284,35.90541],[139.63435,35.90547],[139.63552,35.90551],[139.63556,35.90551],[139.63579,35.90552],[139.63583,35.90499],[139.63585,35.90445],[139.63562,35.90444],[139.63524,35.90442],[139.63486,35.90441],[139.63507,35.90416],[139.63536,35.90395],[139.63601,35.90348],[139.63616,35.90338],[139.63552,35.90334],[139.63528,35.90334],[139.63445,35.90331],[139.63402,35.90328],[139.63297,35.90324]]]}},{"type":"Feature","properties":{"name":"浅間町二丁目","setai":671,"jinko":1528,"key":"11103004002","units":1,"m":759,"f":769,"gk":63,"a0":206,"a1":926,"a2":385,"a75":212,"ag":[50,77,79,61,87,77,80,114,112,116,100,97,82,73,100,66,51,43,38,10,4],"nf":11},"geometry":{"type":"Polygon","coordinates":[[[139.63616,35.90338],[139.63638,35.90314],[139.6366,35.90286],[139.63683,35.90265],[139.63704,35.90256],[139.6373,35.90249],[139.63749,35.90243],[139.63779,35.90234],[139.63796,35.90225],[139.63813,35.9021],[139.63818,35.90204],[139.63855,35.90157],[139.63801,35.9014],[139.63768,35.90128],[139.63607,35.90121],[139.63459,35.90114],[139.63312,35.9011],[139.63227,35.90107],[139.63164,35.90105],[139.63136,35.90104],[139.63134,35.90158],[139.63131,35.90225],[139.63124,35.9032],[139.63149,35.90321],[139.63156,35.90318],[139.63297,35.90324],[139.63402,35.90328],[139.63445,35.90331],[139.63528,35.90334],[139.63552,35.90334],[139.63616,35.90338]]]}},{"type":"Feature","properties":{"name":"天沼町一丁目","setai":1950,"jinko":4321,"key":"11103005001","units":1,"m":2114,"f":2207,"gk":105,"a0":474,"a1":2609,"a2":1198,"a75":622,"ag":[161,160,153,133,203,285,233,285,305,314,261,294,296,283,293,222,179,143,58,17,3],"nf":40},"geometry":{"type":"Polygon","coordinates":[[[139.64718,35.91136],[139.64727,35.9111],[139.64736,35.91087],[139.64742,35.91073],[139.64747,35.91064],[139.64757,35.9104],[139.64778,35.90997],[139.64793,35.90955],[139.648,35.90938],[139.64836,35.90855],[139.64842,35.90836],[139.64844,35.90806],[139.64849,35.9076],[139.64852,35.90727],[139.6486,35.90663],[139.64864,35.9062],[139.64866,35.90592],[139.6487,35.90549],[139.64833,35.9055],[139.64744,35.90553],[139.64687,35.90555],[139.6467,35.90555],[139.64594,35.90558],[139.6459,35.90557],[139.64587,35.90557],[139.64409,35.90564],[139.64408,35.90525],[139.64426,35.90489],[139.64435,35.90476],[139.64449,35.90459],[139.64411,35.9046],[139.64381,35.90462],[139.64368,35.90463],[139.6435,35.90468],[139.64313,35.90473],[139.64288,35.90472],[139.64243,35.90471],[139.64214,35.90469],[139.64121,35.90464],[139.641,35.90463],[139.6402,35.90459],[139.64015,35.90459],[139.63986,35.90459],[139.63926,35.90458],[139.63902,35.90457],[139.63897,35.90457],[139.63841,35.90455],[139.63829,35.90454],[139.63816,35.90454],[139.63733,35.90451],[139.63692,35.90449],[139.63585,35.90445],[139.63583,35.90499],[139.63579,35.90552],[139.63577,35.90606],[139.63574,35.90655],[139.63571,35.907],[139.63596,35.90716],[139.63617,35.90727],[139.63651,35.90746],[139.63696,35.90772],[139.63711,35.9078],[139.63851,35.90841],[139.63892,35.90859],[139.63995,35.90903],[139.64037,35.90929],[139.64085,35.90967],[139.64103,35.90979],[139.64135,35.91003],[139.64179,35.91037],[139.64201,35.91054],[139.64248,35.9109],[139.64253,35.91087],[139.64268,35.91099],[139.64275,35.91105],[139.64287,35.91114],[139.64312,35.91126],[139.64331,35.9113],[139.64353,35.91132],[139.64393,35.91133],[139.64486,35.91132],[139.64637,35.91133],[139.64646,35.91133],[139.6468,35.91133],[139.64698,35.91133],[139.64718,35.91136]]]}},{"type":"Feature","properties":{"name":"天沼町二丁目","setai":2240,"jinko":5064,"key":"11103005002","units":1,"m":2501,"f":2563,"gk":84,"a0":672,"a1":3188,"a2":1183,"a75":645,"ag":[251,248,173,219,262,271,322,412,370,408,330,302,292,267,271,236,151,154,87,13,4],"nf":21},"geometry":{"type":"Polygon","coordinates":[[[139.64409,35.90564],[139.64587,35.90557],[139.6459,35.90557],[139.64594,35.90558],[139.6467,35.90555],[139.64687,35.90555],[139.64744,35.90553],[139.64833,35.9055],[139.6487,35.90549],[139.64875,35.90485],[139.64878,35.9045],[139.64881,35.90416],[139.64887,35.90388],[139.64893,35.90369],[139.64896,35.90355],[139.64922,35.90281],[139.64943,35.9023],[139.64966,35.90175],[139.6497,35.90164],[139.64972,35.90155],[139.64974,35.90132],[139.64837,35.90141],[139.64728,35.90148],[139.64684,35.9015],[139.64559,35.90158],[139.64537,35.9016],[139.64531,35.9016],[139.64529,35.90155],[139.64524,35.90145],[139.6452,35.9014],[139.64513,35.90133],[139.6451,35.9013],[139.64505,35.90126],[139.64501,35.90122],[139.64495,35.90118],[139.64488,35.90114],[139.6448,35.9011],[139.64471,35.90107],[139.64461,35.90106],[139.64448,35.90105],[139.64433,35.90104],[139.64329,35.90139],[139.64328,35.90139],[139.64286,35.9016],[139.64279,35.90163],[139.64275,35.90168],[139.6425,35.90193],[139.64243,35.90201],[139.64233,35.90212],[139.64224,35.9022],[139.64209,35.90235],[139.64156,35.90282],[139.64116,35.90255],[139.64112,35.90252],[139.64094,35.90239],[139.64115,35.90217],[139.64125,35.90206],[139.64134,35.90197],[139.64141,35.90188],[139.64149,35.90177],[139.64152,35.90166],[139.64153,35.90154],[139.6419,35.9011],[139.64193,35.90106],[139.64197,35.90102],[139.64212,35.90086],[139.64217,35.90082],[139.64225,35.90079],[139.64258,35.90071],[139.64272,35.90067],[139.64303,35.9006],[139.64317,35.90057],[139.64326,35.90052],[139.64334,35.90045],[139.64346,35.90035],[139.64363,35.90022],[139.64368,35.90019],[139.64374,35.90016],[139.64399,35.90015],[139.64408,35.89974],[139.64409,35.89967],[139.64409,35.89963],[139.64408,35.8996],[139.64408,35.89957],[139.64407,35.89954],[139.64405,35.8995],[139.64404,35.89949],[139.64399,35.89947],[139.6439,35.89945],[139.64374,35.89941],[139.64356,35.89937],[139.64345,35.89934],[139.6434,35.89933],[139.64334,35.89932],[139.64327,35.89929],[139.64313,35.89922],[139.64304,35.89916],[139.643,35.89914],[139.64299,35.89913],[139.64292,35.89909],[139.64287,35.89906],[139.64274,35.89897],[139.64269,35.89893],[139.64266,35.8989],[139.64263,35.89885],[139.64242,35.89895],[139.64233,35.899],[139.64212,35.89908],[139.64198,35.89911],[139.64158,35.89915],[139.64157,35.89916],[139.64143,35.89919],[139.64133,35.89921],[139.64126,35.89923],[139.64118,35.89927],[139.64112,35.89934],[139.641,35.89946],[139.64078,35.89937],[139.64038,35.89918],[139.64044,35.89907],[139.64056,35.89892],[139.64068,35.89879],[139.64085,35.89865],[139.64102,35.89852],[139.64123,35.89835],[139.64121,35.89832],[139.6412,35.89829],[139.64115,35.89819],[139.64117,35.89819],[139.64221,35.89799],[139.64219,35.89797],[139.64205,35.89791],[139.64195,35.89782],[139.64186,35.89757],[139.6418,35.89753],[139.64172,35.89752],[139.64158,35.8975],[139.64147,35.89749],[139.64132,35.89742],[139.64104,35.89725],[139.64095,35.89719],[139.6409,35.89715],[139.64084,35.89714],[139.64069,35.89721],[139.64064,35.89721],[139.64058,35.89717],[139.64037,35.89699],[139.63998,35.89666],[139.63995,35.89662],[139.63945,35.89613],[139.63943,35.89611],[139.63941,35.8961],[139.63941,35.89609],[139.63926,35.89592],[139.63907,35.89591],[139.6388,35.8959],[139.63871,35.8959],[139.63813,35.89587],[139.63796,35.89691],[139.63788,35.89771],[139.63786,35.89807],[139.63784,35.89857],[139.63644,35.89851],[139.63626,35.89851],[139.63623,35.89868],[139.63623,35.89874],[139.63623,35.89878],[139.63621,35.89903],[139.63617,35.89959],[139.63613,35.90013],[139.63611,35.90067],[139.6367,35.90069],[139.63708,35.9007],[139.63764,35.90072],[139.6377,35.90073],[139.63768,35.90128],[139.63801,35.9014],[139.63855,35.90157],[139.63818,35.90204],[139.63813,35.9021],[139.63796,35.90225],[139.63779,35.90234],[139.63749,35.90243],[139.6373,35.90249],[139.63704,35.90256],[139.63683,35.90265],[139.6366,35.90286],[139.63638,35.90314],[139.63616,35.90338],[139.63601,35.90348],[139.63536,35.90395],[139.63507,35.90416],[139.63486,35.90441],[139.63524,35.90442],[139.63562,35.90444],[139.63585,35.90445],[139.63692,35.90449],[139.63733,35.90451],[139.63816,35.90454],[139.63829,35.90454],[139.63841,35.90455],[139.63897,35.90457],[139.63902,35.90457],[139.63926,35.90458],[139.63986,35.90459],[139.64015,35.90459],[139.6402,35.90459],[139.641,35.90463],[139.64121,35.90464],[139.64214,35.90469],[139.64243,35.90471],[139.64288,35.90472],[139.64313,35.90473],[139.6435,35.90468],[139.64368,35.90463],[139.64381,35.90462],[139.64411,35.9046],[139.64449,35.90459],[139.64435,35.90476],[139.64426,35.90489],[139.64408,35.90525],[139.64409,35.90564]]]}},{"type":"Feature","properties":{"name":"堀の内町一丁目","setai":2120,"jinko":4466,"key":"11103006001","units":1,"m":2153,"f":2313,"gk":120,"a0":480,"a1":2673,"a2":1291,"a75":575,"ag":[160,162,158,153,229,228,266,281,273,339,330,266,308,358,358,258,159,104,44,7,3],"nf":22},"geometry":{"type":"Polygon","coordinates":[[[139.64542,35.91385],[139.64562,35.91353],[139.64579,35.91328],[139.64593,35.91309],[139.64605,35.91291],[139.64621,35.91269],[139.64653,35.9123],[139.64709,35.91152],[139.64718,35.91136],[139.64698,35.91133],[139.6468,35.91133],[139.64646,35.91133],[139.64637,35.91133],[139.64486,35.91132],[139.64393,35.91133],[139.64353,35.91132],[139.64331,35.9113],[139.64312,35.91126],[139.64287,35.91114],[139.64275,35.91105],[139.64268,35.91099],[139.64253,35.91087],[139.64248,35.9109],[139.64201,35.91054],[139.64179,35.91037],[139.64135,35.91003],[139.64103,35.90979],[139.64085,35.90967],[139.64037,35.90929],[139.63995,35.90903],[139.63892,35.90859],[139.63851,35.90841],[139.63711,35.9078],[139.63696,35.90772],[139.6363,35.90771],[139.63582,35.9077],[139.63518,35.90769],[139.63461,35.90767],[139.63422,35.90765],[139.63418,35.9082],[139.63415,35.90873],[139.63412,35.90927],[139.63408,35.90982],[139.63444,35.90982],[139.63511,35.91022],[139.63611,35.91079],[139.63682,35.91116],[139.63727,35.9114],[139.63758,35.91157],[139.63793,35.91184],[139.63816,35.91199],[139.63829,35.91207],[139.63843,35.91216],[139.63857,35.91223],[139.63876,35.91223],[139.63894,35.91225],[139.63931,35.91243],[139.63948,35.91248],[139.64008,35.91249],[139.6405,35.91254],[139.6404,35.91267],[139.64032,35.91279],[139.64028,35.9129],[139.64016,35.91318],[139.63996,35.91354],[139.63989,35.91368],[139.6422,35.91384],[139.64225,35.91363],[139.64332,35.91371],[139.64542,35.91385]]]}},{"type":"Feature","properties":{"name":"堀の内町二丁目","setai":812,"jinko":1897,"key":"11103006002","units":1,"m":929,"f":968,"gk":46,"a0":234,"a1":1226,"a2":349,"a75":175,"ag":[67,82,85,108,107,112,130,122,155,153,134,122,83,85,89,67,42,42,18,6,0],"nf":88},"geometry":{"type":"Polygon","coordinates":[[[139.64678,35.91413],[139.64687,35.91383],[139.64692,35.9137],[139.64701,35.91356],[139.64707,35.91347],[139.64726,35.91331],[139.64737,35.91324],[139.6475,35.91318],[139.64759,35.91309],[139.64764,35.91303],[139.64766,35.91296],[139.64778,35.91255],[139.64779,35.91247],[139.64782,35.91228],[139.64792,35.9121],[139.64799,35.91201],[139.64808,35.91193],[139.64825,35.91182],[139.64852,35.91166],[139.64884,35.91152],[139.64903,35.91143],[139.64914,35.91132],[139.64917,35.91126],[139.64919,35.91121],[139.64925,35.9109],[139.64925,35.91072],[139.64925,35.91067],[139.6488,35.91066],[139.64824,35.91067],[139.64742,35.91073],[139.64736,35.91087],[139.64727,35.9111],[139.64718,35.91136],[139.64709,35.91152],[139.64653,35.9123],[139.64621,35.91269],[139.64605,35.91291],[139.64593,35.91309],[139.64579,35.91328],[139.64562,35.91353],[139.64542,35.91385],[139.64332,35.91371],[139.64225,35.91363],[139.6422,35.91384],[139.63989,35.91368],[139.63996,35.91354],[139.64016,35.91318],[139.64028,35.9129],[139.64032,35.91279],[139.6404,35.91267],[139.6405,35.91254],[139.64008,35.91249],[139.63948,35.91248],[139.63931,35.91243],[139.63894,35.91225],[139.63876,35.91223],[139.63857,35.91223],[139.63843,35.91216],[139.63829,35.91207],[139.63816,35.91199],[139.63793,35.91184],[139.63758,35.91157],[139.63727,35.9114],[139.63682,35.91116],[139.63611,35.91079],[139.63511,35.91022],[139.63444,35.90982],[139.63408,35.90982],[139.6339,35.91035],[139.63374,35.91075],[139.63375,35.91133],[139.63375,35.91144],[139.63506,35.91208],[139.63546,35.91231],[139.63574,35.91247],[139.63619,35.91273],[139.63684,35.91312],[139.63763,35.91355],[139.6394,35.91453],[139.6397,35.91468],[139.63983,35.91476],[139.64035,35.91509],[139.64099,35.91549],[139.64157,35.91585],[139.64249,35.91649],[139.64347,35.91716],[139.64369,35.91731],[139.64423,35.91765],[139.64485,35.91798],[139.64477,35.9174],[139.64471,35.91712],[139.64468,35.91696],[139.64466,35.91683],[139.64468,35.91677],[139.64482,35.91657],[139.64489,35.9165],[139.645,35.91641],[139.64516,35.91627],[139.64526,35.9162],[139.64672,35.91442],[139.64675,35.91426],[139.64678,35.91413]]]}},{"type":"Feature","properties":{"name":"堀の内町三丁目","setai":934,"jinko":2079,"key":"11103006003","units":1,"m":1028,"f":1051,"gk":37,"a0":201,"a1":1312,"a2":558,"a75":280,"ag":[56,59,86,107,102,151,127,89,116,166,160,154,140,137,141,102,80,59,34,4,1],"nf":8},"geometry":{"type":"Polygon","coordinates":[[[139.64382,35.91821],[139.64372,35.91745],[139.64369,35.91731],[139.64347,35.91716],[139.64249,35.91649],[139.64157,35.91585],[139.64099,35.91549],[139.64035,35.91509],[139.63983,35.91476],[139.6397,35.91468],[139.6394,35.91453],[139.63763,35.91355],[139.63684,35.91312],[139.63619,35.91273],[139.63574,35.91247],[139.63546,35.91231],[139.63506,35.91208],[139.63375,35.91144],[139.63391,35.91216],[139.63398,35.91248],[139.63402,35.9127],[139.63408,35.913],[139.6341,35.91315],[139.63428,35.91366],[139.63431,35.91376],[139.63447,35.91416],[139.63455,35.91436],[139.635,35.9155],[139.63502,35.91559],[139.63525,35.91621],[139.63547,35.91681],[139.63548,35.91775],[139.63617,35.91781],[139.63688,35.91785],[139.63707,35.91787],[139.63809,35.91795],[139.63829,35.91795],[139.63845,35.91795],[139.64,35.91804],[139.64275,35.91817],[139.64358,35.9182],[139.64382,35.91821]]]}},{"type":"Feature","properties":{"name":"寿能町一丁目","setai":708,"jinko":1334,"key":"11103007001","units":1,"m":637,"f":697,"gk":13,"a0":113,"a1":819,"a2":374,"a75":192,"ag":[29,32,52,58,47,77,49,71,84,132,130,91,80,74,108,90,51,36,14,1,0],"nf":28},"geometry":{"type":"Polygon","coordinates":[[[139.63482,35.92283],[139.63492,35.9226],[139.63502,35.92262],[139.63504,35.92224],[139.63504,35.92218],[139.6351,35.92171],[139.63517,35.92136],[139.63521,35.92108],[139.63524,35.92094],[139.63526,35.92083],[139.6353,35.92064],[139.63536,35.92033],[139.6354,35.92011],[139.63549,35.91957],[139.6355,35.91935],[139.63551,35.91918],[139.6354,35.91926],[139.63518,35.91944],[139.63485,35.91968],[139.63469,35.91978],[139.6327,35.92083],[139.6325,35.92064],[139.6323,35.92048],[139.63214,35.92036],[139.6319,35.9207],[139.63164,35.92109],[139.63131,35.92124],[139.63101,35.92084],[139.63079,35.92087],[139.63049,35.92112],[139.63085,35.92146],[139.62972,35.92196],[139.6285,35.92251],[139.62843,35.92256],[139.62891,35.92278],[139.6292,35.92291],[139.62953,35.92302],[139.62971,35.92307],[139.62985,35.92311],[139.6305,35.92328],[139.6305,35.92328],[139.63063,35.92331],[139.63065,35.92332],[139.63117,35.92352],[139.63169,35.92373],[139.63173,35.92374],[139.63175,35.92375],[139.63189,35.92378],[139.63232,35.92388],[139.63235,35.92389],[139.63274,35.924],[139.63286,35.92403],[139.63302,35.92407],[139.63307,35.92408],[139.63309,35.92409],[139.63309,35.92409],[139.63325,35.92411],[139.63388,35.9242],[139.63394,35.92421],[139.63407,35.92423],[139.63414,35.92424],[139.63425,35.92426],[139.63454,35.92431],[139.63467,35.92434],[139.63492,35.92439],[139.63503,35.92443],[139.63503,35.92443],[139.63503,35.92437],[139.63503,35.92416],[139.63503,35.92401],[139.63495,35.92401],[139.63487,35.92398],[139.63481,35.92395],[139.63478,35.9239],[139.63475,35.92378],[139.63472,35.92362],[139.63471,35.92353],[139.63471,35.92338],[139.63473,35.92313],[139.63475,35.92303],[139.63482,35.92283]]]}},{"type":"Feature","properties":{"name":"寿能町二丁目","setai":1402,"jinko":3009,"key":"11103007002","units":1,"m":1389,"f":1620,"gk":148,"a0":347,"a1":1861,"a2":793,"a75":395,"ag":[119,115,113,155,145,160,156,187,183,302,214,197,162,167,231,172,119,66,31,6,1],"nf":8},"geometry":{"type":"Polygon","coordinates":[[[139.63831,35.92266],[139.63871,35.92223],[139.63906,35.92242],[139.64068,35.9235],[139.64124,35.92388],[139.64165,35.92414],[139.64183,35.9238],[139.64213,35.92346],[139.64234,35.92322],[139.6426,35.92294],[139.64282,35.92272],[139.64304,35.92246],[139.64333,35.92214],[139.64342,35.92205],[139.6436,35.9217],[139.64372,35.92145],[139.64386,35.92115],[139.64396,35.9209],[139.64404,35.9204],[139.64406,35.91975],[139.64407,35.91956],[139.64408,35.91936],[139.64399,35.91904],[139.64391,35.91879],[139.64387,35.91849],[139.64382,35.91821],[139.64358,35.9182],[139.64275,35.91817],[139.64,35.91804],[139.63845,35.91795],[139.63829,35.91795],[139.63809,35.91795],[139.63707,35.91787],[139.63688,35.91785],[139.63617,35.91781],[139.63548,35.91775],[139.63548,35.91844],[139.63549,35.91869],[139.63551,35.91918],[139.6355,35.91935],[139.63549,35.91957],[139.6354,35.92011],[139.63536,35.92033],[139.6353,35.92064],[139.63526,35.92083],[139.63524,35.92094],[139.63521,35.92108],[139.63517,35.92136],[139.6351,35.92171],[139.63504,35.92218],[139.63504,35.92224],[139.63502,35.92262],[139.63492,35.9226],[139.63482,35.92283],[139.63475,35.92303],[139.63473,35.92313],[139.63471,35.92338],[139.63471,35.92353],[139.63472,35.92362],[139.63475,35.92378],[139.63478,35.9239],[139.63481,35.92395],[139.63487,35.92398],[139.63495,35.92401],[139.63503,35.92401],[139.63503,35.92416],[139.63503,35.92437],[139.63503,35.92443],[139.63503,35.92443],[139.63576,35.92472],[139.63602,35.92484],[139.63823,35.92584],[139.63797,35.92563],[139.63784,35.92539],[139.6378,35.92523],[139.63779,35.92481],[139.6378,35.92442],[139.63786,35.92384],[139.63788,35.92369],[139.6379,35.92351],[139.63796,35.92309],[139.63796,35.92308],[139.63802,35.92296],[139.63809,35.92287],[139.63831,35.92266]]]}},{"type":"Feature","properties":{"name":"高鼻町一丁目","setai":893,"jinko":1907,"key":"11103008001","units":1,"m":912,"f":995,"gk":33,"a0":219,"a1":1183,"a2":497,"a75":254,"ag":[79,87,53,67,93,113,110,130,149,178,114,114,115,117,126,107,66,52,25,2,2],"nf":8},"geometry":{"type":"Polygon","coordinates":[[[139.62877,35.91677],[139.62885,35.91677],[139.62894,35.91679],[139.62896,35.91667],[139.62899,35.91647],[139.62905,35.91642],[139.62912,35.91639],[139.62922,35.91636],[139.62924,35.9163],[139.62929,35.91626],[139.62937,35.91621],[139.62943,35.91616],[139.62946,35.9161],[139.62948,35.91571],[139.62948,35.9156],[139.62979,35.91562],[139.6299,35.91557],[139.63019,35.91545],[139.63023,35.91514],[139.63045,35.91513],[139.63048,35.9148],[139.63053,35.91411],[139.63055,35.91383],[139.63061,35.91319],[139.63062,35.91311],[139.63068,35.91243],[139.6307,35.91206],[139.6307,35.91199],[139.63071,35.91157],[139.63072,35.9115],[139.63076,35.91093],[139.63079,35.91046],[139.63085,35.90991],[139.63088,35.90949],[139.63089,35.90932],[139.63054,35.90929],[139.63039,35.90926],[139.63023,35.90922],[139.63008,35.9092],[139.62995,35.90916],[139.62984,35.90906],[139.62979,35.90902],[139.62963,35.90887],[139.62962,35.90911],[139.62962,35.90924],[139.62962,35.9093],[139.62962,35.90931],[139.6296,35.90942],[139.62959,35.90945],[139.62957,35.90951],[139.62946,35.90969],[139.62906,35.90939],[139.62895,35.90968],[139.62889,35.90989],[139.62883,35.91015],[139.6288,35.91028],[139.62874,35.91053],[139.62873,35.91077],[139.62894,35.91079],[139.62918,35.9108],[139.62913,35.91099],[139.62907,35.9111],[139.62903,35.91117],[139.629,35.91129],[139.62898,35.91138],[139.62895,35.91159],[139.62891,35.9118],[139.62871,35.91176],[139.62857,35.91229],[139.62843,35.91282],[139.62827,35.91336],[139.62813,35.91388],[139.62807,35.91407],[139.62798,35.91441],[139.62785,35.91494],[139.62772,35.91545],[139.62758,35.91599],[139.62768,35.91606],[139.62782,35.91618],[139.6279,35.9163],[139.62808,35.91663],[139.62817,35.9168],[139.6284,35.91736],[139.62846,35.91732],[139.62855,35.91725],[139.62863,35.91715],[139.62867,35.91701],[139.62871,35.9169],[139.62873,35.91681],[139.62877,35.91677]]]}},{"type":"Feature","properties":{"name":"高鼻町二丁目","setai":611,"jinko":1339,"key":"11103008002","units":1,"m":667,"f":672,"gk":20,"a0":146,"a1":793,"a2":393,"a75":222,"ag":[55,45,46,55,58,80,72,77,89,118,95,74,75,71,100,86,63,49,19,3,2],"nf":7},"geometry":{"type":"Polygon","coordinates":[[[139.63337,35.91555],[139.63362,35.91554],[139.63417,35.91557],[139.6349,35.91559],[139.63502,35.91559],[139.635,35.9155],[139.63455,35.91436],[139.63447,35.91416],[139.63431,35.91376],[139.63428,35.91366],[139.6341,35.91315],[139.63408,35.913],[139.63402,35.9127],[139.63398,35.91248],[139.63391,35.91216],[139.63375,35.91144],[139.63297,35.91118],[139.6329,35.91125],[139.63243,35.91121],[139.63201,35.91117],[139.63174,35.91111],[139.63157,35.91109],[139.63123,35.91102],[139.63076,35.91093],[139.63072,35.9115],[139.63071,35.91157],[139.6307,35.91199],[139.6307,35.91206],[139.63068,35.91243],[139.63062,35.91311],[139.63061,35.91319],[139.63055,35.91383],[139.63053,35.91411],[139.63048,35.9148],[139.63045,35.91513],[139.63079,35.91512],[139.63081,35.91521],[139.63084,35.91538],[139.63086,35.91549],[139.63095,35.91568],[139.63106,35.91583],[139.63116,35.91599],[139.63125,35.91611],[139.63138,35.91634],[139.63174,35.91609],[139.63214,35.91591],[139.63313,35.9156],[139.63337,35.91555]]]}},{"type":"Feature","properties":{"name":"高鼻町三丁目","setai":290,"jinko":625,"key":"11103008003","units":1,"m":299,"f":334,"gk":8,"a0":59,"a1":380,"a2":187,"a75":98,"ag":[24,15,20,21,36,37,39,36,41,48,34,47,41,33,56,35,31,17,13,2,0],"nf":7,"tt":633,"gs":1},"geometry":{"type":"Polygon","coordinates":[[[139.62724,35.91588],[139.627,35.91583],[139.6268,35.91632],[139.62678,35.91638],[139.62667,35.91666],[139.62659,35.91686],[139.62657,35.91691],[139.62644,35.91735],[139.62643,35.91743],[139.6263,35.91796],[139.62625,35.91815],[139.62616,35.91849],[139.62597,35.91901],[139.62579,35.91955],[139.62603,35.92015],[139.62603,35.92017],[139.62628,35.9207],[139.62639,35.92098],[139.62655,35.92127],[139.62655,35.92128],[139.62667,35.92119],[139.62675,35.92114],[139.6273,35.92073],[139.62727,35.92071],[139.62769,35.92044],[139.6282,35.92042],[139.62829,35.92017],[139.6283,35.9201],[139.6283,35.92002],[139.62829,35.91992],[139.62829,35.91988],[139.62816,35.91919],[139.62811,35.91889],[139.62809,35.91872],[139.62811,35.91848],[139.62813,35.91835],[139.62815,35.91826],[139.62821,35.91814],[139.62831,35.91799],[139.6284,35.91788],[139.62853,35.91773],[139.6284,35.91736],[139.62817,35.9168],[139.62808,35.91663],[139.6279,35.9163],[139.62782,35.91618],[139.62768,35.91606],[139.62758,35.91599],[139.62724,35.91588]]]}},{"type":"Feature","properties":{"name":"高鼻町四丁目","setai":6,"jinko":8,"key":"11103008004","units":1,"hi":1},"geometry":{"type":"Polygon","coordinates":[[[139.62972,35.92196],[139.63085,35.92146],[139.63049,35.92112],[139.63079,35.92087],[139.63101,35.92084],[139.63131,35.92124],[139.63164,35.92109],[139.6319,35.9207],[139.63214,35.92036],[139.6323,35.92048],[139.6325,35.92064],[139.6327,35.92083],[139.63469,35.91978],[139.63485,35.91968],[139.63518,35.91944],[139.6354,35.91926],[139.63551,35.91918],[139.63549,35.91869],[139.63548,35.91844],[139.63548,35.91775],[139.63547,35.91681],[139.63525,35.91621],[139.63502,35.91559],[139.6349,35.91559],[139.63417,35.91557],[139.63362,35.91554],[139.63337,35.91555],[139.63313,35.9156],[139.63214,35.91591],[139.63174,35.91609],[139.63138,35.91634],[139.63125,35.91611],[139.63116,35.91599],[139.63106,35.91583],[139.63095,35.91568],[139.63086,35.91549],[139.63084,35.91538],[139.63081,35.91521],[139.63079,35.91512],[139.63045,35.91513],[139.63023,35.91514],[139.63019,35.91545],[139.6299,35.91557],[139.62979,35.91562],[139.62948,35.9156],[139.62948,35.91571],[139.62946,35.9161],[139.62943,35.91616],[139.62937,35.91621],[139.62929,35.91626],[139.62924,35.9163],[139.62922,35.91636],[139.62912,35.91639],[139.62905,35.91642],[139.62899,35.91647],[139.62896,35.91667],[139.62894,35.91679],[139.62885,35.91677],[139.62877,35.91677],[139.62873,35.91681],[139.62871,35.9169],[139.62867,35.91701],[139.62863,35.91715],[139.62855,35.91725],[139.62846,35.91732],[139.6284,35.91736],[139.62853,35.91773],[139.6284,35.91788],[139.62831,35.91799],[139.62821,35.91814],[139.62815,35.91826],[139.62813,35.91835],[139.62811,35.91848],[139.62809,35.91872],[139.62811,35.91889],[139.62816,35.91919],[139.62829,35.91988],[139.62829,35.91992],[139.6283,35.92002],[139.6283,35.9201],[139.62829,35.92017],[139.6282,35.92042],[139.62769,35.92044],[139.62727,35.92071],[139.6273,35.92073],[139.62675,35.92114],[139.62667,35.92119],[139.62655,35.92128],[139.62666,35.9215],[139.62671,35.92161],[139.62674,35.92166],[139.62685,35.92167],[139.62691,35.92169],[139.62699,35.92171],[139.62711,35.92163],[139.6272,35.92171],[139.62734,35.92181],[139.62769,35.92206],[139.62766,35.92213],[139.62772,35.92215],[139.62779,35.92213],[139.62789,35.9222],[139.62787,35.92227],[139.62783,35.92237],[139.62784,35.92237],[139.62818,35.92244],[139.62843,35.92256],[139.6285,35.92251],[139.62972,35.92196]]]}},{"type":"Feature","properties":{"name":"土手町一丁目","setai":1132,"jinko":2177,"key":"11103009001","units":1,"m":1082,"f":1095,"gk":111,"a0":183,"a1":1533,"a2":440,"a75":232,"ag":[66,56,61,83,156,162,146,137,146,198,191,190,124,105,103,63,85,54,24,5,1],"nf":21},"geometry":{"type":"Polygon","coordinates":[[[139.62496,35.91383],[139.62514,35.91315],[139.62465,35.91314],[139.62391,35.91316],[139.62389,35.91316],[139.62369,35.91315],[139.62357,35.91315],[139.62354,35.91315],[139.62345,35.91315],[139.62319,35.91314],[139.62309,35.91312],[139.62296,35.91311],[139.62289,35.9131],[139.62273,35.91308],[139.62236,35.91302],[139.62222,35.913],[139.62206,35.91339],[139.62173,35.91408],[139.62151,35.91461],[139.62142,35.91481],[139.62097,35.91582],[139.62088,35.91602],[139.62047,35.917],[139.62054,35.91704],[139.62109,35.91724],[139.6216,35.91741],[139.62207,35.91756],[139.6224,35.91766],[139.62296,35.91786],[139.6237,35.91809],[139.62381,35.91812],[139.62404,35.91733],[139.62418,35.91684],[139.62427,35.91653],[139.62443,35.916],[139.62461,35.9154],[139.62462,35.91537],[139.62456,35.91527],[139.62466,35.91494],[139.62474,35.91462],[139.62481,35.91438],[139.62486,35.91419],[139.62493,35.91391],[139.62496,35.91383]]]}},{"type":"Feature","properties":{"name":"土手町二丁目","setai":371,"jinko":761,"key":"11103009002","units":1,"m":382,"f":379,"gk":19,"a0":93,"a1":496,"a2":162,"a75":80,"ag":[36,34,23,23,28,63,57,74,55,72,48,29,47,41,41,34,24,12,9,1,0],"nf":10},"geometry":{"type":"Polygon","coordinates":[[[139.62785,35.91494],[139.62798,35.91441],[139.62807,35.91407],[139.62813,35.91388],[139.62827,35.91336],[139.6281,35.91333],[139.62793,35.9133],[139.62781,35.91325],[139.62773,35.91321],[139.62764,35.91314],[139.62754,35.9131],[139.62742,35.91308],[139.62729,35.91309],[139.62685,35.91311],[139.62652,35.91311],[139.62636,35.9131],[139.62604,35.91311],[139.62517,35.91315],[139.62514,35.91315],[139.62496,35.91383],[139.62493,35.91391],[139.62486,35.91419],[139.62481,35.91438],[139.62565,35.91452],[139.62672,35.91474],[139.6267,35.91488],[139.62701,35.91491],[139.62739,35.91486],[139.62785,35.91494]]]}},{"type":"Feature","properties":{"name":"土手町三丁目","setai":707,"jinko":1363,"key":"11103009003","units":1,"m":694,"f":669,"gk":31,"a0":128,"a1":911,"a2":309,"a75":160,"ag":[46,40,42,50,84,111,108,102,80,107,99,93,77,81,68,63,45,39,9,3,1],"nf":15},"geometry":{"type":"Polygon","coordinates":[[[139.6268,35.91632],[139.627,35.91583],[139.62724,35.91588],[139.62758,35.91599],[139.62772,35.91545],[139.62785,35.91494],[139.62739,35.91486],[139.62701,35.91491],[139.6267,35.91488],[139.62672,35.91474],[139.62565,35.91452],[139.62481,35.91438],[139.62474,35.91462],[139.62466,35.91494],[139.62456,35.91527],[139.62462,35.91537],[139.62461,35.9154],[139.62443,35.916],[139.62427,35.91653],[139.62418,35.91684],[139.62404,35.91733],[139.62381,35.91812],[139.6244,35.91835],[139.62493,35.91857],[139.62521,35.91869],[139.62537,35.91925],[139.62567,35.91928],[139.62574,35.91943],[139.62579,35.91955],[139.62597,35.91901],[139.62616,35.91849],[139.62625,35.91815],[139.6263,35.91796],[139.62643,35.91743],[139.62644,35.91735],[139.62657,35.91691],[139.62659,35.91686],[139.62667,35.91666],[139.62678,35.91638],[139.6268,35.91632]]]}},{"type":"Feature","properties":{"name":"宮町一丁目","setai":112,"jinko":156,"key":"11103010001","units":1,"m":81,"f":75,"gk":3,"a0":5,"a1":112,"a2":32,"a75":18,"ag":[3,1,1,4,8,11,13,14,20,16,10,9,7,1,13,9,1,7,1,0,0],"nf":7},"geometry":{"type":"Polygon","coordinates":[[[139.62631,35.90871],[139.62639,35.90836],[139.62646,35.90809],[139.62656,35.90771],[139.62648,35.9077],[139.62514,35.90741],[139.62512,35.90745],[139.62509,35.90751],[139.62478,35.90744],[139.62465,35.90788],[139.62432,35.90784],[139.62423,35.90814],[139.62435,35.90817],[139.62417,35.90869],[139.6241,35.90867],[139.62395,35.90914],[139.62437,35.90926],[139.62498,35.90941],[139.62608,35.90966],[139.62621,35.90917],[139.62631,35.90871]]]}},{"type":"Feature","properties":{"name":"宮町二丁目","setai":218,"jinko":365,"key":"11103010002","units":1,"m":201,"f":164,"gk":10,"a0":20,"a1":258,"a2":79,"a75":32,"ag":[6,5,9,11,19,32,28,32,31,28,33,28,16,13,34,16,6,7,2,0,1],"nf":8},"geometry":{"type":"Polygon","coordinates":[[[139.62813,35.90868],[139.62782,35.90843],[139.62778,35.9084],[139.62778,35.90844],[139.62733,35.9083],[139.62646,35.90809],[139.62639,35.90836],[139.62631,35.90871],[139.62621,35.90917],[139.62608,35.90966],[139.62605,35.90975],[139.62602,35.90988],[139.62732,35.91027],[139.62728,35.91047],[139.62752,35.91058],[139.62762,35.91062],[139.62774,35.91064],[139.62786,35.91066],[139.62798,35.91068],[139.62835,35.91072],[139.62873,35.91077],[139.62874,35.91053],[139.6288,35.91028],[139.62883,35.91015],[139.62889,35.90989],[139.62895,35.90968],[139.62906,35.90939],[139.6285,35.90897],[139.62813,35.90868]]]}},{"type":"Feature","properties":{"name":"宮町三丁目","setai":415,"jinko":754,"key":"11103010003","units":1,"m":383,"f":371,"gk":16,"a0":63,"a1":509,"a2":172,"a75":93,"ag":[29,20,14,19,44,73,69,54,40,50,55,51,54,39,40,34,26,20,11,2,0],"nf":10},"geometry":{"type":"Polygon","coordinates":[[[139.62827,35.91336],[139.62843,35.91282],[139.62857,35.91229],[139.62871,35.91176],[139.62891,35.9118],[139.62895,35.91159],[139.62898,35.91138],[139.629,35.91129],[139.62903,35.91117],[139.62907,35.9111],[139.62913,35.91099],[139.62918,35.9108],[139.62894,35.91079],[139.62873,35.91077],[139.62835,35.91072],[139.62798,35.91068],[139.62786,35.91066],[139.62774,35.91064],[139.62762,35.91062],[139.62752,35.91058],[139.62728,35.91047],[139.62732,35.91027],[139.62602,35.90988],[139.62581,35.9107],[139.62564,35.91138],[139.6256,35.91152],[139.62558,35.9116],[139.62545,35.91213],[139.62544,35.91218],[139.62531,35.91265],[139.62517,35.91315],[139.62604,35.91311],[139.62636,35.9131],[139.62652,35.91311],[139.62685,35.91311],[139.62729,35.91309],[139.62742,35.91308],[139.62754,35.9131],[139.62764,35.91314],[139.62773,35.91321],[139.62781,35.91325],[139.62793,35.9133],[139.6281,35.91333],[139.62827,35.91336]]]}},{"type":"Feature","properties":{"name":"宮町四丁目","setai":704,"jinko":983,"key":"11103010004","units":1,"m":549,"f":434,"gk":50,"a0":64,"a1":784,"a2":108,"a75":46,"ag":[20,14,30,25,82,148,111,84,84,80,84,55,31,28,34,19,13,13,1,0,0],"nf":27},"geometry":{"type":"Polygon","coordinates":[[[139.62391,35.91316],[139.62465,35.91314],[139.62514,35.91315],[139.62517,35.91315],[139.62531,35.91265],[139.62544,35.91218],[139.62545,35.91213],[139.62558,35.9116],[139.6256,35.91152],[139.62564,35.91138],[139.62581,35.9107],[139.62602,35.90988],[139.62605,35.90975],[139.62608,35.90966],[139.62498,35.90941],[139.62437,35.90926],[139.62416,35.90996],[139.62413,35.91005],[139.62411,35.91014],[139.62401,35.91042],[139.62382,35.9111],[139.62381,35.91116],[139.62379,35.91133],[139.62378,35.91148],[139.62378,35.9115],[139.62386,35.91205],[139.62388,35.91223],[139.62389,35.91244],[139.62389,35.9127],[139.62388,35.9128],[139.62388,35.91282],[139.62386,35.91288],[139.62369,35.91315],[139.62389,35.91316],[139.62391,35.91316]]]}},{"type":"Feature","properties":{"name":"宮町五丁目","setai":496,"jinko":643,"key":"11103010005","units":1,"m":378,"f":265,"gk":32,"a0":17,"a1":486,"a2":115,"a75":61,"ag":[6,7,4,6,71,105,87,46,45,41,25,40,20,27,27,27,12,16,5,1,0],"nf":25},"geometry":{"type":"Polygon","coordinates":[[[139.62437,35.90926],[139.62395,35.90914],[139.6238,35.90911],[139.62377,35.90921],[139.6237,35.90919],[139.62358,35.90917],[139.62344,35.90953],[139.62331,35.90991],[139.62321,35.9102],[139.62317,35.91028],[139.62312,35.91044],[139.62306,35.91061],[139.62302,35.91073],[139.62297,35.91088],[139.62292,35.91106],[139.62286,35.91131],[139.62282,35.9115],[139.62275,35.91191],[139.62272,35.91217],[139.62271,35.91243],[139.6227,35.91265],[139.62271,35.91288],[139.62273,35.91308],[139.62289,35.9131],[139.62296,35.91311],[139.62309,35.91312],[139.62319,35.91314],[139.62345,35.91315],[139.62354,35.91315],[139.62357,35.91315],[139.62369,35.91315],[139.62386,35.91288],[139.62388,35.91282],[139.62388,35.9128],[139.62389,35.9127],[139.62389,35.91244],[139.62388,35.91223],[139.62386,35.91205],[139.62378,35.9115],[139.62378,35.91148],[139.62379,35.91133],[139.62381,35.91116],[139.62382,35.9111],[139.62401,35.91042],[139.62411,35.91014],[139.62413,35.91005],[139.62416,35.90996],[139.62437,35.90926]]]}},{"type":"Feature","properties":{"name":"大門町一丁目","setai":5,"jinko":14,"key":"11103011001","units":1,"m":5,"f":9,"gk":0,"a0":0,"a1":9,"a2":5,"a75":4,"ag":[0,0,0,1,2,0,1,0,1,2,0,2,0,0,1,2,1,1,0,0,0]},"geometry":{"type":"Polygon","coordinates":[[[139.62657,35.90769],[139.62665,35.90736],[139.6268,35.9067],[139.62693,35.90614],[139.627,35.90586],[139.6256,35.90555],[139.62555,35.9058],[139.62509,35.90569],[139.62505,35.90585],[139.62502,35.90586],[139.62498,35.90604],[139.62497,35.90605],[139.62501,35.90606],[139.62506,35.90608],[139.62477,35.90674],[139.62501,35.9068],[139.62478,35.90744],[139.62509,35.90751],[139.62512,35.90745],[139.62514,35.90741],[139.62648,35.9077],[139.62656,35.90771],[139.62657,35.90769]]]}},{"type":"Feature","properties":{"name":"大門町二丁目","setai":18,"jinko":39,"key":"11103011002","units":1,"m":19,"f":20,"gk":0,"a0":3,"a1":19,"a2":17,"a75":9,"ag":[1,2,0,2,0,2,0,3,2,2,5,3,0,1,7,3,3,3,0,0,0]},"geometry":{"type":"Polygon","coordinates":[[[139.62778,35.90844],[139.62778,35.9084],[139.62782,35.90843],[139.6279,35.90802],[139.62793,35.9079],[139.62798,35.90768],[139.62816,35.90693],[139.62826,35.90641],[139.62693,35.90614],[139.6268,35.9067],[139.62665,35.90736],[139.62657,35.90769],[139.62656,35.90771],[139.62646,35.90809],[139.62733,35.9083],[139.62778,35.90844]]]}},{"type":"Feature","properties":{"name":"大門町三丁目","setai":735,"jinko":1433,"key":"11103011003","units":1,"m":712,"f":721,"gk":27,"a0":161,"a1":971,"a2":282,"a75":121,"ag":[62,63,36,58,59,99,81,119,109,114,114,132,86,87,74,51,33,30,6,1,0],"nf":19},"geometry":{"type":"Polygon","coordinates":[[[139.62962,35.90911],[139.62963,35.90887],[139.62979,35.90902],[139.62984,35.90906],[139.62995,35.90916],[139.63008,35.9092],[139.63023,35.90922],[139.63039,35.90926],[139.63054,35.90929],[139.63089,35.90932],[139.63091,35.90915],[139.63093,35.90894],[139.63096,35.90875],[139.63096,35.90871],[139.63098,35.90857],[139.631,35.90828],[139.63102,35.90785],[139.63103,35.90749],[139.63104,35.90738],[139.63106,35.90691],[139.63108,35.90603],[139.63083,35.90601],[139.63081,35.90608],[139.6307,35.90606],[139.63054,35.90602],[139.62986,35.90587],[139.62976,35.90619],[139.62973,35.90624],[139.6295,35.9062],[139.62939,35.90615],[139.62941,35.9061],[139.62947,35.90591],[139.62944,35.9059],[139.62931,35.90586],[139.62926,35.90585],[139.62921,35.90585],[139.62911,35.90584],[139.62911,35.90597],[139.6284,35.90586],[139.62826,35.90641],[139.62816,35.90693],[139.62798,35.90768],[139.62793,35.9079],[139.6279,35.90802],[139.62782,35.90843],[139.62813,35.90868],[139.6285,35.90897],[139.62906,35.90939],[139.62946,35.90969],[139.62957,35.90951],[139.62959,35.90945],[139.6296,35.90942],[139.62962,35.90931],[139.62962,35.9093],[139.62962,35.90924],[139.62962,35.90911]]]}},{"type":"Feature","properties":{"name":"仲町一丁目","setai":36,"jinko":51,"key":"11103012001","units":1,"m":29,"f":22,"gk":0,"a0":1,"a1":27,"a2":14,"a75":11,"ag":[1,0,0,0,2,6,5,2,5,3,1,2,1,0,3,4,5,2,0,0,0],"nf":9},"geometry":{"type":"Polygon","coordinates":[[[139.627,35.90586],[139.6272,35.905],[139.6274,35.90431],[139.62745,35.90415],[139.62609,35.90386],[139.62591,35.90383],[139.62583,35.90381],[139.62583,35.90383],[139.62554,35.90458],[139.6255,35.9046],[139.62546,35.90462],[139.6254,35.90465],[139.62532,35.90486],[139.62523,35.90517],[139.62513,35.90551],[139.62509,35.90569],[139.62555,35.9058],[139.6256,35.90555],[139.627,35.90586]]]}},{"type":"Feature","properties":{"name":"仲町二丁目","setai":55,"jinko":77,"key":"11103012002","units":1,"m":46,"f":31,"gk":0,"a0":2,"a1":54,"a2":15,"a75":11,"ag":[1,1,0,3,4,10,8,6,3,1,10,5,4,1,3,3,4,3,1,0,0],"nf":6},"geometry":{"type":"Polygon","coordinates":[[[139.62816,35.90445],[139.6274,35.90431],[139.6272,35.905],[139.627,35.90586],[139.62693,35.90614],[139.62826,35.90641],[139.6284,35.90586],[139.62854,35.90527],[139.62866,35.90484],[139.62869,35.90471],[139.62873,35.90456],[139.62816,35.90445]]]}},{"type":"Feature","properties":{"name":"仲町三丁目","setai":328,"jinko":507,"key":"11103012003","units":1,"m":277,"f":230,"gk":26,"a0":37,"a1":368,"a2":90,"a75":51,"ag":[17,13,7,7,27,68,51,50,42,37,39,23,24,16,23,21,16,8,3,2,1],"nf":12},"geometry":{"type":"Polygon","coordinates":[[[139.62976,35.90619],[139.62986,35.90587],[139.63054,35.90602],[139.6307,35.90606],[139.63081,35.90608],[139.63083,35.90601],[139.63108,35.90603],[139.63109,35.90597],[139.6311,35.90572],[139.63111,35.90546],[139.63111,35.90541],[139.63114,35.90513],[139.63031,35.90489],[139.63021,35.90486],[139.62951,35.90471],[139.62947,35.9047],[139.62873,35.90456],[139.62869,35.90471],[139.62866,35.90484],[139.62854,35.90527],[139.6284,35.90586],[139.62911,35.90597],[139.62911,35.90584],[139.62921,35.90585],[139.62926,35.90585],[139.62931,35.90586],[139.62944,35.9059],[139.62947,35.90591],[139.62941,35.9061],[139.62939,35.90615],[139.6295,35.9062],[139.62973,35.90624],[139.62976,35.90619]]]}},{"type":"Feature","properties":{"name":"下町一丁目","setai":188,"jinko":384,"key":"11103013001","units":1,"m":183,"f":201,"gk":36,"a0":52,"a1":257,"a2":68,"a75":33,"ag":[21,17,14,12,18,14,31,36,33,31,34,29,19,12,23,7,9,12,5,0,0],"nf":7},"geometry":{"type":"Polygon","coordinates":[[[139.62764,35.90363],[139.62777,35.90329],[139.62778,35.90326],[139.6281,35.90245],[139.62813,35.9024],[139.62678,35.90208],[139.62627,35.90279],[139.62633,35.90297],[139.62621,35.90338],[139.62619,35.90345],[139.62607,35.90342],[139.62591,35.90383],[139.62609,35.90386],[139.62745,35.90415],[139.62753,35.90394],[139.62764,35.90363]]]}},{"type":"Feature","properties":{"name":"下町二丁目","setai":181,"jinko":264,"key":"11103013002","units":1,"m":146,"f":118,"gk":4,"a0":12,"a1":171,"a2":50,"a75":23,"ag":[4,5,3,6,22,27,23,18,15,23,13,13,11,15,12,8,6,4,4,1,0],"nf":31},"geometry":{"type":"Polygon","coordinates":[[[139.62816,35.90445],[139.62827,35.90411],[139.62883,35.90419],[139.62884,35.90418],[139.62888,35.90407],[139.62894,35.90392],[139.62901,35.90376],[139.62908,35.9036],[139.62908,35.9036],[139.62916,35.90342],[139.62922,35.90329],[139.62929,35.9031],[139.62934,35.90296],[139.62939,35.90283],[139.6281,35.90245],[139.62778,35.90326],[139.62777,35.90329],[139.62764,35.90363],[139.62753,35.90394],[139.62745,35.90415],[139.6274,35.90431],[139.62816,35.90445]]]}},{"type":"Feature","properties":{"name":"下町三丁目","setai":1178,"jinko":2829,"key":"11103013003","units":1,"m":1352,"f":1477,"gk":88,"a0":624,"a1":1869,"a2":324,"a75":97,"ag":[189,279,156,84,70,50,94,283,376,347,242,178,145,114,113,42,30,17,7,1,0],"nf":12},"geometry":{"type":"Polygon","coordinates":[[[139.63114,35.90507],[139.63124,35.90326],[139.63044,35.90321],[139.63045,35.90307],[139.63045,35.90291],[139.63046,35.90276],[139.63011,35.90277],[139.63017,35.90258],[139.62954,35.90253],[139.62945,35.90272],[139.62939,35.90283],[139.62934,35.90296],[139.62929,35.9031],[139.62922,35.90329],[139.62916,35.90342],[139.62908,35.9036],[139.62908,35.9036],[139.62901,35.90376],[139.62894,35.90392],[139.62888,35.90407],[139.62884,35.90418],[139.62883,35.90419],[139.62827,35.90411],[139.62816,35.90445],[139.62873,35.90456],[139.62947,35.9047],[139.62951,35.90471],[139.63021,35.90486],[139.63031,35.90489],[139.63114,35.90513],[139.63114,35.90507]]]}},{"type":"Feature","properties":{"name":"東町一丁目","setai":727,"jinko":1472,"key":"11103014001","units":1,"m":728,"f":744,"gk":16,"a0":180,"a1":955,"a2":325,"a75":185,"ag":[39,64,77,54,92,110,86,80,107,113,127,100,86,67,73,61,44,50,20,9,1],"nf":12},"geometry":{"type":"Polygon","coordinates":[[[139.63696,35.90772],[139.63651,35.90746],[139.63617,35.90727],[139.63596,35.90716],[139.63571,35.907],[139.63574,35.90655],[139.63577,35.90606],[139.63579,35.90552],[139.63556,35.90551],[139.63552,35.90551],[139.63435,35.90547],[139.63284,35.90541],[139.63221,35.90539],[139.63144,35.90521],[139.63114,35.90513],[139.63111,35.90541],[139.63111,35.90546],[139.6311,35.90572],[139.63109,35.90597],[139.63108,35.90603],[139.63106,35.90691],[139.63104,35.90738],[139.63103,35.90749],[139.63225,35.90759],[139.63279,35.90762],[139.63345,35.90761],[139.63422,35.90765],[139.63461,35.90767],[139.63518,35.90769],[139.63582,35.9077],[139.6363,35.90771],[139.63696,35.90772]]]}},{"type":"Feature","properties":{"name":"東町二丁目","setai":829,"jinko":1623,"key":"11103014002","units":1,"m":811,"f":812,"gk":39,"a0":170,"a1":1015,"a2":424,"a75":231,"ag":[69,48,53,47,93,121,124,101,124,113,112,95,85,93,100,98,59,57,15,2,0],"nf":14},"geometry":{"type":"Polygon","coordinates":[[[139.63375,35.91133],[139.63374,35.91075],[139.6339,35.91035],[139.63408,35.90982],[139.63412,35.90927],[139.63415,35.90873],[139.63418,35.9082],[139.63422,35.90765],[139.63345,35.90761],[139.63279,35.90762],[139.63225,35.90759],[139.63103,35.90749],[139.63102,35.90785],[139.631,35.90828],[139.63098,35.90857],[139.63096,35.90871],[139.63096,35.90875],[139.63093,35.90894],[139.63091,35.90915],[139.63089,35.90932],[139.63088,35.90949],[139.63085,35.90991],[139.63079,35.91046],[139.63076,35.91093],[139.63123,35.91102],[139.63157,35.91109],[139.63174,35.91111],[139.63201,35.91117],[139.63243,35.91121],[139.6329,35.91125],[139.63297,35.91118],[139.63375,35.91144],[139.63375,35.91133]]]}},{"type":"Feature","properties":{"name":"桜木町一丁目","setai":672,"jinko":1430,"key":"11103015001","units":1,"m":689,"f":741,"gk":16,"a0":261,"a1":982,"a2":169,"a75":62,"ag":[111,100,50,27,41,100,119,157,158,113,105,87,75,58,49,26,20,10,6,0,0],"nf":18},"geometry":{"type":"Polygon","coordinates":[[[139.62134,35.9057],[139.62146,35.90569],[139.62175,35.90573],[139.62222,35.90578],[139.62286,35.90591],[139.62316,35.90521],[139.62332,35.90496],[139.62371,35.90442],[139.62387,35.90418],[139.62391,35.90403],[139.62401,35.9037],[139.6241,35.90335],[139.62427,35.9028],[139.6244,35.9024],[139.6246,35.90181],[139.62469,35.90158],[139.6244,35.90152],[139.62438,35.90151],[139.62432,35.90165],[139.62377,35.90155],[139.62347,35.9015],[139.62321,35.90146],[139.62271,35.90138],[139.62266,35.90137],[139.62261,35.90136],[139.62239,35.90177],[139.62222,35.90212],[139.62221,35.90213],[139.62218,35.90221],[139.62217,35.90223],[139.62214,35.90229],[139.6221,35.90238],[139.62172,35.90224],[139.62161,35.90244],[139.62101,35.90225],[139.62106,35.90215],[139.62054,35.90197],[139.62048,35.90188],[139.62034,35.90183],[139.62031,35.90175],[139.61991,35.90202],[139.62,35.90212],[139.61951,35.90306],[139.6197,35.90311],[139.61952,35.90345],[139.61934,35.90338],[139.6191,35.9039],[139.61887,35.90439],[139.61857,35.90512],[139.61849,35.90511],[139.61822,35.90547],[139.61817,35.90559],[139.61784,35.90595],[139.61823,35.90617],[139.61872,35.90639],[139.61879,35.90643],[139.62011,35.90607],[139.62081,35.90588],[139.62134,35.9057]]]}},{"type":"Feature","properties":{"name":"桜木町二丁目","setai":852,"jinko":1354,"key":"11103015002","units":1,"m":729,"f":625,"gk":32,"a0":112,"a1":961,"a2":251,"a75":119,"ag":[41,43,28,27,79,132,104,139,114,140,101,66,59,59,73,48,43,14,12,2,0],"nf":30},"geometry":{"type":"Polygon","coordinates":[[[139.6202,35.91001],[139.62029,35.90977],[139.62041,35.90947],[139.62069,35.90876],[139.62073,35.90866],[139.62086,35.90837],[139.62091,35.90839],[139.62093,35.90833],[139.62107,35.90799],[139.62122,35.90765],[139.62128,35.90752],[139.62196,35.9076],[139.62218,35.90761],[139.62244,35.90681],[139.62268,35.90631],[139.62286,35.90591],[139.62222,35.90578],[139.62175,35.90573],[139.62146,35.90569],[139.62134,35.9057],[139.62081,35.90588],[139.62011,35.90607],[139.61879,35.90643],[139.61872,35.90639],[139.61823,35.90617],[139.61784,35.90595],[139.61757,35.90585],[139.61756,35.90587],[139.61727,35.90658],[139.61702,35.90711],[139.61701,35.90714],[139.61691,35.90728],[139.6168,35.90728],[139.61647,35.90729],[139.61632,35.90751],[139.61623,35.9076],[139.61632,35.90766],[139.61648,35.90776],[139.61663,35.90781],[139.61672,35.90783],[139.6166,35.90805],[139.61726,35.90812],[139.61725,35.90816],[139.61718,35.90873],[139.61772,35.90884],[139.61841,35.90898],[139.61847,35.90898],[139.61845,35.90914],[139.61845,35.90932],[139.61846,35.9097],[139.61948,35.90998],[139.61953,35.90985],[139.6202,35.91001]]]}},{"type":"Feature","properties":{"name":"桜木町三丁目","setai":713,"jinko":1329,"key":"11103015003","units":1,"m":698,"f":631,"gk":10,"a0":102,"a1":872,"a2":280,"a75":139,"ag":[36,32,34,47,95,107,90,71,74,91,110,117,70,72,69,67,38,22,9,3,0],"nf":75},"geometry":{"type":"Polygon","coordinates":[[[139.61996,35.91527],[139.61993,35.91499],[139.61986,35.91465],[139.61984,35.91462],[139.6198,35.9146],[139.61974,35.91458],[139.61853,35.91428],[139.61844,35.91425],[139.61852,35.91401],[139.61862,35.91364],[139.61891,35.9129],[139.61921,35.91239],[139.61942,35.91205],[139.61944,35.91199],[139.61961,35.91158],[139.61984,35.91097],[139.61989,35.91083],[139.62,35.91056],[139.62011,35.91028],[139.6202,35.91001],[139.61953,35.90985],[139.61948,35.90998],[139.61846,35.9097],[139.61835,35.91037],[139.61831,35.91079],[139.61826,35.91144],[139.61801,35.91137],[139.61798,35.91144],[139.61734,35.91125],[139.6173,35.91134],[139.61718,35.9116],[139.61784,35.91183],[139.61792,35.91186],[139.61769,35.91266],[139.61822,35.91275],[139.61813,35.91292],[139.618,35.91315],[139.61788,35.91337],[139.61778,35.91358],[139.61769,35.91376],[139.61752,35.91405],[139.6174,35.9143],[139.61731,35.91464],[139.61739,35.91502],[139.61736,35.91502],[139.61746,35.91539],[139.61758,35.91592],[139.61857,35.91624],[139.61865,35.91627],[139.61888,35.91636],[139.61931,35.91651],[139.61968,35.91664],[139.61969,35.91664],[139.62,35.91574],[139.61996,35.91527]]]}},{"type":"Feature","properties":{"name":"桜木町四丁目","setai":2959,"jinko":6028,"key":"11103015004","units":1,"m":3043,"f":2985,"gk":98,"a0":711,"a1":4169,"a2":1107,"a75":551,"ag":[218,221,272,273,416,485,400,412,412,538,494,390,349,264,292,225,153,113,51,6,3],"nf":41},"geometry":{"type":"Polygon","coordinates":[[[139.61756,35.90587],[139.61757,35.90585],[139.61784,35.90595],[139.61817,35.90559],[139.61822,35.90547],[139.61849,35.90511],[139.61857,35.90512],[139.61887,35.90439],[139.6191,35.9039],[139.61934,35.90338],[139.61952,35.90345],[139.6197,35.90311],[139.61951,35.90306],[139.62,35.90212],[139.61991,35.90202],[139.62031,35.90175],[139.62029,35.90168],[139.6199,35.90154],[139.62,35.90134],[139.61959,35.90121],[139.61967,35.90102],[139.61975,35.90087],[139.62,35.9004],[139.62,35.9004],[139.62016,35.90007],[139.62034,35.89974],[139.62034,35.89972],[139.62069,35.89903],[139.6207,35.89901],[139.6205,35.89894],[139.62063,35.89866],[139.62087,35.89817],[139.62129,35.89737],[139.62156,35.89748],[139.62163,35.89732],[139.62194,35.8966],[139.62195,35.89658],[139.62196,35.89655],[139.62141,35.89643],[139.62148,35.89628],[139.62181,35.89549],[139.62198,35.89505],[139.62204,35.8949],[139.62204,35.8949],[139.62215,35.89463],[139.62216,35.89461],[139.62241,35.89404],[139.62276,35.89321],[139.62277,35.8932],[139.62235,35.89309],[139.62226,35.89306],[139.62219,35.89304],[139.62219,35.89305],[139.62214,35.89316],[139.62204,35.89338],[139.62192,35.8935],[139.62178,35.89359],[139.62158,35.89376],[139.6214,35.89388],[139.62132,35.89395],[139.62126,35.89402],[139.62125,35.89404],[139.62114,35.89418],[139.62108,35.89431],[139.6208,35.89422],[139.6206,35.89416],[139.62056,35.89415],[139.61994,35.89396],[139.6199,35.89407],[139.61982,35.89428],[139.61955,35.8942],[139.61902,35.89406],[139.61901,35.89408],[139.61895,35.8942],[139.61885,35.8944],[139.61856,35.89484],[139.61792,35.89573],[139.61766,35.89608],[139.61799,35.89618],[139.61776,35.89663],[139.61759,35.89686],[139.61731,35.89717],[139.61701,35.89744],[139.6168,35.8976],[139.61653,35.89778],[139.61625,35.89793],[139.61616,35.89797],[139.61609,35.89802],[139.61585,35.89821],[139.61608,35.89838],[139.61616,35.89844],[139.61617,35.89845],[139.61617,35.89846],[139.61618,35.8985],[139.61595,35.89893],[139.61563,35.89955],[139.61542,35.89996],[139.61537,35.90008],[139.61519,35.90048],[139.61509,35.90068],[139.61508,35.90071],[139.61476,35.90122],[139.61449,35.90177],[139.61443,35.90187],[139.61432,35.90209],[139.61396,35.9027],[139.61392,35.90274],[139.61388,35.90279],[139.61388,35.9028],[139.61368,35.90316],[139.61355,35.90343],[139.61353,35.90347],[139.61323,35.90402],[139.61305,35.90432],[139.61294,35.90456],[139.6129,35.90471],[139.61283,35.90493],[139.61283,35.90496],[139.61272,35.90536],[139.61263,35.90548],[139.61253,35.90554],[139.61227,35.90571],[139.61246,35.90573],[139.61271,35.90581],[139.613,35.90589],[139.61321,35.90596],[139.61347,35.90605],[139.61399,35.90622],[139.61415,35.90626],[139.61441,35.90633],[139.61469,35.90641],[139.61478,35.90655],[139.61546,35.90702],[139.61563,35.90713],[139.61577,35.9072],[139.61583,35.90721],[139.61589,35.90723],[139.61609,35.90728],[139.61621,35.90729],[139.61647,35.90729],[139.6168,35.90728],[139.61691,35.90728],[139.61701,35.90714],[139.61702,35.90711],[139.61727,35.90658],[139.61756,35.90587]]]}},{"type":"Feature","properties":{"name":"錦町","setai":0,"jinko":0,"key":"111030160","units":1,"m":0,"f":0,"gk":0,"a0":0,"a1":0,"a2":0,"a75":0,"ag":[0,0,0,0,0,0,0,0,0,0,0,0,0,0,0,0,0,0,0,0,0]},"geometry":{"type":"Polygon","coordinates":[[[139.62206,35.91339],[139.62222,35.913],[139.62236,35.91302],[139.62273,35.91308],[139.62271,35.91288],[139.6227,35.91265],[139.62271,35.91243],[139.62272,35.91217],[139.62275,35.91191],[139.62282,35.9115],[139.62286,35.91131],[139.62292,35.91106],[139.62297,35.91088],[139.62302,35.91073],[139.62306,35.91061],[139.62312,35.91044],[139.62317,35.91028],[139.62321,35.9102],[139.62331,35.90991],[139.62344,35.90953],[139.62358,35.90917],[139.6237,35.90919],[139.62377,35.90921],[139.6238,35.90911],[139.62395,35.90914],[139.6241,35.90867],[139.62417,35.90869],[139.62435,35.90817],[139.62423,35.90814],[139.62432,35.90784],[139.62465,35.90788],[139.62478,35.90744],[139.62501,35.9068],[139.62477,35.90674],[139.62506,35.90608],[139.62501,35.90606],[139.62497,35.90605],[139.62498,35.90604],[139.62502,35.90586],[139.62505,35.90585],[139.62509,35.90569],[139.62513,35.90551],[139.62523,35.90517],[139.62532,35.90486],[139.6254,35.90465],[139.62546,35.90462],[139.6255,35.9046],[139.62554,35.90458],[139.62583,35.90383],[139.62583,35.90381],[139.62591,35.90383],[139.62607,35.90342],[139.62619,35.90345],[139.62621,35.90338],[139.62633,35.90297],[139.62627,35.90279],[139.62678,35.90208],[139.62708,35.90168],[139.62737,35.90129],[139.62749,35.90116],[139.62766,35.90097],[139.62777,35.90087],[139.62794,35.9007],[139.62824,35.90042],[139.62834,35.90031],[139.62856,35.90011],[139.62872,35.89997],[139.62891,35.89981],[139.6291,35.89967],[139.62931,35.8995],[139.62937,35.89946],[139.62953,35.89935],[139.62961,35.89924],[139.62969,35.89916],[139.6298,35.89903],[139.62991,35.89893],[139.62989,35.89885],[139.62996,35.89878],[139.63012,35.89862],[139.63029,35.89844],[139.63046,35.89826],[139.63069,35.89799],[139.63082,35.89782],[139.63097,35.89764],[139.63116,35.89737],[139.63127,35.89722],[139.63134,35.89712],[139.63154,35.89684],[139.63173,35.89658],[139.63188,35.89637],[139.63201,35.89619],[139.63213,35.89602],[139.63226,35.89584],[139.63239,35.89566],[139.63252,35.89548],[139.63265,35.89531],[139.63276,35.89515],[139.63278,35.89513],[139.63299,35.89487],[139.63312,35.89466],[139.63329,35.89437],[139.63333,35.89432],[139.63328,35.89431],[139.63322,35.89439],[139.63315,35.89436],[139.6331,35.89443],[139.63288,35.89444],[139.63276,35.89441],[139.63259,35.8944],[139.63251,35.89442],[139.6325,35.89444],[139.63222,35.89487],[139.6322,35.89493],[139.63219,35.895],[139.63218,35.89501],[139.63218,35.89501],[139.63213,35.89508],[139.6321,35.89515],[139.63212,35.89524],[139.63214,35.89525],[139.63216,35.8953],[139.63216,35.89533],[139.63211,35.89547],[139.63207,35.89554],[139.63197,35.89565],[139.63194,35.89566],[139.63187,35.89566],[139.63185,35.89574],[139.63161,35.89568],[139.63152,35.89578],[139.63087,35.89643],[139.63083,35.89646],[139.63069,35.89656],[139.63054,35.8967],[139.62892,35.898],[139.62853,35.89789],[139.62846,35.89787],[139.62838,35.89785],[139.62824,35.89821],[139.62814,35.89847],[139.62795,35.89884],[139.6279,35.89894],[139.62779,35.89906],[139.62703,35.89965],[139.62596,35.90057],[139.62581,35.90064],[139.62559,35.90116],[139.62547,35.90118],[139.62529,35.90136],[139.62518,35.90158],[139.62514,35.90167],[139.62469,35.90158],[139.6246,35.90181],[139.6244,35.9024],[139.62427,35.9028],[139.6241,35.90335],[139.62401,35.9037],[139.62391,35.90403],[139.62387,35.90418],[139.62371,35.90442],[139.62332,35.90496],[139.62316,35.90521],[139.62286,35.90591],[139.62268,35.90631],[139.62244,35.90681],[139.62218,35.90761],[139.62196,35.9076],[139.62128,35.90752],[139.62122,35.90765],[139.62107,35.90799],[139.62093,35.90833],[139.62091,35.90839],[139.62086,35.90837],[139.62073,35.90866],[139.62069,35.90876],[139.62041,35.90947],[139.62029,35.90977],[139.6202,35.91001],[139.62011,35.91028],[139.62,35.91056],[139.61989,35.91083],[139.61984,35.91097],[139.61961,35.91158],[139.61944,35.91199],[139.61942,35.91205],[139.61921,35.91239],[139.61891,35.9129],[139.61862,35.91364],[139.61852,35.91401],[139.61844,35.91425],[139.61853,35.91428],[139.61974,35.91458],[139.6198,35.9146],[139.61984,35.91462],[139.61986,35.91465],[139.61993,35.91499],[139.61996,35.91527],[139.62,35.91574],[139.61969,35.91664],[139.62011,35.91685],[139.6202,35.91689],[139.62028,35.91691],[139.62047,35.917],[139.62088,35.91602],[139.62097,35.91582],[139.62142,35.91481],[139.62151,35.91461],[139.62173,35.91408],[139.62206,35.91339]]]}},{"type":"Feature","properties":{"name":"大成町一丁目","setai":2099,"jinko":4242,"key":"11103017001","units":1,"m":2111,"f":2131,"gk":82,"a0":514,"a1":2863,"a2":841,"a75":398,"ag":[172,195,147,153,302,371,326,339,289,316,266,283,218,220,223,146,105,83,55,6,3],"nf":24},"geometry":{"type":"Polygon","coordinates":[[[139.6173,35.91134],[139.61734,35.91125],[139.61798,35.91144],[139.61801,35.91137],[139.61826,35.91144],[139.61831,35.91079],[139.61835,35.91037],[139.61846,35.9097],[139.61845,35.90932],[139.61845,35.90914],[139.61847,35.90898],[139.61841,35.90898],[139.61772,35.90884],[139.61718,35.90873],[139.61725,35.90816],[139.61726,35.90812],[139.6166,35.90805],[139.61672,35.90783],[139.61663,35.90781],[139.61648,35.90776],[139.61632,35.90766],[139.61623,35.9076],[139.61632,35.90751],[139.61647,35.90729],[139.61621,35.90729],[139.61609,35.90728],[139.61589,35.90723],[139.61583,35.90721],[139.61577,35.9072],[139.61563,35.90713],[139.61546,35.90702],[139.61478,35.90655],[139.61469,35.90641],[139.61441,35.90633],[139.61415,35.90626],[139.61399,35.90622],[139.61347,35.90605],[139.61339,35.90612],[139.61325,35.90626],[139.61305,35.90649],[139.61274,35.90685],[139.61244,35.90724],[139.61224,35.90749],[139.61201,35.90779],[139.61197,35.90784],[139.61174,35.90813],[139.61166,35.90828],[139.61157,35.90843],[139.61129,35.90896],[139.61126,35.90902],[139.61097,35.90959],[139.61081,35.91014],[139.61071,35.91052],[139.61067,35.91071],[139.61136,35.91082],[139.61196,35.91092],[139.61289,35.91107],[139.61384,35.91121],[139.61409,35.91125],[139.61513,35.91141],[139.61611,35.91153],[139.6163,35.91155],[139.61716,35.91162],[139.61718,35.9116],[139.6173,35.91134]]]}},{"type":"Feature","properties":{"name":"大成町二丁目","setai":1382,"jinko":3012,"key":"11103017002","units":1,"m":1488,"f":1524,"gk":41,"a0":360,"a1":2016,"a2":622,"a75":334,"ag":[136,105,119,143,165,222,228,257,213,237,222,193,136,137,151,123,94,77,31,9,0],"nf":14},"geometry":{"type":"Polygon","coordinates":[[[139.61746,35.91539],[139.61736,35.91502],[139.61739,35.91502],[139.61731,35.91464],[139.6174,35.9143],[139.61752,35.91405],[139.61769,35.91376],[139.61778,35.91358],[139.61788,35.91337],[139.618,35.91315],[139.61813,35.91292],[139.61822,35.91275],[139.61769,35.91266],[139.61792,35.91186],[139.61784,35.91183],[139.61718,35.9116],[139.61716,35.91162],[139.6163,35.91155],[139.61611,35.91153],[139.61513,35.91141],[139.61409,35.91125],[139.61384,35.91121],[139.61289,35.91107],[139.61196,35.91092],[139.61136,35.91082],[139.61067,35.91071],[139.61062,35.91093],[139.61054,35.91127],[139.61048,35.9115],[139.61035,35.91209],[139.61029,35.91236],[139.61059,35.91351],[139.61073,35.91393],[139.61079,35.91417],[139.61084,35.91431],[139.61098,35.9148],[139.61104,35.91498],[139.61214,35.91502],[139.61338,35.91507],[139.61386,35.91507],[139.61402,35.91508],[139.61494,35.91513],[139.61501,35.91512],[139.61639,35.91557],[139.6168,35.91568],[139.61758,35.91592],[139.61746,35.91539]]]}},{"type":"Feature","properties":{"name":"大成町三丁目","setai":2067,"jinko":4366,"key":"11103017003","units":1,"m":2181,"f":2185,"gk":41,"a0":429,"a1":2966,"a2":951,"a75":467,"ag":[140,144,145,224,313,271,266,260,263,370,397,325,277,237,247,180,150,83,35,17,2],"nf":20},"geometry":{"type":"Polygon","coordinates":[[[139.61639,35.91557],[139.61501,35.91512],[139.61494,35.91513],[139.61402,35.91508],[139.61386,35.91507],[139.61338,35.91507],[139.61214,35.91502],[139.61104,35.91498],[139.6113,35.91566],[139.61154,35.91629],[139.61152,35.91753],[139.6115,35.91859],[139.61153,35.91951],[139.61198,35.91951],[139.6125,35.91956],[139.61337,35.91964],[139.61401,35.9197],[139.61492,35.91978],[139.61501,35.92045],[139.61507,35.92097],[139.6151,35.92118],[139.61546,35.92128],[139.61563,35.92133],[139.61594,35.92141],[139.61651,35.92156],[139.61695,35.92167],[139.61775,35.92189],[139.61835,35.92208],[139.61842,35.92189],[139.61853,35.92159],[139.61878,35.92092],[139.61902,35.9203],[139.6192,35.91984],[139.61921,35.91981],[139.61954,35.91891],[139.61973,35.91844],[139.62009,35.91742],[139.62028,35.91691],[139.6202,35.91689],[139.62011,35.91685],[139.61969,35.91664],[139.61968,35.91664],[139.61931,35.91651],[139.61888,35.91636],[139.61865,35.91627],[139.61857,35.91624],[139.61758,35.91592],[139.6168,35.91568],[139.61639,35.91557]]]}},{"type":"Feature","properties":{"name":"櫛引町","setai":2848,"jinko":6573,"key":"111030180","units":1,"m":3230,"f":3343,"gk":95,"a0":846,"a1":4253,"a2":1446,"a75":768,"ag":[233,315,298,342,334,343,375,464,524,595,497,414,365,296,382,303,219,143,78,23,2],"nf":28},"geometry":{"type":"Polygon","coordinates":[[[139.61339,35.90612],[139.61347,35.90605],[139.61321,35.90596],[139.613,35.90589],[139.61271,35.90581],[139.61246,35.90573],[139.61227,35.90571],[139.61211,35.90589],[139.61194,35.90602],[139.61133,35.9061],[139.6108,35.9061],[139.61061,35.90611],[139.61029,35.90608],[139.61017,35.90605],[139.60982,35.90612],[139.60947,35.90616],[139.60945,35.90628],[139.60924,35.90649],[139.60919,35.90656],[139.60873,35.90723],[139.60869,35.90727],[139.60864,35.90731],[139.60816,35.90757],[139.60792,35.90769],[139.60779,35.90773],[139.60734,35.90786],[139.60724,35.90817],[139.60717,35.90837],[139.60705,35.9085],[139.60661,35.90891],[139.60642,35.90926],[139.60632,35.90949],[139.60622,35.90974],[139.60614,35.91001],[139.6061,35.91023],[139.60604,35.91058],[139.60602,35.91066],[139.60582,35.91147],[139.60561,35.91227],[139.6054,35.91294],[139.60534,35.91319],[139.60531,35.91341],[139.60519,35.914],[139.60517,35.91446],[139.60518,35.91493],[139.6052,35.91513],[139.60519,35.91573],[139.60584,35.91579],[139.60643,35.91584],[139.60707,35.9159],[139.60766,35.91594],[139.60851,35.91601],[139.60902,35.91606],[139.60946,35.9161],[139.61005,35.91616],[139.61077,35.91621],[139.61154,35.91629],[139.6113,35.91566],[139.61104,35.91498],[139.61098,35.9148],[139.61084,35.91431],[139.61079,35.91417],[139.61073,35.91393],[139.61059,35.91351],[139.61029,35.91236],[139.61035,35.91209],[139.61048,35.9115],[139.61054,35.91127],[139.61062,35.91093],[139.61067,35.91071],[139.61071,35.91052],[139.61081,35.91014],[139.61097,35.90959],[139.61126,35.90902],[139.61129,35.90896],[139.61157,35.90843],[139.61166,35.90828],[139.61174,35.90813],[139.61197,35.90784],[139.61201,35.90779],[139.61224,35.90749],[139.61244,35.90724],[139.61274,35.90685],[139.61305,35.90649],[139.61325,35.90626],[139.61339,35.90612]]]}},{"type":"Feature","properties":{"name":"三橋一丁目","setai":3720,"jinko":9124,"key":"11103019001","units":1,"m":4461,"f":4663,"gk":125,"a0":1350,"a1":5788,"a2":1954,"a75":953,"ag":[402,488,460,407,498,498,538,689,666,763,657,568,504,495,506,376,275,211,71,15,5],"nf":32},"geometry":{"type":"Polygon","coordinates":[[[139.60349,35.91528],[139.60334,35.9144],[139.60387,35.91442],[139.60453,35.91444],[139.60497,35.91444],[139.60496,35.91474],[139.60492,35.91474],[139.60491,35.91505],[139.60518,35.91493],[139.60517,35.91446],[139.60519,35.914],[139.60531,35.91341],[139.60534,35.91319],[139.6054,35.91294],[139.60561,35.91227],[139.60582,35.91147],[139.60602,35.91066],[139.60604,35.91058],[139.6061,35.91023],[139.60614,35.91001],[139.60622,35.90974],[139.60632,35.90949],[139.60642,35.90926],[139.60661,35.90891],[139.60705,35.9085],[139.60717,35.90837],[139.60724,35.90817],[139.60734,35.90786],[139.60755,35.90711],[139.60756,35.90708],[139.60785,35.90636],[139.60798,35.90598],[139.60805,35.90577],[139.60808,35.90563],[139.6081,35.90554],[139.60819,35.90478],[139.60819,35.90477],[139.60785,35.90467],[139.60713,35.90443],[139.60663,35.90426],[139.60593,35.90405],[139.60538,35.90405],[139.6047,35.9041],[139.60468,35.9041],[139.60468,35.90416],[139.60389,35.90421],[139.60387,35.90417],[139.60304,35.9041],[139.60305,35.90393],[139.60156,35.90384],[139.60157,35.90397],[139.60147,35.90397],[139.60138,35.90396],[139.60133,35.90395],[139.60016,35.9044],[139.59988,35.90451],[139.59921,35.90477],[139.59852,35.90486],[139.59856,35.90497],[139.59859,35.90515],[139.59859,35.9053],[139.59858,35.9054],[139.59854,35.90547],[139.59844,35.90559],[139.59832,35.90574],[139.59806,35.90602],[139.59788,35.9062],[139.59783,35.90626],[139.59778,35.90633],[139.59769,35.90645],[139.5976,35.90656],[139.59753,35.90663],[139.59745,35.90672],[139.59739,35.90683],[139.59735,35.90694],[139.59732,35.90706],[139.5973,35.90717],[139.5973,35.90727],[139.59731,35.90737],[139.59732,35.90746],[139.59738,35.90769],[139.59745,35.90789],[139.59762,35.90813],[139.59784,35.90837],[139.59785,35.90838],[139.59817,35.90863],[139.59846,35.90893],[139.59868,35.9092],[139.59877,35.90935],[139.59885,35.9095],[139.59891,35.90963],[139.59894,35.90973],[139.59896,35.90981],[139.59898,35.9099],[139.59898,35.90995],[139.59902,35.91019],[139.59905,35.91039],[139.59905,35.91041],[139.59907,35.91051],[139.59909,35.91061],[139.5991,35.91066],[139.59915,35.9109],[139.59916,35.91097],[139.59919,35.91116],[139.59923,35.91132],[139.59927,35.91154],[139.59928,35.91172],[139.59926,35.91192],[139.59925,35.91196],[139.59922,35.91209],[139.59912,35.91227],[139.59901,35.91248],[139.59891,35.91264],[139.59873,35.91286],[139.59855,35.91304],[139.59845,35.91313],[139.5984,35.91318],[139.59834,35.91323],[139.59816,35.91342],[139.59804,35.91355],[139.5977,35.91394],[139.59713,35.91479],[139.59709,35.91484],[139.59708,35.91485],[139.59714,35.91487],[139.59717,35.91489],[139.59727,35.91493],[139.5974,35.91498],[139.59767,35.91509],[139.59768,35.9151],[139.59813,35.91503],[139.59813,35.91501],[139.59814,35.91501],[139.59817,35.91492],[139.59848,35.91485],[139.59862,35.91478],[139.59867,35.91477],[139.59909,35.9146],[139.59919,35.91455],[139.59924,35.91454],[139.59952,35.91444],[139.59964,35.91441],[139.59965,35.91441],[139.5998,35.9144],[139.60012,35.9144],[139.60033,35.9144],[139.60049,35.9144],[139.60063,35.9144],[139.60081,35.91442],[139.60098,35.91446],[139.60099,35.91446],[139.6013,35.91455],[139.60154,35.91461],[139.60173,35.91463],[139.60186,35.91474],[139.60196,35.91483],[139.60208,35.91498],[139.60216,35.9151],[139.60259,35.91494],[139.60261,35.91496],[139.60263,35.91498],[139.60269,35.91503],[139.6028,35.91511],[139.60287,35.9152],[139.60291,35.91527],[139.6031,35.91538],[139.60349,35.91528]]]}},{"type":"Feature","properties":{"name":"三橋二丁目","setai":2584,"jinko":6083,"key":"11103019002","units":1,"m":3088,"f":2995,"gk":91,"a0":871,"a1":3885,"a2":1303,"a75":693,"ag":[249,304,318,271,362,339,355,425,481,551,446,351,304,293,317,271,202,132,71,14,3],"nf":24},"geometry":{"type":"Polygon","coordinates":[[[139.60016,35.9044],[139.60133,35.90395],[139.60138,35.90396],[139.60147,35.90397],[139.60157,35.90397],[139.60156,35.90384],[139.60305,35.90393],[139.60304,35.9041],[139.60387,35.90417],[139.60389,35.90421],[139.60468,35.90416],[139.60468,35.9041],[139.6047,35.9041],[139.60538,35.90405],[139.60593,35.90405],[139.60616,35.90358],[139.60639,35.90297],[139.60677,35.90221],[139.60694,35.90189],[139.60704,35.90159],[139.60718,35.90115],[139.60722,35.90099],[139.60734,35.90054],[139.60739,35.90036],[139.60762,35.89947],[139.6072,35.89898],[139.60694,35.8987],[139.60649,35.89816],[139.60632,35.89797],[139.60614,35.89778],[139.60612,35.89776],[139.60581,35.89738],[139.60562,35.89749],[139.60556,35.89752],[139.60554,35.89753],[139.60515,35.89773],[139.60486,35.89739],[139.60442,35.89689],[139.60414,35.8966],[139.60344,35.89699],[139.60251,35.89753],[139.60161,35.89734],[139.60079,35.89715],[139.6002,35.89702],[139.59987,35.89694],[139.59984,35.89705],[139.59961,35.89741],[139.59927,35.89794],[139.59907,35.89824],[139.59886,35.89854],[139.59874,35.89871],[139.5983,35.89938],[139.59736,35.89923],[139.59657,35.8991],[139.59588,35.89902],[139.59609,35.89932],[139.59629,35.89957],[139.59661,35.89992],[139.59676,35.9001],[139.59679,35.90015],[139.59697,35.9004],[139.59711,35.90057],[139.59723,35.90051],[139.59728,35.90055],[139.59733,35.90057],[139.59738,35.90071],[139.5974,35.90074],[139.59796,35.90059],[139.59829,35.90115],[139.59837,35.9013],[139.59834,35.9014],[139.59825,35.90166],[139.59821,35.90198],[139.59819,35.90207],[139.5982,35.9021],[139.59819,35.90219],[139.59817,35.90221],[139.59818,35.90227],[139.59814,35.90253],[139.5981,35.90275],[139.5979,35.90309],[139.59776,35.90334],[139.59785,35.90354],[139.59788,35.90356],[139.5979,35.90358],[139.59797,35.90363],[139.59805,35.90372],[139.59809,35.90386],[139.59799,35.90396],[139.59809,35.90408],[139.59812,35.90412],[139.59821,35.90426],[139.59833,35.90444],[139.59844,35.90463],[139.59852,35.90486],[139.59921,35.90477],[139.59988,35.90451],[139.60016,35.9044]]]}},{"type":"Feature","properties":{"name":"三橋三丁目","setai":767,"jinko":1644,"key":"11103019003","units":1,"m":842,"f":802,"gk":12,"a0":187,"a1":1047,"a2":396,"a75":211,"ag":[57,64,66,70,99,98,110,95,111,143,142,86,93,99,86,98,59,42,11,1,0],"nf":14},"geometry":{"type":"Polygon","coordinates":[[[139.60976,35.89746],[139.60991,35.89736],[139.61005,35.89728],[139.61011,35.89724],[139.61094,35.89673],[139.61121,35.89659],[139.6111,35.89635],[139.61073,35.89544],[139.6101,35.89557],[139.60948,35.89571],[139.60846,35.89592],[139.60844,35.89593],[139.60763,35.8961],[139.60713,35.89619],[139.60715,35.89599],[139.60706,35.89546],[139.60706,35.89545],[139.60697,35.89508],[139.60695,35.89499],[139.60692,35.89485],[139.60606,35.89482],[139.60488,35.89523],[139.60361,35.89597],[139.60414,35.8966],[139.60442,35.89689],[139.60486,35.89739],[139.60515,35.89773],[139.60554,35.89753],[139.60556,35.89752],[139.60562,35.89749],[139.60581,35.89738],[139.60612,35.89776],[139.60614,35.89778],[139.60632,35.89797],[139.60649,35.89816],[139.60694,35.8987],[139.6072,35.89898],[139.60762,35.89947],[139.60783,35.89869],[139.60799,35.89858],[139.60839,35.89834],[139.60875,35.89811],[139.60881,35.89807],[139.60969,35.8975],[139.60976,35.89746]]]}},{"type":"Feature","properties":{"name":"三橋四丁目","setai":2173,"jinko":5253,"key":"11103019004","units":1,"m":2573,"f":2680,"gk":59,"a0":618,"a1":3127,"a2":1481,"a75":869,"ag":[201,218,199,208,263,277,329,286,354,425,383,328,274,279,333,324,264,175,85,18,3],"nf":27},"geometry":{"type":"Polygon","coordinates":[[[139.59886,35.89854],[139.59907,35.89824],[139.59927,35.89794],[139.59961,35.89741],[139.59984,35.89705],[139.59987,35.89694],[139.6002,35.89702],[139.60079,35.89715],[139.60161,35.89734],[139.60251,35.89753],[139.60344,35.89699],[139.60414,35.8966],[139.60361,35.89597],[139.60488,35.89523],[139.60606,35.89482],[139.60692,35.89485],[139.60691,35.8948],[139.6069,35.89475],[139.60686,35.89447],[139.60672,35.89396],[139.6067,35.89386],[139.60651,35.89337],[139.60645,35.89322],[139.60638,35.89307],[139.60636,35.89302],[139.60626,35.89281],[139.60617,35.89253],[139.60613,35.89214],[139.6061,35.8917],[139.60609,35.89164],[139.60605,35.89131],[139.60602,35.8911],[139.606,35.89082],[139.60602,35.89063],[139.60603,35.89035],[139.60605,35.89011],[139.60606,35.89003],[139.60609,35.88988],[139.60608,35.88988],[139.60571,35.88973],[139.60557,35.88967],[139.60553,35.88962],[139.60545,35.88955],[139.60547,35.8895],[139.60551,35.88941],[139.60544,35.88939],[139.60525,35.88934],[139.60511,35.88927],[139.60509,35.88926],[139.60501,35.88921],[139.60461,35.88897],[139.60458,35.889],[139.60438,35.88888],[139.60435,35.88884],[139.60428,35.88871],[139.60424,35.88862],[139.60417,35.88853],[139.6041,35.88845],[139.60405,35.88841],[139.60397,35.88838],[139.60412,35.88807],[139.60416,35.88792],[139.60408,35.88781],[139.60398,35.88764],[139.60391,35.8875],[139.60361,35.88737],[139.60345,35.88731],[139.60345,35.88731],[139.60341,35.88731],[139.60334,35.88731],[139.60324,35.88727],[139.60323,35.88777],[139.60324,35.88792],[139.60323,35.88803],[139.60323,35.88815],[139.6032,35.88831],[139.60318,35.8885],[139.60316,35.8886],[139.60315,35.8886],[139.6031,35.88883],[139.60308,35.88889],[139.60306,35.88893],[139.60301,35.88901],[139.60302,35.88901],[139.60299,35.88909],[139.60288,35.8892],[139.60283,35.88927],[139.60264,35.88941],[139.60256,35.88947],[139.60244,35.88952],[139.60233,35.88958],[139.60203,35.88966],[139.60192,35.88968],[139.60191,35.88968],[139.6019,35.88968],[139.60177,35.8897],[139.60146,35.8897],[139.60139,35.8897],[139.60137,35.88969],[139.6013,35.88968],[139.60104,35.88964],[139.60094,35.88963],[139.60055,35.88957],[139.60036,35.88954],[139.60005,35.88951],[139.60002,35.88951],[139.59979,35.88951],[139.59963,35.88952],[139.59943,35.88955],[139.59938,35.88956],[139.59885,35.88968],[139.5988,35.88973],[139.59877,35.88976],[139.59825,35.89026],[139.59791,35.89059],[139.59756,35.89094],[139.59732,35.89121],[139.59713,35.89157],[139.59709,35.89179],[139.59715,35.89209],[139.59723,35.89231],[139.59724,35.89232],[139.59724,35.89233],[139.59727,35.89241],[139.5973,35.89246],[139.59733,35.89251],[139.59738,35.89263],[139.59747,35.89274],[139.5976,35.89287],[139.59773,35.89299],[139.59775,35.89301],[139.5982,35.89322],[139.59821,35.89322],[139.59821,35.89323],[139.59821,35.89323],[139.59784,35.89376],[139.59777,35.89385],[139.59752,35.89401],[139.59739,35.89409],[139.59735,35.89407],[139.59733,35.89406],[139.59721,35.89414],[139.59703,35.89426],[139.59679,35.89461],[139.59679,35.89462],[139.59688,35.89469],[139.59664,35.89504],[139.59662,35.89506],[139.59662,35.89507],[139.59661,35.89509],[139.59661,35.89511],[139.59662,35.89514],[139.59663,35.89517],[139.59698,35.89553],[139.59692,35.89556],[139.59676,35.89566],[139.59682,35.89601],[139.59684,35.89613],[139.59687,35.89628],[139.59688,35.89634],[139.59689,35.89635],[139.5969,35.89639],[139.59695,35.89652],[139.59696,35.89654],[139.59698,35.8966],[139.59699,35.89659],[139.597,35.8966],[139.5971,35.89656],[139.59742,35.89642],[139.59755,35.89639],[139.59749,35.89653],[139.59749,35.89671],[139.59753,35.89686],[139.59754,35.89692],[139.59762,35.897],[139.59786,35.89717],[139.59791,35.89726],[139.59794,35.89739],[139.59793,35.89746],[139.59786,35.89755],[139.59773,35.89768],[139.59755,35.89774],[139.59743,35.89774],[139.59726,35.8977],[139.59704,35.89765],[139.59693,35.89766],[139.59686,35.89772],[139.59681,35.89779],[139.59678,35.89786],[139.5968,35.89793],[139.59686,35.89803],[139.5969,35.89811],[139.59691,35.8982],[139.59686,35.89828],[139.59678,35.89841],[139.59671,35.89844],[139.59664,35.89846],[139.59655,35.89842],[139.59648,35.89832],[139.59639,35.89828],[139.59632,35.8983],[139.59616,35.89839],[139.59602,35.89847],[139.59593,35.8985],[139.59559,35.89866],[139.59588,35.89902],[139.59657,35.8991],[139.59736,35.89923],[139.5983,35.89938],[139.59874,35.89871],[139.59886,35.89854]]]}},{"type":"Feature","properties":{"name":"上小町","setai":4516,"jinko":9905,"key":"11103020002","units":2,"m":4878,"f":5027,"gk":180,"a0":1084,"a1":6418,"a2":2354,"a75":1310,"ag":[307,387,390,422,604,663,654,675,659,780,727,670,564,510,534,442,328,276,195,58,11],"nf":49},"geometry":{"type":"MultiPolygon","coordinates":[[[[139.60982,35.90612],[139.61017,35.90605],[139.61029,35.90608],[139.61061,35.90611],[139.6108,35.9061],[139.61133,35.9061],[139.61194,35.90602],[139.61211,35.90589],[139.61227,35.90571],[139.61253,35.90554],[139.61263,35.90548],[139.61272,35.90536],[139.61283,35.90496],[139.61283,35.90493],[139.6129,35.90471],[139.61294,35.90456],[139.61305,35.90432],[139.61323,35.90402],[139.61353,35.90347],[139.61355,35.90343],[139.61368,35.90316],[139.61388,35.9028],[139.61388,35.90279],[139.61392,35.90274],[139.61396,35.9027],[139.61432,35.90209],[139.61443,35.90187],[139.61449,35.90177],[139.61476,35.90122],[139.61508,35.90071],[139.61509,35.90068],[139.61519,35.90048],[139.61537,35.90008],[139.61513,35.90003],[139.61444,35.8999],[139.61442,35.8999],[139.61404,35.89983],[139.61378,35.89979],[139.61312,35.89966],[139.61255,35.89954],[139.61251,35.89954],[139.61245,35.89953],[139.61169,35.89939],[139.61074,35.89921],[139.60982,35.89904],[139.60937,35.89897],[139.60887,35.89887],[139.60864,35.89883],[139.60783,35.89869],[139.60762,35.89947],[139.60739,35.90036],[139.60734,35.90054],[139.60722,35.90099],[139.60718,35.90115],[139.60704,35.90159],[139.60694,35.90189],[139.60677,35.90221],[139.60639,35.90297],[139.60616,35.90358],[139.60593,35.90405],[139.60663,35.90426],[139.60713,35.90443],[139.60785,35.90467],[139.60819,35.90477],[139.60819,35.90478],[139.6081,35.90554],[139.60808,35.90563],[139.60805,35.90577],[139.60798,35.90598],[139.60785,35.90636],[139.60756,35.90708],[139.60755,35.90711],[139.60734,35.90786],[139.60779,35.90773],[139.60792,35.90769],[139.60816,35.90757],[139.60864,35.90731],[139.60869,35.90727],[139.60873,35.90723],[139.60919,35.90656],[139.60924,35.90649],[139.60945,35.90628],[139.60947,35.90616],[139.60982,35.90612]]],[[[139.61792,35.89573],[139.61856,35.89484],[139.61885,35.8944],[139.61895,35.8942],[139.61848,35.89419],[139.61846,35.89419],[139.61805,35.89418],[139.61801,35.89418],[139.61789,35.89416],[139.61778,35.89413],[139.61764,35.8942],[139.61753,35.89423],[139.61739,35.89426],[139.61719,35.89427],[139.61695,35.89427],[139.6166,35.89425],[139.61555,35.89425],[139.61467,35.89424],[139.61454,35.89423],[139.61442,35.89423],[139.61396,35.89422],[139.61384,35.89431],[139.61363,35.89426],[139.61359,35.89435],[139.61281,35.89414],[139.6128,35.89414],[139.61273,35.89429],[139.61272,35.8943],[139.61261,35.89427],[139.612,35.8941],[139.61168,35.89486],[139.61161,35.89502],[139.61148,35.89531],[139.61067,35.8953],[139.61073,35.89544],[139.6111,35.89635],[139.61121,35.89659],[139.61094,35.89673],[139.61011,35.89724],[139.61005,35.89728],[139.60991,35.89736],[139.60976,35.89746],[139.60969,35.8975],[139.60881,35.89807],[139.60875,35.89811],[139.60839,35.89834],[139.60799,35.89858],[139.60783,35.89869],[139.60864,35.89883],[139.60887,35.89887],[139.60937,35.89897],[139.60982,35.89904],[139.61074,35.89921],[139.61169,35.89939],[139.61245,35.89953],[139.61251,35.89954],[139.61255,35.89954],[139.61312,35.89966],[139.61378,35.89979],[139.61404,35.89983],[139.61442,35.8999],[139.61444,35.8999],[139.61513,35.90003],[139.61537,35.90008],[139.61542,35.89996],[139.61563,35.89955],[139.61595,35.89893],[139.61618,35.8985],[139.61617,35.89846],[139.61617,35.89845],[139.61616,35.89844],[139.61608,35.89838],[139.61585,35.89821],[139.61609,35.89802],[139.61616,35.89797],[139.61625,35.89793],[139.61653,35.89778],[139.6168,35.8976],[139.61701,35.89744],[139.61731,35.89717],[139.61759,35.89686],[139.61776,35.89663],[139.61799,35.89618],[139.61766,35.89608],[139.61792,35.89573]]]]}}]}