{"type":"FeatureCollection","features":[{"type":"Feature","properties":{"name":"中道一丁目","setai":1109,"jinko":1566,"key":"27115001001","units":1,"m":729,"f":837,"gk":119,"a0":104,"a1":1058,"a2":285,"a75":133,"ag":[40,36,28,25,87,188,146,122,131,123,92,81,63,59,93,63,46,19,5,0,0],"nf":119},"geometry":{"type":"Polygon","coordinates":[[[135.53679,34.67815],[135.53667,34.67765],[135.53633,34.67771],[135.53614,34.67774],[135.53564,34.67784],[135.53501,34.67796],[135.535,34.67796],[135.5349,34.67796],[135.53452,34.67796],[135.53422,34.67796],[135.53423,34.67807],[135.53425,34.67848],[135.53426,34.67876],[135.53423,34.67922],[135.5342,34.67959],[135.5342,34.67963],[135.5342,34.67963],[135.53419,34.67981],[135.5341,34.68055],[135.53404,34.68096],[135.53403,34.68103],[135.53395,34.68146],[135.53395,34.68157],[135.53434,34.68156],[135.53488,34.68155],[135.53493,34.68155],[135.53495,34.68155],[135.53516,34.68154],[135.53597,34.68153],[135.53688,34.68151],[135.53759,34.6815],[135.53757,34.68143],[135.53743,34.6808],[135.53743,34.6808],[135.53735,34.68045],[135.53735,34.68045],[135.53703,34.67913],[135.53686,34.67849],[135.53681,34.67827],[135.5368,34.6782],[135.53679,34.67815]]]}},{"type":"Feature","properties":{"name":"中道二丁目","setai":1521,"jinko":2671,"key":"27115001002","units":1,"m":1245,"f":1426,"gk":351,"a0":205,"a1":1526,"a2":817,"a75":444,"ag":[51,81,73,77,148,184,153,173,177,172,169,132,141,171,202,150,143,97,38,13,3],"nf":123},"geometry":{"type":"Polygon","coordinates":[[[135.53858,34.67756],[135.53847,34.6774],[135.53841,34.6773],[135.53838,34.67734],[135.53822,34.67746],[135.53822,34.67746],[135.53807,34.67745],[135.53779,34.67749],[135.53753,34.67752],[135.53746,34.67753],[135.5372,34.67756],[135.53667,34.67765],[135.53679,34.67815],[135.5368,34.6782],[135.53681,34.67827],[135.53686,34.67849],[135.53703,34.67913],[135.53735,34.68045],[135.53735,34.68045],[135.53743,34.6808],[135.53743,34.6808],[135.53757,34.68143],[135.53759,34.6815],[135.53778,34.6815],[135.53806,34.6815],[135.53838,34.6815],[135.53845,34.6815],[135.5388,34.6815],[135.53927,34.68149],[135.53999,34.68143],[135.54009,34.68141],[135.54032,34.68139],[135.54046,34.68137],[135.54049,34.68128],[135.5405,34.68102],[135.54053,34.6808],[135.54051,34.68053],[135.54051,34.68038],[135.54051,34.68003],[135.54051,34.68003],[135.54051,34.67979],[135.54043,34.6793],[135.54041,34.67919],[135.54034,34.67906],[135.54018,34.67885],[135.53985,34.67863],[135.53978,34.67856],[135.53952,34.67835],[135.53905,34.67801],[135.53896,34.67796],[135.53878,34.67778],[135.53872,34.67773],[135.53858,34.67756]]]}},{"type":"Feature","properties":{"name":"中道三丁目","setai":1349,"jinko":2196,"key":"27115001003","units":1,"m":989,"f":1207,"gk":163,"a0":180,"a1":1489,"a2":422,"a75":232,"ag":[88,32,60,45,131,298,227,164,129,171,143,96,85,87,103,85,74,49,17,7,0],"nf":105},"geometry":{"type":"Polygon","coordinates":[[[135.53627,34.67432],[135.53626,34.6742],[135.53619,34.67424],[135.53565,34.67428],[135.53531,34.67429],[135.53503,34.67428],[135.53418,34.67433],[135.534,34.67433],[135.53379,34.67435],[135.53355,34.67436],[135.53318,34.67438],[135.53324,34.67454],[135.53338,34.67513],[135.53353,34.67559],[135.53363,34.6759],[135.53367,34.67606],[135.5338,34.67645],[135.53392,34.67685],[135.53411,34.67747],[135.53416,34.67768],[135.53422,34.67796],[135.53452,34.67796],[135.5349,34.67796],[135.535,34.67796],[135.53501,34.67796],[135.53564,34.67784],[135.53614,34.67774],[135.53633,34.67771],[135.53667,34.67765],[135.53662,34.67738],[135.53656,34.67692],[135.53651,34.67657],[135.53642,34.67606],[135.53641,34.67588],[135.53637,34.67565],[135.53637,34.6755],[135.53631,34.67489],[135.53627,34.67432]]]}},{"type":"Feature","properties":{"name":"中道四丁目","setai":848,"jinko":1581,"key":"27115001004","units":1,"m":771,"f":810,"gk":148,"a0":160,"a1":975,"a2":383,"a75":187,"ag":[62,60,38,51,76,114,135,124,104,106,107,93,65,94,102,68,53,49,13,4,0],"nf":63},"geometry":{"type":"Polygon","coordinates":[[[135.53779,34.67749],[135.53807,34.67745],[135.53822,34.67746],[135.53822,34.67746],[135.53838,34.67734],[135.53841,34.6773],[135.53836,34.67719],[135.53834,34.67697],[135.53835,34.67689],[135.53841,34.67666],[135.53852,34.67637],[135.53855,34.67625],[135.53858,34.67615],[135.53863,34.67602],[135.53866,34.67594],[135.5387,34.67584],[135.5387,34.67582],[135.53901,34.67488],[135.53906,34.67474],[135.53917,34.67445],[135.53937,34.67391],[135.53891,34.67392],[135.53888,34.67392],[135.53817,34.67394],[135.53795,34.67395],[135.53765,34.67397],[135.53751,34.67397],[135.5368,34.67398],[135.53676,34.67399],[135.53667,34.67399],[135.53648,34.67411],[135.53626,34.6742],[135.53627,34.67432],[135.53631,34.67489],[135.53637,34.6755],[135.53637,34.67565],[135.53641,34.67588],[135.53642,34.67606],[135.53651,34.67657],[135.53656,34.67692],[135.53662,34.67738],[135.53667,34.67765],[135.5372,34.67756],[135.53746,34.67753],[135.53753,34.67752],[135.53779,34.67749]]]}},{"type":"Feature","properties":{"name":"東小橋一丁目","setai":1706,"jinko":2527,"key":"27115002001","units":1,"m":1165,"f":1362,"gk":134,"a0":148,"a1":1720,"a2":489,"a75":222,"ag":[46,42,60,77,214,272,219,178,176,179,163,150,92,123,144,97,70,34,17,4,0],"nf":170},"geometry":{"type":"Polygon","coordinates":[[[135.53418,34.67433],[135.53503,34.67428],[135.53531,34.67429],[135.53565,34.67428],[135.53619,34.67424],[135.53626,34.6742],[135.53625,34.67405],[135.53624,34.67376],[135.53623,34.67354],[135.53622,34.67341],[135.53618,34.67277],[135.53615,34.67233],[135.53599,34.67175],[135.53578,34.67087],[135.53566,34.67089],[135.53563,34.67072],[135.53494,34.67074],[135.53419,34.67076],[135.53398,34.67076],[135.53354,34.67077],[135.53288,34.67078],[135.53206,34.67079],[135.53222,34.67117],[135.53225,34.67126],[135.53257,34.67188],[135.53264,34.67203],[135.53275,34.67241],[135.53278,34.67252],[135.53278,34.67252],[135.5328,34.67265],[135.53287,34.67263],[135.53293,34.67296],[135.53298,34.67321],[135.53303,34.67328],[135.5331,34.67362],[135.53324,34.67434],[135.53318,34.67438],[135.53355,34.67436],[135.53379,34.67435],[135.534,34.67433],[135.53418,34.67433]]]}},{"type":"Feature","properties":{"name":"東小橋二丁目","setai":1159,"jinko":1860,"key":"27115002002","units":1,"m":873,"f":987,"gk":167,"a0":194,"a1":1317,"a2":271,"a75":126,"ag":[60,60,74,70,157,208,186,121,139,164,117,86,69,78,67,48,41,24,12,1,0],"nf":78},"geometry":{"type":"Polygon","coordinates":[[[135.53499,34.66833],[135.53426,34.66831],[135.53426,34.66831],[135.53396,34.6683],[135.53377,34.66829],[135.53327,34.66826],[135.53319,34.66826],[135.53284,34.66824],[135.53233,34.66825],[135.53209,34.66825],[135.53155,34.66826],[135.53126,34.66825],[135.53157,34.66921],[135.53156,34.66923],[135.53172,34.66973],[135.53206,34.67079],[135.53288,34.67078],[135.53354,34.67077],[135.53398,34.67076],[135.53419,34.67076],[135.53494,34.67074],[135.53563,34.67072],[135.53563,34.67071],[135.53562,34.67065],[135.53544,34.66993],[135.53535,34.66963],[135.53533,34.66952],[135.53523,34.66914],[135.5351,34.66871],[135.53499,34.66833]]]}},{"type":"Feature","properties":{"name":"東小橋三丁目","setai":953,"jinko":1644,"key":"27115002003","units":1,"m":780,"f":864,"gk":283,"a0":100,"a1":1015,"a2":437,"a75":235,"ag":[12,29,59,68,80,111,114,91,80,144,101,106,120,111,91,99,67,44,18,6,1],"nf":92},"geometry":{"type":"Polygon","coordinates":[[[135.53499,34.66833],[135.53497,34.66826],[135.53487,34.6679],[135.53473,34.66749],[135.53473,34.66746],[135.53464,34.66722],[135.5346,34.66711],[135.53447,34.66674],[135.53433,34.66632],[135.53433,34.66632],[135.53424,34.66605],[135.53415,34.66577],[135.53407,34.66554],[135.53369,34.66552],[135.53292,34.66547],[135.53288,34.66547],[135.53223,34.66545],[135.53197,34.66545],[135.53158,34.66544],[135.53154,34.66544],[135.53106,34.66543],[135.53029,34.66541],[135.53033,34.66552],[135.5304,34.66571],[135.5305,34.66603],[135.53051,34.66605],[135.53084,34.66715],[135.5309,34.66715],[135.53096,34.66734],[135.53126,34.66825],[135.53155,34.66826],[135.53209,34.66825],[135.53233,34.66825],[135.53284,34.66824],[135.53319,34.66826],[135.53327,34.66826],[135.53377,34.66829],[135.53396,34.6683],[135.53426,34.66831],[135.53426,34.66831],[135.53499,34.66833]]]}},{"type":"Feature","properties":{"name":"玉津一丁目","setai":1146,"jinko":1928,"key":"27115003001","units":1,"m":908,"f":1020,"gk":129,"a0":182,"a1":1325,"a2":314,"a75":155,"ag":[65,57,60,76,158,210,168,104,143,142,125,122,77,79,80,54,47,36,15,2,1],"nf":107},"geometry":{"type":"Polygon","coordinates":[[[135.53894,34.67155],[135.53899,34.67057],[135.53899,34.67057],[135.5382,34.67052],[135.53805,34.67051],[135.53763,34.67054],[135.53662,34.67063],[135.53563,34.67071],[135.53563,34.67072],[135.53566,34.67089],[135.53578,34.67087],[135.53599,34.67175],[135.53615,34.67233],[135.53618,34.67277],[135.53622,34.67341],[135.53623,34.67354],[135.53624,34.67376],[135.53625,34.67405],[135.53626,34.6742],[135.53648,34.67411],[135.53667,34.67399],[135.53676,34.67399],[135.5368,34.67398],[135.53751,34.67397],[135.53765,34.67397],[135.53795,34.67395],[135.53817,34.67394],[135.53888,34.67392],[135.53891,34.67392],[135.53937,34.67391],[135.53952,34.67344],[135.5396,34.67323],[135.53965,34.67314],[135.53968,34.67294],[135.53967,34.67281],[135.53967,34.67281],[135.53959,34.67262],[135.53956,34.67256],[135.53948,34.67243],[135.53947,34.67242],[135.53935,34.67226],[135.53921,34.67214],[135.53918,34.67211],[135.53895,34.67192],[135.53894,34.67167],[135.53894,34.67155]]]}},{"type":"Feature","properties":{"name":"玉津二丁目","setai":1367,"jinko":3015,"key":"27115003002","units":1,"m":1464,"f":1551,"gk":359,"a0":343,"a1":1891,"a2":699,"a75":347,"ag":[93,115,135,167,174,195,174,179,200,250,220,197,135,164,188,143,101,66,27,9,1],"nf":82},"geometry":{"type":"Polygon","coordinates":[[[135.53763,34.67054],[135.53805,34.67051],[135.5382,34.67052],[135.53899,34.67057],[135.53901,34.67017],[135.53903,34.66984],[135.53905,34.6695],[135.53908,34.66912],[135.5391,34.66879],[135.53913,34.6684],[135.53914,34.66828],[135.53916,34.6678],[135.53865,34.66764],[135.53842,34.66757],[135.53793,34.66742],[135.53743,34.66727],[135.53737,34.66724],[135.53667,34.66703],[135.53569,34.66672],[135.53568,34.66672],[135.53546,34.66665],[135.53542,34.66664],[135.53433,34.66632],[135.53447,34.66674],[135.5346,34.66711],[135.53464,34.66722],[135.53473,34.66746],[135.53473,34.66749],[135.53487,34.6679],[135.53497,34.66826],[135.53499,34.66833],[135.5351,34.66871],[135.53523,34.66914],[135.53533,34.66952],[135.53535,34.66963],[135.53544,34.66993],[135.53562,34.67065],[135.53563,34.67071],[135.53662,34.67063],[135.53763,34.67054]]]}},{"type":"Feature","properties":{"name":"玉津三丁目","setai":695,"jinko":1285,"key":"27115003003","units":1,"m":614,"f":671,"gk":226,"a0":105,"a1":770,"a2":337,"a75":195,"ag":[30,34,41,64,98,78,70,65,74,89,97,79,56,69,73,73,65,43,9,4,1],"nf":73},"geometry":{"type":"Polygon","coordinates":[[[135.53928,34.66573],[135.53929,34.66562],[135.53928,34.66562],[135.53917,34.66562],[135.53847,34.66564],[135.53772,34.66562],[135.53679,34.6656],[135.53625,34.6656],[135.53614,34.66559],[135.53581,34.66559],[135.53538,34.66558],[135.53533,34.66558],[135.53478,34.66557],[135.53415,34.66554],[135.53407,34.66554],[135.53415,34.66577],[135.53424,34.66605],[135.53433,34.66632],[135.53433,34.66632],[135.53542,34.66664],[135.53546,34.66665],[135.53568,34.66672],[135.53569,34.66672],[135.53667,34.66703],[135.53737,34.66724],[135.53743,34.66727],[135.53793,34.66742],[135.53842,34.66757],[135.53865,34.66764],[135.53916,34.6678],[135.53921,34.66691],[135.53922,34.66674],[135.53925,34.66617],[135.53928,34.66583],[135.53928,34.66583],[135.53928,34.66573]]]}},{"type":"Feature","properties":{"name":"中本一丁目","setai":1105,"jinko":1919,"key":"27115004001","units":1,"m":913,"f":1006,"gk":107,"a0":175,"a1":1301,"a2":379,"a75":203,"ag":[64,52,59,70,166,215,146,113,130,153,114,113,81,79,97,69,64,45,18,6,1],"nf":64},"geometry":{"type":"Polygon","coordinates":[[[135.54465,34.68126],[135.54458,34.68074],[135.54417,34.68079],[135.54403,34.68081],[135.5436,34.68087],[135.54339,34.68089],[135.54303,34.68094],[135.54271,34.68099],[135.54223,34.68105],[135.54207,34.68107],[135.5419,34.68109],[135.54133,34.68117],[135.54049,34.68128],[135.54046,34.68137],[135.54046,34.68139],[135.54045,34.68143],[135.54019,34.68191],[135.54017,34.68196],[135.54016,34.68198],[135.54012,34.68215],[135.54011,34.68237],[135.54012,34.68368],[135.54043,34.68339],[135.54061,34.68321],[135.54064,34.68319],[135.54099,34.68284],[135.54116,34.68267],[135.54144,34.6824],[135.54159,34.6823],[135.54165,34.68228],[135.54186,34.68225],[135.54195,34.68224],[135.54302,34.6821],[135.54324,34.68207],[135.54367,34.68201],[135.54368,34.68201],[135.54396,34.68197],[135.54474,34.68187],[135.5447,34.68161],[135.54469,34.6815],[135.54465,34.68126]]]}},{"type":"Feature","properties":{"name":"中本二丁目","setai":1181,"jinko":2022,"key":"27115004002","units":1,"m":964,"f":1058,"gk":160,"a0":167,"a1":1313,"a2":450,"a75":225,"ag":[56,59,52,88,147,189,145,114,114,173,132,118,93,99,126,91,64,51,14,4,1],"nf":92},"geometry":{"type":"Polygon","coordinates":[[[135.5407,34.6784],[135.54032,34.67838],[135.54042,34.6787],[135.54052,34.67902],[135.54058,34.67927],[135.54043,34.6793],[135.54051,34.67979],[135.54051,34.68003],[135.54051,34.68003],[135.54051,34.68038],[135.54051,34.68053],[135.54053,34.6808],[135.5405,34.68102],[135.54049,34.68128],[135.54133,34.68117],[135.5419,34.68109],[135.54207,34.68107],[135.54223,34.68105],[135.54271,34.68099],[135.54303,34.68094],[135.54339,34.68089],[135.5436,34.68087],[135.54403,34.68081],[135.54399,34.68066],[135.54395,34.68062],[135.54348,34.68025],[135.54345,34.68023],[135.54316,34.68],[135.54288,34.67978],[135.54275,34.67967],[135.54271,34.67963],[135.54255,34.67952],[135.5424,34.6794],[135.54227,34.6793],[135.54187,34.67897],[135.5414,34.6786],[135.54121,34.67845],[135.54122,34.67842],[135.54119,34.67842],[135.5407,34.6784]]]}},{"type":"Feature","properties":{"name":"中本三丁目","setai":1150,"jinko":2103,"key":"27115004003","units":1,"m":977,"f":1126,"gk":148,"a0":170,"a1":1291,"a2":576,"a75":281,"ag":[64,48,58,60,143,186,149,123,126,128,122,125,129,146,149,104,83,58,29,5,2],"nf":66},"geometry":{"type":"Polygon","coordinates":[[[135.54425,34.67844],[135.54421,34.67817],[135.54378,34.67821],[135.54351,34.67821],[135.5432,34.67823],[135.54309,34.67823],[135.54271,34.67819],[135.54271,34.67788],[135.54275,34.67785],[135.54275,34.6776],[135.54241,34.67759],[135.54224,34.67758],[135.54195,34.67757],[135.54108,34.67758],[135.54094,34.67758],[135.54083,34.67761],[135.54044,34.67772],[135.54007,34.67784],[135.54032,34.67838],[135.5407,34.6784],[135.54119,34.67842],[135.54122,34.67842],[135.54121,34.67845],[135.5414,34.6786],[135.54187,34.67897],[135.54227,34.6793],[135.5424,34.6794],[135.54255,34.67952],[135.54271,34.67963],[135.54275,34.67967],[135.54288,34.67978],[135.54316,34.68],[135.54345,34.68023],[135.54348,34.68025],[135.54395,34.68062],[135.54399,34.68066],[135.54403,34.68081],[135.54417,34.68079],[135.54458,34.68074],[135.54454,34.68045],[135.54449,34.68006],[135.54442,34.67958],[135.54435,34.67923],[135.5443,34.67877],[135.54429,34.67874],[135.54429,34.6787],[135.54425,34.67845],[135.54425,34.67844]]]}},{"type":"Feature","properties":{"name":"中本四丁目","setai":886,"jinko":1753,"key":"27115004004","units":1,"m":786,"f":967,"gk":148,"a0":216,"a1":936,"a2":545,"a75":320,"ag":[80,74,62,53,96,117,108,119,96,94,91,85,77,98,127,105,88,66,40,16,5],"nf":56},"geometry":{"type":"Polygon","coordinates":[[[135.54077,34.67654],[135.54078,34.67631],[135.54077,34.67631],[135.54073,34.67578],[135.54073,34.67577],[135.54071,34.67557],[135.54069,34.67528],[135.54072,34.67515],[135.54076,34.67498],[135.54077,34.67494],[135.54078,34.67489],[135.5408,34.67481],[135.54089,34.67459],[135.54099,34.67429],[135.53979,34.67397],[135.53976,34.67396],[135.53972,34.67395],[135.53937,34.67391],[135.53917,34.67445],[135.53906,34.67474],[135.53901,34.67488],[135.5387,34.67582],[135.5387,34.67584],[135.53866,34.67594],[135.53863,34.67602],[135.53858,34.67615],[135.53855,34.67625],[135.53852,34.67637],[135.53841,34.67666],[135.53835,34.67689],[135.53834,34.67697],[135.53836,34.67719],[135.53841,34.6773],[135.53847,34.6774],[135.53858,34.67756],[135.53872,34.67773],[135.53878,34.67778],[135.53896,34.67796],[135.53905,34.67801],[135.53952,34.67835],[135.53978,34.67856],[135.53985,34.67863],[135.54018,34.67885],[135.54034,34.67906],[135.54041,34.67919],[135.54043,34.6793],[135.54058,34.67927],[135.54052,34.67902],[135.54042,34.6787],[135.54032,34.67838],[135.54007,34.67784],[135.54044,34.67772],[135.54083,34.67761],[135.54074,34.67749],[135.54076,34.67699],[135.54076,34.67687],[135.54077,34.67676],[135.54077,34.67654]]]}},{"type":"Feature","properties":{"name":"中本五丁目","setai":1498,"jinko":3254,"key":"27115004005","units":1,"m":1540,"f":1714,"gk":265,"a0":388,"a1":1972,"a2":820,"a75":415,"ag":[176,118,94,113,137,163,225,248,195,228,247,210,206,200,205,150,134,86,35,9,1],"nf":74},"geometry":{"type":"Polygon","coordinates":[[[135.54415,34.67766],[135.54412,34.67746],[135.54411,34.67737],[135.54407,34.67714],[135.54402,34.67674],[135.54395,34.67621],[135.54391,34.67591],[135.54377,34.67495],[135.54376,34.67491],[135.54369,34.6744],[135.54302,34.67439],[135.5428,34.67439],[135.54235,34.6744],[135.54203,34.67439],[135.54131,34.67438],[135.54099,34.67429],[135.54089,34.67459],[135.5408,34.67481],[135.54078,34.67489],[135.54077,34.67494],[135.54076,34.67498],[135.54072,34.67515],[135.54069,34.67528],[135.54071,34.67557],[135.54073,34.67577],[135.54073,34.67578],[135.54077,34.67631],[135.54078,34.67631],[135.54077,34.67654],[135.54077,34.67676],[135.54076,34.67687],[135.54076,34.67699],[135.54074,34.67749],[135.54083,34.67761],[135.54094,34.67758],[135.54108,34.67758],[135.54195,34.67757],[135.54224,34.67758],[135.54241,34.67759],[135.54275,34.6776],[135.54275,34.67785],[135.54271,34.67788],[135.54271,34.67819],[135.54309,34.67823],[135.5432,34.67823],[135.54351,34.67821],[135.54378,34.67821],[135.54421,34.67817],[135.54415,34.67766]]]}},{"type":"Feature","properties":{"name":"大今里西一丁目","setai":1545,"jinko":2526,"key":"27115005001","units":1,"m":1158,"f":1368,"gk":189,"a0":197,"a1":1585,"a2":611,"a75":311,"ag":[75,64,58,76,167,237,180,185,153,173,146,152,116,118,182,123,94,66,21,7,0],"nf":133},"geometry":{"type":"Polygon","coordinates":[[[135.5428,34.67439],[135.54302,34.67439],[135.54369,34.6744],[135.54362,34.67383],[135.54361,34.67376],[135.54359,34.67355],[135.54356,34.67338],[135.54348,34.67276],[135.54346,34.67255],[135.54346,34.67255],[135.54343,34.67228],[135.5434,34.67213],[135.54331,34.67142],[135.54325,34.67103],[135.54324,34.67097],[135.5431,34.67003],[135.54309,34.67],[135.54293,34.66898],[135.54291,34.66899],[135.54273,34.66914],[135.54208,34.66969],[135.54198,34.66977],[135.54127,34.67036],[135.54126,34.67037],[135.54079,34.67076],[135.54066,34.67086],[135.54062,34.6709],[135.54053,34.67098],[135.53962,34.67174],[135.53923,34.67206],[135.53918,34.67211],[135.53921,34.67214],[135.53935,34.67226],[135.53947,34.67242],[135.53948,34.67243],[135.53956,34.67256],[135.53959,34.67262],[135.53967,34.67281],[135.53967,34.67281],[135.53968,34.67294],[135.53965,34.67314],[135.5396,34.67323],[135.53952,34.67344],[135.53937,34.67391],[135.53972,34.67395],[135.53976,34.67396],[135.53979,34.67397],[135.54099,34.67429],[135.54131,34.67438],[135.54203,34.67439],[135.54235,34.6744],[135.5428,34.67439]]]}},{"type":"Feature","properties":{"name":"大今里西二丁目","setai":754,"jinko":1510,"key":"27115005002","units":1,"m":646,"f":864,"gk":126,"a0":127,"a1":777,"a2":546,"a75":378,"ag":[51,39,37,31,55,99,106,84,77,106,86,70,63,83,85,86,90,88,86,25,3],"nf":60},"geometry":{"type":"Polygon","coordinates":[[[135.54273,34.66914],[135.54291,34.66899],[135.54289,34.669],[135.54198,34.66871],[135.54144,34.66853],[135.54122,34.66846],[135.5406,34.66826],[135.54044,34.66821],[135.53985,34.66802],[135.5395,34.66791],[135.53916,34.6678],[135.53914,34.66828],[135.53913,34.6684],[135.5391,34.66879],[135.53908,34.66912],[135.53905,34.6695],[135.53903,34.66984],[135.53901,34.67017],[135.53899,34.67057],[135.53899,34.67057],[135.53894,34.67155],[135.53894,34.67167],[135.53895,34.67192],[135.53918,34.67211],[135.53923,34.67206],[135.53962,34.67174],[135.54053,34.67098],[135.54062,34.6709],[135.54066,34.67086],[135.54079,34.67076],[135.54126,34.67037],[135.54127,34.67036],[135.54198,34.66977],[135.54208,34.66969],[135.54273,34.66914]]]}},{"type":"Feature","properties":{"name":"大今里西三丁目","setai":1599,"jinko":2584,"key":"27115005003","units":1,"m":1244,"f":1340,"gk":312,"a0":197,"a1":1654,"a2":594,"a75":270,"ag":[78,66,53,78,185,226,209,186,156,188,162,143,121,165,159,110,97,41,17,4,1],"nf":139},"geometry":{"type":"Polygon","coordinates":[[[135.54248,34.66605],[135.54239,34.66539],[135.54196,34.66542],[135.54156,34.66545],[135.54094,34.6655],[135.54056,34.66553],[135.54043,34.66554],[135.54011,34.66556],[135.54,34.66557],[135.53972,34.6656],[135.53969,34.6656],[135.53941,34.66562],[135.53929,34.66562],[135.53928,34.66573],[135.53928,34.66583],[135.53928,34.66583],[135.53925,34.66617],[135.53922,34.66674],[135.53921,34.66691],[135.53916,34.6678],[135.5395,34.66791],[135.53985,34.66802],[135.54044,34.66821],[135.5406,34.66826],[135.54122,34.66846],[135.54144,34.66853],[135.54198,34.66871],[135.54289,34.669],[135.54279,34.66825],[135.54274,34.66784],[135.54266,34.66729],[135.54265,34.66727],[135.54258,34.66671],[135.54255,34.66647],[135.54254,34.66645],[135.54254,34.66641],[135.54251,34.66625],[135.54251,34.66622],[135.54248,34.66606],[135.54248,34.66605]]]}},{"type":"Feature","properties":{"name":"東中本一丁目","setai":523,"jinko":860,"key":"27115006001","units":1,"m":435,"f":425,"gk":44,"a0":77,"a1":513,"a2":219,"a75":117,"ag":[23,28,26,29,40,64,69,77,34,69,51,38,42,46,56,36,39,24,17,0,1],"nf":51},"geometry":{"type":"Polygon","coordinates":[[[135.5494,34.68011],[135.5494,34.68011],[135.5486,34.68021],[135.54805,34.68028],[135.5477,34.68033],[135.54673,34.68046],[135.54656,34.68048],[135.54604,34.68054],[135.54523,34.68065],[135.54521,34.68065],[135.54458,34.68074],[135.54465,34.68126],[135.54469,34.6815],[135.5447,34.68161],[135.54474,34.68187],[135.54475,34.6819],[135.54545,34.6818],[135.54585,34.68173],[135.54625,34.6817],[135.54692,34.68162],[135.54708,34.68159],[135.54723,34.68157],[135.54791,34.68147],[135.5482,34.68144],[135.54858,34.68141],[135.54885,34.68138],[135.54903,34.68134],[135.54929,34.6813],[135.54948,34.68129],[135.5496,34.68125],[135.54958,34.68111],[135.54956,34.68096],[135.54949,34.68063],[135.54947,34.68049],[135.54946,34.68042],[135.5494,34.68011]]]}},{"type":"Feature","properties":{"name":"東中本二丁目","setai":1292,"jinko":2345,"key":"27115006002","units":1,"m":1077,"f":1268,"gk":123,"a0":205,"a1":1406,"a2":611,"a75":370,"ag":[75,66,64,87,141,164,183,159,138,154,146,122,112,93,148,110,108,81,49,17,5],"nf":123},"geometry":{"type":"Polygon","coordinates":[[[135.5491,34.67854],[135.5489,34.67742],[135.54889,34.6774],[135.54838,34.67745],[135.54751,34.67755],[135.54635,34.67765],[135.54616,34.67766],[135.54604,34.67766],[135.54501,34.67768],[135.54415,34.67766],[135.54421,34.67817],[135.54425,34.67844],[135.54425,34.67845],[135.54429,34.6787],[135.54429,34.67874],[135.5443,34.67877],[135.54435,34.67923],[135.54442,34.67958],[135.54449,34.68006],[135.54454,34.68045],[135.54458,34.68074],[135.54521,34.68065],[135.54523,34.68065],[135.54604,34.68054],[135.54656,34.68048],[135.54673,34.68046],[135.5477,34.68033],[135.54805,34.68028],[135.5486,34.68021],[135.5494,34.68011],[135.54928,34.67953],[135.54928,34.67951],[135.54918,34.67898],[135.54918,34.67896],[135.5491,34.67854]]]}},{"type":"Feature","properties":{"name":"東中本三丁目","setai":981,"jinko":2061,"key":"27115006003","units":1,"m":989,"f":1072,"gk":99,"a0":242,"a1":1313,"a2":450,"a75":246,"ag":[87,73,82,91,113,170,161,131,127,144,152,119,105,78,126,93,73,49,28,3,0],"nf":56},"geometry":{"type":"Polygon","coordinates":[[[135.54842,34.67482],[135.54833,34.67436],[135.54833,34.67434],[135.54787,34.67438],[135.54739,34.67443],[135.54707,34.67447],[135.54686,34.67449],[135.5462,34.67455],[135.54617,34.67455],[135.54592,34.67453],[135.54561,34.6745],[135.54508,34.67444],[135.54449,34.67438],[135.54447,34.67438],[135.54369,34.6744],[135.54376,34.67491],[135.54377,34.67495],[135.54391,34.67591],[135.54395,34.67621],[135.54402,34.67674],[135.54407,34.67714],[135.54411,34.67737],[135.54412,34.67746],[135.54415,34.67766],[135.54501,34.67768],[135.54604,34.67766],[135.54616,34.67766],[135.54635,34.67765],[135.54751,34.67755],[135.54838,34.67745],[135.54889,34.6774],[135.54883,34.677],[135.54882,34.67698],[135.54875,34.67656],[135.54875,34.67656],[135.54868,34.67618],[135.54868,34.67617],[135.54861,34.67574],[135.54854,34.67543],[135.54852,34.67531],[135.54849,34.67515],[135.54845,34.67499],[135.54842,34.67482]]]}},{"type":"Feature","properties":{"name":"東今里一丁目","setai":577,"jinko":1185,"key":"27115007001","units":1,"m":593,"f":592,"gk":69,"a0":128,"a1":766,"a2":255,"a75":118,"ag":[52,43,33,54,65,57,70,73,77,104,98,93,75,70,67,43,29,29,12,5,0],"nf":36},"geometry":{"type":"Polygon","coordinates":[[[135.55349,34.68019],[135.5534,34.6796],[135.55257,34.6797],[135.55201,34.67977],[135.55126,34.67987],[135.55089,34.67992],[135.5507,34.67994],[135.5494,34.68011],[135.54946,34.68042],[135.54947,34.68049],[135.54949,34.68063],[135.54956,34.68096],[135.54958,34.68111],[135.5496,34.68125],[135.54978,34.68126],[135.55001,34.68126],[135.55021,34.6812],[135.55049,34.68116],[135.55082,34.68107],[135.55116,34.68097],[135.5515,34.68093],[135.552,34.68087],[135.5522,34.68085],[135.55287,34.68082],[135.55306,34.68082],[135.55355,34.68077],[135.55355,34.68052],[135.55353,34.68043],[135.55349,34.68019]]]}},{"type":"Feature","properties":{"name":"東今里二丁目","setai":602,"jinko":1222,"key":"27115007002","units":1,"m":603,"f":619,"gk":59,"a0":175,"a1":824,"a2":186,"a75":102,"ag":[52,70,53,71,71,87,98,84,99,115,78,69,52,39,45,35,33,27,6,1,0],"nf":37},"geometry":{"type":"Polygon","coordinates":[[[135.55295,34.67706],[135.55287,34.6766],[135.55257,34.67664],[135.55166,34.67691],[135.55094,34.67713],[135.55054,34.67729],[135.55018,34.67729],[135.54983,34.67732],[135.5489,34.67742],[135.5491,34.67854],[135.54918,34.67896],[135.54918,34.67898],[135.54928,34.67951],[135.54928,34.67953],[135.5494,34.68011],[135.5494,34.68011],[135.5507,34.67994],[135.55089,34.67992],[135.55126,34.67987],[135.55201,34.67977],[135.55257,34.6797],[135.5534,34.6796],[135.5533,34.67902],[135.55319,34.67844],[135.55311,34.67797],[135.55304,34.67752],[135.55296,34.67709],[135.55295,34.67706]]]}},{"type":"Feature","properties":{"name":"東今里三丁目","setai":757,"jinko":1771,"key":"27115007003","units":1,"m":860,"f":911,"gk":105,"a0":209,"a1":1008,"a2":521,"a75":264,"ag":[60,74,75,110,89,68,54,108,116,147,126,90,100,125,132,115,77,47,16,8,1],"nf":33},"geometry":{"type":"Polygon","coordinates":[[[135.55246,34.67424],[135.55242,34.67386],[135.55167,34.67397],[135.55078,34.67411],[135.55001,34.67418],[135.54946,34.67424],[135.54892,34.6743],[135.54833,34.67436],[135.54842,34.67482],[135.54845,34.67499],[135.54849,34.67515],[135.54852,34.67531],[135.54854,34.67543],[135.54861,34.67574],[135.54868,34.67617],[135.54868,34.67618],[135.54875,34.67656],[135.54875,34.67656],[135.54882,34.67698],[135.54883,34.677],[135.54889,34.6774],[135.5489,34.67742],[135.54983,34.67732],[135.55018,34.67729],[135.55054,34.67729],[135.55094,34.67713],[135.55166,34.67691],[135.55257,34.67664],[135.55287,34.6766],[135.55279,34.67615],[135.5527,34.67563],[135.55263,34.67518],[135.55253,34.67469],[135.55247,34.67428],[135.55246,34.67424]]]}},{"type":"Feature","properties":{"name":"大今里一丁目","setai":1523,"jinko":3138,"key":"27115008001","units":1,"m":1499,"f":1639,"gk":218,"a0":354,"a1":1839,"a2":856,"a75":512,"ag":[159,101,94,107,143,209,235,197,191,238,205,168,146,149,195,186,146,126,39,11,4],"nf":89},"geometry":{"type":"Polygon","coordinates":[[[135.54739,34.67443],[135.54787,34.67438],[135.54833,34.67434],[135.54833,34.67436],[135.54892,34.6743],[135.54881,34.67352],[135.54864,34.67355],[135.54857,34.67353],[135.54821,34.67347],[135.54812,34.67292],[135.54811,34.67285],[135.54804,34.67253],[135.54804,34.67252],[135.54788,34.6716],[135.5478,34.67126],[135.54771,34.67075],[135.5473,34.67079],[135.54709,34.67082],[135.54688,34.67084],[135.54674,34.67086],[135.54641,34.67089],[135.54605,34.67093],[135.54593,34.67094],[135.54516,34.67103],[135.54462,34.67109],[135.54388,34.67128],[135.54331,34.67142],[135.5434,34.67213],[135.54343,34.67228],[135.54346,34.67255],[135.54346,34.67255],[135.54348,34.67276],[135.54356,34.67338],[135.54359,34.67355],[135.54361,34.67376],[135.54362,34.67383],[135.54369,34.6744],[135.54447,34.67438],[135.54449,34.67438],[135.54508,34.67444],[135.54561,34.6745],[135.54592,34.67453],[135.54617,34.67455],[135.5462,34.67455],[135.54686,34.67449],[135.54707,34.67447],[135.54739,34.67443]]]}},{"type":"Feature","properties":{"name":"大今里二丁目","setai":1280,"jinko":2811,"key":"27115008002","units":1,"m":1404,"f":1407,"gk":149,"a0":329,"a1":1699,"a2":777,"a75":404,"ag":[100,118,111,134,144,140,144,167,180,230,204,183,173,173,200,145,128,88,36,4,3],"nf":6},"geometry":{"type":"Polygon","coordinates":[[[135.55242,34.67386],[135.55233,34.67347],[135.55227,34.67306],[135.55227,34.67303],[135.55223,34.67284],[135.5522,34.67266],[135.55218,34.67252],[135.55209,34.67202],[135.55206,34.67184],[135.55204,34.67171],[135.552,34.67153],[135.55196,34.67123],[135.5518,34.67029],[135.55155,34.67032],[135.55094,34.67039],[135.55017,34.67047],[135.54984,34.67051],[135.54914,34.67059],[135.54859,34.67065],[135.54828,34.67068],[135.54796,34.67071],[135.54771,34.67074],[135.54771,34.67075],[135.5478,34.67126],[135.54788,34.6716],[135.54804,34.67252],[135.54804,34.67253],[135.54811,34.67285],[135.54812,34.67292],[135.54821,34.67347],[135.54857,34.67353],[135.54864,34.67355],[135.54881,34.67352],[135.54892,34.6743],[135.54946,34.67424],[135.55001,34.67418],[135.55078,34.67411],[135.55167,34.67397],[135.55242,34.67386]]]}},{"type":"Feature","properties":{"name":"大今里三丁目","setai":1127,"jinko":2080,"key":"27115008003","units":1,"m":941,"f":1139,"gk":116,"a0":185,"a1":1264,"a2":558,"a75":329,"ag":[69,60,56,60,130,167,148,111,132,142,139,128,107,102,127,106,110,75,28,10,0],"nf":73},"geometry":{"type":"Polygon","coordinates":[[[135.54755,34.66831],[135.54751,34.6679],[135.54684,34.66805],[135.54613,34.66822],[135.54609,34.66823],[135.54515,34.66845],[135.54477,34.66854],[135.54346,34.66885],[135.54293,34.66898],[135.54309,34.67],[135.5431,34.67003],[135.54324,34.67097],[135.54325,34.67103],[135.54331,34.67142],[135.54388,34.67128],[135.54462,34.67109],[135.54516,34.67103],[135.54593,34.67094],[135.54605,34.67093],[135.54641,34.67089],[135.54674,34.67086],[135.54688,34.67084],[135.54709,34.67082],[135.5473,34.67079],[135.54771,34.67075],[135.54771,34.67074],[135.54761,34.67033],[135.5476,34.67026],[135.54751,34.66989],[135.54751,34.66988],[135.54746,34.66921],[135.54746,34.66919],[135.54746,34.66897],[135.54774,34.66892],[135.54778,34.66867],[135.54776,34.6685],[135.54762,34.66838],[135.54761,34.66837],[135.54755,34.66831]]]}},{"type":"Feature","properties":{"name":"大今里四丁目","setai":837,"jinko":1763,"key":"27115008004","units":1,"m":812,"f":951,"gk":61,"a0":187,"a1":977,"a2":566,"a75":319,"ag":[51,72,64,58,66,93,106,98,95,103,111,130,117,113,134,108,119,66,21,4,1],"nf":33},"geometry":{"type":"Polygon","coordinates":[[[135.5514,34.66803],[135.55141,34.66801],[135.55123,34.66802],[135.5511,34.66799],[135.55109,34.66799],[135.5505,34.66788],[135.55017,34.66782],[135.54962,34.66771],[135.54934,34.66765],[135.54915,34.6676],[135.54889,34.66758],[135.54868,34.66762],[135.54823,34.66773],[135.54755,34.66789],[135.54751,34.6679],[135.54755,34.66831],[135.54761,34.66837],[135.54762,34.66838],[135.54776,34.6685],[135.54778,34.66867],[135.54774,34.66892],[135.54746,34.66897],[135.54746,34.66919],[135.54746,34.66921],[135.54751,34.66988],[135.54751,34.66989],[135.5476,34.67026],[135.54761,34.67033],[135.54771,34.67074],[135.54796,34.67071],[135.54828,34.67068],[135.54859,34.67065],[135.54914,34.67059],[135.54984,34.67051],[135.55017,34.67047],[135.55094,34.67039],[135.55155,34.67032],[135.5518,34.67029],[135.55171,34.66984],[135.55162,34.66926],[135.55152,34.6687],[135.55149,34.66848],[135.5514,34.66803]]]}},{"type":"Feature","properties":{"name":"大今里南一丁目","setai":1601,"jinko":3200,"key":"27115009001","units":1,"m":1511,"f":1689,"gk":284,"a0":449,"a1":2028,"a2":617,"a75":296,"ag":[142,172,135,150,178,187,187,215,260,266,218,215,152,158,163,130,84,49,27,5,1],"nf":106},"geometry":{"type":"Polygon","coordinates":[[[135.54556,34.6656],[135.54546,34.66514],[135.54544,34.66514],[135.54473,34.66521],[135.54404,34.66526],[135.54342,34.66531],[135.54303,34.66533],[135.54253,34.66537],[135.54247,34.66538],[135.54239,34.66539],[135.54248,34.66605],[135.54248,34.66606],[135.54251,34.66622],[135.54251,34.66625],[135.54254,34.66641],[135.54254,34.66645],[135.54255,34.66647],[135.54258,34.66671],[135.54265,34.66727],[135.54266,34.66729],[135.54274,34.66784],[135.54279,34.66825],[135.54289,34.669],[135.54291,34.66899],[135.54293,34.66898],[135.54346,34.66885],[135.54477,34.66854],[135.54515,34.66845],[135.54609,34.66823],[135.54613,34.66822],[135.54603,34.66776],[135.54595,34.66738],[135.54589,34.66709],[135.54582,34.6668],[135.54576,34.66652],[135.5457,34.66625],[135.54556,34.6656]]]}},{"type":"Feature","properties":{"name":"大今里南二丁目","setai":896,"jinko":1783,"key":"27115009002","units":1,"m":835,"f":948,"gk":93,"a0":206,"a1":1075,"a2":452,"a75":241,"ag":[71,66,69,67,105,116,123,108,103,148,110,113,82,96,115,95,74,48,18,5,1],"nf":50},"geometry":{"type":"Polygon","coordinates":[[[135.54913,34.66509],[135.54911,34.66488],[135.54854,34.66492],[135.54836,34.66494],[135.54725,34.66502],[135.5472,34.66502],[135.54619,34.6651],[135.54546,34.66514],[135.54556,34.6656],[135.5457,34.66625],[135.54576,34.66652],[135.54582,34.6668],[135.54589,34.66709],[135.54595,34.66738],[135.54603,34.66776],[135.54613,34.66822],[135.54684,34.66805],[135.54751,34.6679],[135.54755,34.66789],[135.54823,34.66773],[135.54868,34.66762],[135.54863,34.66718],[135.54859,34.66679],[135.54856,34.66647],[135.54885,34.66645],[135.54884,34.66641],[135.54871,34.66577],[135.54861,34.66511],[135.54879,34.6651],[135.54893,34.66509],[135.54913,34.66509]]]}},{"type":"Feature","properties":{"name":"大今里南三丁目","setai":803,"jinko":1485,"key":"27115009003","units":1,"m":729,"f":756,"gk":141,"a0":128,"a1":835,"a2":450,"a75":233,"ag":[39,31,58,55,97,104,66,71,87,116,81,94,64,108,109,83,70,49,26,3,2],"nf":72},"geometry":{"type":"Polygon","coordinates":[[[135.55134,34.66766],[135.5513,34.66737],[135.5513,34.66737],[135.55125,34.6671],[135.55136,34.66709],[135.55131,34.6668],[135.55126,34.66652],[135.5512,34.66621],[135.55108,34.66623],[135.55104,34.666],[135.55097,34.66557],[135.55092,34.66524],[135.55087,34.66496],[135.55085,34.66475],[135.54911,34.66488],[135.54913,34.66509],[135.54893,34.66509],[135.54879,34.6651],[135.54861,34.66511],[135.54871,34.66577],[135.54884,34.66641],[135.54885,34.66645],[135.54856,34.66647],[135.54859,34.66679],[135.54863,34.66718],[135.54868,34.66762],[135.54889,34.66758],[135.54915,34.6676],[135.54934,34.66765],[135.54962,34.66771],[135.55017,34.66782],[135.5505,34.66788],[135.55109,34.66799],[135.5511,34.66799],[135.55123,34.66802],[135.55141,34.66801],[135.55134,34.66766]]]}},{"type":"Feature","properties":{"name":"大今里南四丁目","setai":1001,"jinko":1937,"key":"27115009004","units":1,"m":903,"f":1034,"gk":122,"a0":179,"a1":1069,"a2":623,"a75":330,"ag":[43,70,66,65,95,91,88,117,113,130,132,126,112,143,150,130,90,71,29,8,2],"nf":66},"geometry":{"type":"Polygon","coordinates":[[[135.55308,34.6664],[135.55304,34.66606],[135.55301,34.66568],[135.55299,34.66542],[135.5536,34.66537],[135.55358,34.6652],[135.55358,34.66519],[135.55357,34.66507],[135.55356,34.66503],[135.55355,34.66489],[135.55354,34.66479],[135.55354,34.66477],[135.55351,34.66457],[135.55252,34.66464],[135.55191,34.66469],[135.55085,34.66475],[135.55087,34.66496],[135.55092,34.66524],[135.55097,34.66557],[135.55104,34.666],[135.55108,34.66623],[135.5512,34.66621],[135.55126,34.66652],[135.55131,34.6668],[135.55136,34.66709],[135.55125,34.6671],[135.5513,34.66737],[135.5513,34.66737],[135.55134,34.66766],[135.55141,34.66801],[135.55162,34.66804],[135.55261,34.66809],[135.55262,34.66809],[135.55326,34.66811],[135.55319,34.6675],[135.55317,34.66725],[135.55317,34.66723],[135.55314,34.66696],[135.55311,34.66668],[135.55308,34.6664]]]}},{"type":"Feature","properties":{"name":"大今里南五丁目","setai":583,"jinko":1158,"key":"27115009005","units":1,"m":550,"f":608,"gk":58,"a0":117,"a1":655,"a2":241,"a75":109,"ag":[28,49,40,41,60,71,59,64,83,81,78,72,46,55,77,29,42,22,14,2,0],"nf":145},"geometry":{"type":"Polygon","coordinates":[[[135.55474,34.66469],[135.55472,34.66446],[135.55416,34.66451],[135.55351,34.66457],[135.55354,34.66477],[135.55354,34.66479],[135.55355,34.66489],[135.55356,34.66503],[135.55357,34.66507],[135.55358,34.66519],[135.55358,34.6652],[135.5536,34.66537],[135.55299,34.66542],[135.55301,34.66568],[135.55304,34.66606],[135.55308,34.6664],[135.55311,34.66668],[135.55314,34.66696],[135.55317,34.66723],[135.55317,34.66725],[135.55319,34.6675],[135.55326,34.66811],[135.55378,34.66814],[135.55388,34.66815],[135.55423,34.66817],[135.55424,34.66817],[135.55437,34.66817],[135.55439,34.66818],[135.55452,34.66818],[135.55479,34.66819],[135.55511,34.66821],[135.55504,34.66753],[135.55496,34.66684],[135.55496,34.66683],[135.55493,34.66655],[135.55493,34.66654],[135.5549,34.66626],[135.55489,34.66616],[135.55487,34.66593],[135.55483,34.66555],[135.55481,34.66529],[135.55477,34.66498],[135.55474,34.66469]]]}},{"type":"Feature","properties":{"name":"大今里南六丁目","setai":862,"jinko":1605,"key":"27115009006","units":1,"m":794,"f":811,"gk":96,"a0":165,"a1":911,"a2":460,"a75":235,"ag":[69,47,49,59,91,65,99,109,119,103,97,91,78,116,109,82,70,52,24,6,1],"nf":69},"geometry":{"type":"Polygon","coordinates":[[[135.55688,34.66829],[135.55753,34.66829],[135.55764,34.6683],[135.55763,34.6682],[135.55753,34.66821],[135.55745,34.66736],[135.55742,34.66715],[135.55742,34.66714],[135.5574,34.66692],[135.55739,34.6669],[135.55736,34.66663],[135.55733,34.66636],[135.55727,34.66578],[135.55723,34.66543],[135.5572,34.66512],[135.55716,34.66481],[135.55712,34.66438],[135.5571,34.66431],[135.55651,34.66435],[135.55561,34.6644],[135.55472,34.66446],[135.55474,34.66469],[135.55477,34.66498],[135.55481,34.66529],[135.55483,34.66555],[135.55487,34.66593],[135.55489,34.66616],[135.5549,34.66626],[135.55493,34.66654],[135.55493,34.66655],[135.55496,34.66683],[135.55496,34.66684],[135.55504,34.66753],[135.55511,34.66821],[135.55601,34.66827],[135.55619,34.66829],[135.55653,34.6683],[135.55666,34.66829],[135.55688,34.66829]]]}},{"type":"Feature","properties":{"name":"神路一丁目","setai":894,"jinko":1512,"key":"27115010001","units":1,"m":771,"f":741,"gk":92,"a0":178,"a1":952,"a2":287,"a75":137,"ag":[60,58,60,48,82,145,126,114,111,110,81,63,72,67,83,56,36,29,10,5,1],"nf":95},"geometry":{"type":"Polygon","coordinates":[[[135.55558,34.67633],[135.55556,34.67622],[135.55432,34.6764],[135.55287,34.6766],[135.55295,34.67706],[135.55296,34.67709],[135.55304,34.67752],[135.55311,34.67797],[135.55319,34.67844],[135.5533,34.67902],[135.5534,34.6796],[135.55349,34.68019],[135.55353,34.68043],[135.55355,34.68052],[135.55355,34.68077],[135.55358,34.68077],[135.55417,34.68071],[135.55422,34.6807],[135.55481,34.68048],[135.55496,34.68042],[135.55558,34.68018],[135.55584,34.68007],[135.55618,34.67986],[135.55615,34.6797],[135.55606,34.67926],[135.55599,34.67894],[135.55594,34.67866],[135.55585,34.67808],[135.55578,34.67761],[135.5557,34.67715],[135.55564,34.67672],[135.5556,34.6765],[135.55558,34.67633]]]}},{"type":"Feature","properties":{"name":"神路二丁目","setai":269,"jinko":948,"key":"27115010002","units":1,"m":425,"f":523,"gk":28,"a0":193,"a1":534,"a2":142,"a75":106,"ag":[32,69,92,62,36,28,30,49,99,97,71,38,24,16,20,22,14,36,23,8,3],"nf":79},"geometry":{"type":"Polygon","coordinates":[[[135.55528,34.67395],[135.55521,34.67348],[135.55449,34.67353],[135.55433,34.67353],[135.5543,34.67354],[135.5539,34.67357],[135.55242,34.67386],[135.55246,34.67424],[135.55247,34.67428],[135.55253,34.67469],[135.55263,34.67518],[135.5527,34.67563],[135.55279,34.67615],[135.55287,34.6766],[135.55432,34.6764],[135.55556,34.67622],[135.55557,34.67622],[135.55552,34.67575],[135.55546,34.6753],[135.55539,34.67486],[135.55533,34.67439],[135.55527,34.67395],[135.55528,34.67395]]]}},{"type":"Feature","properties":{"name":"神路三丁目","setai":742,"jinko":1492,"key":"27115010003","units":1,"m":743,"f":749,"gk":85,"a0":186,"a1":877,"a2":399,"a75":216,"ag":[65,61,60,58,91,102,98,97,93,120,79,71,68,78,105,82,69,48,15,2,0],"nf":30},"geometry":{"type":"Polygon","coordinates":[[[135.55479,34.67072],[135.55467,34.66997],[135.55446,34.66999],[135.55446,34.67],[135.55356,34.6701],[135.5533,34.67013],[135.55231,34.67024],[135.5518,34.67029],[135.55196,34.67123],[135.552,34.67153],[135.55204,34.67171],[135.55206,34.67184],[135.55209,34.67202],[135.55218,34.67252],[135.5522,34.67266],[135.55223,34.67284],[135.55227,34.67303],[135.55227,34.67306],[135.55233,34.67347],[135.55242,34.67386],[135.5539,34.67357],[135.5543,34.67354],[135.55433,34.67353],[135.55449,34.67353],[135.55521,34.67348],[135.55514,34.67303],[135.55506,34.67256],[135.55499,34.67206],[135.55493,34.67163],[135.55493,34.67163],[135.55486,34.67116],[135.55479,34.67072]]]}},{"type":"Feature","properties":{"name":"神路四丁目","setai":838,"jinko":1526,"key":"27115010004","units":1,"m":726,"f":800,"gk":58,"a0":188,"a1":1022,"a2":301,"a75":153,"ag":[46,59,83,55,76,87,100,103,139,144,123,112,83,79,69,50,58,38,6,1,0],"nf":15},"geometry":{"type":"Polygon","coordinates":[[[135.55162,34.66804],[135.55141,34.66801],[135.5514,34.66803],[135.55149,34.66848],[135.55152,34.6687],[135.55162,34.66926],[135.55171,34.66984],[135.5518,34.67029],[135.55231,34.67024],[135.5533,34.67013],[135.55356,34.6701],[135.55446,34.67],[135.55446,34.66999],[135.55467,34.66997],[135.5547,34.66954],[135.55473,34.66929],[135.55473,34.66927],[135.55473,34.66927],[135.55475,34.66905],[135.55476,34.66889],[135.55476,34.66884],[135.55477,34.66882],[135.55477,34.66877],[135.55479,34.66819],[135.55452,34.66818],[135.55439,34.66818],[135.55437,34.66817],[135.55424,34.66817],[135.55423,34.66817],[135.55388,34.66815],[135.55378,34.66814],[135.55326,34.66811],[135.55262,34.66809],[135.55261,34.66809],[135.55162,34.66804]]]}},{"type":"Feature","properties":{"name":"深江北一丁目","setai":1460,"jinko":2799,"key":"27115011001","units":1,"m":1334,"f":1465,"gk":108,"a0":311,"a1":1658,"a2":671,"a75":358,"ag":[82,109,120,111,141,166,161,160,196,228,192,165,138,153,160,132,97,72,42,12,3],"nf":159},"geometry":{"type":"Polygon","coordinates":[[[135.55748,34.67371],[135.55744,34.67332],[135.557,34.67334],[135.55671,34.67336],[135.55672,34.67339],[135.55521,34.67348],[135.55528,34.67395],[135.55527,34.67395],[135.55533,34.67439],[135.55539,34.67486],[135.55546,34.6753],[135.55552,34.67575],[135.55557,34.67622],[135.55556,34.67622],[135.55558,34.67633],[135.5556,34.6765],[135.55564,34.67672],[135.5557,34.67715],[135.55578,34.67761],[135.55585,34.67808],[135.55594,34.67866],[135.55599,34.67894],[135.55606,34.67926],[135.55615,34.6797],[135.55618,34.67986],[135.55642,34.67975],[135.55649,34.67972],[135.55676,34.67964],[135.5573,34.67948],[135.5576,34.6794],[135.55799,34.67928],[135.55796,34.67904],[135.55791,34.67842],[135.55786,34.67787],[135.55783,34.67748],[135.55781,34.67728],[135.55779,34.67701],[135.5577,34.67608],[135.55767,34.67573],[135.55765,34.67546],[135.55765,34.67545],[135.55762,34.67515],[135.55758,34.67473],[135.55754,34.67423],[135.5575,34.67387],[135.55748,34.67371]]]}},{"type":"Feature","properties":{"name":"深江北二丁目","setai":804,"jinko":1366,"key":"27115011002","units":1,"m":700,"f":666,"gk":42,"a0":139,"a1":976,"a2":182,"a75":90,"ag":[49,38,52,44,93,151,145,92,87,122,101,83,58,42,50,35,31,17,7,0,0],"nf":69},"geometry":{"type":"Polygon","coordinates":[[[135.55986,34.67362],[135.55982,34.67316],[135.55817,34.67327],[135.55744,34.67332],[135.55748,34.67371],[135.5575,34.67387],[135.55754,34.67423],[135.55758,34.67473],[135.55762,34.67515],[135.55765,34.67545],[135.55765,34.67546],[135.55767,34.67573],[135.5577,34.67608],[135.55779,34.67701],[135.55781,34.67728],[135.55783,34.67748],[135.55786,34.67787],[135.55791,34.67842],[135.55796,34.67904],[135.55799,34.67928],[135.55801,34.67927],[135.55825,34.67919],[135.55872,34.6791],[135.55873,34.6791],[135.55929,34.679],[135.55955,34.67893],[135.55985,34.67889],[135.56016,34.67885],[135.56011,34.67821],[135.56008,34.6777],[135.56006,34.67729],[135.56004,34.67686],[135.56001,34.67641],[135.55998,34.67594],[135.55996,34.67546],[135.55996,34.67545],[135.55992,34.675],[135.5599,34.67455],[135.55989,34.67409],[135.55985,34.67362],[135.55986,34.67362]]]}},{"type":"Feature","properties":{"name":"深江北三丁目","setai":895,"jinko":1383,"key":"27115011003","units":1,"m":756,"f":627,"gk":114,"a0":120,"a1":916,"a2":286,"a75":121,"ag":[42,45,33,64,116,163,97,71,87,105,78,62,73,66,99,55,25,28,9,4,0],"nf":61},"geometry":{"type":"Polygon","coordinates":[[[135.56332,34.67594],[135.56328,34.67586],[135.56327,34.67584],[135.56321,34.67586],[135.56312,34.67588],[135.5631,34.6758],[135.56308,34.67574],[135.56304,34.67566],[135.56303,34.67566],[135.56302,34.67566],[135.56296,34.67567],[135.56289,34.67541],[135.56288,34.67525],[135.56288,34.67523],[135.56281,34.67523],[135.5628,34.67511],[135.56276,34.67508],[135.56254,34.67494],[135.56251,34.67481],[135.56241,34.67441],[135.5624,34.67437],[135.56239,34.67429],[135.56239,34.67422],[135.56239,34.67421],[135.56238,34.67391],[135.56237,34.67377],[135.56234,34.67346],[135.56227,34.67318],[135.56223,34.67303],[135.56222,34.67301],[135.56088,34.67309],[135.55982,34.67316],[135.55986,34.67362],[135.55985,34.67362],[135.55989,34.67409],[135.5599,34.67455],[135.55992,34.675],[135.55996,34.67545],[135.55996,34.67546],[135.55998,34.67594],[135.56001,34.67641],[135.56004,34.67686],[135.56006,34.67729],[135.56008,34.6777],[135.56011,34.67821],[135.56016,34.67885],[135.56166,34.67855],[135.56333,34.67828],[135.56333,34.67825],[135.56332,34.67808],[135.5633,34.6779],[135.5633,34.67781],[135.56328,34.67767],[135.56326,34.67747],[135.56326,34.67746],[135.56323,34.67738],[135.5632,34.67729],[135.56317,34.6772],[135.56308,34.67709],[135.56302,34.67702],[135.56296,34.67693],[135.56294,34.67682],[135.56295,34.67669],[135.563,34.67662],[135.56304,34.67657],[135.56307,34.67654],[135.56317,34.67646],[135.56321,34.67636],[135.5632,34.67614],[135.5632,34.67613],[135.56319,34.6761],[135.56332,34.67608],[135.56332,34.67594]]]}},{"type":"Feature","properties":{"name":"深江南一丁目","setai":1054,"jinko":2054,"key":"27115012001","units":1,"m":946,"f":1108,"gk":101,"a0":171,"a1":1165,"a2":610,"a75":319,"ag":[49,53,69,92,105,102,94,114,117,159,162,117,103,133,158,124,84,74,30,5,2],"nf":108},"geometry":{"type":"Polygon","coordinates":[[[135.55695,34.66884],[135.55688,34.66829],[135.55666,34.66829],[135.55653,34.6683],[135.55619,34.66829],[135.55601,34.66827],[135.55511,34.66821],[135.55479,34.66819],[135.55477,34.66877],[135.55477,34.66882],[135.55476,34.66884],[135.55476,34.66889],[135.55475,34.66905],[135.55473,34.66927],[135.55473,34.66927],[135.55473,34.66929],[135.5547,34.66954],[135.55467,34.66997],[135.55479,34.67072],[135.55486,34.67116],[135.55493,34.67163],[135.55493,34.67163],[135.55499,34.67206],[135.55506,34.67256],[135.55514,34.67303],[135.55521,34.67348],[135.55672,34.67339],[135.55671,34.67336],[135.557,34.67334],[135.55744,34.67332],[135.55733,34.67239],[135.5573,34.67208],[135.55728,34.67187],[135.55723,34.67148],[135.55714,34.67055],[135.55704,34.66971],[135.55695,34.66884]]]}},{"type":"Feature","properties":{"name":"深江南二丁目","setai":833,"jinko":1726,"key":"27115012002","units":1,"m":824,"f":902,"gk":57,"a0":178,"a1":976,"a2":483,"a75":276,"ag":[58,50,70,67,79,99,88,85,120,132,106,92,108,114,93,105,73,60,32,4,2],"nf":89},"geometry":{"type":"Polygon","coordinates":[[[135.5595,34.66878],[135.55946,34.66825],[135.55946,34.6682],[135.55924,34.66821],[135.55925,34.66805],[135.55906,34.66804],[135.55904,34.66793],[135.55901,34.66794],[135.559,34.6678],[135.55882,34.66782],[135.55882,34.66782],[135.55884,34.66797],[135.5585,34.66799],[135.55852,34.66821],[135.55812,34.66821],[135.55763,34.6682],[135.55764,34.6683],[135.55753,34.66829],[135.55688,34.66829],[135.55695,34.66884],[135.55704,34.66971],[135.55714,34.67055],[135.55723,34.67148],[135.55728,34.67187],[135.5573,34.67208],[135.55733,34.67239],[135.55744,34.67332],[135.55817,34.67327],[135.55982,34.67316],[135.55979,34.6727],[135.55976,34.67223],[135.55976,34.67222],[135.55972,34.67176],[135.55968,34.67129],[135.55966,34.67085],[135.55961,34.67037],[135.55958,34.66991],[135.55955,34.66946],[135.55955,34.66945],[135.55952,34.66911],[135.5595,34.66878]]]}},{"type":"Feature","properties":{"name":"深江南三丁目","setai":882,"jinko":1752,"key":"27115012003","units":1,"m":815,"f":937,"gk":67,"a0":189,"a1":1004,"a2":493,"a75":284,"ag":[57,60,72,77,124,116,88,95,119,129,106,84,66,87,122,107,85,64,24,3,1],"nf":66},"geometry":{"type":"Polygon","coordinates":[[[135.56201,34.66814],[135.56154,34.66812],[135.56119,34.66812],[135.56078,34.66812],[135.56046,34.66813],[135.56042,34.66813],[135.5597,34.66815],[135.5596,34.66819],[135.55946,34.6682],[135.55946,34.66825],[135.5595,34.66878],[135.55952,34.66911],[135.55955,34.66945],[135.55955,34.66946],[135.55958,34.66991],[135.55961,34.67037],[135.55966,34.67085],[135.55968,34.67129],[135.55972,34.67176],[135.55976,34.67222],[135.55976,34.67223],[135.55979,34.6727],[135.55982,34.67316],[135.56088,34.67309],[135.56222,34.67301],[135.56218,34.67285],[135.56213,34.67272],[135.5621,34.67262],[135.5621,34.67258],[135.56209,34.67254],[135.56206,34.67217],[135.56206,34.67209],[135.56206,34.67207],[135.56206,34.67202],[135.56202,34.67164],[135.56198,34.67117],[135.56193,34.67083],[135.5619,34.67065],[135.56189,34.67035],[135.5619,34.67],[135.56185,34.66953],[135.56185,34.66942],[135.56186,34.6693],[135.56188,34.66924],[135.5619,34.66916],[135.56192,34.66912],[135.562,34.66894],[135.562,34.66859],[135.56201,34.66814]]]}}]}