{"type":"FeatureCollection","features":[{"type":"Feature","properties":{"name":"大市場町","setai":757,"jinko":1669,"key":"232280010","units":1,"m":868,"f":801,"gk":120,"a0":233,"a1":1080,"a2":308,"a75":164,"ag":[85,69,79,68,113,117,123,112,125,150,129,87,56,70,74,63,47,39,9,6,0],"nf":48},"geometry":{"type":"Polygon","coordinates":[[[136.88284,35.27641],[136.88283,35.2761],[136.88318,35.27613],[136.88328,35.27614],[136.88339,35.27614],[136.88364,35.27614],[136.88376,35.27613],[136.88386,35.27613],[136.88391,35.27617],[136.88418,35.27618],[136.88433,35.27618],[136.88449,35.27618],[136.88476,35.27621],[136.88494,35.27625],[136.88511,35.27628],[136.88511,35.27621],[136.88507,35.27565],[136.88502,35.27528],[136.88498,35.27513],[136.8848,35.27468],[136.88478,35.27465],[136.8845,35.27398],[136.88425,35.27332],[136.88409,35.27287],[136.88392,35.27244],[136.8839,35.27239],[136.88373,35.272],[136.88357,35.27162],[136.8834,35.27163],[136.88222,35.27174],[136.88215,35.27178],[136.88138,35.27183],[136.88137,35.27175],[136.88134,35.27115],[136.88133,35.2709],[136.88145,35.27079],[136.88151,35.27074],[136.88146,35.27067],[136.88142,35.27065],[136.88118,35.2707],[136.88106,35.27071],[136.88096,35.27073],[136.88086,35.27074],[136.88074,35.2708],[136.88063,35.27085],[136.88055,35.27091],[136.88048,35.27102],[136.88037,35.27117],[136.88027,35.2714],[136.8801,35.2717],[136.87992,35.27188],[136.87983,35.27197],[136.87974,35.27209],[136.87966,35.27223],[136.87955,35.27244],[136.87954,35.27246],[136.87948,35.2726],[136.87944,35.27269],[136.8794,35.27278],[136.87935,35.27291],[136.87931,35.27306],[136.87927,35.27322],[136.87925,35.27333],[136.87923,35.27345],[136.87918,35.27362],[136.87916,35.27374],[136.87914,35.27386],[136.87903,35.2745],[136.87893,35.275],[136.87886,35.27521],[136.87875,35.2755],[136.87858,35.27582],[136.87869,35.27584],[136.87881,35.27586],[136.87897,35.27589],[136.87937,35.27593],[136.87944,35.27594],[136.87956,35.27595],[136.87982,35.27597],[136.88035,35.27595],[136.88039,35.27595],[136.8804,35.27656],[136.8804,35.27695],[136.8804,35.27747],[136.88039,35.27831],[136.88156,35.27832],[136.88283,35.27832],[136.88283,35.27827],[136.88284,35.27795],[136.88284,35.2779],[136.88283,35.27765],[136.88283,35.27748],[136.88284,35.27734],[136.88283,35.27703],[136.88283,35.27697],[136.88284,35.27645],[136.88284,35.27641]]]}},{"type":"Feature","properties":{"name":"下本町","setai":1976,"jinko":4298,"key":"232280020","units":1,"m":2125,"f":2173,"gk":75,"a0":474,"a1":2652,"a2":1046,"a75":541,"ag":[161,147,166,171,194,237,262,262,265,372,372,296,221,242,263,229,169,99,35,9,0],"nf":126},"geometry":{"type":"MultiPolygon","coordinates":[[[[136.88292,35.2799],[136.88296,35.2797],[136.88293,35.27942],[136.88292,35.27918],[136.88286,35.27918],[136.88286,35.27907],[136.88285,35.27882],[136.88283,35.27832],[136.88156,35.27832],[136.88039,35.27831],[136.8804,35.27747],[136.8804,35.27695],[136.8804,35.27656],[136.88039,35.27595],[136.88035,35.27595],[136.87982,35.27597],[136.87956,35.27595],[136.87944,35.27594],[136.87937,35.27593],[136.87897,35.27589],[136.87881,35.27586],[136.87869,35.27584],[136.87858,35.27582],[136.87875,35.2755],[136.87886,35.27521],[136.87893,35.275],[136.87903,35.2745],[136.87914,35.27386],[136.87916,35.27374],[136.87918,35.27362],[136.87923,35.27345],[136.87925,35.27333],[136.87927,35.27322],[136.87931,35.27306],[136.87935,35.27291],[136.8794,35.27278],[136.87944,35.27269],[136.87948,35.2726],[136.87954,35.27246],[136.87955,35.27244],[136.87923,35.27239],[136.87928,35.27211],[136.87929,35.272],[136.87917,35.272],[136.87909,35.272],[136.87901,35.272],[136.87893,35.272],[136.87887,35.27203],[136.87867,35.27204],[136.87849,35.27205],[136.87836,35.27205],[136.87826,35.27204],[136.87814,35.27202],[136.878,35.27198],[136.87789,35.27195],[136.87781,35.27192],[136.87776,35.27191],[136.87773,35.2719],[136.87769,35.27191],[136.87765,35.27191],[136.87764,35.2719],[136.87754,35.27188],[136.8774,35.27181],[136.87724,35.2718],[136.87709,35.27179],[136.87701,35.2721],[136.87679,35.27207],[136.87679,35.2722],[136.87654,35.2722],[136.87602,35.2722],[136.87587,35.27221],[136.87585,35.27246],[136.87584,35.2726],[136.87584,35.2727],[136.8758,35.27294],[136.8753,35.27291],[136.87482,35.27291],[136.87482,35.27269],[136.87482,35.27258],[136.87481,35.27251],[136.87454,35.27253],[136.87454,35.2725],[136.87444,35.27249],[136.87444,35.27255],[136.87416,35.27254],[136.87414,35.27267],[136.87411,35.27301],[136.87409,35.27322],[136.87399,35.27413],[136.87395,35.27459],[136.8739,35.27501],[136.87389,35.27509],[136.87385,35.27538],[136.87375,35.2763],[136.87371,35.27659],[136.8737,35.27681],[136.87366,35.27716],[136.87366,35.27721],[136.87348,35.27722],[136.87347,35.27734],[136.87317,35.27732],[136.87304,35.27732],[136.87301,35.27785],[136.87367,35.27788],[136.87369,35.27766],[136.87403,35.27766],[136.874,35.27798],[136.87404,35.27799],[136.87409,35.27799],[136.87409,35.27803],[136.87407,35.27825],[136.87413,35.2783],[136.87411,35.27863],[136.87409,35.27877],[136.87402,35.27877],[136.87399,35.27877],[136.874,35.27903],[136.87443,35.27899],[136.87457,35.27897],[136.87466,35.27896],[136.87477,35.27896],[136.87481,35.27896],[136.87482,35.27888],[136.87498,35.27889],[136.87498,35.27889],[136.87496,35.27898],[136.87502,35.27898],[136.87514,35.279],[136.87577,35.27902],[136.87577,35.27906],[136.87622,35.27905],[136.87663,35.27901],[136.87702,35.27896],[136.87742,35.27895],[136.87741,35.27902],[136.8774,35.27906],[136.87723,35.27917],[136.87715,35.27922],[136.8771,35.27923],[136.87702,35.27923],[136.87697,35.27924],[136.87689,35.27929],[136.87687,35.27936],[136.87684,35.27942],[136.87682,35.27945],[136.87677,35.27949],[136.87699,35.27965],[136.87712,35.27968],[136.87717,35.27969],[136.87714,35.27973],[136.87728,35.27982],[136.8776,35.27982],[136.87807,35.27981],[136.87871,35.27978],[136.87915,35.27975],[136.87925,35.27975],[136.87959,35.27974],[136.88028,35.27973],[136.88028,35.27983],[136.88039,35.27983],[136.88094,35.27986],[136.8816,35.27986],[136.88186,35.27986],[136.88219,35.27986],[136.88244,35.27987],[136.88292,35.2799]]],[[[136.87159,35.272],[136.87093,35.27199],[136.87093,35.27219],[136.87093,35.27244],[136.87093,35.27268],[136.87093,35.27308],[136.87092,35.27329],[136.87092,35.27364],[136.87093,35.27449],[136.87182,35.27465],[136.87179,35.27421],[136.87179,35.27418],[136.87174,35.27373],[136.87173,35.27361],[136.8717,35.27328],[136.87165,35.27287],[136.87165,35.27276],[136.87164,35.27267],[136.87163,35.27241],[136.87159,35.272]]]]}},{"type":"Feature","properties":{"name":"中本町","setai":922,"jinko":1920,"key":"232280030","units":1,"m":942,"f":978,"gk":77,"a0":198,"a1":1078,"a2":580,"a75":308,"ag":[68,60,70,61,75,105,111,107,110,170,120,104,115,112,160,147,88,51,19,3,0],"nf":64},"geometry":{"type":"Polygon","coordinates":[[[136.87428,35.28388],[136.8743,35.28364],[136.87431,35.28355],[136.87453,35.28356],[136.87455,35.28347],[136.87457,35.28342],[136.87472,35.28342],[136.87482,35.28341],[136.87491,35.28342],[136.87491,35.28342],[136.87499,35.28342],[136.87528,35.28308],[136.8754,35.28297],[136.87536,35.28283],[136.87548,35.2827],[136.87558,35.28258],[136.87567,35.28247],[136.87579,35.28231],[136.87585,35.28231],[136.87599,35.2823],[136.87606,35.2823],[136.87612,35.2822],[136.87614,35.28212],[136.87625,35.28173],[136.87649,35.28171],[136.87685,35.28167],[136.87687,35.28169],[136.87705,35.28186],[136.87739,35.28191],[136.8778,35.28197],[136.87833,35.28201],[136.87842,35.28203],[136.87857,35.28204],[136.87872,35.28204],[136.87961,35.28219],[136.87957,35.28233],[136.87953,35.2825],[136.87953,35.28273],[136.88026,35.28272],[136.8815,35.28273],[136.88262,35.28275],[136.88264,35.28262],[136.8827,35.2823],[136.88273,35.28216],[136.88276,35.28199],[136.88279,35.28176],[136.88281,35.28165],[136.88284,35.28155],[136.88286,35.28146],[136.88289,35.28129],[136.88299,35.2812],[136.88297,35.28114],[136.88299,35.28107],[136.883,35.28098],[136.88299,35.28091],[136.88296,35.28078],[136.8829,35.28064],[136.88289,35.28057],[136.88287,35.2805],[136.88286,35.28027],[136.88288,35.28005],[136.8829,35.27997],[136.88291,35.27992],[136.88292,35.2799],[136.88244,35.27987],[136.88219,35.27986],[136.88186,35.27986],[136.8816,35.27986],[136.88094,35.27986],[136.88039,35.27983],[136.88028,35.27983],[136.88028,35.27973],[136.87959,35.27974],[136.87925,35.27975],[136.87915,35.27975],[136.87871,35.27978],[136.87807,35.27981],[136.8776,35.27982],[136.87728,35.27982],[136.87714,35.27973],[136.87717,35.27969],[136.87712,35.27968],[136.87699,35.27965],[136.87677,35.27949],[136.87682,35.27945],[136.87684,35.27942],[136.87687,35.27936],[136.87689,35.27929],[136.87697,35.27924],[136.87702,35.27923],[136.8771,35.27923],[136.87715,35.27922],[136.87723,35.27917],[136.8774,35.27906],[136.87741,35.27902],[136.87742,35.27895],[136.87702,35.27896],[136.87663,35.27901],[136.87622,35.27905],[136.87577,35.27906],[136.87577,35.27902],[136.87514,35.279],[136.87502,35.27898],[136.87496,35.27898],[136.87498,35.27889],[136.87498,35.27889],[136.87482,35.27888],[136.87481,35.27896],[136.87477,35.27896],[136.87466,35.27896],[136.87457,35.27897],[136.87443,35.27899],[136.874,35.27903],[136.87389,35.2802],[136.87383,35.28112],[136.87382,35.28122],[136.87395,35.28127],[136.87411,35.28133],[136.87424,35.28138],[136.87431,35.28144],[136.87438,35.28152],[136.87442,35.28156],[136.87459,35.28159],[136.87456,35.28175],[136.87471,35.28175],[136.8747,35.28203],[136.87432,35.28204],[136.87435,35.28262],[136.87424,35.28263],[136.87423,35.28279],[136.8742,35.28298],[136.87417,35.28324],[136.87415,35.28346],[136.87415,35.28373],[136.87409,35.28373],[136.87408,35.28381],[136.87402,35.28392],[136.87392,35.28414],[136.87386,35.28429],[136.87384,35.28433],[136.87386,35.28435],[136.87388,35.2844],[136.8739,35.28454],[136.87407,35.2845],[136.87409,35.28431],[136.87421,35.28429],[136.87423,35.2842],[136.87426,35.28411],[136.87428,35.28388]]]}},{"type":"Feature","properties":{"name":"東町","setai":1102,"jinko":2503,"key":"232280040","units":1,"m":1309,"f":1194,"gk":120,"a0":311,"a1":1623,"a2":503,"a75":227,"ag":[121,97,93,125,139,159,172,155,197,230,195,132,119,127,149,101,58,49,14,3,2],"nf":66},"geometry":{"type":"Polygon","coordinates":[[[136.87418,35.28911],[136.87465,35.28908],[136.8747,35.28908],[136.87472,35.28861],[136.87474,35.28815],[136.87473,35.28785],[136.87472,35.28775],[136.87471,35.28756],[136.87471,35.28753],[136.87472,35.28737],[136.87472,35.28727],[136.87473,35.28718],[136.87472,35.28666],[136.87618,35.28679],[136.8762,35.28671],[136.87785,35.28672],[136.88015,35.2867],[136.88025,35.28671],[136.88327,35.28675],[136.88328,35.28649],[136.88335,35.28649],[136.88449,35.28651],[136.88458,35.28631],[136.88477,35.28596],[136.88496,35.28556],[136.88501,35.28548],[136.88507,35.28535],[136.88514,35.28521],[136.88524,35.28504],[136.88534,35.2848],[136.88544,35.28458],[136.88551,35.28442],[136.88554,35.28433],[136.8856,35.28415],[136.88565,35.28393],[136.88565,35.28391],[136.88569,35.28351],[136.88569,35.28337],[136.88439,35.28335],[136.88396,35.28335],[136.88345,35.28334],[136.88251,35.28333],[136.88258,35.28293],[136.88262,35.28275],[136.8815,35.28273],[136.88026,35.28272],[136.87953,35.28273],[136.87953,35.2825],[136.87957,35.28233],[136.87961,35.28219],[136.87872,35.28204],[136.87857,35.28204],[136.87842,35.28203],[136.87833,35.28201],[136.8778,35.28197],[136.87739,35.28191],[136.87705,35.28186],[136.87687,35.28169],[136.87685,35.28167],[136.87649,35.28171],[136.87625,35.28173],[136.87614,35.28212],[136.87612,35.2822],[136.87606,35.2823],[136.87599,35.2823],[136.87585,35.28231],[136.87579,35.28231],[136.87567,35.28247],[136.87558,35.28258],[136.87548,35.2827],[136.87536,35.28283],[136.8754,35.28297],[136.87528,35.28308],[136.87499,35.28342],[136.87491,35.28342],[136.87491,35.28342],[136.87482,35.28341],[136.87472,35.28342],[136.87457,35.28342],[136.87455,35.28347],[136.87453,35.28356],[136.87431,35.28355],[136.8743,35.28364],[136.87428,35.28388],[136.87426,35.28411],[136.87423,35.2842],[136.87421,35.28429],[136.87409,35.28431],[136.87407,35.2845],[136.8739,35.28454],[136.87388,35.2844],[136.87386,35.28435],[136.87384,35.28433],[136.87379,35.28434],[136.8737,35.28441],[136.87361,35.28456],[136.87352,35.28477],[136.87345,35.28506],[136.87343,35.28531],[136.87339,35.28559],[136.87324,35.28561],[136.87263,35.28564],[136.8726,35.28647],[136.87241,35.28652],[136.87232,35.28655],[136.87226,35.28658],[136.87224,35.28671],[136.87199,35.2867],[136.87198,35.28681],[136.87198,35.28699],[136.87261,35.28688],[136.87268,35.28705],[136.87223,35.28716],[136.8724,35.2877],[136.87248,35.28797],[136.87239,35.28803],[136.87233,35.2881],[136.87233,35.28822],[136.87229,35.28878],[136.87233,35.28887],[136.87244,35.28896],[136.87253,35.28906],[136.87288,35.28906],[136.87322,35.28907],[136.87327,35.28906],[136.87334,35.28909],[136.87336,35.28913],[136.87418,35.28911]]]}},{"type":"Feature","properties":{"name":"中野町","setai":210,"jinko":521,"key":"232280050","units":1,"m":244,"f":277,"gk":0,"a0":69,"a1":289,"a2":159,"a75":94,"ag":[21,24,24,20,14,32,32,32,30,33,40,26,30,30,35,33,28,17,11,5,0],"nf":4},"geometry":{"type":"Polygon","coordinates":[[[136.87185,35.28949],[136.87187,35.28921],[136.87204,35.28921],[136.87253,35.28906],[136.87244,35.28896],[136.87233,35.28887],[136.87229,35.28878],[136.87233,35.28822],[136.87233,35.2881],[136.87239,35.28803],[136.87248,35.28797],[136.8724,35.2877],[136.87223,35.28716],[136.87268,35.28705],[136.87261,35.28688],[136.87198,35.28699],[136.87198,35.28681],[136.87139,35.28713],[136.87117,35.28722],[136.87104,35.28728],[136.87049,35.28753],[136.87059,35.28797],[136.87017,35.28805],[136.86987,35.28811],[136.86984,35.28791],[136.86984,35.28782],[136.86984,35.28758],[136.86974,35.28707],[136.86931,35.2877],[136.8689,35.28822],[136.86887,35.28828],[136.86868,35.28841],[136.86867,35.28845],[136.86868,35.28847],[136.86868,35.28851],[136.86869,35.28854],[136.8687,35.28861],[136.8687,35.28865],[136.86876,35.28908],[136.86959,35.28898],[136.87031,35.2889],[136.87032,35.28902],[136.87037,35.28929],[136.8704,35.28943],[136.87098,35.28943],[136.87105,35.28964],[136.87185,35.28949]]]}},{"type":"Feature","properties":{"name":"本町","setai":1075,"jinko":2435,"key":"232280060","units":1,"m":1178,"f":1257,"gk":38,"a0":316,"a1":1515,"a2":542,"a75":291,"ag":[115,110,91,100,101,124,156,167,181,209,177,173,127,128,123,125,97,48,20,1,0],"nf":62},"geometry":{"type":"Polygon","coordinates":[[[136.87198,35.28681],[136.87199,35.2867],[136.87224,35.28671],[136.87226,35.28658],[136.87232,35.28655],[136.87241,35.28652],[136.8726,35.28647],[136.87263,35.28564],[136.87324,35.28561],[136.87339,35.28559],[136.87343,35.28531],[136.87345,35.28506],[136.87352,35.28477],[136.87361,35.28456],[136.8737,35.28441],[136.87379,35.28434],[136.87384,35.28433],[136.87386,35.28429],[136.87392,35.28414],[136.87402,35.28392],[136.87408,35.28381],[136.87409,35.28373],[136.87415,35.28373],[136.87415,35.28346],[136.87417,35.28324],[136.8742,35.28298],[136.87423,35.28279],[136.87424,35.28263],[136.87435,35.28262],[136.87432,35.28204],[136.8747,35.28203],[136.87471,35.28175],[136.87456,35.28175],[136.87459,35.28159],[136.87442,35.28156],[136.87438,35.28152],[136.87431,35.28144],[136.87424,35.28138],[136.87411,35.28133],[136.87395,35.28127],[136.87382,35.28122],[136.87383,35.28112],[136.87389,35.2802],[136.874,35.27903],[136.87399,35.27877],[136.87402,35.27877],[136.87409,35.27877],[136.87411,35.27863],[136.87413,35.2783],[136.87407,35.27825],[136.87409,35.27803],[136.87409,35.27799],[136.87404,35.27799],[136.874,35.27798],[136.87403,35.27766],[136.87369,35.27766],[136.87367,35.27788],[136.87301,35.27785],[136.873,35.27803],[136.87326,35.27804],[136.87319,35.27865],[136.87318,35.27875],[136.87276,35.27873],[136.87272,35.27979],[136.8727,35.27988],[136.87266,35.27996],[136.87258,35.28005],[136.87241,35.2802],[136.87207,35.28043],[136.87167,35.28062],[136.87171,35.28077],[136.87175,35.28088],[136.87146,35.28113],[136.87037,35.28114],[136.87037,35.28096],[136.87013,35.28101],[136.86988,35.28104],[136.86958,35.28106],[136.86944,35.28108],[136.86945,35.28118],[136.86946,35.2813],[136.86947,35.28153],[136.86946,35.28159],[136.86941,35.28174],[136.86937,35.28183],[136.86936,35.28201],[136.86936,35.28223],[136.86934,35.28254],[136.86934,35.28274],[136.86976,35.28275],[136.86971,35.28286],[136.86969,35.28289],[136.86962,35.28305],[136.86961,35.28311],[136.8696,35.28317],[136.86957,35.28329],[136.87042,35.28322],[136.87068,35.28324],[136.87068,35.28344],[136.87085,35.28344],[136.87122,35.28345],[136.87136,35.28345],[136.87136,35.28361],[136.87123,35.28363],[136.87118,35.28414],[136.86953,35.28408],[136.86954,35.28426],[136.86954,35.28432],[136.86956,35.28441],[136.86959,35.28458],[136.86961,35.28484],[136.86964,35.28492],[136.86968,35.28522],[136.86974,35.2856],[136.86979,35.28596],[136.86989,35.28659],[136.87017,35.28653],[136.87013,35.28658],[136.86994,35.2868],[136.86974,35.28707],[136.86984,35.28758],[136.86984,35.28782],[136.86984,35.28791],[136.86987,35.28811],[136.87017,35.28805],[136.87059,35.28797],[136.87049,35.28753],[136.87104,35.28728],[136.87117,35.28722],[136.87139,35.28713],[136.87198,35.28681]]]}},{"type":"Feature","properties":{"name":"西市町","setai":1004,"jinko":2438,"key":"232280070","units":1,"m":1183,"f":1255,"gk":48,"a0":336,"a1":1546,"a2":518,"a75":253,"ag":[99,96,141,170,153,110,121,125,173,223,219,152,100,121,144,108,73,61,8,2,1],"nf":38},"geometry":{"type":"Polygon","coordinates":[[[136.86577,35.28411],[136.86573,35.28365],[136.86568,35.28315],[136.86621,35.28314],[136.86693,35.28312],[136.86795,35.28309],[136.86827,35.28309],[136.86962,35.28305],[136.86969,35.28289],[136.86971,35.28286],[136.86976,35.28275],[136.86934,35.28274],[136.86934,35.28254],[136.86936,35.28223],[136.86936,35.28201],[136.86937,35.28183],[136.86941,35.28174],[136.86946,35.28159],[136.86947,35.28153],[136.86946,35.2813],[136.86945,35.28118],[136.86944,35.28108],[136.86903,35.28111],[136.86889,35.28112],[136.86802,35.28119],[136.86786,35.2812],[136.86786,35.28095],[136.86613,35.28089],[136.86595,35.28088],[136.86558,35.28087],[136.86567,35.28008],[136.8657,35.27962],[136.86476,35.27968],[136.86397,35.27973],[136.86415,35.27858],[136.86413,35.27854],[136.86342,35.27852],[136.86292,35.27851],[136.8628,35.2785],[136.86125,35.27831],[136.86008,35.27823],[136.85978,35.27822],[136.85916,35.27818],[136.85904,35.27816],[136.8589,35.27815],[136.85868,35.27808],[136.85862,35.27804],[136.8585,35.27805],[136.85833,35.27805],[136.85798,35.27801],[136.85766,35.27801],[136.85751,35.27802],[136.85728,35.27807],[136.85712,35.27811],[136.85689,35.27812],[136.8563,35.27813],[136.85631,35.27866],[136.85532,35.27867],[136.85466,35.27868],[136.85463,35.27969],[136.85509,35.27968],[136.85528,35.27967],[136.85551,35.27968],[136.85551,35.27979],[136.85632,35.27981],[136.85632,35.28029],[136.85632,35.28032],[136.85632,35.28092],[136.85632,35.28099],[136.85713,35.28098],[136.85818,35.28096],[136.85818,35.28127],[136.85868,35.28126],[136.85869,35.28126],[136.85981,35.28124],[136.8598,35.28146],[136.8598,35.28158],[136.85982,35.28222],[136.85986,35.28264],[136.85986,35.28288],[136.85992,35.28319],[136.85994,35.28328],[136.86001,35.28352],[136.86012,35.28392],[136.86012,35.28394],[136.86017,35.28393],[136.86074,35.28392],[136.86074,35.28385],[136.86139,35.28385],[136.86139,35.28396],[136.86163,35.28396],[136.86176,35.28398],[136.8618,35.28402],[136.86183,35.28408],[136.86191,35.28407],[136.86253,35.28402],[136.86328,35.28409],[136.8641,35.28416],[136.86417,35.28508],[136.86521,35.28505],[136.86553,35.28504],[136.86571,35.28503],[136.86585,35.28501],[136.86581,35.28455],[136.86577,35.28411]]]}},{"type":"Feature","properties":{"name":"鈴井町","setai":427,"jinko":1140,"key":"232280080","units":1,"m":564,"f":576,"gk":40,"a0":182,"a1":643,"a2":295,"a75":158,"ag":[57,55,70,75,44,49,58,78,77,93,57,59,53,62,75,70,45,31,10,2,0],"nf":20},"geometry":{"type":"Polygon","coordinates":[[[136.86994,35.2868],[136.87013,35.28658],[136.87017,35.28653],[136.86989,35.28659],[136.86979,35.28596],[136.86839,35.28615],[136.86829,35.28616],[136.8682,35.28618],[136.86784,35.28622],[136.86749,35.28626],[136.86737,35.28628],[136.86715,35.2863],[136.86717,35.28595],[136.86712,35.28551],[136.86711,35.28519],[136.86655,35.28523],[136.8665,35.28527],[136.8665,35.28563],[136.86592,35.2857],[136.86585,35.28501],[136.86571,35.28503],[136.86553,35.28504],[136.86521,35.28505],[136.86417,35.28508],[136.8641,35.28416],[136.86328,35.28409],[136.86253,35.28402],[136.86191,35.28407],[136.86183,35.28408],[136.8618,35.28402],[136.86176,35.28398],[136.86163,35.28396],[136.86139,35.28396],[136.86139,35.28385],[136.86074,35.28385],[136.86074,35.28392],[136.86017,35.28393],[136.86012,35.28394],[136.86016,35.28408],[136.86018,35.28426],[136.86023,35.28437],[136.86026,35.28444],[136.86037,35.28462],[136.86052,35.28479],[136.86063,35.28499],[136.86101,35.28554],[136.86136,35.28609],[136.86146,35.28621],[136.86152,35.28629],[136.86158,35.28635],[136.86163,35.28645],[136.86169,35.2866],[136.86173,35.2867],[136.86187,35.28718],[136.86195,35.28734],[136.86202,35.28749],[136.86213,35.28776],[136.86218,35.28794],[136.86222,35.28813],[136.86224,35.28835],[136.86224,35.28837],[136.86225,35.28852],[136.86224,35.2886],[136.86235,35.28871],[136.86245,35.28883],[136.86257,35.28893],[136.86265,35.289],[136.86268,35.28902],[136.86284,35.28914],[136.86298,35.28924],[136.86309,35.28931],[136.86325,35.28938],[136.86338,35.28943],[136.86354,35.2895],[136.86368,35.28962],[136.8638,35.28978],[136.86386,35.28986],[136.86396,35.28996],[136.86411,35.29011],[136.86432,35.29032],[136.8645,35.2905],[136.86461,35.29059],[136.86474,35.29093],[136.86474,35.29118],[136.86474,35.29118],[136.86473,35.29139],[136.86473,35.2914],[136.86481,35.29162],[136.8661,35.29147],[136.8654,35.29048],[136.86541,35.29048],[136.86708,35.29028],[136.86762,35.29021],[136.86756,35.28993],[136.86753,35.28972],[136.86883,35.28957],[136.86876,35.28908],[136.8687,35.28865],[136.8687,35.28861],[136.86869,35.28854],[136.86868,35.28851],[136.86868,35.28847],[136.86867,35.28845],[136.86868,35.28841],[136.86887,35.28828],[136.8689,35.28822],[136.86931,35.2877],[136.86974,35.28707],[136.86994,35.2868]]]}},{"type":"Feature","properties":{"name":"泉町","setai":163,"jinko":424,"key":"232280090","units":1,"m":192,"f":232,"gk":4,"a0":43,"a1":220,"a2":156,"a75":101,"ag":[11,14,18,14,20,17,21,14,19,28,32,28,27,23,32,32,31,28,9,0,1],"nf":5},"geometry":{"type":"Polygon","coordinates":[[[136.86954,35.28432],[136.86954,35.28426],[136.868,35.28441],[136.86706,35.2845],[136.86711,35.28519],[136.86712,35.28551],[136.86717,35.28595],[136.86715,35.2863],[136.86737,35.28628],[136.86749,35.28626],[136.86784,35.28622],[136.8682,35.28618],[136.86829,35.28616],[136.86839,35.28615],[136.86979,35.28596],[136.86974,35.2856],[136.86968,35.28522],[136.86964,35.28492],[136.86961,35.28484],[136.86959,35.28458],[136.86956,35.28441],[136.86954,35.28432]]]}},{"type":"Feature","properties":{"name":"八剱町","setai":1681,"jinko":3745,"key":"232280100","units":1,"m":1915,"f":1830,"gk":127,"a0":528,"a1":2044,"a2":1027,"a75":539,"ag":[184,179,165,142,133,191,224,261,243,272,224,186,168,234,254,246,161,88,32,9,3],"nf":146},"geometry":{"type":"Polygon","coordinates":[[[136.88199,35.29945],[136.88219,35.29945],[136.88219,35.2997],[136.88291,35.29952],[136.8829,35.29935],[136.88336,35.29934],[136.88336,35.29897],[136.88362,35.29897],[136.88362,35.29934],[136.88415,35.2992],[136.88414,35.29914],[136.88406,35.29888],[136.88405,35.29887],[136.88373,35.29808],[136.88374,35.29732],[136.88375,35.29718],[136.88374,35.29682],[136.88372,35.29663],[136.88367,35.29637],[136.88363,35.29628],[136.88361,35.29622],[136.88352,35.29603],[136.88331,35.29563],[136.88325,35.29553],[136.88332,35.2947],[136.88332,35.29444],[136.8838,35.29436],[136.88344,35.29333],[136.88336,35.29333],[136.88332,35.29323],[136.88327,35.29308],[136.88327,35.29308],[136.88329,35.29304],[136.88333,35.29293],[136.88344,35.29292],[136.88341,35.29271],[136.88338,35.29206],[136.88334,35.29177],[136.88334,35.29177],[136.88332,35.29137],[136.88328,35.29081],[136.88328,35.29073],[136.88327,35.29014],[136.88328,35.28973],[136.88332,35.28926],[136.88338,35.28895],[136.88344,35.28879],[136.88354,35.28851],[136.88364,35.28824],[136.88391,35.2877],[136.88413,35.28726],[136.88435,35.28682],[136.88449,35.28651],[136.88335,35.28649],[136.88328,35.28649],[136.88327,35.28675],[136.88025,35.28671],[136.88015,35.2867],[136.87785,35.28672],[136.8762,35.28671],[136.87618,35.28679],[136.87472,35.28666],[136.87473,35.28718],[136.87472,35.28727],[136.87472,35.28737],[136.87471,35.28753],[136.87471,35.28756],[136.87472,35.28775],[136.87473,35.28785],[136.87474,35.28815],[136.87472,35.28861],[136.8747,35.28908],[136.87469,35.28919],[136.87457,35.29045],[136.87457,35.29055],[136.87455,35.29072],[136.87455,35.29085],[136.87455,35.29092],[136.87454,35.29098],[136.87431,35.29105],[136.87412,35.29108],[136.87406,35.2911],[136.87405,35.29117],[136.87405,35.29141],[136.87448,35.29142],[136.87447,35.29157],[136.87447,35.29163],[136.87447,35.29175],[136.87446,35.292],[136.87446,35.29209],[136.87448,35.29246],[136.87454,35.29278],[136.87462,35.29296],[136.87466,35.29304],[136.87469,35.29312],[136.87473,35.29321],[136.8749,35.29346],[136.87505,35.29368],[136.87514,35.29383],[136.8752,35.29394],[136.87523,35.29402],[136.87526,35.29409],[136.87527,35.29414],[136.87529,35.29423],[136.87531,35.29434],[136.87532,35.29447],[136.87532,35.29461],[136.87534,35.29474],[136.87533,35.29484],[136.87533,35.29497],[136.87531,35.29515],[136.87527,35.29539],[136.87524,35.29552],[136.8752,35.29561],[136.87517,35.29568],[136.87505,35.29596],[136.87493,35.29621],[136.87484,35.29639],[136.87483,35.29646],[136.8747,35.29676],[136.87465,35.29687],[136.87486,35.29689],[136.87535,35.29693],[136.87558,35.29694],[136.87568,35.29695],[136.876,35.29697],[136.87599,35.29719],[136.87602,35.29722],[136.87608,35.29725],[136.87613,35.29726],[136.87629,35.29729],[136.87644,35.29732],[136.87654,35.29734],[136.87662,35.29736],[136.87668,35.29736],[136.87674,35.29736],[136.87682,35.29732],[136.87688,35.29732],[136.87693,35.29734],[136.87697,35.29738],[136.87698,35.29746],[136.87701,35.29751],[136.87712,35.29756],[136.8772,35.29756],[136.87723,35.29763],[136.87731,35.29783],[136.87737,35.29807],[136.87744,35.2983],[136.87753,35.29854],[136.87765,35.29884],[136.87773,35.29906],[136.87779,35.29925],[136.87784,35.29942],[136.87786,35.29955],[136.87798,35.29978],[136.87837,35.30039],[136.87844,35.3005],[136.8785,35.30058],[136.87854,35.30068],[136.8786,35.30074],[136.87872,35.30091],[136.8789,35.30111],[136.87904,35.30124],[136.87893,35.3008],[136.88022,35.30058],[136.88024,35.30047],[136.88077,35.30026],[136.88076,35.30008],[136.88126,35.29988],[136.88121,35.29978],[136.88148,35.29971],[136.88185,35.2996],[136.88186,35.29952],[136.88199,35.29951],[136.88199,35.29945]]]}},{"type":"Feature","properties":{"name":"井上町","setai":139,"jinko":349,"key":"232280110","units":1,"m":168,"f":181,"gk":1,"a0":50,"a1":208,"a2":90,"a75":45,"ag":[22,20,8,16,13,18,33,21,29,19,24,16,19,14,31,24,10,8,2,1,0],"nf":1},"geometry":{"type":"Polygon","coordinates":[[[136.87731,35.29783],[136.87723,35.29763],[136.8772,35.29756],[136.87712,35.29756],[136.87701,35.29751],[136.87698,35.29746],[136.87697,35.29738],[136.87693,35.29734],[136.87688,35.29732],[136.87682,35.29732],[136.87674,35.29736],[136.87668,35.29736],[136.87662,35.29736],[136.87654,35.29734],[136.87644,35.29732],[136.87629,35.29729],[136.87613,35.29726],[136.87608,35.29725],[136.87602,35.29722],[136.87599,35.29719],[136.876,35.29697],[136.87568,35.29695],[136.87558,35.29694],[136.87535,35.29693],[136.87528,35.29752],[136.87449,35.29748],[136.87447,35.29759],[136.87444,35.29773],[136.87442,35.2978],[136.87335,35.29766],[136.87328,35.2978],[136.87333,35.29787],[136.87344,35.29796],[136.87371,35.29819],[136.87347,35.29841],[136.8735,35.29844],[136.87363,35.29851],[136.87392,35.29874],[136.87418,35.29893],[136.87445,35.29908],[136.87459,35.29913],[136.87468,35.29917],[136.87507,35.29948],[136.87541,35.29971],[136.87563,35.2999],[136.87585,35.30015],[136.87591,35.30021],[136.87604,35.30035],[136.87619,35.30055],[136.87625,35.30063],[136.87632,35.30072],[136.87647,35.30097],[136.87658,35.30113],[136.87668,35.30128],[136.87682,35.30153],[136.87699,35.30172],[136.87723,35.30197],[136.8775,35.30224],[136.87929,35.30151],[136.87904,35.30124],[136.8789,35.30111],[136.87872,35.30091],[136.8786,35.30074],[136.87854,35.30068],[136.8785,35.30058],[136.87844,35.3005],[136.87837,35.30039],[136.87798,35.29978],[136.87786,35.29955],[136.87784,35.29942],[136.87779,35.29925],[136.87773,35.29906],[136.87765,35.29884],[136.87753,35.29854],[136.87744,35.2983],[136.87737,35.29807],[136.87731,35.29783]]]}},{"type":"Feature","properties":{"name":"神野町","setai":581,"jinko":1479,"key":"232280120","units":1,"m":753,"f":726,"gk":49,"a0":213,"a1":938,"a2":307,"a75":155,"ag":[72,72,69,83,82,93,84,100,90,142,109,75,80,73,79,80,39,26,8,2,0],"nf":21},"geometry":{"type":"Polygon","coordinates":[[[136.87533,35.29497],[136.87533,35.29484],[136.87534,35.29474],[136.87532,35.29461],[136.87532,35.29447],[136.87531,35.29434],[136.87529,35.29423],[136.87527,35.29414],[136.87526,35.29409],[136.87523,35.29402],[136.8752,35.29394],[136.87514,35.29383],[136.87505,35.29368],[136.8749,35.29346],[136.87473,35.29321],[136.87469,35.29312],[136.87466,35.29304],[136.87462,35.29296],[136.87454,35.29278],[136.87448,35.29246],[136.87446,35.29209],[136.87446,35.292],[136.87447,35.29175],[136.87447,35.29163],[136.87447,35.29157],[136.87448,35.29142],[136.87405,35.29141],[136.87405,35.29117],[136.87406,35.2911],[136.87412,35.29108],[136.87431,35.29105],[136.87454,35.29098],[136.87455,35.29092],[136.87455,35.29085],[136.87455,35.29072],[136.87457,35.29055],[136.87457,35.29045],[136.87469,35.28919],[136.8747,35.28908],[136.87465,35.28908],[136.87418,35.28911],[136.87336,35.28913],[136.87334,35.28909],[136.87327,35.28906],[136.87322,35.28907],[136.87288,35.28906],[136.87253,35.28906],[136.87204,35.28921],[136.87187,35.28921],[136.87185,35.28949],[136.87105,35.28964],[136.87098,35.28943],[136.8704,35.28943],[136.87043,35.28959],[136.87053,35.2903],[136.87068,35.29139],[136.87072,35.29165],[136.87178,35.29166],[136.87176,35.29191],[136.87157,35.29191],[136.8716,35.29212],[136.87162,35.29246],[136.87159,35.29301],[136.87154,35.2934],[136.87152,35.29347],[136.87152,35.29354],[136.87156,35.29362],[136.87165,35.2937],[136.87172,35.29373],[136.87177,35.29392],[136.87181,35.29404],[136.87187,35.29413],[136.87192,35.29424],[136.87201,35.29436],[136.87212,35.29447],[136.8722,35.29456],[136.87228,35.29467],[136.8723,35.29478],[136.87232,35.29487],[136.87235,35.29499],[136.87255,35.29498],[136.87286,35.29493],[136.87318,35.29494],[136.8733,35.29494],[136.8734,35.29588],[136.8734,35.29608],[136.8743,35.29609],[136.87433,35.29647],[136.87465,35.29687],[136.8747,35.29676],[136.87483,35.29646],[136.87484,35.29639],[136.87493,35.29621],[136.87505,35.29596],[136.87517,35.29568],[136.8752,35.29561],[136.87524,35.29552],[136.87527,35.29539],[136.87531,35.29515],[136.87533,35.29497]]]}},{"type":"Feature","properties":{"name":"石仏町","setai":755,"jinko":1859,"key":"232280130","units":1,"m":935,"f":924,"gk":46,"a0":274,"a1":1166,"a2":396,"a75":179,"ag":[98,93,83,82,99,123,117,133,127,172,150,96,67,106,111,82,60,30,6,1,0],"nf":23},"geometry":{"type":"Polygon","coordinates":[[[136.87328,35.2978],[136.87335,35.29766],[136.87442,35.2978],[136.87444,35.29773],[136.87447,35.29759],[136.87449,35.29748],[136.87528,35.29752],[136.87535,35.29693],[136.87486,35.29689],[136.87465,35.29687],[136.87433,35.29647],[136.8743,35.29609],[136.8734,35.29608],[136.8734,35.29588],[136.8733,35.29494],[136.87318,35.29494],[136.87286,35.29493],[136.87255,35.29498],[136.87235,35.29499],[136.87232,35.29487],[136.8723,35.29478],[136.87228,35.29467],[136.8722,35.29456],[136.87212,35.29447],[136.87201,35.29436],[136.87192,35.29424],[136.87187,35.29413],[136.87181,35.29404],[136.87177,35.29392],[136.87172,35.29373],[136.87165,35.2937],[136.87156,35.29362],[136.87152,35.29354],[136.87152,35.29347],[136.87154,35.2934],[136.87159,35.29301],[136.87162,35.29246],[136.8716,35.29212],[136.87157,35.29191],[136.87176,35.29191],[136.87178,35.29166],[136.87072,35.29165],[136.87068,35.29139],[136.87053,35.2903],[136.87043,35.28959],[136.8704,35.28943],[136.87037,35.28929],[136.87032,35.28902],[136.87031,35.2889],[136.86959,35.28898],[136.86876,35.28908],[136.86883,35.28957],[136.86753,35.28972],[136.86756,35.28993],[136.86762,35.29021],[136.86708,35.29028],[136.86541,35.29048],[136.8654,35.29048],[136.8661,35.29147],[136.86481,35.29162],[136.86482,35.29165],[136.86483,35.29168],[136.86489,35.29186],[136.86502,35.29217],[136.86507,35.29227],[136.86508,35.29236],[136.86507,35.2931],[136.86508,35.29355],[136.86511,35.29406],[136.86511,35.29416],[136.86503,35.29417],[136.86511,35.29508],[136.86512,35.2951],[136.86513,35.29534],[136.86514,35.29558],[136.86517,35.29626],[136.86509,35.29626],[136.8651,35.29656],[136.86519,35.29654],[136.86563,35.29652],[136.86564,35.29654],[136.86575,35.29677],[136.8659,35.29706],[136.86599,35.29719],[136.86614,35.29736],[136.86628,35.29751],[136.86654,35.2977],[136.86659,35.29771],[136.86699,35.29773],[136.86722,35.29773],[136.86774,35.2976],[136.86783,35.29783],[136.86812,35.29779],[136.86822,35.29777],[136.86834,35.29775],[136.86877,35.29774],[136.86923,35.29773],[136.86928,35.29773],[136.8694,35.29782],[136.87026,35.29769],[136.8707,35.29766],[136.87071,35.29766],[136.871,35.29761],[136.8713,35.2976],[136.87131,35.2976],[136.87218,35.29758],[136.87233,35.29768],[136.87245,35.29761],[136.87252,35.29755],[136.87281,35.2978],[136.87268,35.29798],[136.87298,35.29813],[136.87335,35.29832],[136.87347,35.29841],[136.87371,35.29819],[136.87344,35.29796],[136.87333,35.29787],[136.87328,35.2978]]]}},{"type":"Feature","properties":{"name":"北島町","setai":288,"jinko":988,"key":"232280140","units":1,"m":444,"f":544,"gk":5,"a0":130,"a1":449,"a2":406,"a75":276,"ag":[45,59,26,26,27,27,48,51,59,53,51,53,54,65,65,65,64,84,49,14,0],"nf":3},"geometry":{"type":"Polygon","coordinates":[[[136.85149,35.27986],[136.85149,35.27979],[136.85172,35.27977],[136.85206,35.27974],[136.85224,35.27976],[136.85242,35.27975],[136.85261,35.27972],[136.85463,35.27969],[136.85466,35.27868],[136.85532,35.27867],[136.85631,35.27866],[136.8563,35.27813],[136.85629,35.27804],[136.85628,35.27765],[136.85628,35.27714],[136.85627,35.27675],[136.85628,35.27657],[136.85628,35.27631],[136.85627,35.27412],[136.85623,35.27383],[136.85617,35.27383],[136.856,35.27383],[136.85587,35.27385],[136.85575,35.27385],[136.85551,35.27384],[136.85513,35.27383],[136.85484,35.27381],[136.85449,35.27381],[136.85428,35.27382],[136.854,35.27383],[136.85386,35.27385],[136.85377,35.27385],[136.85358,35.27385],[136.8532,35.27386],[136.85263,35.27387],[136.8526,35.27262],[136.85258,35.27204],[136.85258,35.27136],[136.85258,35.27094],[136.85163,35.27106],[136.85147,35.27107],[136.85127,35.27108],[136.85031,35.27109],[136.85013,35.27038],[136.84985,35.26918],[136.85056,35.26906],[136.85058,35.26883],[136.8506,35.26874],[136.85066,35.26864],[136.85077,35.26856],[136.85097,35.2685],[136.8512,35.26845],[136.85132,35.26844],[136.8514,35.26841],[136.85143,35.26834],[136.8515,35.26828],[136.8516,35.26825],[136.85179,35.26819],[136.85197,35.2681],[136.85216,35.26801],[136.85224,35.26794],[136.85229,35.26782],[136.85233,35.26782],[136.85232,35.26799],[136.85251,35.26799],[136.85249,35.26687],[136.85253,35.26649],[136.85249,35.26645],[136.8524,35.2664],[136.85231,35.26634],[136.85222,35.26623],[136.85215,35.26609],[136.85208,35.26593],[136.85199,35.26576],[136.85191,35.26574],[136.85171,35.26573],[136.85155,35.26568],[136.85136,35.26559],[136.85115,35.26547],[136.85103,35.26531],[136.85073,35.26534],[136.85065,35.26538],[136.85009,35.26541],[136.84982,35.26547],[136.84979,35.26579],[136.84973,35.26614],[136.84994,35.26629],[136.85089,35.2662],[136.85116,35.26625],[136.85163,35.26624],[136.85181,35.26617],[136.85186,35.26627],[136.85191,35.26633],[136.852,35.26639],[136.85182,35.26679],[136.85152,35.26675],[136.85091,35.26661],[136.85055,35.26653],[136.85031,35.26648],[136.85012,35.26642],[136.84991,35.26634],[136.84973,35.26627],[136.8496,35.26631],[136.84932,35.2663],[136.84906,35.26633],[136.84893,35.26632],[136.84869,35.2663],[136.84858,35.26633],[136.8485,35.26636],[136.8483,35.26636],[136.8479,35.26633],[136.84678,35.26626],[136.84669,35.26632],[136.84669,35.26642],[136.8467,35.26674],[136.84672,35.26718],[136.84688,35.2672],[136.84706,35.26725],[136.8471,35.26729],[136.84718,35.26753],[136.84722,35.26766],[136.84663,35.26768],[136.84611,35.26779],[136.84629,35.268],[136.84633,35.26815],[136.84636,35.26834],[136.84647,35.26867],[136.84649,35.26872],[136.84662,35.26912],[136.8466,35.26925],[136.84655,35.26954],[136.84635,35.26987],[136.84632,35.26988],[136.84595,35.26991],[136.84588,35.26992],[136.84576,35.26999],[136.84551,35.27013],[136.84535,35.27018],[136.84534,35.27018],[136.84501,35.27026],[136.84475,35.2704],[136.8447,35.27043],[136.84448,35.27056],[136.84432,35.27069],[136.84423,35.27072],[136.84414,35.27077],[136.84391,35.27097],[136.84383,35.27107],[136.84369,35.27116],[136.84356,35.2712],[136.84352,35.27152],[136.84347,35.27183],[136.84345,35.27207],[136.84345,35.2723],[136.84349,35.27239],[136.84343,35.27267],[136.84335,35.27312],[136.84329,35.27313],[136.84329,35.27326],[136.84327,35.27335],[136.84324,35.2735],[136.84321,35.27364],[136.84322,35.27372],[136.84319,35.27399],[136.84314,35.27473],[136.84534,35.27478],[136.84672,35.27481],[136.84682,35.27482],[136.84685,35.27516],[136.8469,35.27537],[136.84689,35.27599],[136.8469,35.27611],[136.84695,35.2762],[136.84702,35.2763],[136.8471,35.27638],[136.84715,35.27645],[136.84717,35.27653],[136.8472,35.27661],[136.84724,35.27666],[136.8473,35.27678],[136.84731,35.2771],[136.8476,35.2771],[136.84759,35.27732],[136.84774,35.27732],[136.84774,35.2778],[136.84863,35.27776],[136.84877,35.27776],[136.8491,35.27789],[136.84912,35.27814],[136.84909,35.27841],[136.84909,35.27861],[136.84912,35.27885],[136.84918,35.27905],[136.84917,35.27921],[136.84912,35.27974],[136.84911,35.27982],[136.85019,35.2798],[136.85026,35.2798],[136.85062,35.27984],[136.85149,35.27986]]]}},{"type":"Feature","properties":{"name":"野寄町","setai":209,"jinko":612,"key":"232280150","units":1,"m":310,"f":302,"gk":14,"a0":117,"a1":325,"a2":160,"a75":81,"ag":[43,44,30,31,18,20,42,37,55,43,42,24,13,34,45,35,23,15,7,1,0],"nf":10},"geometry":{"type":"Polygon","coordinates":[[[136.8572,35.27663],[136.8572,35.27658],[136.8575,35.27658],[136.85751,35.2761],[136.8575,35.27604],[136.85752,35.27544],[136.85744,35.27535],[136.8574,35.27524],[136.85739,35.27512],[136.85747,35.275],[136.85754,35.27494],[136.85749,35.27411],[136.85877,35.2741],[136.85921,35.2741],[136.85927,35.27306],[136.85994,35.27307],[136.85995,35.27264],[136.85997,35.27203],[136.85869,35.27204],[136.85865,35.27138],[136.85861,35.27026],[136.85864,35.2674],[136.85763,35.2674],[136.85762,35.26611],[136.856,35.26611],[136.85444,35.2661],[136.85444,35.26687],[136.85249,35.26687],[136.85251,35.26799],[136.85232,35.26799],[136.85233,35.26782],[136.85229,35.26782],[136.85224,35.26794],[136.85216,35.26801],[136.85197,35.2681],[136.85179,35.26819],[136.8516,35.26825],[136.8515,35.26828],[136.85143,35.26834],[136.8514,35.26841],[136.85132,35.26844],[136.8512,35.26845],[136.85097,35.2685],[136.85077,35.26856],[136.85066,35.26864],[136.8506,35.26874],[136.85058,35.26883],[136.85056,35.26906],[136.84985,35.26918],[136.85013,35.27038],[136.85031,35.27109],[136.85127,35.27108],[136.85147,35.27107],[136.85163,35.27106],[136.85258,35.27094],[136.85258,35.27136],[136.85258,35.27204],[136.8526,35.27262],[136.85263,35.27387],[136.8532,35.27386],[136.85358,35.27385],[136.85377,35.27385],[136.85386,35.27385],[136.854,35.27383],[136.85428,35.27382],[136.85449,35.27381],[136.85484,35.27381],[136.85513,35.27383],[136.85551,35.27384],[136.85575,35.27385],[136.85587,35.27385],[136.856,35.27383],[136.85617,35.27383],[136.85623,35.27383],[136.85627,35.27412],[136.85628,35.27631],[136.85628,35.27657],[136.85639,35.27657],[136.85639,35.27665],[136.8572,35.27663]]]}},{"type":"Feature","properties":{"name":"大地町","setai":1204,"jinko":2790,"key":"232280160","units":1,"m":1406,"f":1384,"gk":107,"a0":421,"a1":1826,"a2":479,"a75":229,"ag":[137,135,149,138,167,215,202,183,195,252,209,147,118,117,133,121,65,27,11,5,0],"nf":64},"geometry":{"type":"Polygon","coordinates":[[[136.86415,35.27858],[136.86447,35.27634],[136.86456,35.27539],[136.86472,35.27408],[136.86505,35.27409],[136.86525,35.27411],[136.86533,35.27412],[136.86585,35.27419],[136.86633,35.27422],[136.86656,35.27422],[136.86703,35.27424],[136.86736,35.27425],[136.86748,35.27424],[136.86812,35.27423],[136.86816,35.27423],[136.86827,35.27423],[136.86852,35.27422],[136.8689,35.27421],[136.86935,35.27422],[136.86942,35.27423],[136.86953,35.27425],[136.86965,35.27427],[136.86998,35.27432],[136.87061,35.27444],[136.87093,35.27449],[136.87092,35.27364],[136.87092,35.27329],[136.87093,35.27308],[136.87093,35.27268],[136.87093,35.27244],[136.87093,35.27219],[136.87093,35.27199],[136.87093,35.27187],[136.87095,35.27144],[136.87073,35.27141],[136.87064,35.2714],[136.86991,35.27134],[136.86939,35.27126],[136.86884,35.27121],[136.86846,35.27119],[136.86817,35.27112],[136.86794,35.27108],[136.86765,35.271],[136.8672,35.27094],[136.86718,35.27091],[136.86695,35.27087],[136.86683,35.27085],[136.86668,35.27083],[136.86567,35.27083],[136.86565,35.27079],[136.86539,35.27077],[136.86523,35.27076],[136.86525,35.27069],[136.86509,35.27068],[136.86501,35.27105],[136.86471,35.27104],[136.86478,35.272],[136.86479,35.27204],[136.86357,35.27204],[136.86346,35.27182],[136.86337,35.27172],[136.86183,35.27176],[136.86171,35.27179],[136.86155,35.27185],[136.86076,35.27202],[136.85997,35.27203],[136.85995,35.27264],[136.85994,35.27307],[136.85927,35.27306],[136.85921,35.2741],[136.85877,35.2741],[136.85749,35.27411],[136.85754,35.27494],[136.85747,35.275],[136.85739,35.27512],[136.8574,35.27524],[136.85744,35.27535],[136.85752,35.27544],[136.8575,35.27604],[136.85751,35.2761],[136.8575,35.27658],[136.8572,35.27658],[136.8572,35.27663],[136.85639,35.27665],[136.85639,35.27657],[136.85628,35.27657],[136.85627,35.27675],[136.85628,35.27714],[136.85628,35.27765],[136.85629,35.27804],[136.8563,35.27813],[136.85689,35.27812],[136.85712,35.27811],[136.85728,35.27807],[136.85751,35.27802],[136.85766,35.27801],[136.85798,35.27801],[136.85833,35.27805],[136.8585,35.27805],[136.85862,35.27804],[136.85868,35.27808],[136.8589,35.27815],[136.85904,35.27816],[136.85916,35.27818],[136.85978,35.27822],[136.86008,35.27823],[136.86125,35.27831],[136.8628,35.2785],[136.86292,35.27851],[136.86342,35.27852],[136.86413,35.27854],[136.86415,35.27858]]]}},{"type":"Feature","properties":{"name":"川井町","setai":270,"jinko":791,"key":"232280170","units":1,"m":385,"f":406,"gk":3,"a0":90,"a1":431,"a2":267,"a75":138,"ag":[30,26,34,27,36,41,31,27,58,64,50,48,49,47,82,62,37,21,14,3,1],"nf":3},"geometry":{"type":"Polygon","coordinates":[[[136.86183,35.27176],[136.86337,35.27172],[136.86346,35.27182],[136.86357,35.27204],[136.86479,35.27204],[136.86478,35.272],[136.86471,35.27104],[136.86501,35.27105],[136.86509,35.27068],[136.86525,35.27069],[136.86523,35.27076],[136.86539,35.27077],[136.86565,35.27079],[136.86567,35.27083],[136.86668,35.27083],[136.86683,35.27085],[136.86676,35.27077],[136.86673,35.27017],[136.86691,35.27023],[136.86698,35.27003],[136.86596,35.2701],[136.86603,35.26881],[136.86604,35.26879],[136.86606,35.26878],[136.8661,35.26878],[136.86617,35.26879],[136.86627,35.26883],[136.86647,35.26887],[136.86657,35.26887],[136.86738,35.26883],[136.86774,35.26881],[136.8677,35.2683],[136.87065,35.26809],[136.87046,35.26641],[136.87042,35.26638],[136.87038,35.26637],[136.8702,35.26463],[136.87013,35.26388],[136.86945,35.26391],[136.86942,35.26361],[136.86931,35.26237],[136.8684,35.26242],[136.86828,35.26126],[136.86813,35.26135],[136.86796,35.26143],[136.86774,35.26152],[136.86751,35.26159],[136.86733,35.26165],[136.86714,35.26171],[136.86704,35.26172],[136.86671,35.26178],[136.86656,35.26174],[136.86648,35.2617],[136.86642,35.26166],[136.86637,35.26163],[136.86628,35.26158],[136.86608,35.26147],[136.86585,35.26134],[136.86559,35.26122],[136.86544,35.26116],[136.86527,35.26109],[136.86515,35.26106],[136.86505,35.26104],[136.86493,35.26103],[136.86476,35.26104],[136.86464,35.26105],[136.86452,35.26109],[136.86446,35.26111],[136.86441,35.26116],[136.86443,35.26118],[136.8645,35.26125],[136.86443,35.26158],[136.8642,35.26156],[136.8642,35.26167],[136.86425,35.26179],[136.86432,35.26188],[136.86437,35.26193],[136.86453,35.26195],[136.86456,35.26195],[136.86508,35.26189],[136.86524,35.26188],[136.86536,35.2619],[136.86548,35.26217],[136.8655,35.26225],[136.86496,35.26255],[136.8649,35.26257],[136.86471,35.2627],[136.86462,35.26275],[136.86455,35.26281],[136.86445,35.26294],[136.86435,35.26303],[136.86424,35.26314],[136.86413,35.26325],[136.86408,35.26331],[136.86405,35.26334],[136.86405,35.26334],[136.86394,35.26344],[136.86386,35.26352],[136.86374,35.26359],[136.86364,35.26365],[136.86354,35.26369],[136.86344,35.26374],[136.86327,35.26381],[136.86313,35.26386],[136.86292,35.26391],[136.8627,35.26396],[136.86255,35.26399],[136.86239,35.26402],[136.8622,35.26405],[136.8621,35.26408],[136.86201,35.26411],[136.86192,35.26415],[136.86183,35.2642],[136.86175,35.26424],[136.86165,35.26429],[136.86161,35.26432],[136.8615,35.26439],[136.86143,35.26444],[136.86137,35.26449],[136.86119,35.2646],[136.86107,35.26468],[136.86105,35.26469],[136.86092,35.26474],[136.86079,35.26477],[136.86066,35.26478],[136.86062,35.26479],[136.86057,35.2648],[136.86043,35.26481],[136.86037,35.26481],[136.86028,35.26481],[136.86018,35.26482],[136.86005,35.26482],[136.85984,35.2648],[136.85974,35.26478],[136.85974,35.26478],[136.85961,35.26475],[136.85952,35.26471],[136.85936,35.26467],[136.85922,35.26461],[136.8591,35.26456],[136.85899,35.26452],[136.85896,35.2645],[136.85876,35.26443],[136.8586,35.26439],[136.85849,35.26435],[136.8584,35.26434],[136.85833,35.26434],[136.85821,35.26432],[136.8582,35.26432],[136.85805,35.2643],[136.85792,35.26429],[136.85776,35.26429],[136.85764,35.26431],[136.85756,35.26431],[136.85753,35.26432],[136.85747,35.26432],[136.85738,35.26435],[136.85724,35.26437],[136.85721,35.26437],[136.85703,35.2644],[136.85687,35.26442],[136.85671,35.26445],[136.85652,35.26448],[136.85636,35.26449],[136.85622,35.26449],[136.85603,35.26449],[136.85579,35.2645],[136.85563,35.26449],[136.85543,35.26444],[136.85531,35.26439],[136.85516,35.26429],[136.85511,35.26427],[136.85507,35.26424],[136.85491,35.26414],[136.85476,35.26406],[136.85469,35.26402],[136.85451,35.26396],[136.85428,35.26391],[136.85405,35.26388],[136.85383,35.26389],[136.85366,35.26392],[136.8535,35.26394],[136.85331,35.264],[136.85313,35.26407],[136.85287,35.2642],[136.8527,35.2643],[136.8526,35.26439],[136.85258,35.2644],[136.85258,35.26441],[136.85257,35.26443],[136.85255,35.26445],[136.85252,35.26454],[136.8525,35.26469],[136.85249,35.26486],[136.85245,35.26501],[136.85236,35.26523],[136.85228,35.26544],[136.85211,35.26565],[136.85198,35.26566],[136.85186,35.26561],[136.85144,35.26486],[136.85142,35.26486],[136.8513,35.26488],[136.85114,35.26489],[136.85093,35.26489],[136.85074,35.26485],[136.8509,35.26505],[136.85105,35.2653],[136.85103,35.26531],[136.85115,35.26547],[136.85136,35.26559],[136.85155,35.26568],[136.85171,35.26573],[136.85191,35.26574],[136.85199,35.26576],[136.85208,35.26593],[136.85215,35.26609],[136.85222,35.26623],[136.85231,35.26634],[136.8524,35.2664],[136.85249,35.26645],[136.85253,35.26649],[136.85249,35.26687],[136.85444,35.26687],[136.85444,35.2661],[136.856,35.26611],[136.85762,35.26611],[136.85763,35.2674],[136.85864,35.2674],[136.85861,35.27026],[136.85865,35.27138],[136.85869,35.27204],[136.85997,35.27203],[136.86076,35.27202],[136.86155,35.27185],[136.86171,35.27179],[136.86183,35.27176]]]}},{"type":"Feature","properties":{"name":"大山寺元町","setai":141,"jinko":334,"key":"232280181","units":1,"m":155,"f":179,"gk":8,"a0":64,"a1":212,"a2":50,"a75":14,"ag":[22,22,20,15,16,13,30,35,31,28,17,16,11,15,21,6,5,1,2,0,0],"nf":8},"geometry":{"type":"Polygon","coordinates":[[[136.87358,35.2663],[136.87366,35.26588],[136.87369,35.26575],[136.87371,35.2653],[136.87366,35.26504],[136.87356,35.26479],[136.87354,35.26473],[136.87347,35.26452],[136.87302,35.2646],[136.87311,35.26493],[136.87332,35.26489],[136.87339,35.26512],[136.87321,35.26514],[136.87297,35.26515],[136.87298,35.26522],[136.87299,35.2654],[136.87291,35.2654],[136.87296,35.26564],[136.87277,35.26567],[136.87275,35.26561],[136.87254,35.26565],[136.8725,35.26547],[136.87247,35.26533],[136.87242,35.26534],[136.87242,35.26529],[136.87236,35.26529],[136.87239,35.26508],[136.8722,35.26507],[136.87219,35.26509],[136.87219,35.2651],[136.87218,35.2651],[136.87197,35.26514],[136.87181,35.26519],[136.87165,35.26492],[136.87165,35.26485],[136.87112,35.26497],[136.87114,35.26502],[136.87098,35.26503],[136.8711,35.26623],[136.8714,35.26622],[136.87169,35.26621],[136.8721,35.26623],[136.87242,35.26622],[136.873,35.26626],[136.87358,35.2663]]]}},{"type":"Feature","properties":{"name":"大山寺本町","setai":182,"jinko":404,"key":"232280182","units":1,"m":197,"f":207,"gk":0,"a0":55,"a1":255,"a2":73,"a75":35,"ag":[23,16,16,15,17,34,44,22,25,40,16,19,23,20,18,18,6,7,4,0,0],"nf":21},"geometry":{"type":"Polygon","coordinates":[[[136.875,35.26436],[136.87495,35.26394],[136.87482,35.26394],[136.87476,35.26357],[136.87473,35.26334],[136.8747,35.26322],[136.87463,35.26266],[136.87442,35.26268],[136.8742,35.26265],[136.87409,35.26265],[136.87396,35.26267],[136.87373,35.26273],[136.87347,35.26281],[136.8733,35.2624],[136.87268,35.26259],[136.87238,35.26282],[136.87232,35.26284],[136.87219,35.26285],[136.87239,35.26314],[136.87293,35.26374],[136.87305,35.26388],[136.87303,35.26389],[136.87316,35.2641],[136.87326,35.26425],[136.87335,35.26437],[136.87345,35.26446],[136.87347,35.26452],[136.87354,35.26473],[136.87356,35.26479],[136.87366,35.26504],[136.87371,35.2653],[136.87404,35.26521],[136.87442,35.26511],[136.87482,35.26499],[136.87483,35.26478],[136.87501,35.26473],[136.87501,35.26457],[136.875,35.26438],[136.875,35.26436]]]}},{"type":"Feature","properties":{"name":"大山寺町","setai":532,"jinko":1067,"key":"232280183","units":1,"m":526,"f":541,"gk":27,"a0":121,"a1":690,"a2":225,"a75":99,"ag":[46,37,38,39,65,65,77,77,88,102,68,52,57,67,59,50,29,12,5,3,0],"nf":31},"geometry":{"type":"Polygon","coordinates":[[[136.87112,35.26497],[136.87165,35.26485],[136.87165,35.26492],[136.87181,35.26519],[136.87197,35.26514],[136.87218,35.2651],[136.87219,35.2651],[136.87219,35.26509],[136.8722,35.26507],[136.87239,35.26508],[136.87236,35.26529],[136.87242,35.26529],[136.87242,35.26534],[136.87247,35.26533],[136.8725,35.26547],[136.87254,35.26565],[136.87275,35.26561],[136.87277,35.26567],[136.87296,35.26564],[136.87291,35.2654],[136.87299,35.2654],[136.87298,35.26522],[136.87297,35.26515],[136.87321,35.26514],[136.87339,35.26512],[136.87332,35.26489],[136.87311,35.26493],[136.87302,35.2646],[136.87347,35.26452],[136.87345,35.26446],[136.87335,35.26437],[136.87326,35.26425],[136.87316,35.2641],[136.87303,35.26389],[136.87305,35.26388],[136.87293,35.26374],[136.87239,35.26314],[136.87219,35.26285],[136.87232,35.26284],[136.87238,35.26282],[136.87268,35.26259],[136.8733,35.2624],[136.87347,35.26281],[136.87373,35.26273],[136.87396,35.26267],[136.87409,35.26265],[136.8742,35.26265],[136.87442,35.26268],[136.87463,35.26266],[136.8747,35.26322],[136.87473,35.26334],[136.87476,35.26357],[136.87482,35.26394],[136.87495,35.26394],[136.87528,35.26385],[136.87567,35.26374],[136.8755,35.26336],[136.87542,35.26313],[136.87596,35.26298],[136.8762,35.26292],[136.87612,35.26273],[136.87596,35.26233],[136.8759,35.26219],[136.87566,35.26186],[136.87552,35.26164],[136.87546,35.26146],[136.87538,35.26127],[136.87526,35.26097],[136.87511,35.2606],[136.87502,35.26036],[136.87424,35.26056],[136.87411,35.25973],[136.87396,35.25905],[136.87379,35.2583],[136.87376,35.25818],[136.87362,35.25819],[136.87339,35.25824],[136.87318,35.25828],[136.87303,35.2583],[136.87298,35.2583],[136.87298,35.25831],[136.8727,35.25837],[136.87244,35.25844],[136.87221,35.2585],[136.87193,35.25858],[136.87193,35.25858],[136.87184,35.25862],[136.87161,35.25871],[136.87123,35.25884],[136.87085,35.25902],[136.87074,35.25907],[136.87072,35.25908],[136.87053,35.25919],[136.8705,35.25921],[136.87026,35.25937],[136.87016,35.25945],[136.87009,35.2595],[136.87001,35.25957],[136.86991,35.25965],[136.86976,35.25977],[136.8697,35.25982],[136.86965,35.25989],[136.86954,35.25999],[136.86941,35.2601],[136.86933,35.2602],[136.86913,35.26048],[136.86899,35.26065],[136.86884,35.2608],[136.86869,35.26093],[136.86867,35.26095],[136.86862,35.26099],[136.8685,35.26108],[136.86838,35.26117],[136.86828,35.26126],[136.8684,35.26242],[136.86931,35.26237],[136.86942,35.26361],[136.86945,35.26391],[136.87013,35.26388],[136.8702,35.26463],[136.87038,35.26637],[136.87042,35.26638],[136.87046,35.26641],[136.87058,35.26641],[136.87111,35.26637],[136.8711,35.26623],[136.87098,35.26503],[136.87114,35.26502],[136.87112,35.26497]]]}},{"type":"Feature","properties":{"name":"稲荷町","setai":959,"jinko":2262,"key":"232280190","units":1,"m":1146,"f":1116,"gk":85,"a0":319,"a1":1419,"a2":486,"a75":236,"ag":[113,97,109,100,110,139,155,150,153,210,161,140,101,101,149,116,81,29,8,2,0],"nf":38},"geometry":{"type":"Polygon","coordinates":[[[136.87584,35.2726],[136.87585,35.27246],[136.87587,35.27221],[136.87602,35.2722],[136.87654,35.2722],[136.87679,35.2722],[136.87679,35.27207],[136.87701,35.2721],[136.87709,35.27179],[136.8771,35.27171],[136.87712,35.27152],[136.87712,35.27145],[136.87713,35.27112],[136.87706,35.27088],[136.87694,35.2709],[136.8768,35.27092],[136.87667,35.27093],[136.87649,35.27093],[136.87637,35.27094],[136.87627,35.27074],[136.87625,35.27066],[136.87617,35.27064],[136.87595,35.27047],[136.87593,35.27045],[136.87598,35.27042],[136.87593,35.27036],[136.87586,35.27039],[136.87573,35.27043],[136.87542,35.27005],[136.87533,35.26994],[136.87517,35.26975],[136.8748,35.26931],[136.87447,35.26894],[136.87448,35.26891],[136.87454,35.26833],[136.87459,35.26797],[136.87461,35.26748],[136.87462,35.26731],[136.87468,35.26677],[136.87469,35.26667],[136.87472,35.26639],[136.87416,35.26635],[136.87408,35.26634],[136.87358,35.2663],[136.873,35.26626],[136.87242,35.26622],[136.8721,35.26623],[136.87169,35.26621],[136.8714,35.26622],[136.8711,35.26623],[136.87111,35.26637],[136.87058,35.26641],[136.87046,35.26641],[136.87065,35.26809],[136.8677,35.2683],[136.86774,35.26881],[136.86738,35.26883],[136.86657,35.26887],[136.86647,35.26887],[136.86627,35.26883],[136.86617,35.26879],[136.8661,35.26878],[136.86606,35.26878],[136.86604,35.26879],[136.86603,35.26881],[136.86596,35.2701],[136.86698,35.27003],[136.86702,35.26998],[136.86715,35.26999],[136.86715,35.26978],[136.86729,35.26977],[136.86721,35.26963],[136.8671,35.26933],[136.86711,35.26923],[136.8675,35.2691],[136.86772,35.26906],[136.86782,35.26906],[136.86784,35.26915],[136.86788,35.26928],[136.86796,35.26943],[136.86803,35.26961],[136.86803,35.26971],[136.86839,35.26972],[136.86839,35.26965],[136.86844,35.26965],[136.86881,35.26963],[136.86924,35.26963],[136.86952,35.26975],[136.86947,35.27023],[136.86943,35.27058],[136.86945,35.27066],[136.86945,35.27068],[136.86944,35.27072],[136.86941,35.27105],[136.86939,35.27126],[136.86991,35.27134],[136.87064,35.2714],[136.87073,35.27141],[136.87095,35.27144],[136.87093,35.27187],[136.87093,35.27199],[136.87159,35.272],[136.87157,35.27178],[136.87187,35.27175],[136.87243,35.27166],[136.87263,35.27164],[136.87315,35.27156],[136.87358,35.27149],[136.87413,35.2714],[136.87426,35.27139],[136.87419,35.27216],[136.87416,35.2725],[136.87416,35.27254],[136.87444,35.27255],[136.87444,35.27249],[136.87454,35.2725],[136.87454,35.27253],[136.87481,35.27251],[136.87482,35.27258],[136.87482,35.27269],[136.87482,35.27291],[136.8753,35.27291],[136.8758,35.27294],[136.87584,35.2727],[136.87584,35.2726]]]}},{"type":"Feature","properties":{"name":"曽野町","setai":1034,"jinko":2496,"key":"232280200","units":1,"m":1232,"f":1264,"gk":62,"a0":288,"a1":1361,"a2":797,"a75":494,"ag":[86,83,119,109,112,122,117,124,158,226,167,133,93,123,180,203,148,86,46,10,1],"nf":50},"geometry":{"type":"Polygon","coordinates":[[[136.87974,35.27209],[136.87983,35.27197],[136.87992,35.27188],[136.8801,35.2717],[136.88027,35.2714],[136.88037,35.27117],[136.88048,35.27102],[136.88055,35.27091],[136.88063,35.27085],[136.88074,35.2708],[136.88086,35.27074],[136.88096,35.27073],[136.88106,35.27071],[136.88118,35.2707],[136.88142,35.27065],[136.88146,35.27067],[136.88151,35.27074],[136.88145,35.27079],[136.88133,35.2709],[136.88134,35.27115],[136.88137,35.27175],[136.88138,35.27183],[136.88215,35.27178],[136.88222,35.27174],[136.8834,35.27163],[136.88357,35.27162],[136.88356,35.27159],[136.88349,35.27142],[136.88329,35.27097],[136.88316,35.27067],[136.8829,35.2701],[136.88272,35.26978],[136.88291,35.26968],[136.8825,35.26919],[136.88246,35.26914],[136.88237,35.26906],[136.88202,35.26879],[136.88189,35.26867],[136.88188,35.26866],[136.88177,35.26845],[136.88166,35.26821],[136.88161,35.26804],[136.88153,35.26776],[136.88147,35.26759],[136.88138,35.26739],[136.88131,35.26727],[136.88113,35.26703],[136.88108,35.26697],[136.88071,35.26649],[136.88054,35.26662],[136.87999,35.26605],[136.87979,35.26584],[136.87968,35.26572],[136.87957,35.2656],[136.87935,35.26522],[136.87906,35.26472],[136.87887,35.26443],[136.87853,35.26399],[136.8785,35.26394],[136.87823,35.26362],[136.87812,35.26349],[136.87797,35.26323],[136.87781,35.2629],[136.87764,35.26248],[136.87753,35.26232],[136.87723,35.26241],[136.8769,35.26252],[136.87691,35.2626],[136.87662,35.26267],[136.87651,35.26253],[136.8764,35.26239],[136.87631,35.26238],[136.87629,35.26233],[136.87624,35.26226],[136.87627,35.26222],[136.87609,35.26198],[136.87597,35.26187],[136.87589,35.26178],[136.87583,35.26172],[136.87568,35.26153],[136.87561,35.26142],[136.87593,35.26126],[136.8762,35.2611],[136.87647,35.26095],[136.87622,35.26063],[136.87621,35.26061],[136.8761,35.26048],[136.8758,35.25999],[136.87558,35.25957],[136.87554,35.25948],[136.87549,35.25937],[136.87538,35.25916],[136.8752,35.25884],[136.87508,35.25861],[136.87501,35.25852],[136.87491,35.25844],[136.87488,35.25841],[136.87469,35.25829],[136.87447,35.2582],[136.87441,35.25819],[136.87423,35.25815],[136.87415,35.25815],[136.87388,35.25815],[136.87376,35.25816],[136.87376,35.25818],[136.87379,35.2583],[136.87396,35.25905],[136.87411,35.25973],[136.87424,35.26056],[136.87502,35.26036],[136.87511,35.2606],[136.87526,35.26097],[136.87538,35.26127],[136.87546,35.26146],[136.87552,35.26164],[136.87566,35.26186],[136.8759,35.26219],[136.87596,35.26233],[136.87612,35.26273],[136.8762,35.26292],[136.87596,35.26298],[136.87542,35.26313],[136.8755,35.26336],[136.87567,35.26374],[136.87528,35.26385],[136.87495,35.26394],[136.875,35.26436],[136.875,35.26438],[136.87501,35.26457],[136.87501,35.26473],[136.87483,35.26478],[136.87482,35.26499],[136.87442,35.26511],[136.87404,35.26521],[136.87371,35.2653],[136.87369,35.26575],[136.87366,35.26588],[136.87358,35.2663],[136.87408,35.26634],[136.87416,35.26635],[136.87472,35.26639],[136.87469,35.26667],[136.87468,35.26677],[136.87462,35.26731],[136.87461,35.26748],[136.87459,35.26797],[136.87454,35.26833],[136.87448,35.26891],[136.87447,35.26894],[136.8748,35.26931],[136.87517,35.26975],[136.87533,35.26994],[136.87542,35.27005],[136.87573,35.27043],[136.87586,35.27039],[136.87593,35.27036],[136.87598,35.27042],[136.87593,35.27045],[136.87595,35.27047],[136.87617,35.27064],[136.87625,35.27066],[136.87627,35.27074],[136.87637,35.27094],[136.87649,35.27093],[136.87667,35.27093],[136.8768,35.27092],[136.87694,35.2709],[136.87706,35.27088],[136.87713,35.27112],[136.87712,35.27145],[136.87712,35.27152],[136.8771,35.27171],[136.87709,35.27179],[136.87724,35.2718],[136.8774,35.27181],[136.87754,35.27188],[136.87764,35.2719],[136.87765,35.27191],[136.87769,35.27191],[136.87773,35.2719],[136.87776,35.27191],[136.87781,35.27192],[136.87789,35.27195],[136.878,35.27198],[136.87814,35.27202],[136.87826,35.27204],[136.87836,35.27205],[136.87849,35.27205],[136.87867,35.27204],[136.87887,35.27203],[136.87893,35.272],[136.87901,35.272],[136.87909,35.272],[136.87917,35.272],[136.87929,35.272],[136.87928,35.27211],[136.87923,35.27239],[136.87955,35.27244],[136.87966,35.27223],[136.87974,35.27209]]]}},{"type":"Feature","properties":{"name":"五条町","setai":171,"jinko":252,"key":"232280210","units":1,"m":145,"f":107,"gk":62,"a0":7,"a1":88,"a2":62,"a75":32,"ag":[2,4,1,1,5,1,8,5,10,15,16,13,14,20,10,9,14,6,2,1,0],"nf":95},"geometry":{"type":"Polygon","coordinates":[[[136.87677,35.26134],[136.87647,35.26095],[136.8762,35.2611],[136.87593,35.26126],[136.87561,35.26142],[136.87568,35.26153],[136.87583,35.26172],[136.87589,35.26178],[136.87597,35.26187],[136.87609,35.26198],[136.87627,35.26222],[136.87624,35.26226],[136.87629,35.26233],[136.87631,35.26238],[136.8764,35.26239],[136.87651,35.26253],[136.87662,35.26267],[136.87691,35.2626],[136.8769,35.26252],[136.87723,35.26241],[136.87753,35.26232],[136.87721,35.26188],[136.87702,35.26163],[136.87677,35.26134]]]}},{"type":"Feature","properties":{"name":"南新町","setai":261,"jinko":571,"key":"232280220","units":1,"m":285,"f":286,"gk":0,"a0":34,"a1":226,"a2":295,"a75":193,"ag":[8,8,18,20,15,7,14,22,33,37,31,28,19,41,61,85,67,28,10,2,1],"nf":16},"geometry":{"type":"Polygon","coordinates":[[[136.86943,35.27058],[136.86947,35.27023],[136.86952,35.26975],[136.86924,35.26963],[136.86881,35.26963],[136.86844,35.26965],[136.86839,35.26965],[136.86839,35.26972],[136.86803,35.26971],[136.86803,35.26961],[136.86796,35.26943],[136.86788,35.26928],[136.86784,35.26915],[136.86782,35.26906],[136.86772,35.26906],[136.8675,35.2691],[136.86711,35.26923],[136.8671,35.26933],[136.86721,35.26963],[136.86729,35.26977],[136.86715,35.26978],[136.86715,35.26999],[136.86702,35.26998],[136.86698,35.27003],[136.86691,35.27023],[136.86673,35.27017],[136.86676,35.27077],[136.86683,35.27085],[136.86695,35.27087],[136.86718,35.27091],[136.8672,35.27094],[136.86765,35.271],[136.86794,35.27108],[136.86817,35.27112],[136.86846,35.27119],[136.86884,35.27121],[136.86939,35.27126],[136.86941,35.27105],[136.86944,35.27072],[136.86945,35.27068],[136.86945,35.27066],[136.86943,35.27058]]]}},{"type":"Feature","properties":{"name":"東新町","setai":1857,"jinko":3156,"key":"232280230","units":1,"m":1576,"f":1580,"gk":821,"a0":176,"a1":1691,"a2":1119,"a75":543,"ag":[52,62,62,89,108,119,158,178,178,223,213,221,204,258,318,257,181,76,24,3,2],"nf":170},"geometry":{"type":"Polygon","coordinates":[[[136.88476,35.27621],[136.88449,35.27618],[136.88433,35.27618],[136.88418,35.27618],[136.88391,35.27617],[136.88386,35.27613],[136.88376,35.27613],[136.88364,35.27614],[136.88339,35.27614],[136.88328,35.27614],[136.88318,35.27613],[136.88283,35.2761],[136.88284,35.27641],[136.88284,35.27645],[136.88283,35.27697],[136.88283,35.27703],[136.88284,35.27734],[136.88283,35.27748],[136.88283,35.27765],[136.88284,35.2779],[136.88284,35.27795],[136.88283,35.27827],[136.88283,35.27832],[136.88285,35.27882],[136.88286,35.27907],[136.88286,35.27918],[136.88292,35.27918],[136.88293,35.27942],[136.88296,35.2797],[136.88292,35.2799],[136.88291,35.27992],[136.8829,35.27997],[136.88288,35.28005],[136.88286,35.28027],[136.88287,35.2805],[136.88289,35.28057],[136.8829,35.28064],[136.88296,35.28078],[136.88299,35.28091],[136.883,35.28098],[136.88299,35.28107],[136.88297,35.28114],[136.88299,35.2812],[136.88289,35.28129],[136.88286,35.28146],[136.88284,35.28155],[136.88281,35.28165],[136.88279,35.28176],[136.88276,35.28199],[136.88273,35.28216],[136.8827,35.2823],[136.88264,35.28262],[136.88262,35.28275],[136.88258,35.28293],[136.88251,35.28333],[136.88345,35.28334],[136.88396,35.28335],[136.88439,35.28335],[136.88569,35.28337],[136.88568,35.28325],[136.88567,35.28298],[136.88566,35.28274],[136.88566,35.28274],[136.88565,35.28246],[136.88565,35.28244],[136.88563,35.28218],[136.88562,35.28192],[136.88562,35.28192],[136.88561,35.28165],[136.8856,35.28156],[136.8856,35.28155],[136.88559,35.28113],[136.88558,35.28084],[136.88556,35.28063],[136.88554,35.28024],[136.88551,35.27992],[136.88529,35.27992],[136.88529,35.27967],[136.88528,35.27911],[136.88528,35.27906],[136.88527,35.27878],[136.88527,35.27874],[136.88526,35.27845],[136.88525,35.27839],[136.88524,35.27816],[136.88523,35.27811],[136.88522,35.27786],[136.88521,35.27781],[136.8852,35.27757],[136.8852,35.27756],[136.88516,35.27698],[136.88516,35.27694],[136.88516,35.27692],[136.88511,35.27628],[136.88494,35.27625],[136.88476,35.27621]]]}},{"type":"Feature","properties":{"name":"宮前町一丁目","setai":35,"jinko":76,"key":"23228024001","units":1,"m":34,"f":42,"gk":1,"a0":7,"a1":41,"a2":26,"a75":14,"ag":[2,4,1,3,1,6,2,1,6,8,2,7,5,1,11,10,2,2,0,0,0],"nf":2},"geometry":{"type":"Polygon","coordinates":[[[136.87118,35.28414],[136.87123,35.28363],[136.87136,35.28361],[136.87136,35.28345],[136.87122,35.28345],[136.87085,35.28344],[136.87068,35.28344],[136.87068,35.28324],[136.87042,35.28322],[136.86957,35.28329],[136.86954,35.28343],[136.86952,35.28354],[136.86952,35.28364],[136.86952,35.28376],[136.86951,35.2839],[136.86952,35.28401],[136.86953,35.28408],[136.87118,35.28414]]]}},{"type":"Feature","properties":{"name":"宮前町二丁目","setai":132,"jinko":301,"key":"23228024002","units":1,"m":152,"f":149,"gk":1,"a0":42,"a1":168,"a2":80,"a75":45,"ag":[16,13,13,13,10,14,19,17,23,20,18,21,13,16,19,16,17,6,5,1,0],"nf":11},"geometry":{"type":"Polygon","coordinates":[[[136.86961,35.28311],[136.86962,35.28305],[136.86827,35.28309],[136.86795,35.28309],[136.86693,35.28312],[136.86698,35.2836],[136.86702,35.28406],[136.86706,35.2845],[136.868,35.28441],[136.86954,35.28426],[136.86953,35.28408],[136.86952,35.28401],[136.86951,35.2839],[136.86952,35.28376],[136.86952,35.28364],[136.86952,35.28354],[136.86954,35.28343],[136.86957,35.28329],[136.8696,35.28317],[136.86961,35.28311]]]}},{"type":"Feature","properties":{"name":"宮前町三丁目","setai":113,"jinko":255,"key":"23228024003","units":1,"m":137,"f":118,"gk":12,"a0":27,"a1":148,"a2":74,"a75":36,"ag":[10,7,10,8,16,12,11,11,11,18,28,19,14,19,19,20,13,3,0,0,0],"nf":6},"geometry":{"type":"Polygon","coordinates":[[[136.86698,35.2836],[136.86693,35.28312],[136.86621,35.28314],[136.86568,35.28315],[136.86573,35.28365],[136.86577,35.28411],[136.86581,35.28455],[136.86585,35.28501],[136.86592,35.2857],[136.8665,35.28563],[136.8665,35.28527],[136.86655,35.28523],[136.86711,35.28519],[136.86706,35.2845],[136.86702,35.28406],[136.86698,35.2836]]]}},{"type":"Feature","properties":{"name":"栄町一丁目","setai":381,"jinko":770,"key":"23228025001","units":1,"m":379,"f":391,"gk":23,"a0":85,"a1":515,"a2":127,"a75":58,"ag":[35,17,33,43,45,62,53,41,46,65,57,62,41,36,33,30,19,6,2,1,0],"nf":43},"geometry":{"type":"Polygon","coordinates":[[[136.87146,35.28113],[136.87175,35.28088],[136.87171,35.28077],[136.87167,35.28062],[136.87207,35.28043],[136.87241,35.2802],[136.87258,35.28005],[136.87266,35.27996],[136.8727,35.27988],[136.87272,35.27979],[136.87276,35.27873],[136.87318,35.27875],[136.87319,35.27865],[136.87277,35.27865],[136.8724,35.27864],[136.87212,35.27864],[136.87178,35.27863],[136.8711,35.27863],[136.87092,35.27862],[136.87056,35.27862],[136.86995,35.27862],[136.86993,35.27915],[136.86992,35.27954],[136.86992,35.27962],[136.86991,35.27996],[136.8699,35.28011],[136.8699,35.28037],[136.86989,35.28079],[136.86988,35.28104],[136.87013,35.28101],[136.87037,35.28096],[136.87037,35.28114],[136.87146,35.28113]]]}},{"type":"Feature","properties":{"name":"栄町二丁目","setai":336,"jinko":530,"key":"23228025002","units":1,"m":273,"f":257,"gk":39,"a0":42,"a1":325,"a2":106,"a75":48,"ag":[20,13,9,8,29,42,40,28,31,48,30,40,29,24,34,30,13,3,2,0,0],"nf":57},"geometry":{"type":"Polygon","coordinates":[[[136.87301,35.27785],[136.87304,35.27732],[136.87317,35.27732],[136.87347,35.27734],[136.87348,35.27722],[136.87366,35.27721],[136.87366,35.27716],[136.87325,35.27716],[136.87298,35.27715],[136.87283,35.27714],[136.8725,35.27715],[136.87212,35.27716],[136.87179,35.27718],[136.87059,35.27718],[136.86999,35.27718],[136.86997,35.27776],[136.86996,35.2783],[136.86995,35.27862],[136.87056,35.27862],[136.87092,35.27862],[136.8711,35.27863],[136.87178,35.27863],[136.87212,35.27864],[136.8724,35.27864],[136.87277,35.27865],[136.87319,35.27865],[136.87326,35.27804],[136.873,35.27803],[136.87301,35.27785]]]}},{"type":"Feature","properties":{"name":"旭町一丁目","setai":228,"jinko":374,"key":"23228026001","units":1,"m":184,"f":190,"gk":47,"a0":27,"a1":263,"a2":55,"a75":27,"ag":[15,8,4,11,18,43,38,26,25,20,35,31,16,15,13,10,9,5,2,0,1],"nf":29},"geometry":{"type":"Polygon","coordinates":[[[136.8725,35.27715],[136.87283,35.27714],[136.87298,35.27715],[136.87325,35.27716],[136.87366,35.27716],[136.8737,35.27681],[136.87371,35.27659],[136.87375,35.2763],[136.87385,35.27538],[136.87186,35.27539],[136.8706,35.27538],[136.87036,35.27538],[136.87001,35.27537],[136.86999,35.27607],[136.86999,35.27633],[136.86996,35.27718],[136.86999,35.27718],[136.87059,35.27718],[136.87179,35.27718],[136.87212,35.27716],[136.8725,35.27715]]]}},{"type":"Feature","properties":{"name":"旭町二丁目","setai":151,"jinko":340,"key":"23228026002","units":1,"m":172,"f":168,"gk":48,"a0":48,"a1":218,"a2":69,"a75":32,"ag":[13,10,25,22,19,25,28,20,19,24,30,17,14,18,19,16,9,4,3,0,0],"nf":5},"geometry":{"type":"Polygon","coordinates":[[[136.87186,35.27539],[136.87385,35.27538],[136.87389,35.27509],[136.8739,35.27501],[136.87182,35.27465],[136.87093,35.27449],[136.87061,35.27444],[136.86998,35.27432],[136.86999,35.27475],[136.87001,35.27537],[136.87036,35.27538],[136.8706,35.27538],[136.87186,35.27539]]]}},{"type":"Feature","properties":{"name":"新柳町一丁目","setai":560,"jinko":1354,"key":"23228027001","units":1,"m":624,"f":730,"gk":11,"a0":138,"a1":864,"a2":336,"a75":127,"ag":[35,48,55,64,60,64,44,63,76,97,104,161,131,113,96,62,37,23,3,2,0],"nf":16},"geometry":{"type":"Polygon","coordinates":[[[136.86993,35.27915],[136.86995,35.27862],[136.86788,35.27861],[136.86786,35.27888],[136.86784,35.27913],[136.86781,35.27957],[136.86781,35.27959],[136.86784,35.28044],[136.86786,35.28095],[136.86786,35.2812],[136.86802,35.28119],[136.86889,35.28112],[136.86903,35.28111],[136.86944,35.28108],[136.86958,35.28106],[136.86988,35.28104],[136.86989,35.28079],[136.8699,35.28037],[136.8699,35.28011],[136.86991,35.27996],[136.86992,35.27962],[136.86992,35.27954],[136.86993,35.27915]]]}},{"type":"Feature","properties":{"name":"新柳町二丁目","setai":176,"jinko":405,"key":"23228027002","units":1,"m":199,"f":206,"gk":18,"a0":57,"a1":238,"a2":101,"a75":44,"ag":[22,23,12,12,29,22,18,28,31,27,20,36,15,26,31,17,17,7,2,1,0],"nf":9},"geometry":{"type":"Polygon","coordinates":[[[136.86788,35.27861],[136.86636,35.27859],[136.86633,35.27888],[136.86631,35.2791],[136.86627,35.2796],[136.8657,35.27962],[136.86567,35.28008],[136.86558,35.28087],[136.86595,35.28088],[136.86613,35.28089],[136.86786,35.28095],[136.86784,35.28044],[136.86781,35.27959],[136.86781,35.27957],[136.86784,35.27913],[136.86786,35.27888],[136.86788,35.27861]]]}},{"type":"Feature","properties":{"name":"新柳町三丁目","setai":109,"jinko":265,"key":"23228027003","units":1,"m":124,"f":141,"gk":11,"a0":48,"a1":158,"a2":56,"a75":21,"ag":[20,13,15,10,9,16,22,24,20,22,15,10,10,19,16,7,8,6,0,0,0],"nf":3},"geometry":{"type":"Polygon","coordinates":[[[136.86636,35.27859],[136.86479,35.27858],[136.86415,35.27858],[136.86397,35.27973],[136.86476,35.27968],[136.8657,35.27962],[136.86627,35.2796],[136.86631,35.2791],[136.86633,35.27888],[136.86636,35.27859]]]}},{"type":"Feature","properties":{"name":"中央町一丁目","setai":224,"jinko":455,"key":"23228028001","units":1,"m":223,"f":232,"gk":18,"a0":60,"a1":291,"a2":90,"a75":42,"ag":[17,22,21,24,15,40,28,33,37,45,34,20,15,22,26,17,16,7,1,1,0],"nf":14},"geometry":{"type":"Polygon","coordinates":[[[136.86996,35.27718],[136.86999,35.27633],[136.86932,35.27633],[136.86808,35.27633],[136.86804,35.27675],[136.868,35.27718],[136.86797,35.27762],[136.86793,35.27805],[136.86788,35.27861],[136.86995,35.27862],[136.86996,35.2783],[136.86997,35.27776],[136.86999,35.27718],[136.86996,35.27718]]]}},{"type":"Feature","properties":{"name":"中央町二丁目","setai":155,"jinko":301,"key":"23228028002","units":1,"m":149,"f":152,"gk":13,"a0":30,"a1":180,"a2":76,"a75":28,"ag":[10,13,7,9,7,13,28,21,16,32,11,20,23,23,25,11,8,7,2,0,0],"nf":15},"geometry":{"type":"Polygon","coordinates":[[[136.86804,35.27675],[136.86808,35.27633],[136.86659,35.27634],[136.86655,35.27674],[136.86652,35.27717],[136.8665,35.27717],[136.86648,35.2774],[136.86647,35.27761],[136.86641,35.27804],[136.86636,35.27859],[136.86788,35.27861],[136.86793,35.27805],[136.86797,35.27762],[136.868,35.27718],[136.86804,35.27675]]]}},{"type":"Feature","properties":{"name":"中央町三丁目","setai":145,"jinko":331,"key":"23228028003","units":1,"m":164,"f":167,"gk":10,"a0":42,"a1":210,"a2":76,"a75":37,"ag":[16,15,11,19,7,15,29,20,24,33,29,18,16,17,22,19,11,6,1,0,0],"nf":3},"geometry":{"type":"Polygon","coordinates":[[[136.86636,35.27859],[136.86641,35.27804],[136.86647,35.27761],[136.86648,35.2774],[136.8665,35.27717],[136.86652,35.27717],[136.86655,35.27674],[136.86659,35.27634],[136.86511,35.27633],[136.86447,35.27634],[136.86415,35.27858],[136.86479,35.27858],[136.86636,35.27859]]]}},{"type":"Feature","properties":{"name":"大地新町一丁目","setai":220,"jinko":410,"key":"23228029001","units":1,"m":211,"f":199,"gk":60,"a0":36,"a1":241,"a2":114,"a75":50,"ag":[6,9,21,19,18,25,19,20,31,37,25,30,17,31,33,23,14,11,2,0,0],"nf":19},"geometry":{"type":"Polygon","coordinates":[[[136.86953,35.27425],[136.86942,35.27423],[136.86935,35.27422],[136.8689,35.27421],[136.86852,35.27422],[136.86827,35.27423],[136.86816,35.27423],[136.86812,35.27423],[136.86815,35.27452],[136.86819,35.27491],[136.86815,35.27537],[136.86812,35.27566],[136.86811,35.27587],[136.86808,35.27633],[136.86932,35.27633],[136.86999,35.27633],[136.86999,35.27607],[136.87001,35.27537],[136.86999,35.27475],[136.86998,35.27432],[136.86965,35.27427],[136.86953,35.27425]]]}},{"type":"Feature","properties":{"name":"大地新町二丁目","setai":130,"jinko":290,"key":"23228029002","units":1,"m":135,"f":155,"gk":19,"a0":42,"a1":193,"a2":54,"a75":24,"ag":[18,13,11,15,19,20,18,16,24,25,24,12,20,13,17,8,8,6,2,0,0],"nf":1},"geometry":{"type":"Polygon","coordinates":[[[136.86815,35.27537],[136.86819,35.27491],[136.86815,35.27452],[136.86812,35.27423],[136.86748,35.27424],[136.86736,35.27425],[136.86703,35.27424],[136.86656,35.27422],[136.86633,35.27422],[136.86632,35.2743],[136.86625,35.27469],[136.86619,35.27492],[136.8667,35.27492],[136.86668,35.27538],[136.86665,35.27568],[136.86663,35.27589],[136.86659,35.27634],[136.86808,35.27633],[136.86811,35.27587],[136.86812,35.27566],[136.86815,35.27537]]]}},{"type":"Feature","properties":{"name":"大地新町三丁目","setai":107,"jinko":255,"key":"23228029003","units":1,"m":121,"f":134,"gk":10,"a0":34,"a1":165,"a2":52,"a75":25,"ag":[12,13,9,14,13,14,14,17,23,19,23,17,11,13,14,14,4,6,1,0,0],"nf":4},"geometry":{"type":"Polygon","coordinates":[[[136.86447,35.27634],[136.86511,35.27633],[136.86659,35.27634],[136.86663,35.27589],[136.86665,35.27568],[136.86668,35.27538],[136.8667,35.27492],[136.86619,35.27492],[136.86625,35.27469],[136.86632,35.2743],[136.86633,35.27422],[136.86585,35.27419],[136.86533,35.27412],[136.86525,35.27411],[136.86505,35.27409],[136.86472,35.27408],[136.86456,35.27539],[136.86447,35.27634]]]}},{"type":"Feature","properties":{"name":"昭和町一丁目","setai":82,"jinko":160,"key":"23228030001","units":1,"m":77,"f":83,"gk":12,"a0":10,"a1":114,"a2":30,"a75":16,"ag":[4,3,3,11,11,9,3,13,7,18,13,23,6,10,4,11,3,0,2,0,0],"nf":6},"geometry":{"type":"Polygon","coordinates":[[[136.87281,35.27393],[136.87174,35.27373],[136.87179,35.27418],[136.87179,35.27421],[136.87182,35.27465],[136.8739,35.27501],[136.87395,35.27459],[136.87399,35.27413],[136.87281,35.27393]]]}},{"type":"Feature","properties":{"name":"昭和町二丁目","setai":178,"jinko":360,"key":"23228030002","units":1,"m":182,"f":178,"gk":11,"a0":43,"a1":233,"a2":71,"a75":23,"ag":[21,15,7,10,24,25,27,22,32,23,22,24,24,22,26,7,4,10,2,0,0],"nf":13},"geometry":{"type":"Polygon","coordinates":[[[136.8719,35.27196],[136.87187,35.27175],[136.87157,35.27178],[136.87159,35.272],[136.87163,35.27241],[136.87164,35.27267],[136.87165,35.27276],[136.87165,35.27287],[136.8717,35.27328],[136.87173,35.27361],[136.87174,35.27373],[136.87281,35.27393],[136.87399,35.27413],[136.87409,35.27322],[136.87411,35.27301],[136.87414,35.27267],[136.87416,35.27254],[136.87355,35.27251],[136.87281,35.27247],[136.87194,35.27241],[136.8719,35.27196]]]}},{"type":"Feature","properties":{"name":"昭和町三丁目","setai":136,"jinko":248,"key":"23228030003","units":1,"m":143,"f":105,"gk":18,"a0":23,"a1":162,"a2":56,"a75":28,"ag":[9,11,3,8,14,16,15,21,18,20,27,13,10,11,17,10,10,7,1,0,0],"nf":7},"geometry":{"type":"Polygon","coordinates":[[[136.87419,35.27216],[136.87426,35.27139],[136.87413,35.2714],[136.87358,35.27149],[136.87315,35.27156],[136.87263,35.27164],[136.87243,35.27166],[136.87187,35.27175],[136.8719,35.27196],[136.87194,35.27241],[136.87281,35.27247],[136.87355,35.27251],[136.87416,35.27254],[136.87416,35.2725],[136.87419,35.27216]]]}}]}