{"type":"FeatureCollection","features":[{"type":"Feature","properties":{"name":"浅利","setai":281,"jinko":762,"key":"192140010","units":1},"geometry":{"type":"Polygon","coordinates":[[[138.54954,35.58211],[138.54944,35.58172],[138.54994,35.5816],[138.55023,35.58141],[138.55034,35.58128],[138.55051,35.58095],[138.55052,35.58005],[138.55058,35.57988],[138.55063,35.57976],[138.55076,35.57958],[138.55049,35.57845],[138.55062,35.57829],[138.55074,35.57816],[138.55054,35.57811],[138.55064,35.57802],[138.55071,35.57796],[138.55078,35.57785],[138.55082,35.57779],[138.55085,35.57771],[138.55088,35.5776],[138.55092,35.57742],[138.551,35.57715],[138.55098,35.577],[138.55092,35.5767],[138.5509,35.57645],[138.5508,35.57606],[138.55082,35.57574],[138.55069,35.57574],[138.55059,35.57571],[138.55051,35.57567],[138.55044,35.57563],[138.55035,35.57554],[138.55031,35.57548],[138.55024,35.57536],[138.55018,35.5753],[138.55013,35.57526],[138.5485,35.57422],[138.54842,35.57421],[138.54822,35.5743],[138.5481,35.5743],[138.54799,35.57429],[138.54776,35.57427],[138.54761,35.57426],[138.54748,35.57423],[138.54737,35.5742],[138.54726,35.57416],[138.54723,35.57418],[138.54717,35.57425],[138.54714,35.57428],[138.54708,35.57433],[138.54704,35.57436],[138.54697,35.57439],[138.54692,35.57441],[138.54674,35.57444],[138.54683,35.57461],[138.54683,35.57473],[138.54687,35.57489],[138.54713,35.57533],[138.54716,35.57544],[138.54714,35.57554],[138.547,35.57557],[138.54694,35.57563],[138.54694,35.57564],[138.54688,35.577],[138.54693,35.57717],[138.54692,35.57725],[138.54675,35.57742],[138.54672,35.57747],[138.54665,35.57758],[138.54654,35.57778],[138.54651,35.57784],[138.54649,35.57787],[138.54647,35.57799],[138.54654,35.5781],[138.54654,35.57811],[138.54663,35.57822],[138.54695,35.57857],[138.54701,35.57868],[138.54702,35.5788],[138.54698,35.57888],[138.54687,35.57897],[138.54675,35.57895],[138.54662,35.57891],[138.54654,35.57886],[138.54652,35.57884],[138.54635,35.5787],[138.54598,35.57815],[138.54589,35.57804],[138.54469,35.57712],[138.5442,35.57658],[138.54413,35.57656],[138.54408,35.57656],[138.54406,35.57656],[138.54405,35.57656],[138.54358,35.57682],[138.54307,35.57717],[138.54295,35.57718],[138.54242,35.57679],[138.54234,35.57679],[138.54228,35.57692],[138.54216,35.57695],[138.54173,35.57679],[138.54158,35.57712],[138.54146,35.57718],[138.5411,35.57729],[138.54101,35.57735],[138.54109,35.57754],[138.54099,35.57757],[138.54085,35.57762],[138.54084,35.57769],[138.54083,35.57774],[138.54083,35.57779],[138.5408,35.57787],[138.54071,35.57795],[138.54014,35.57835],[138.53999,35.57838],[138.53986,35.57834],[138.5397,35.57833],[138.53951,35.57849],[138.5394,35.57851],[138.53918,35.57855],[138.53906,35.57857],[138.53894,35.57864],[138.53884,35.57872],[138.53878,35.57883],[138.53881,35.57892],[138.53891,35.579],[138.53996,35.57968],[138.53995,35.57976],[138.53984,35.57987],[138.53986,35.58],[138.53986,35.58002],[138.53985,35.58003],[138.53985,35.58005],[138.53983,35.58006],[138.53979,35.58005],[138.53965,35.58001],[138.53961,35.58003],[138.53944,35.58005],[138.5393,35.5801],[138.53923,35.58015],[138.53916,35.5802],[138.53889,35.5803],[138.53881,35.5803],[138.53847,35.58025],[138.53834,35.58029],[138.53827,35.58032],[138.5382,35.58034],[138.53808,35.58041],[138.5379,35.58058],[138.53782,35.58065],[138.53766,35.58072],[138.53748,35.58069],[138.53734,35.58063],[138.5371,35.58051],[138.53688,35.58061],[138.53675,35.58067],[138.53665,35.5807],[138.5365,35.58091],[138.5364,35.58105],[138.53607,35.5814],[138.53595,35.58149],[138.53593,35.58153],[138.53593,35.58158],[138.53598,35.58172],[138.53581,35.58174],[138.53574,35.58153],[138.5357,35.58155],[138.53566,35.5817],[138.53562,35.58174],[138.53541,35.58175],[138.53537,35.5816],[138.5353,35.58158],[138.53498,35.58163],[138.53491,35.58171],[138.53487,35.58185],[138.5348,35.58205],[138.5343,35.58257],[138.53385,35.5831],[138.53381,35.58314],[138.53427,35.58341],[138.5387,35.58605],[138.54047,35.58697],[138.54116,35.58731],[138.54145,35.58743],[138.54155,35.58748],[138.5416,35.5875],[138.54241,35.58784],[138.54373,35.58832],[138.5442,35.58842],[138.54476,35.58854],[138.5448,35.58855],[138.54487,35.58857],[138.54593,35.58877],[138.54655,35.58881],[138.54753,35.58888],[138.54954,35.58899],[138.55075,35.58906],[138.55128,35.58904],[138.55127,35.58889],[138.55098,35.58718],[138.55105,35.58678],[138.55109,35.58668],[138.55115,35.58646],[138.55116,35.58633],[138.55117,35.58614],[138.55117,35.58603],[138.55114,35.58585],[138.55112,35.58574],[138.55109,35.58553],[138.55104,35.58543],[138.55061,35.58467],[138.55054,35.58455],[138.55032,35.58407],[138.55007,35.58364],[138.54994,35.58333],[138.54985,35.58318],[138.54974,35.58291],[138.54971,35.5828],[138.54954,35.58211]]]}},{"type":"Feature","properties":{"name":"高部","setai":146,"jinko":346,"key":"192140020","units":1},"geometry":{"type":"Polygon","coordinates":[[[138.5626,35.58919],[138.5626,35.58901],[138.56261,35.58859],[138.56265,35.5883],[138.56272,35.58797],[138.56272,35.58775],[138.5627,35.58746],[138.56263,35.58695],[138.56259,35.58636],[138.56253,35.58595],[138.56234,35.58556],[138.56208,35.58532],[138.56178,35.58514],[138.56124,35.58485],[138.56117,35.58482],[138.56086,35.58465],[138.56063,35.5845],[138.56043,35.58436],[138.56009,35.58407],[138.55982,35.58378],[138.55967,35.58347],[138.55961,35.58301],[138.55965,35.58284],[138.55967,35.58273],[138.55985,35.58243],[138.56009,35.58211],[138.56039,35.58181],[138.56062,35.58159],[138.56082,35.58153],[138.56121,35.58144],[138.56167,35.58135],[138.56209,35.58113],[138.56211,35.58123],[138.56217,35.5812],[138.56218,35.58114],[138.56219,35.58111],[138.56219,35.58102],[138.56218,35.58093],[138.56213,35.58096],[138.56191,35.58019],[138.56188,35.58017],[138.56178,35.58025],[138.56167,35.58034],[138.56159,35.58037],[138.56151,35.58035],[138.561,35.57973],[138.56097,35.57968],[138.56091,35.57958],[138.56082,35.57946],[138.56075,35.5794],[138.56071,35.57935],[138.56084,35.57881],[138.56086,35.57863],[138.5609,35.57823],[138.56085,35.57818],[138.56037,35.57823],[138.56028,35.57824],[138.55972,35.57836],[138.55967,35.57835],[138.55967,35.57806],[138.55967,35.57801],[138.55967,35.57778],[138.55964,35.57765],[138.55962,35.57755],[138.55959,35.57745],[138.55941,35.57693],[138.55931,35.57689],[138.55928,35.57689],[138.55923,35.57682],[138.55913,35.57625],[138.55914,35.57614],[138.55906,35.57564],[138.55903,35.57557],[138.55898,35.57546],[138.55888,35.57491],[138.55886,35.57436],[138.55887,35.57423],[138.5588,35.57398],[138.55875,35.57385],[138.5587,35.57369],[138.55871,35.57352],[138.5587,35.5734],[138.55851,35.57304],[138.55849,35.57292],[138.55853,35.57279],[138.55791,35.57291],[138.55775,35.57294],[138.55766,35.57296],[138.55759,35.57301],[138.55749,35.5731],[138.55733,35.57331],[138.55729,35.57343],[138.55721,35.57368],[138.55719,35.57376],[138.55716,35.57399],[138.55715,35.57404],[138.5571,35.57412],[138.55709,35.57419],[138.55702,35.57427],[138.55668,35.57463],[138.5565,35.57462],[138.55644,35.57461],[138.55633,35.57457],[138.55618,35.57457],[138.55528,35.57474],[138.5552,35.57476],[138.55512,35.57483],[138.55505,35.57505],[138.55494,35.57518],[138.55488,35.57525],[138.55477,35.57536],[138.55472,35.57543],[138.5546,35.57564],[138.55449,35.57574],[138.55439,35.57579],[138.55403,35.57593],[138.55391,35.576],[138.55373,35.57611],[138.55361,35.57619],[138.55312,35.57666],[138.55301,35.57672],[138.55276,35.57681],[138.55268,35.57684],[138.55242,35.57698],[138.55223,35.57704],[138.55214,35.57709],[138.55192,35.57733],[138.55183,35.57741],[138.55142,35.57771],[138.55085,35.57815],[138.55074,35.57816],[138.55062,35.57829],[138.55049,35.57845],[138.55076,35.57958],[138.55063,35.57976],[138.55058,35.57988],[138.55052,35.58005],[138.55051,35.58095],[138.55034,35.58128],[138.55023,35.58141],[138.54994,35.5816],[138.54944,35.58172],[138.54954,35.58211],[138.54971,35.5828],[138.54974,35.58291],[138.54985,35.58318],[138.54994,35.58333],[138.55007,35.58364],[138.55032,35.58407],[138.55054,35.58455],[138.55061,35.58467],[138.55104,35.58543],[138.55109,35.58553],[138.55112,35.58574],[138.55114,35.58585],[138.55117,35.58603],[138.55117,35.58614],[138.55116,35.58633],[138.55115,35.58646],[138.55109,35.58668],[138.55105,35.58678],[138.55098,35.58718],[138.55127,35.58889],[138.55128,35.58904],[138.55136,35.58903],[138.55156,35.58901],[138.55167,35.58902],[138.55254,35.58904],[138.55287,35.58905],[138.55319,35.58906],[138.55353,35.58908],[138.55384,35.58911],[138.55406,35.58912],[138.55426,35.58914],[138.5545,35.58917],[138.55466,35.58919],[138.55485,35.58923],[138.55505,35.58926],[138.55531,35.58931],[138.55555,35.58938],[138.55579,35.58944],[138.55608,35.58953],[138.55619,35.58958],[138.55635,35.58965],[138.55657,35.58976],[138.5568,35.58987],[138.55712,35.59003],[138.55748,35.59021],[138.55773,35.59034],[138.55809,35.59056],[138.5583,35.59072],[138.55839,35.59078],[138.55862,35.59096],[138.55877,35.59107],[138.55959,35.5917],[138.55998,35.59211],[138.56023,35.59238],[138.56041,35.59257],[138.56135,35.59192],[138.56221,35.59141],[138.56255,35.59127],[138.56267,35.59062],[138.56277,35.59012],[138.56278,35.58986],[138.56268,35.58936],[138.5626,35.58919]]]}},{"type":"Feature","properties":{"name":"木原","setai":240,"jinko":666,"key":"192140030","units":1},"geometry":{"type":"Polygon","coordinates":[[[138.56218,35.58157],[138.56295,35.58124],[138.56301,35.58136],[138.56345,35.58108],[138.5638,35.58086],[138.56395,35.58062],[138.56397,35.58049],[138.56407,35.58038],[138.56438,35.5803],[138.56464,35.58028],[138.56487,35.58024],[138.56526,35.58015],[138.56562,35.58006],[138.56583,35.58],[138.56619,35.57993],[138.56646,35.57984],[138.56622,35.5794],[138.56702,35.57905],[138.56794,35.57943],[138.5682,35.57934],[138.56847,35.57921],[138.56883,35.57903],[138.56919,35.57885],[138.56892,35.57851],[138.56946,35.57814],[138.5703,35.57832],[138.57044,35.57801],[138.57042,35.57788],[138.57036,35.5777],[138.57035,35.57768],[138.57012,35.57741],[138.57011,35.57739],[138.57001,35.57725],[138.57004,35.57707],[138.57013,35.57684],[138.57041,35.57679],[138.57072,35.57675],[138.57098,35.57658],[138.57115,35.57639],[138.57123,35.57617],[138.57126,35.57592],[138.57131,35.57581],[138.5714,35.57567],[138.57146,35.57567],[138.57176,35.57571],[138.57199,35.57574],[138.57216,35.57573],[138.57227,35.57562],[138.57224,35.5755],[138.57209,35.57535],[138.57198,35.57519],[138.5719,35.57494],[138.57195,35.57474],[138.57187,35.57475],[138.57177,35.57477],[138.57167,35.57484],[138.5716,35.57485],[138.57152,35.57481],[138.5715,35.57474],[138.57149,35.57467],[138.5715,35.57461],[138.57152,35.57457],[138.57162,35.57441],[138.57165,35.57432],[138.57165,35.57415],[138.57169,35.57403],[138.57188,35.57367],[138.57191,35.57361],[138.57191,35.57353],[138.57188,35.57348],[138.57168,35.57328],[138.5716,35.57324],[138.57135,35.57316],[138.57126,35.57313],[138.57119,35.57307],[138.57117,35.57303],[138.57117,35.57298],[138.57119,35.57291],[138.57121,35.5728],[138.57119,35.57272],[138.57117,35.57262],[138.57109,35.57254],[138.57078,35.5723],[138.57071,35.57222],[138.57053,35.57183],[138.57048,35.57175],[138.57044,35.57169],[138.57019,35.57151],[138.57011,35.57148],[138.57,35.57143],[138.56996,35.57141],[138.5699,35.57135],[138.56986,35.57135],[138.56963,35.5715],[138.56951,35.57156],[138.56935,35.57163],[138.56924,35.57167],[138.56902,35.57175],[138.56895,35.57177],[138.56886,35.57177],[138.56878,35.57173],[138.56844,35.57129],[138.5683,35.57117],[138.568,35.57098],[138.56794,35.57089],[138.56776,35.57068],[138.56752,35.57038],[138.56748,35.57037],[138.56746,35.57038],[138.56744,35.57044],[138.56744,35.57069],[138.56744,35.57075],[138.56741,35.57082],[138.56736,35.57083],[138.56586,35.57002],[138.56571,35.56997],[138.56559,35.56995],[138.56549,35.56991],[138.56541,35.56985],[138.56518,35.56964],[138.56486,35.56943],[138.56475,35.56932],[138.56466,35.56926],[138.56459,35.56924],[138.56419,35.56912],[138.56409,35.56912],[138.56405,35.56915],[138.56396,35.5692],[138.56386,35.56927],[138.56374,35.56939],[138.56366,35.56942],[138.56361,35.56939],[138.56355,35.56933],[138.56343,35.56918],[138.56338,35.5691],[138.56339,35.5689],[138.56336,35.56882],[138.56327,35.56878],[138.563,35.56864],[138.56293,35.5686],[138.56287,35.56854],[138.56277,35.56843],[138.56237,35.56841],[138.56228,35.56843],[138.5622,35.56844],[138.56212,35.56849],[138.56199,35.56859],[138.56193,35.56867],[138.56179,35.5688],[138.5617,35.56879],[138.56083,35.56801],[138.56076,35.568],[138.56043,35.5682],[138.5604,35.56825],[138.56043,35.5683],[138.56041,35.56835],[138.56022,35.5685],[138.55929,35.56783],[138.5584,35.56864],[138.55828,35.56872],[138.55814,35.56887],[138.55796,35.56914],[138.55769,35.56945],[138.55796,35.57018],[138.55812,35.57095],[138.55816,35.5711],[138.55827,35.57151],[138.55831,35.57167],[138.55834,35.57181],[138.55834,35.57195],[138.55838,35.57206],[138.55844,35.57215],[138.5585,35.57226],[138.55852,35.57272],[138.55853,35.57279],[138.55849,35.57292],[138.55851,35.57304],[138.5587,35.5734],[138.55871,35.57352],[138.5587,35.57369],[138.55875,35.57385],[138.5588,35.57398],[138.55887,35.57423],[138.55886,35.57436],[138.55888,35.57491],[138.55898,35.57546],[138.55903,35.57557],[138.55906,35.57564],[138.55914,35.57614],[138.55913,35.57625],[138.55923,35.57682],[138.55928,35.57689],[138.55931,35.57689],[138.55941,35.57693],[138.55959,35.57745],[138.55962,35.57755],[138.55964,35.57765],[138.55967,35.57778],[138.55967,35.57801],[138.55967,35.57806],[138.55967,35.57835],[138.55972,35.57836],[138.56028,35.57824],[138.56037,35.57823],[138.56085,35.57818],[138.5609,35.57823],[138.56086,35.57863],[138.56084,35.57881],[138.56071,35.57935],[138.56075,35.5794],[138.56082,35.57946],[138.56091,35.57958],[138.56097,35.57968],[138.561,35.57973],[138.56151,35.58035],[138.56159,35.58037],[138.56167,35.58034],[138.56178,35.58025],[138.56188,35.58017],[138.56191,35.58019],[138.56213,35.58096],[138.56218,35.58093],[138.56219,35.58102],[138.56219,35.58111],[138.56218,35.58114],[138.56217,35.5812],[138.56211,35.58123],[138.56218,35.58157]]]}},{"type":"Feature","properties":{"name":"大鳥居","setai":430,"jinko":1061,"key":"192140040","units":1},"geometry":{"type":"Polygon","coordinates":[[[138.55449,35.57574],[138.5546,35.57564],[138.55472,35.57543],[138.55477,35.57536],[138.55488,35.57525],[138.55494,35.57518],[138.55505,35.57505],[138.55512,35.57483],[138.5552,35.57476],[138.55528,35.57474],[138.55618,35.57457],[138.55633,35.57457],[138.55644,35.57461],[138.5565,35.57462],[138.55668,35.57463],[138.55702,35.57427],[138.55709,35.57419],[138.5571,35.57412],[138.55715,35.57404],[138.55716,35.57399],[138.55719,35.57376],[138.55721,35.57368],[138.55729,35.57343],[138.55733,35.57331],[138.55749,35.5731],[138.55759,35.57301],[138.55766,35.57296],[138.55775,35.57294],[138.55791,35.57291],[138.55853,35.57279],[138.55852,35.57272],[138.5585,35.57226],[138.55844,35.57215],[138.55838,35.57206],[138.55834,35.57195],[138.55834,35.57181],[138.55831,35.57167],[138.55827,35.57151],[138.55816,35.5711],[138.55812,35.57095],[138.55796,35.57018],[138.55769,35.56945],[138.55796,35.56914],[138.55814,35.56887],[138.55828,35.56872],[138.5584,35.56864],[138.55929,35.56783],[138.55956,35.56767],[138.56005,35.56745],[138.56035,35.56712],[138.56048,35.56691],[138.56061,35.56684],[138.56086,35.56679],[138.56107,35.56668],[138.56104,35.56659],[138.56092,35.56635],[138.56093,35.56631],[138.56094,35.56623],[138.56095,35.56619],[138.56098,35.56614],[138.56119,35.56592],[138.56118,35.56588],[138.56112,35.56583],[138.56005,35.56552],[138.55999,35.56545],[138.55989,35.56506],[138.55993,35.56501],[138.56021,35.56486],[138.56023,35.5648],[138.56026,35.56365],[138.56026,35.56355],[138.56022,35.56332],[138.56011,35.56253],[138.5601,35.56236],[138.5603,35.5615],[138.56028,35.56085],[138.56034,35.56058],[138.56049,35.56046],[138.56066,35.5604],[138.56117,35.56029],[138.56132,35.56023],[138.56136,35.56014],[138.56135,35.56001],[138.56125,35.55972],[138.56141,35.55956],[138.56147,35.55935],[138.56136,35.55915],[138.56116,35.55899],[138.56108,35.5589],[138.56105,35.55878],[138.56119,35.5585],[138.56128,35.55839],[138.56156,35.5581],[138.56172,35.55796],[138.56187,35.55775],[138.56199,35.55745],[138.56211,35.55716],[138.56212,35.5571],[138.56212,35.55703],[138.56195,35.55621],[138.56195,35.55619],[138.56237,35.55399],[138.56257,35.55318],[138.56274,35.55306],[138.56301,35.55302],[138.56363,35.55313],[138.56383,35.55316],[138.56454,35.55332],[138.56472,35.55329],[138.56498,35.55318],[138.5653,35.55304],[138.56565,35.55279],[138.56591,35.55253],[138.56599,35.55238],[138.56606,35.55214],[138.56608,35.55202],[138.56608,35.5519],[138.56604,35.55181],[138.56597,35.5517],[138.56581,35.55155],[138.56543,35.55126],[138.56543,35.55125],[138.56532,35.55118],[138.56517,35.55103],[138.56507,35.55093],[138.565,35.5508],[138.56497,35.55069],[138.565,35.55053],[138.56503,35.55046],[138.56506,35.55043],[138.56515,35.55041],[138.56525,35.55041],[138.56573,35.55053],[138.56582,35.55051],[138.5659,35.55048],[138.56595,35.55041],[138.56597,35.55031],[138.56597,35.5502],[138.56561,35.54949],[138.56558,35.54932],[138.56558,35.549],[138.5656,35.54884],[138.56564,35.54858],[138.56569,35.54843],[138.56577,35.54824],[138.56629,35.54764],[138.56639,35.54751],[138.56648,35.54727],[138.56653,35.54707],[138.56658,35.54659],[138.56649,35.54671],[138.5663,35.54682],[138.56612,35.54686],[138.56595,35.54689],[138.56574,35.5469],[138.56477,35.54685],[138.56391,35.5468],[138.56352,35.54674],[138.56326,35.54664],[138.56252,35.54621],[138.56234,35.54614],[138.56217,35.54615],[138.5618,35.54623],[138.56172,35.54624],[138.56155,35.54626],[138.56143,35.54628],[138.56057,35.54631],[138.56042,35.54635],[138.56014,35.54656],[138.56001,35.54662],[138.55981,35.54665],[138.55949,35.54661],[138.5593,35.54662],[138.55914,35.54665],[138.55887,35.54669],[138.55858,35.54673],[138.55827,35.54678],[138.55819,35.54679],[138.55817,35.5468],[138.55799,35.54687],[138.55766,35.5471],[138.55747,35.54721],[138.55718,35.54737],[138.5568,35.54752],[138.55625,35.54767],[138.5557,35.54781],[138.55565,35.54782],[138.55488,35.54801],[138.55479,35.54808],[138.55458,35.54851],[138.55455,35.54856],[138.55451,35.54862],[138.55436,35.54874],[138.55423,35.54879],[138.55384,35.5489],[138.55346,35.54901],[138.55318,35.54907],[138.55255,35.54923],[138.5522,35.54932],[138.55212,35.54934],[138.55083,35.54966],[138.55046,35.54975],[138.55017,35.54982],[138.54993,35.5499],[138.54983,35.54995],[138.54968,35.55002],[138.54955,35.55011],[138.54933,35.55021],[138.54919,35.55031],[138.54908,35.5504],[138.54896,35.55051],[138.54873,35.55062],[138.54852,35.55066],[138.54831,35.5507],[138.54814,35.55075],[138.54801,35.55083],[138.54787,35.55092],[138.54772,35.55104],[138.54756,35.55112],[138.54717,35.55126],[138.54684,35.55134],[138.54652,35.5514],[138.54607,35.55149],[138.54577,35.55157],[138.54501,35.5517],[138.54469,35.55171],[138.54441,35.55171],[138.5439,35.55166],[138.54375,35.55166],[138.54355,35.55167],[138.54265,35.55173],[138.541,35.55184],[138.54096,35.55189],[138.54102,35.55221],[138.54101,35.55235],[138.54098,35.55245],[138.54087,35.55259],[138.54015,35.55323],[138.53988,35.5535],[138.53974,35.55366],[138.53966,35.55378],[138.53956,35.55389],[138.53944,35.55402],[138.53915,35.55421],[138.53894,35.5543],[138.53791,35.55463],[138.53778,35.55468],[138.53765,35.55474],[138.5373,35.55502],[138.53755,35.55514],[138.53781,35.5553],[138.53797,35.55539],[138.53816,35.55553],[138.5387,35.55612],[138.53908,35.55653],[138.53924,35.55668],[138.53935,35.55679],[138.53953,35.55691],[138.53972,35.557],[138.5399,35.55709],[138.54017,35.55719],[138.54039,35.55733],[138.54051,35.55743],[138.54065,35.55765],[138.5407,35.55781],[138.54071,35.55796],[138.54073,35.55817],[138.54072,35.55838],[138.54071,35.55848],[138.54065,35.55864],[138.5403,35.55913],[138.54027,35.55925],[138.54024,35.55939],[138.54028,35.55953],[138.54034,35.55965],[138.54045,35.55977],[138.54088,35.56015],[138.54095,35.56027],[138.54105,35.56043],[138.54112,35.56056],[138.5412,35.56064],[138.54132,35.56069],[138.54138,35.56074],[138.5414,35.56077],[138.54142,35.56081],[138.54143,35.56098],[138.54141,35.56105],[138.5414,35.56109],[138.54137,35.56124],[138.54132,35.56136],[138.54129,35.56145],[138.54127,35.56151],[138.54126,35.56155],[138.54127,35.56166],[138.54134,35.56178],[138.54134,35.56178],[138.54117,35.56224],[138.54111,35.56245],[138.54095,35.56298],[138.54086,35.56316],[138.54055,35.56353],[138.54044,35.5637],[138.53971,35.56473],[138.5397,35.56474],[138.53962,35.56482],[138.5396,35.56483],[138.53945,35.56498],[138.53937,35.56509],[138.53937,35.56509],[138.53928,35.56523],[138.53927,35.56532],[138.53928,35.5654],[138.53935,35.56562],[138.53946,35.56568],[138.53956,35.56569],[138.53959,35.56572],[138.5396,35.56575],[138.53961,35.56578],[138.53958,35.56585],[138.53948,35.56596],[138.53949,35.56608],[138.53949,35.56618],[138.5395,35.56626],[138.53954,35.56631],[138.53958,35.56634],[138.5397,35.56647],[138.53971,35.56649],[138.53972,35.56649],[138.53973,35.56654],[138.53972,35.56662],[138.53976,35.56667],[138.53983,35.56668],[138.54003,35.5667],[138.54006,35.56672],[138.54008,35.56674],[138.54005,35.56681],[138.53985,35.56697],[138.53986,35.56703],[138.53999,35.5671],[138.54009,35.56714],[138.54014,35.56714],[138.54016,35.56715],[138.54027,35.56714],[138.54034,35.56717],[138.54037,35.56722],[138.54056,35.56745],[138.54068,35.56749],[138.5407,35.56752],[138.54082,35.56756],[138.54098,35.56759],[138.54099,35.56759],[138.54113,35.56782],[138.54125,35.56798],[138.54129,35.56801],[138.54137,35.56808],[138.54151,35.56817],[138.54166,35.56823],[138.54193,35.56827],[138.54198,35.56828],[138.54261,35.56844],[138.54281,35.56852],[138.54302,35.56863],[138.54325,35.56876],[138.54328,35.56878],[138.54341,35.56882],[138.54349,35.56884],[138.54397,35.56885],[138.54398,35.56887],[138.54406,35.5691],[138.54368,35.56916],[138.54365,35.5692],[138.54362,35.56945],[138.54361,35.56951],[138.54355,35.56954],[138.54358,35.56966],[138.54357,35.5697],[138.54346,35.56976],[138.54344,35.56979],[138.54337,35.56989],[138.54336,35.56999],[138.54338,35.57028],[138.54338,35.5704],[138.54332,35.57055],[138.54328,35.57062],[138.54317,35.57077],[138.54316,35.57083],[138.54326,35.5709],[138.54326,35.57091],[138.5439,35.57138],[138.54406,35.57152],[138.54416,35.57172],[138.5442,35.57188],[138.54422,35.57205],[138.54426,35.57226],[138.54434,35.57249],[138.54469,35.57299],[138.54478,35.57312],[138.54487,35.57325],[138.54496,35.57331],[138.54499,35.57333],[138.54565,35.57357],[138.54566,35.57357],[138.54586,35.57367],[138.54599,35.57375],[138.54605,35.57383],[138.54618,35.57395],[138.54631,35.574],[138.54644,35.57412],[138.54654,35.57423],[138.54674,35.57444],[138.54692,35.57441],[138.54697,35.57439],[138.54704,35.57436],[138.54708,35.57433],[138.54714,35.57428],[138.54717,35.57425],[138.54723,35.57418],[138.54726,35.57416],[138.54737,35.5742],[138.54748,35.57423],[138.54761,35.57426],[138.54776,35.57427],[138.54799,35.57429],[138.5481,35.5743],[138.54822,35.5743],[138.54842,35.57421],[138.5485,35.57422],[138.55013,35.57526],[138.55018,35.5753],[138.55024,35.57536],[138.55031,35.57548],[138.55035,35.57554],[138.55044,35.57563],[138.55051,35.57567],[138.55059,35.57571],[138.55069,35.57574],[138.55082,35.57574],[138.5508,35.57606],[138.5509,35.57645],[138.55092,35.5767],[138.55098,35.577],[138.551,35.57715],[138.55092,35.57742],[138.55088,35.5776],[138.55085,35.57771],[138.55082,35.57779],[138.55078,35.57785],[138.55071,35.57796],[138.55064,35.57802],[138.55054,35.57811],[138.55074,35.57816],[138.55085,35.57815],[138.55142,35.57771],[138.55183,35.57741],[138.55192,35.57733],[138.55214,35.57709],[138.55223,35.57704],[138.55242,35.57698],[138.55268,35.57684],[138.55276,35.57681],[138.55301,35.57672],[138.55312,35.57666],[138.55361,35.57619],[138.55373,35.57611],[138.55391,35.576],[138.55403,35.57593],[138.55439,35.57579],[138.55449,35.57574]]]}},{"type":"Feature","properties":{"name":"関原","setai":115,"jinko":325,"key":"192140050","units":1},"geometry":{"type":"Polygon","coordinates":[[[138.57247,35.57458],[138.57272,35.57454],[138.57294,35.57455],[138.57315,35.57457],[138.57347,35.57448],[138.57375,35.57412],[138.57383,35.57375],[138.57386,35.57362],[138.57397,35.5736],[138.57431,35.5735],[138.57452,35.57343],[138.57454,35.57342],[138.57465,35.57348],[138.57462,35.57354],[138.5746,35.57356],[138.57458,35.57359],[138.57457,35.57361],[138.57458,35.57362],[138.5746,35.57362],[138.57463,35.57361],[138.57469,35.57359],[138.57474,35.57358],[138.57488,35.57355],[138.57492,35.57354],[138.57495,35.57352],[138.57497,35.57349],[138.57501,35.57338],[138.57504,35.57322],[138.57503,35.57321],[138.57498,35.57321],[138.57494,35.5732],[138.57488,35.57319],[138.57476,35.57317],[138.57474,35.57316],[138.57474,35.57314],[138.57477,35.57299],[138.57479,35.57285],[138.57484,35.57274],[138.57498,35.5726],[138.57517,35.57246],[138.57556,35.57219],[138.57567,35.57212],[138.57566,35.57209],[138.57562,35.57203],[138.57558,35.57195],[138.57549,35.57176],[138.57541,35.57155],[138.57542,35.57143],[138.57539,35.57136],[138.57539,35.57126],[138.57545,35.5712],[138.57555,35.57115],[138.57618,35.57084],[138.57601,35.57073],[138.5756,35.5705],[138.57551,35.5704],[138.57546,35.57028],[138.57532,35.5699],[138.5753,35.56976],[138.57532,35.56953],[138.57533,35.56949],[138.57533,35.5694],[138.57536,35.56927],[138.57538,35.56919],[138.57541,35.56904],[138.57539,35.56885],[138.57538,35.56857],[138.5754,35.56837],[138.57544,35.56821],[138.57548,35.56805],[138.57558,35.5679],[138.57565,35.56781],[138.57573,35.56773],[138.57583,35.56762],[138.57596,35.56745],[138.57602,35.56722],[138.57611,35.56701],[138.57613,35.56696],[138.57617,35.56687],[138.57627,35.56675],[138.57647,35.56667],[138.57669,35.56662],[138.57688,35.56656],[138.57705,35.56648],[138.57714,35.56639],[138.57725,35.56628],[138.57729,35.56615],[138.5773,35.56611],[138.57734,35.56587],[138.57736,35.56577],[138.57738,35.56546],[138.57736,35.56529],[138.57737,35.56518],[138.57746,35.56496],[138.57761,35.56473],[138.57774,35.56458],[138.57787,35.56448],[138.57801,35.56434],[138.5782,35.56407],[138.57846,35.56369],[138.57865,35.56345],[138.57893,35.56313],[138.57916,35.56293],[138.57928,35.56282],[138.57932,35.56278],[138.57934,35.56276],[138.57938,35.56269],[138.57937,35.5626],[138.57925,35.56239],[138.57904,35.56216],[138.57887,35.56201],[138.5788,35.56191],[138.57874,35.5618],[138.57871,35.56157],[138.57873,35.56149],[138.5788,35.56116],[138.5788,35.56083],[138.5788,35.56081],[138.57882,35.56069],[138.57883,35.56009],[138.57881,35.55991],[138.57878,35.55979],[138.57873,35.55962],[138.57874,35.55951],[138.57878,35.55944],[138.57882,35.5594],[138.57881,35.55938],[138.57883,35.55927],[138.57892,35.5591],[138.57942,35.55866],[138.5797,35.55848],[138.57992,35.55833],[138.58007,35.55821],[138.5803,35.55817],[138.58059,35.55819],[138.58078,35.5582],[138.58106,35.5581],[138.58129,35.55803],[138.58151,35.55799],[138.58175,35.55799],[138.582,35.55804],[138.58211,35.55806],[138.58224,35.55805],[138.58237,35.55802],[138.5825,35.55799],[138.58267,35.5579],[138.5829,35.55784],[138.58327,35.55779],[138.58364,35.55777],[138.58389,35.55778],[138.58414,35.55777],[138.58415,35.55773],[138.58414,35.55764],[138.58412,35.55737],[138.58415,35.55723],[138.58414,35.55721],[138.58419,35.55691],[138.58422,35.55679],[138.58424,35.55656],[138.58431,35.55623],[138.5843,35.55606],[138.58426,35.55587],[138.58422,35.55574],[138.58412,35.55551],[138.58368,35.55442],[138.58371,35.55432],[138.5837,35.55431],[138.58365,35.55419],[138.58365,35.55407],[138.5837,35.55396],[138.58389,35.55374],[138.58394,35.55355],[138.58394,35.55354],[138.58394,35.55319],[138.58379,35.55262],[138.58371,35.55233],[138.58364,35.55205],[138.58363,35.55203],[138.5836,35.5518],[138.58363,35.55169],[138.58365,35.5516],[138.58365,35.55158],[138.58361,35.55159],[138.58308,35.55159],[138.58253,35.55158],[138.5824,35.55157],[138.58198,35.55154],[138.58148,35.5515],[138.58108,35.55143],[138.58069,35.55135],[138.5803,35.5512],[138.58004,35.55108],[138.57975,35.55095],[138.57945,35.55078],[138.57939,35.55076],[138.57937,35.55075],[138.57923,35.55067],[138.57907,35.55063],[138.57895,35.55063],[138.57891,35.55062],[138.57863,35.55059],[138.57839,35.55064],[138.57815,35.55069],[138.57793,35.55073],[138.57757,35.55076],[138.5773,35.55073],[138.57702,35.55067],[138.57673,35.55059],[138.5764,35.55051],[138.57606,35.55047],[138.57578,35.55044],[138.57558,35.55039],[138.57538,35.55036],[138.57511,35.55037],[138.5748,35.55043],[138.57451,35.55052],[138.57435,35.55054],[138.57418,35.5505],[138.57404,35.5504],[138.57401,35.55037],[138.57387,35.55024],[138.57366,35.55],[138.57366,35.54999],[138.57348,35.5497],[138.57325,35.54914],[138.57315,35.54883],[138.57315,35.54878],[138.57322,35.54862],[138.57328,35.54848],[138.57339,35.54811],[138.57341,35.54806],[138.57349,35.54785],[138.57385,35.54701],[138.57393,35.54683],[138.57391,35.54663],[138.57383,35.54652],[138.57383,35.54651],[138.57372,35.54627],[138.57356,35.5461],[138.57351,35.54606],[138.57347,35.54603],[138.57338,35.54599],[138.57315,35.54589],[138.57284,35.54585],[138.57263,35.54585],[138.57257,35.54585],[138.5722,35.54595],[138.572,35.54603],[138.57198,35.54604],[138.57178,35.54614],[138.57157,35.54622],[138.57141,35.54626],[138.57122,35.54628],[138.571,35.54625],[138.57082,35.54621],[138.57046,35.54618],[138.57027,35.5462],[138.57001,35.54627],[138.56974,35.5464],[138.56919,35.54668],[138.56896,35.54673],[138.56876,35.54668],[138.56858,35.54654],[138.56845,35.54646],[138.56844,35.54644],[138.56827,35.54626],[138.56812,35.54616],[138.56795,35.54608],[138.56781,35.54599],[138.56776,35.54596],[138.56758,35.54583],[138.56744,35.54569],[138.56731,35.54553],[138.56718,35.54532],[138.5671,35.54529],[138.56705,35.54544],[138.56692,35.54583],[138.56683,35.54603],[138.56681,35.54609],[138.56669,35.54636],[138.56663,35.54647],[138.56658,35.54659],[138.56653,35.54707],[138.56648,35.54727],[138.56639,35.54751],[138.56629,35.54764],[138.56577,35.54824],[138.56569,35.54843],[138.56564,35.54858],[138.5656,35.54884],[138.56558,35.549],[138.56558,35.54932],[138.56561,35.54949],[138.56597,35.5502],[138.56597,35.55031],[138.56595,35.55041],[138.5659,35.55048],[138.56582,35.55051],[138.56573,35.55053],[138.56525,35.55041],[138.56515,35.55041],[138.56506,35.55043],[138.56503,35.55046],[138.565,35.55053],[138.56497,35.55069],[138.565,35.5508],[138.56507,35.55093],[138.56517,35.55103],[138.56532,35.55118],[138.56543,35.55125],[138.56543,35.55126],[138.56581,35.55155],[138.56597,35.5517],[138.56604,35.55181],[138.56608,35.5519],[138.56608,35.55202],[138.56606,35.55214],[138.56599,35.55238],[138.56591,35.55253],[138.56565,35.55279],[138.5653,35.55304],[138.56498,35.55318],[138.56472,35.55329],[138.56454,35.55332],[138.56383,35.55316],[138.56363,35.55313],[138.56301,35.55302],[138.56274,35.55306],[138.56257,35.55318],[138.56237,35.55399],[138.56195,35.55619],[138.56195,35.55621],[138.56212,35.55703],[138.56212,35.5571],[138.56211,35.55716],[138.56199,35.55745],[138.56187,35.55775],[138.56172,35.55796],[138.56156,35.5581],[138.56128,35.55839],[138.56119,35.5585],[138.56105,35.55878],[138.56108,35.5589],[138.56116,35.55899],[138.56136,35.55915],[138.56147,35.55935],[138.56141,35.55956],[138.56125,35.55972],[138.56135,35.56001],[138.56136,35.56014],[138.56132,35.56023],[138.56117,35.56029],[138.56066,35.5604],[138.56049,35.56046],[138.56034,35.56058],[138.56028,35.56085],[138.5603,35.5615],[138.5601,35.56236],[138.56011,35.56253],[138.56022,35.56332],[138.56026,35.56355],[138.56026,35.56365],[138.56023,35.5648],[138.56021,35.56486],[138.55993,35.56501],[138.55989,35.56506],[138.55999,35.56545],[138.56005,35.56552],[138.56112,35.56583],[138.56118,35.56588],[138.56119,35.56592],[138.56098,35.56614],[138.56095,35.56619],[138.56094,35.56623],[138.56093,35.56631],[138.56092,35.56635],[138.56104,35.56659],[138.56107,35.56668],[138.56086,35.56679],[138.56061,35.56684],[138.56048,35.56691],[138.56035,35.56712],[138.56005,35.56745],[138.55956,35.56767],[138.55929,35.56783],[138.56022,35.5685],[138.56041,35.56835],[138.56043,35.5683],[138.5604,35.56825],[138.56043,35.5682],[138.56076,35.568],[138.56083,35.56801],[138.5617,35.56879],[138.56179,35.5688],[138.56193,35.56867],[138.56199,35.56859],[138.56212,35.56849],[138.5622,35.56844],[138.56228,35.56843],[138.56237,35.56841],[138.56277,35.56843],[138.56287,35.56854],[138.56293,35.5686],[138.563,35.56864],[138.56327,35.56878],[138.56336,35.56882],[138.56339,35.5689],[138.56338,35.5691],[138.56343,35.56918],[138.56355,35.56933],[138.56361,35.56939],[138.56366,35.56942],[138.56374,35.56939],[138.56386,35.56927],[138.56396,35.5692],[138.56405,35.56915],[138.56409,35.56912],[138.56419,35.56912],[138.56459,35.56924],[138.56466,35.56926],[138.56475,35.56932],[138.56486,35.56943],[138.56518,35.56964],[138.56541,35.56985],[138.56549,35.56991],[138.56559,35.56995],[138.56571,35.56997],[138.56586,35.57002],[138.56736,35.57083],[138.56741,35.57082],[138.56744,35.57075],[138.56744,35.57069],[138.56744,35.57044],[138.56746,35.57038],[138.56748,35.57037],[138.56752,35.57038],[138.56776,35.57068],[138.56794,35.57089],[138.568,35.57098],[138.5683,35.57117],[138.56844,35.57129],[138.56878,35.57173],[138.56886,35.57177],[138.56895,35.57177],[138.56902,35.57175],[138.56924,35.57167],[138.56935,35.57163],[138.56951,35.57156],[138.56963,35.5715],[138.56986,35.57135],[138.5699,35.57135],[138.56996,35.57141],[138.57,35.57143],[138.57011,35.57148],[138.57019,35.57151],[138.57044,35.57169],[138.57048,35.57175],[138.57053,35.57183],[138.57071,35.57222],[138.57078,35.5723],[138.57109,35.57254],[138.57117,35.57262],[138.57119,35.57272],[138.57121,35.5728],[138.57119,35.57291],[138.57117,35.57298],[138.57117,35.57303],[138.57119,35.57307],[138.57126,35.57313],[138.57135,35.57316],[138.5716,35.57324],[138.57168,35.57328],[138.57188,35.57348],[138.57191,35.57353],[138.57191,35.57361],[138.57188,35.57367],[138.57169,35.57403],[138.57165,35.57415],[138.57165,35.57432],[138.57162,35.57441],[138.57152,35.57457],[138.5715,35.57461],[138.57149,35.57467],[138.5715,35.57474],[138.57152,35.57481],[138.5716,35.57485],[138.57167,35.57484],[138.57177,35.57477],[138.57187,35.57475],[138.57195,35.57474],[138.57195,35.57473],[138.57211,35.57467],[138.57229,35.5746],[138.57247,35.57458]]]}},{"type":"Feature","properties":{"name":"井之口","setai":354,"jinko":709,"key":"192140061","units":1},"geometry":{"type":"Polygon","coordinates":[[[138.54368,35.61826],[138.54374,35.61815],[138.54387,35.61793],[138.54398,35.61773],[138.54405,35.61764],[138.54409,35.61759],[138.54422,35.61748],[138.54462,35.61701],[138.54471,35.61698],[138.54474,35.61697],[138.54488,35.61702],[138.545,35.61706],[138.54505,35.61704],[138.5451,35.61692],[138.54516,35.61681],[138.54521,35.61676],[138.5454,35.6167],[138.54542,35.61666],[138.54547,35.61652],[138.54548,35.61646],[138.54548,35.61636],[138.54548,35.61632],[138.54548,35.61626],[138.54548,35.61621],[138.54566,35.61612],[138.54562,35.61595],[138.54558,35.61574],[138.54558,35.61572],[138.54557,35.61562],[138.54558,35.61559],[138.5456,35.6154],[138.54562,35.61534],[138.54515,35.61533],[138.54466,35.61531],[138.54467,35.61525],[138.54485,35.61434],[138.5449,35.61404],[138.54491,35.61397],[138.54491,35.61378],[138.54489,35.61362],[138.54488,35.61361],[138.54481,35.61341],[138.5447,35.61311],[138.54458,35.6128],[138.54449,35.61262],[138.5444,35.61253],[138.5442,35.61239],[138.54412,35.61233],[138.54406,35.61227],[138.54403,35.61221],[138.54395,35.61203],[138.54384,35.61178],[138.54381,35.61174],[138.54375,35.61167],[138.54364,35.61154],[138.5435,35.6114],[138.54323,35.61125],[138.54321,35.61128],[138.54296,35.61153],[138.54262,35.61188],[138.54222,35.61228],[138.54183,35.61297],[138.54141,35.61372],[138.54095,35.61452],[138.54096,35.61461],[138.54094,35.61461],[138.54065,35.61464],[138.54055,35.61463],[138.54045,35.61462],[138.54039,35.61461],[138.53914,35.61437],[138.53931,35.61401],[138.53935,35.61392],[138.53951,35.61353],[138.53921,35.61338],[138.53877,35.61319],[138.53886,35.61298],[138.53876,35.61295],[138.53863,35.61294],[138.53834,35.61294],[138.53814,35.61335],[138.53806,35.61351],[138.53798,35.61351],[138.53787,35.6135],[138.53777,35.61347],[138.53765,35.61343],[138.53763,35.61346],[138.53754,35.61366],[138.53747,35.61364],[138.53734,35.61361],[138.53711,35.61405],[138.53705,35.61419],[138.53699,35.61433],[138.53683,35.6144],[138.53669,35.61445],[138.53661,35.61447],[138.53636,35.61455],[138.53619,35.61457],[138.5361,35.61457],[138.53603,35.61457],[138.53581,35.61454],[138.53559,35.61451],[138.53531,35.61513],[138.53524,35.6153],[138.53494,35.61596],[138.53464,35.61587],[138.53456,35.61587],[138.5343,35.6159],[138.53426,35.61539],[138.53405,35.6154],[138.534,35.61559],[138.5339,35.61591],[138.5338,35.61597],[138.53365,35.61617],[138.53347,35.61629],[138.53328,35.61685],[138.53328,35.61686],[138.53402,35.6173],[138.53448,35.61759],[138.53477,35.61779],[138.53512,35.61806],[138.5354,35.61823],[138.53547,35.61821],[138.53551,35.6182],[138.53605,35.61826],[138.53646,35.6183],[138.53692,35.61843],[138.53726,35.61857],[138.53734,35.61855],[138.53742,35.61854],[138.53828,35.61843],[138.53915,35.61834],[138.53956,35.61829],[138.53985,35.61826],[138.54,35.61824],[138.54008,35.61828],[138.54068,35.61822],[138.54151,35.6183],[138.54237,35.61855],[138.54244,35.61857],[138.54249,35.61858],[138.54286,35.61864],[138.5434,35.61873],[138.54347,35.61874],[138.54348,35.6187],[138.5436,35.61844],[138.54368,35.61826]]]}},{"type":"Feature","properties":{"name":"若宮","setai":970,"jinko":1549,"key":"192140062","units":1},"geometry":{"type":"Polygon","coordinates":[[[138.53494,35.61596],[138.53524,35.6153],[138.53531,35.61513],[138.53559,35.61451],[138.53581,35.61454],[138.53603,35.61457],[138.5361,35.61457],[138.53619,35.61457],[138.53636,35.61455],[138.53661,35.61447],[138.53669,35.61445],[138.53683,35.6144],[138.53699,35.61433],[138.53705,35.61419],[138.53711,35.61405],[138.53734,35.61361],[138.53747,35.61364],[138.53754,35.61366],[138.53763,35.61346],[138.53765,35.61343],[138.53777,35.61347],[138.53787,35.6135],[138.53798,35.61351],[138.53806,35.61351],[138.53814,35.61335],[138.53834,35.61294],[138.53863,35.61294],[138.53876,35.61295],[138.53886,35.61298],[138.53877,35.61319],[138.53921,35.61338],[138.53951,35.61353],[138.53935,35.61392],[138.53931,35.61401],[138.53914,35.61437],[138.54039,35.61461],[138.54045,35.61462],[138.54055,35.61463],[138.54065,35.61464],[138.54094,35.61461],[138.54096,35.61461],[138.54095,35.61452],[138.54141,35.61372],[138.54183,35.61297],[138.54222,35.61228],[138.54262,35.61188],[138.54296,35.61153],[138.54321,35.61128],[138.54323,35.61125],[138.5431,35.61115],[138.54294,35.6107],[138.54288,35.61056],[138.54276,35.61027],[138.54269,35.61012],[138.54205,35.60952],[138.54188,35.60963],[138.5418,35.60973],[138.54164,35.60993],[138.54149,35.60994],[138.54095,35.60997],[138.54089,35.61004],[138.54083,35.61011],[138.54066,35.61022],[138.54056,35.61028],[138.54034,35.61041],[138.54011,35.61052],[138.5399,35.6106],[138.53974,35.61066],[138.53964,35.61068],[138.53955,35.6107],[138.53909,35.61071],[138.53844,35.61071],[138.53828,35.61071],[138.5381,35.61072],[138.53796,35.61075],[138.53782,35.6108],[138.53759,35.61089],[138.53746,35.61096],[138.53744,35.61097],[138.53736,35.61101],[138.53644,35.61118],[138.53616,35.61124],[138.53589,35.61129],[138.53548,35.61136],[138.53512,35.61142],[138.53516,35.61174],[138.53463,35.61169],[138.5346,35.61181],[138.53456,35.61212],[138.53497,35.61215],[138.53501,35.61216],[138.53498,35.61254],[138.5352,35.61256],[138.53517,35.61271],[138.53516,35.61279],[138.53512,35.61295],[138.53446,35.6134],[138.53436,35.61365],[138.53431,35.61377],[138.53422,35.61399],[138.53414,35.61423],[138.53415,35.61459],[138.53416,35.61498],[138.53414,35.61507],[138.53412,35.61513],[138.53405,35.6154],[138.53426,35.61539],[138.5343,35.6159],[138.53456,35.61587],[138.53464,35.61587],[138.53494,35.61596]]]}},{"type":"Feature","properties":{"name":"西新居","setai":570,"jinko":1060,"key":"192140070","units":1},"geometry":{"type":"Polygon","coordinates":[[[138.54656,35.61412],[138.54692,35.61384],[138.54676,35.61375],[138.54648,35.61357],[138.54627,35.61396],[138.54587,35.61381],[138.54616,35.61328],[138.5463,35.61301],[138.54633,35.61294],[138.54656,35.61295],[138.54666,35.6128],[138.54688,35.61251],[138.54697,35.61251],[138.54704,35.61239],[138.54706,35.61205],[138.54715,35.6119],[138.54723,35.61187],[138.54749,35.61161],[138.54728,35.61162],[138.54723,35.61164],[138.54718,35.6117],[138.54716,35.6117],[138.54711,35.6117],[138.54706,35.61168],[138.54704,35.61165],[138.54703,35.6116],[138.54708,35.61106],[138.54706,35.61095],[138.5471,35.61095],[138.54754,35.61086],[138.54756,35.61056],[138.5478,35.61049],[138.54786,35.61047],[138.54792,35.61042],[138.54807,35.61035],[138.54832,35.61024],[138.54842,35.6102],[138.54847,35.61016],[138.5486,35.61004],[138.5487,35.60986],[138.54872,35.60981],[138.5487,35.60974],[138.54868,35.60967],[138.54865,35.60962],[138.54863,35.60958],[138.54863,35.60955],[138.54863,35.60949],[138.54867,35.60929],[138.54895,35.60933],[138.54916,35.60931],[138.54921,35.60928],[138.54896,35.60913],[138.5487,35.60903],[138.54867,35.60902],[138.54846,35.60901],[138.5484,35.60902],[138.54827,35.60906],[138.54763,35.6093],[138.54754,35.60924],[138.54751,35.60922],[138.54713,35.6095],[138.54656,35.60973],[138.54614,35.60986],[138.54599,35.6099],[138.54548,35.61],[138.54534,35.61003],[138.54517,35.61011],[138.54488,35.61024],[138.54467,35.61031],[138.54437,35.61042],[138.54409,35.61054],[138.54401,35.61057],[138.54381,35.61068],[138.54376,35.61072],[138.54358,35.61087],[138.54339,35.61108],[138.54323,35.61125],[138.5435,35.6114],[138.54364,35.61154],[138.54375,35.61167],[138.54381,35.61174],[138.54384,35.61178],[138.54395,35.61203],[138.54403,35.61221],[138.54406,35.61227],[138.54412,35.61233],[138.5442,35.61239],[138.5444,35.61253],[138.54449,35.61262],[138.54458,35.6128],[138.5447,35.61311],[138.54481,35.61341],[138.54488,35.61361],[138.54489,35.61362],[138.54491,35.61378],[138.54491,35.61397],[138.5449,35.61404],[138.54485,35.61434],[138.54467,35.61525],[138.54466,35.61531],[138.54515,35.61533],[138.54562,35.61534],[138.54562,35.61532],[138.54567,35.61524],[138.54577,35.61508],[138.54579,35.61505],[138.54582,35.61503],[138.54596,35.61499],[138.54599,35.61494],[138.54609,35.61471],[138.54611,35.61467],[138.54626,35.61436],[138.54656,35.61412]]]}},{"type":"Feature","properties":{"name":"中楯","setai":573,"jinko":1192,"key":"192140080","units":1},"geometry":{"type":"Polygon","coordinates":[[[138.55387,35.61724],[138.55394,35.61564],[138.55401,35.61418],[138.5541,35.61238],[138.55418,35.61091],[138.55418,35.61061],[138.55417,35.61035],[138.55411,35.60992],[138.55416,35.60986],[138.55422,35.60964],[138.55427,35.6094],[138.55423,35.60929],[138.5542,35.60923],[138.55407,35.60915],[138.55392,35.60907],[138.55382,35.60895],[138.55392,35.60872],[138.55411,35.60825],[138.55416,35.60815],[138.5536,35.60823],[138.55327,35.60834],[138.55323,35.60834],[138.55298,35.6084],[138.55307,35.60864],[138.55235,35.609],[138.55232,35.60889],[138.552,35.60889],[138.55134,35.60848],[138.55117,35.60864],[138.55113,35.60865],[138.55109,35.60865],[138.551,35.60863],[138.55094,35.60861],[138.55081,35.60862],[138.55069,35.60862],[138.55043,35.60859],[138.55022,35.60856],[138.55013,35.60857],[138.54998,35.60861],[138.54987,35.60862],[138.54978,35.60862],[138.54963,35.6086],[138.54957,35.60859],[138.54875,35.609],[138.5487,35.60903],[138.54896,35.60913],[138.54921,35.60928],[138.54916,35.60931],[138.54895,35.60933],[138.54867,35.60929],[138.54863,35.60949],[138.54863,35.60955],[138.54863,35.60958],[138.54865,35.60962],[138.54868,35.60967],[138.5487,35.60974],[138.54872,35.60981],[138.5487,35.60986],[138.5486,35.61004],[138.54847,35.61016],[138.54842,35.6102],[138.54832,35.61024],[138.54807,35.61035],[138.54792,35.61042],[138.54786,35.61047],[138.5478,35.61049],[138.54756,35.61056],[138.54754,35.61086],[138.5471,35.61095],[138.54706,35.61095],[138.54708,35.61106],[138.54703,35.6116],[138.54704,35.61165],[138.54706,35.61168],[138.54711,35.6117],[138.54716,35.6117],[138.54718,35.6117],[138.54723,35.61164],[138.54728,35.61162],[138.54749,35.61161],[138.54723,35.61187],[138.54715,35.6119],[138.54706,35.61205],[138.54704,35.61239],[138.54697,35.61251],[138.54688,35.61251],[138.54666,35.6128],[138.54656,35.61295],[138.54633,35.61294],[138.5463,35.61301],[138.54616,35.61328],[138.54587,35.61381],[138.54627,35.61396],[138.54648,35.61357],[138.54676,35.61375],[138.54692,35.61384],[138.54656,35.61412],[138.54626,35.61436],[138.54611,35.61467],[138.54609,35.61471],[138.54599,35.61494],[138.54596,35.61499],[138.54582,35.61503],[138.54579,35.61505],[138.54577,35.61508],[138.54567,35.61524],[138.54562,35.61532],[138.54562,35.61534],[138.5456,35.6154],[138.54558,35.61559],[138.54557,35.61562],[138.54558,35.61572],[138.54558,35.61574],[138.54562,35.61595],[138.54566,35.61612],[138.54548,35.61621],[138.54548,35.61626],[138.54548,35.61632],[138.54548,35.61636],[138.54548,35.61646],[138.54547,35.61652],[138.54542,35.61666],[138.5454,35.6167],[138.54521,35.61676],[138.54516,35.61681],[138.5451,35.61692],[138.54525,35.61693],[138.54529,35.61683],[138.54543,35.6168],[138.54564,35.61681],[138.54586,35.61682],[138.54655,35.61685],[138.54666,35.61685],[138.54737,35.61689],[138.54738,35.6168],[138.54745,35.6168],[138.54802,35.61683],[138.54805,35.61687],[138.54807,35.61687],[138.55007,35.61697],[138.55011,35.61701],[138.55013,35.61706],[138.55015,35.6171],[138.55387,35.61724]]]}},{"type":"Feature","properties":{"name":"成島","setai":732,"jinko":1677,"key":"192140090","units":1},"geometry":{"type":"Polygon","coordinates":[[[138.54713,35.6095],[138.54751,35.60922],[138.54754,35.60924],[138.54763,35.6093],[138.54827,35.60906],[138.5484,35.60902],[138.54846,35.60901],[138.54867,35.60902],[138.5487,35.60903],[138.54875,35.609],[138.54957,35.60859],[138.54963,35.6086],[138.54978,35.60862],[138.54987,35.60862],[138.54998,35.60861],[138.55013,35.60857],[138.55022,35.60856],[138.55043,35.60859],[138.55069,35.60862],[138.55081,35.60862],[138.55094,35.60861],[138.551,35.60863],[138.55109,35.60865],[138.55113,35.60865],[138.55117,35.60864],[138.55134,35.60848],[138.552,35.60889],[138.55232,35.60889],[138.55235,35.609],[138.55307,35.60864],[138.55298,35.6084],[138.55323,35.60834],[138.55327,35.60834],[138.5536,35.60823],[138.55416,35.60815],[138.55421,35.60804],[138.55427,35.60799],[138.55444,35.60792],[138.55448,35.60785],[138.55448,35.60777],[138.55445,35.60771],[138.55443,35.60766],[138.55441,35.60756],[138.55443,35.60746],[138.55459,35.60715],[138.55465,35.60702],[138.55467,35.6069],[138.55472,35.60679],[138.55484,35.60667],[138.55487,35.60662],[138.55487,35.60655],[138.55483,35.60654],[138.5545,35.60653],[138.55455,35.60642],[138.55458,35.60632],[138.55463,35.60612],[138.55466,35.60596],[138.55467,35.60585],[138.55468,35.60578],[138.55467,35.60568],[138.55463,35.60542],[138.55463,35.60531],[138.55462,35.60504],[138.55461,35.60477],[138.55461,35.60476],[138.55461,35.6046],[138.5546,35.6045],[138.55457,35.60433],[138.55452,35.60407],[138.55445,35.60382],[138.55443,35.60375],[138.55443,35.60369],[138.55441,35.60355],[138.5544,35.60342],[138.55436,35.60331],[138.55431,35.60316],[138.55425,35.60296],[138.55409,35.60255],[138.55403,35.60237],[138.55404,35.60231],[138.5545,35.60143],[138.55463,35.60124],[138.55464,35.60121],[138.55465,35.60118],[138.55466,35.6011],[138.55467,35.60092],[138.55467,35.60085],[138.55467,35.60076],[138.5547,35.60057],[138.55474,35.60028],[138.55474,35.60018],[138.55473,35.60004],[138.55473,35.59999],[138.55472,35.59996],[138.5547,35.59991],[138.55469,35.59989],[138.55468,35.59986],[138.55463,35.59978],[138.55461,35.59973],[138.55453,35.59964],[138.55439,35.59948],[138.55432,35.59939],[138.55428,35.59933],[138.55421,35.59918],[138.55416,35.5991],[138.55411,35.59902],[138.55409,35.59894],[138.55408,35.59886],[138.55408,35.59886],[138.55397,35.59882],[138.5539,35.59879],[138.55366,35.59865],[138.55367,35.59853],[138.55365,35.59805],[138.55363,35.59783],[138.55306,35.59806],[138.55295,35.5981],[138.55292,35.59811],[138.55273,35.59817],[138.5526,35.59823],[138.55237,35.59826],[138.55231,35.59827],[138.55225,35.59827],[138.55203,35.59828],[138.55188,35.59828],[138.55179,35.59828],[138.55156,35.5983],[138.55149,35.59831],[138.55144,35.5983],[138.55136,35.5983],[138.55129,35.59831],[138.55115,35.59833],[138.55107,35.59835],[138.55085,35.5984],[138.55081,35.59841],[138.55056,35.59842],[138.55026,35.59846],[138.55011,35.59848],[138.55002,35.5985],[138.54974,35.59857],[138.54959,35.5986],[138.5495,35.5986],[138.54935,35.59859],[138.54891,35.59856],[138.54883,35.59856],[138.54844,35.59865],[138.54836,35.59854],[138.54825,35.59844],[138.54814,35.59823],[138.54799,35.59796],[138.54787,35.59776],[138.5478,35.59765],[138.54772,35.59755],[138.54748,35.5972],[138.54739,35.5971],[138.54724,35.59698],[138.54716,35.59691],[138.54633,35.59702],[138.54594,35.59706],[138.54583,35.59706],[138.54558,35.59654],[138.54556,35.5965],[138.54555,35.59646],[138.54552,35.59628],[138.5455,35.59621],[138.54542,35.59611],[138.54536,35.59607],[138.5453,35.59605],[138.54496,35.59611],[138.54508,35.59646],[138.54517,35.59665],[138.54508,35.59673],[138.54506,35.59677],[138.54505,35.59682],[138.54504,35.59694],[138.54506,35.59704],[138.54516,35.59756],[138.54516,35.59762],[138.54525,35.59792],[138.54545,35.5983],[138.54478,35.59835],[138.545,35.59929],[138.54517,35.60004],[138.54508,35.60006],[138.54478,35.60007],[138.54403,35.60004],[138.54319,35.59999],[138.54328,35.60049],[138.5433,35.60067],[138.54331,35.6008],[138.54334,35.60102],[138.54338,35.60145],[138.54342,35.602],[138.54342,35.60205],[138.54345,35.60224],[138.54348,35.60259],[138.54348,35.60266],[138.54347,35.60291],[138.54345,35.60327],[138.54343,35.60356],[138.5434,35.6042],[138.5434,35.60425],[138.54337,35.6046],[138.54336,35.60478],[138.54334,35.60508],[138.54334,35.60523],[138.54332,35.60573],[138.54331,35.60587],[138.54329,35.60645],[138.54328,35.60657],[138.54327,35.60675],[138.54325,35.60716],[138.54331,35.60735],[138.54335,35.60746],[138.54351,35.6078],[138.54349,35.60807],[138.54349,35.60853],[138.54348,35.60886],[138.54349,35.60907],[138.54252,35.60906],[138.54218,35.60907],[138.54218,35.6094],[138.54218,35.60952],[138.54206,35.60952],[138.54205,35.60952],[138.54269,35.61012],[138.54276,35.61027],[138.54288,35.61056],[138.54294,35.6107],[138.5431,35.61115],[138.54323,35.61125],[138.54339,35.61108],[138.54358,35.61087],[138.54376,35.61072],[138.54381,35.61068],[138.54401,35.61057],[138.54409,35.61054],[138.54437,35.61042],[138.54467,35.61031],[138.54488,35.61024],[138.54517,35.61011],[138.54534,35.61003],[138.54548,35.61],[138.54599,35.6099],[138.54614,35.60986],[138.54656,35.60973],[138.54713,35.6095]]]}},{"type":"Feature","properties":{"name":"極楽寺","setai":86,"jinko":314,"key":"192140100","units":1},"geometry":{"type":"Polygon","coordinates":[[[138.55598,35.60478],[138.55624,35.60474],[138.55642,35.60478],[138.55665,35.60478],[138.55675,35.60477],[138.55686,35.60469],[138.55691,35.60464],[138.55707,35.60471],[138.55717,35.6047],[138.55722,35.60485],[138.55733,35.60506],[138.5574,35.60519],[138.55769,35.60581],[138.558,35.6057],[138.55826,35.60565],[138.55844,35.60568],[138.55851,35.60583],[138.55867,35.60592],[138.55896,35.60593],[138.55904,35.60592],[138.55906,35.60552],[138.55921,35.60526],[138.5592,35.60507],[138.55931,35.60492],[138.55918,35.60456],[138.55924,35.60433],[138.55934,35.60415],[138.55949,35.60402],[138.5595,35.6038],[138.55959,35.60345],[138.55962,35.60335],[138.55964,35.60323],[138.55964,35.60314],[138.5596,35.60294],[138.55955,35.60264],[138.55944,35.60212],[138.55933,35.60152],[138.55925,35.60105],[138.55921,35.60075],[138.5592,35.60054],[138.55919,35.60032],[138.55922,35.60013],[138.55929,35.59987],[138.55937,35.59971],[138.55961,35.59938],[138.55986,35.59909],[138.56016,35.59877],[138.56019,35.5987],[138.5602,35.59866],[138.5602,35.5986],[138.56017,35.59822],[138.56014,35.5978],[138.56007,35.59763],[138.56,35.59747],[138.55994,35.59739],[138.55988,35.59733],[138.55971,35.59716],[138.55968,35.59713],[138.55927,35.597],[138.55894,35.59688],[138.5588,35.59679],[138.5585,35.59651],[138.55819,35.59621],[138.55793,35.5958],[138.55771,35.59547],[138.55756,35.59521],[138.55779,35.59469],[138.55782,35.59454],[138.55777,35.59445],[138.55725,35.59419],[138.55717,35.59405],[138.55729,35.59375],[138.55705,35.59367],[138.55691,35.59352],[138.55652,35.59347],[138.55596,35.59238],[138.55568,35.59216],[138.55531,35.59192],[138.55515,35.59182],[138.55502,35.59176],[138.55491,35.59171],[138.55482,35.59167],[138.55466,35.59162],[138.55446,35.59157],[138.55426,35.59153],[138.55404,35.5915],[138.55271,35.59113],[138.5524,35.59105],[138.55185,35.59095],[138.5513,35.59088],[138.55079,35.59084],[138.55084,35.59099],[138.55089,35.5911],[138.55127,35.59184],[138.55139,35.59207],[138.55204,35.5939],[138.55253,35.59494],[138.55364,35.59618],[138.55363,35.59622],[138.55353,35.59639],[138.55352,35.5964],[138.55344,35.59653],[138.55336,35.59664],[138.55331,35.59671],[138.5533,35.5968],[138.55327,35.59701],[138.55326,35.59716],[138.55327,35.59721],[138.55329,35.59726],[138.55332,35.5973],[138.55341,35.59736],[138.55351,35.59742],[138.5536,35.59749],[138.55361,35.59756],[138.55362,35.59762],[138.55363,35.59783],[138.55365,35.59805],[138.55367,35.59853],[138.55366,35.59865],[138.5539,35.59879],[138.55397,35.59882],[138.55408,35.59886],[138.55408,35.59886],[138.55409,35.59894],[138.55411,35.59902],[138.55416,35.5991],[138.55421,35.59918],[138.55428,35.59933],[138.55432,35.59939],[138.55439,35.59948],[138.55453,35.59964],[138.55461,35.59973],[138.55463,35.59978],[138.55468,35.59986],[138.55469,35.59989],[138.5547,35.59991],[138.55472,35.59996],[138.55473,35.59999],[138.55473,35.60004],[138.55474,35.60018],[138.55474,35.60028],[138.5547,35.60057],[138.55467,35.60076],[138.55467,35.60085],[138.55467,35.60092],[138.55466,35.6011],[138.55465,35.60118],[138.55464,35.60121],[138.55463,35.60124],[138.5545,35.60143],[138.55404,35.60231],[138.55403,35.60237],[138.55409,35.60255],[138.55425,35.60296],[138.55431,35.60316],[138.55436,35.60331],[138.5544,35.60342],[138.55441,35.60355],[138.55443,35.60369],[138.55443,35.60375],[138.55445,35.60382],[138.55452,35.60407],[138.55457,35.60433],[138.5546,35.6045],[138.55461,35.6046],[138.55461,35.60476],[138.55461,35.60477],[138.55462,35.60504],[138.55463,35.60531],[138.55463,35.60542],[138.55467,35.60568],[138.55468,35.60578],[138.55467,35.60585],[138.55466,35.60596],[138.55463,35.60612],[138.55458,35.60632],[138.55455,35.60642],[138.5545,35.60653],[138.55483,35.60654],[138.55487,35.60655],[138.55487,35.60648],[138.55488,35.60633],[138.55491,35.60617],[138.55496,35.60602],[138.55502,35.60584],[138.55513,35.60574],[138.5552,35.60568],[138.55523,35.60562],[138.55525,35.60555],[138.55525,35.60546],[138.55528,35.60538],[138.55541,35.60517],[138.55548,35.60504],[138.5555,35.60487],[138.55598,35.60478]]]}},{"type":"Feature","properties":{"name":"乙黒","setai":129,"jinko":447,"key":"192140110","units":1},"geometry":{"type":"Polygon","coordinates":[[[138.54496,35.59611],[138.5453,35.59605],[138.54536,35.59607],[138.54542,35.59611],[138.5455,35.59621],[138.54552,35.59628],[138.54555,35.59646],[138.54556,35.5965],[138.54558,35.59654],[138.54583,35.59706],[138.54594,35.59706],[138.54633,35.59702],[138.54716,35.59691],[138.54724,35.59698],[138.54739,35.5971],[138.54748,35.5972],[138.54772,35.59755],[138.5478,35.59765],[138.54787,35.59776],[138.54799,35.59796],[138.54814,35.59823],[138.54825,35.59844],[138.54836,35.59854],[138.54844,35.59865],[138.54883,35.59856],[138.54891,35.59856],[138.54935,35.59859],[138.5495,35.5986],[138.54959,35.5986],[138.54974,35.59857],[138.55002,35.5985],[138.55011,35.59848],[138.55026,35.59846],[138.55056,35.59842],[138.55081,35.59841],[138.55085,35.5984],[138.55107,35.59835],[138.55115,35.59833],[138.55129,35.59831],[138.55136,35.5983],[138.55144,35.5983],[138.55149,35.59831],[138.55156,35.5983],[138.55179,35.59828],[138.55188,35.59828],[138.55203,35.59828],[138.55225,35.59827],[138.55231,35.59827],[138.55237,35.59826],[138.5526,35.59823],[138.55273,35.59817],[138.55292,35.59811],[138.55295,35.5981],[138.55306,35.59806],[138.55363,35.59783],[138.55362,35.59762],[138.55361,35.59756],[138.5536,35.59749],[138.55351,35.59742],[138.55341,35.59736],[138.55332,35.5973],[138.55329,35.59726],[138.55327,35.59721],[138.55326,35.59716],[138.55327,35.59701],[138.5533,35.5968],[138.55331,35.59671],[138.55336,35.59664],[138.55344,35.59653],[138.55352,35.5964],[138.55353,35.59639],[138.55363,35.59622],[138.55364,35.59618],[138.55253,35.59494],[138.55204,35.5939],[138.55139,35.59207],[138.55127,35.59184],[138.55089,35.5911],[138.55084,35.59099],[138.55079,35.59084],[138.5513,35.59088],[138.55185,35.59095],[138.5524,35.59105],[138.55271,35.59113],[138.55404,35.5915],[138.55426,35.59153],[138.55446,35.59157],[138.55466,35.59162],[138.55482,35.59167],[138.55491,35.59171],[138.55502,35.59176],[138.55515,35.59182],[138.55531,35.59192],[138.55568,35.59216],[138.55596,35.59238],[138.55827,35.59222],[138.55837,35.59227],[138.55959,35.5917],[138.55877,35.59107],[138.55862,35.59096],[138.55839,35.59078],[138.5583,35.59072],[138.55809,35.59056],[138.55773,35.59034],[138.55748,35.59021],[138.55712,35.59003],[138.5568,35.58987],[138.55657,35.58976],[138.55635,35.58965],[138.55619,35.58958],[138.55608,35.58953],[138.55579,35.58944],[138.55555,35.58938],[138.55531,35.58931],[138.55505,35.58926],[138.55485,35.58923],[138.55466,35.58919],[138.5545,35.58917],[138.55426,35.58914],[138.55406,35.58912],[138.55384,35.58911],[138.55353,35.58908],[138.55319,35.58906],[138.55287,35.58905],[138.55254,35.58904],[138.55167,35.58902],[138.55156,35.58901],[138.55136,35.58903],[138.55128,35.58904],[138.55075,35.58906],[138.54954,35.58899],[138.54753,35.58888],[138.54655,35.58881],[138.54593,35.58877],[138.54487,35.58857],[138.5448,35.58855],[138.54476,35.58854],[138.5442,35.58842],[138.54373,35.58832],[138.54241,35.58784],[138.5416,35.5875],[138.54155,35.58748],[138.54145,35.58743],[138.54091,35.58875],[138.54094,35.5888],[138.54111,35.58904],[138.54127,35.58929],[138.54136,35.58944],[138.54149,35.58969],[138.54158,35.58989],[138.54162,35.59001],[138.54164,35.59008],[138.54168,35.59023],[138.5417,35.5904],[138.5417,35.59045],[138.5417,35.59057],[138.54168,35.59086],[138.54166,35.59109],[138.54164,35.59144],[138.54165,35.59167],[138.54167,35.59188],[138.54169,35.59212],[138.54173,35.59232],[138.54176,35.59248],[138.5418,35.59263],[138.54185,35.59278],[138.54191,35.59294],[138.54195,35.59305],[138.54201,35.5932],[138.54215,35.59349],[138.54218,35.59359],[138.54221,35.59369],[138.54223,35.5938],[138.54224,35.59392],[138.54224,35.59407],[138.54223,35.59478],[138.54222,35.59494],[138.5422,35.59564],[138.5422,35.59577],[138.54219,35.59622],[138.54219,35.59644],[138.54228,35.59672],[138.54235,35.59695],[138.54239,35.59706],[138.54255,35.59752],[138.54269,35.59794],[138.54276,35.59815],[138.54296,35.59889],[138.54312,35.59949],[138.54315,35.59973],[138.54319,35.59999],[138.54403,35.60004],[138.54478,35.60007],[138.54508,35.60006],[138.54517,35.60004],[138.545,35.59929],[138.54478,35.59835],[138.54545,35.5983],[138.54525,35.59792],[138.54516,35.59762],[138.54516,35.59756],[138.54506,35.59704],[138.54504,35.59694],[138.54505,35.59682],[138.54506,35.59677],[138.54508,35.59673],[138.54517,35.59665],[138.54508,35.59646],[138.54496,35.59611]]]}},{"type":"Feature","properties":{"name":"一町畑","setai":119,"jinko":284,"key":"192140120","units":1},"geometry":{"type":"Polygon","coordinates":[[[138.53593,35.59509],[138.53594,35.59343],[138.53755,35.59344],[138.53756,35.59305],[138.53756,35.59291],[138.53827,35.59291],[138.53839,35.59291],[138.53841,35.5921],[138.53841,35.5917],[138.53841,35.59146],[138.53842,35.59096],[138.53842,35.59073],[138.53889,35.5906],[138.5391,35.59055],[138.53933,35.59053],[138.53965,35.59049],[138.54001,35.59045],[138.54033,35.59043],[138.54055,35.59041],[138.54097,35.59037],[138.5411,35.59038],[138.54141,35.59041],[138.54155,35.59043],[138.5417,35.59045],[138.5417,35.5904],[138.54168,35.59023],[138.54164,35.59008],[138.54162,35.59001],[138.54158,35.58989],[138.54149,35.58969],[138.54136,35.58944],[138.54127,35.58929],[138.54111,35.58904],[138.54094,35.5888],[138.54091,35.58875],[138.54145,35.58743],[138.54116,35.58731],[138.54047,35.58697],[138.5387,35.58605],[138.53427,35.58341],[138.53381,35.58314],[138.53385,35.5831],[138.53325,35.58272],[138.53226,35.58363],[138.53176,35.58404],[138.53124,35.58457],[138.53117,35.58459],[138.53102,35.58463],[138.53078,35.58469],[138.53114,35.58489],[138.53085,35.58534],[138.53072,35.58587],[138.53064,35.5862],[138.53063,35.5864],[138.53065,35.58645],[138.53069,35.58656],[138.53078,35.58677],[138.53097,35.58725],[138.53109,35.58755],[138.53109,35.58769],[138.53107,35.58789],[138.53104,35.58814],[138.53102,35.58836],[138.53105,35.58854],[138.53105,35.58859],[138.53106,35.58866],[138.53106,35.58875],[138.53144,35.58871],[138.5315,35.58883],[138.53153,35.58896],[138.53155,35.58903],[138.53157,35.58911],[138.53158,35.58918],[138.53159,35.58926],[138.5316,35.58933],[138.53159,35.58955],[138.53158,35.58988],[138.53158,35.59013],[138.53161,35.59028],[138.53166,35.59042],[138.53171,35.59056],[138.53187,35.59091],[138.53194,35.59108],[138.532,35.59129],[138.53205,35.59148],[138.53209,35.59171],[138.53213,35.59191],[138.53222,35.59276],[138.53227,35.59286],[138.53233,35.59303],[138.53241,35.5932],[138.5325,35.59344],[138.53251,35.59347],[138.53263,35.59346],[138.53261,35.59508],[138.53345,35.59508],[138.53426,35.59509],[138.53592,35.59509],[138.53593,35.59509]]]}},{"type":"Feature","properties":{"name":"町之田","setai":42,"jinko":98,"key":"192140130","units":1},"geometry":{"type":"Polygon","coordinates":[[[138.54074,35.59585],[138.54094,35.59517],[138.5422,35.59564],[138.54222,35.59494],[138.54223,35.59478],[138.54224,35.59407],[138.54224,35.59392],[138.54223,35.5938],[138.54221,35.59369],[138.54218,35.59359],[138.54215,35.59349],[138.54201,35.5932],[138.54195,35.59305],[138.54191,35.59294],[138.54185,35.59278],[138.5418,35.59263],[138.54176,35.59248],[138.54173,35.59232],[138.54169,35.59212],[138.54167,35.59188],[138.54165,35.59167],[138.54164,35.59144],[138.54166,35.59109],[138.54168,35.59086],[138.5417,35.59057],[138.5417,35.59045],[138.54155,35.59043],[138.54141,35.59041],[138.5411,35.59038],[138.54097,35.59037],[138.54055,35.59041],[138.54033,35.59043],[138.54001,35.59045],[138.53965,35.59049],[138.53933,35.59053],[138.5391,35.59055],[138.53889,35.5906],[138.53842,35.59073],[138.53842,35.59096],[138.53841,35.59146],[138.53841,35.5917],[138.53841,35.5921],[138.53839,35.59291],[138.53827,35.59291],[138.53756,35.59291],[138.53756,35.59305],[138.53755,35.59344],[138.53594,35.59343],[138.53593,35.59509],[138.53827,35.5951],[138.53834,35.59509],[138.53837,35.59509],[138.53854,35.59504],[138.53879,35.59504],[138.53877,35.59508],[138.53871,35.59528],[138.53871,35.59531],[138.53869,35.59534],[138.5386,35.59545],[138.53859,35.59548],[138.53859,35.59577],[138.539,35.59574],[138.53908,35.59574],[138.5394,35.59576],[138.53946,35.59546],[138.54043,35.59552],[138.54041,35.59577],[138.5404,35.59587],[138.54072,35.59586],[138.54074,35.59585]]]}},{"type":"Feature","properties":{"name":"下三條","setai":655,"jinko":1466,"key":"192140140","units":1},"geometry":{"type":"Polygon","coordinates":[[[138.53051,35.60162],[138.53076,35.6016],[138.53078,35.60159],[138.53081,35.60121],[138.53082,35.60119],[138.53087,35.60113],[138.53087,35.60113],[138.53086,35.60098],[138.53107,35.60098],[138.53147,35.60098],[138.53195,35.60091],[138.53242,35.60086],[138.53423,35.60086],[138.53423,35.59954],[138.53339,35.59927],[138.53343,35.59674],[138.53345,35.59508],[138.53261,35.59508],[138.53263,35.59346],[138.53251,35.59347],[138.53251,35.59352],[138.53252,35.5936],[138.53252,35.5939],[138.53252,35.59402],[138.53153,35.59419],[138.53132,35.59425],[138.53124,35.59425],[138.53114,35.59425],[138.53081,35.59428],[138.53046,35.5943],[138.53028,35.59431],[138.53005,35.59432],[138.5294,35.5944],[138.5289,35.59445],[138.52865,35.59446],[138.52832,35.59448],[138.52761,35.5945],[138.52768,35.59538],[138.52778,35.59638],[138.52778,35.59642],[138.5275,35.59643],[138.5275,35.59647],[138.52651,35.59657],[138.52651,35.59659],[138.52656,35.59713],[138.52657,35.59715],[138.52651,35.59771],[138.52658,35.59791],[138.5266,35.59834],[138.52671,35.59983],[138.52684,35.6013],[138.5274,35.60128],[138.52743,35.60165],[138.52804,35.6016],[138.52809,35.60191],[138.52875,35.60183],[138.5295,35.60174],[138.53051,35.60162]]]}},{"type":"Feature","properties":{"name":"上三條","setai":424,"jinko":958,"key":"192140150","units":1},"geometry":{"type":"Polygon","coordinates":[[[138.53027,35.6092],[138.53043,35.60782],[138.53131,35.60789],[138.53142,35.607],[138.53239,35.60709],[138.53305,35.60714],[138.53322,35.60715],[138.5333,35.60658],[138.53338,35.60578],[138.53345,35.60513],[138.5343,35.60519],[138.53425,35.60453],[138.53422,35.60402],[138.53423,35.60384],[138.53422,35.60322],[138.53422,35.60273],[138.53422,35.60207],[138.53423,35.60086],[138.53242,35.60086],[138.53195,35.60091],[138.53147,35.60098],[138.53107,35.60098],[138.53086,35.60098],[138.53087,35.60113],[138.53087,35.60113],[138.53082,35.60119],[138.53081,35.60121],[138.53078,35.60159],[138.53076,35.6016],[138.53051,35.60162],[138.5295,35.60174],[138.52875,35.60183],[138.52809,35.60191],[138.52804,35.6016],[138.52743,35.60165],[138.5274,35.60128],[138.52684,35.6013],[138.52696,35.60302],[138.52697,35.60314],[138.52705,35.6041],[138.52707,35.60442],[138.52708,35.60456],[138.52713,35.60518],[138.52713,35.60522],[138.52715,35.60541],[138.52716,35.60545],[138.52727,35.60642],[138.52732,35.60714],[138.52734,35.6074],[138.52734,35.60743],[138.52738,35.6078],[138.52739,35.60801],[138.52738,35.60809],[138.52734,35.60819],[138.52706,35.60853],[138.52704,35.60856],[138.52824,35.60849],[138.52828,35.60922],[138.52833,35.60921],[138.52835,35.60921],[138.52911,35.60918],[138.52924,35.60918],[138.5293,35.60953],[138.53,35.60959],[138.53022,35.60961],[138.53027,35.6092]]]}},{"type":"Feature","properties":{"name":"下河東","setai":905,"jinko":2035,"key":"192140160","units":1},"geometry":{"type":"Polygon","coordinates":[[[138.54218,35.60907],[138.54252,35.60906],[138.54349,35.60907],[138.54348,35.60886],[138.54349,35.60853],[138.54349,35.60807],[138.54351,35.6078],[138.54335,35.60746],[138.54331,35.60735],[138.54325,35.60716],[138.54327,35.60675],[138.54328,35.60657],[138.54329,35.60645],[138.54331,35.60587],[138.54332,35.60573],[138.54334,35.60523],[138.54334,35.60508],[138.54336,35.60478],[138.54337,35.6046],[138.5434,35.60425],[138.5434,35.6042],[138.54343,35.60356],[138.54345,35.60327],[138.54347,35.60291],[138.54348,35.60266],[138.54348,35.60259],[138.54345,35.60224],[138.54342,35.60205],[138.54342,35.602],[138.54338,35.60145],[138.54334,35.60102],[138.54331,35.6008],[138.5433,35.60067],[138.54328,35.60049],[138.54319,35.59999],[138.54315,35.59973],[138.54312,35.59949],[138.54296,35.59889],[138.54276,35.59815],[138.54269,35.59794],[138.54255,35.59752],[138.54239,35.59706],[138.54235,35.59695],[138.54228,35.59672],[138.54219,35.59644],[138.54219,35.59622],[138.5422,35.59577],[138.5422,35.59564],[138.54094,35.59517],[138.54074,35.59585],[138.54072,35.59586],[138.5404,35.59587],[138.54041,35.59577],[138.54043,35.59552],[138.53946,35.59546],[138.5394,35.59576],[138.53908,35.59574],[138.539,35.59574],[138.53859,35.59577],[138.53859,35.59548],[138.5386,35.59545],[138.53869,35.59534],[138.53871,35.59531],[138.53871,35.59528],[138.53877,35.59508],[138.53879,35.59504],[138.53854,35.59504],[138.53837,35.59509],[138.53834,35.59509],[138.53827,35.5951],[138.53593,35.59509],[138.53592,35.59509],[138.53426,35.59509],[138.53345,35.59508],[138.53343,35.59674],[138.53339,35.59927],[138.53423,35.59954],[138.53423,35.60086],[138.53422,35.60207],[138.53422,35.60273],[138.53422,35.60322],[138.53423,35.60384],[138.53422,35.60402],[138.53425,35.60453],[138.5343,35.60519],[138.53345,35.60513],[138.53338,35.60578],[138.5333,35.60658],[138.53322,35.60715],[138.53305,35.60714],[138.53239,35.60709],[138.53142,35.607],[138.53131,35.60789],[138.53043,35.60782],[138.53027,35.6092],[138.53136,35.60928],[138.53131,35.60971],[138.53193,35.60975],[138.53206,35.60968],[138.53275,35.60927],[138.53307,35.60909],[138.53357,35.60881],[138.5338,35.60868],[138.53427,35.60841],[138.53461,35.60823],[138.53461,35.60835],[138.53462,35.60848],[138.53454,35.60898],[138.5349,35.60909],[138.53485,35.60961],[138.53481,35.6101],[138.53463,35.61169],[138.53516,35.61174],[138.53512,35.61142],[138.53548,35.61136],[138.53589,35.61129],[138.53616,35.61124],[138.53644,35.61118],[138.53736,35.61101],[138.53744,35.61097],[138.53746,35.61096],[138.53759,35.61089],[138.53782,35.6108],[138.53796,35.61075],[138.5381,35.61072],[138.53828,35.61071],[138.53844,35.61071],[138.53909,35.61071],[138.53955,35.6107],[138.53964,35.61068],[138.53974,35.61066],[138.5399,35.6106],[138.54011,35.61052],[138.54034,35.61041],[138.54056,35.61028],[138.54066,35.61022],[138.54083,35.61011],[138.54089,35.61004],[138.54095,35.60997],[138.54149,35.60994],[138.54164,35.60993],[138.5418,35.60973],[138.54188,35.60963],[138.54205,35.60952],[138.54206,35.60952],[138.54218,35.60952],[138.54218,35.6094],[138.54218,35.60907]]]}},{"type":"Feature","properties":{"name":"山之神","setai":1454,"jinko":3690,"key":"192140170","units":1},"geometry":{"type":"Polygon","coordinates":[[[138.51591,35.62347],[138.51597,35.62285],[138.51598,35.62266],[138.51604,35.62257],[138.51609,35.62242],[138.51613,35.6223],[138.51664,35.62096],[138.51671,35.62076],[138.51672,35.62075],[138.51693,35.62017],[138.51728,35.61932],[138.51734,35.61922],[138.51738,35.61915],[138.51766,35.619],[138.51774,35.61901],[138.51774,35.61813],[138.5178,35.6175],[138.51784,35.61727],[138.51795,35.61605],[138.518,35.6155],[138.51804,35.61512],[138.51806,35.61381],[138.51872,35.61384],[138.51876,35.61367],[138.51889,35.61319],[138.51895,35.61305],[138.51925,35.61242],[138.51986,35.61089],[138.51995,35.61075],[138.52017,35.61062],[138.52034,35.6104],[138.52048,35.61014],[138.52061,35.60991],[138.52095,35.60998],[138.52107,35.60971],[138.52111,35.60961],[138.52112,35.60954],[138.52114,35.60945],[138.52115,35.60883],[138.52116,35.60878],[138.52123,35.60856],[138.52138,35.60855],[138.52148,35.60854],[138.52196,35.60845],[138.5217,35.60825],[138.52131,35.60792],[138.52109,35.60773],[138.52098,35.60765],[138.52084,35.60756],[138.52051,35.60725],[138.52049,35.60723],[138.52036,35.60711],[138.52025,35.607],[138.52015,35.60691],[138.5199,35.60672],[138.52004,35.60647],[138.52016,35.6062],[138.52021,35.60604],[138.52027,35.6058],[138.52029,35.60542],[138.51857,35.6057],[138.51857,35.60535],[138.51856,35.60499],[138.51853,35.60423],[138.5176,35.60426],[138.51673,35.60428],[138.51638,35.60429],[138.51537,35.60433],[138.51573,35.60508],[138.51624,35.60614],[138.5145,35.60665],[138.5138,35.60684],[138.51327,35.60694],[138.51294,35.60703],[138.51278,35.60707],[138.51233,35.60717],[138.51083,35.60752],[138.51124,35.60665],[138.51178,35.60545],[138.51219,35.60448],[138.51247,35.60382],[138.50893,35.60411],[138.50848,35.60532],[138.50815,35.60621],[138.50801,35.60658],[138.50767,35.60749],[138.50759,35.60771],[138.50716,35.60884],[138.50712,35.60895],[138.50682,35.60978],[138.50676,35.61038],[138.50671,35.61109],[138.50675,35.61475],[138.50676,35.61559],[138.50678,35.61618],[138.50679,35.61695],[138.50678,35.61807],[138.50679,35.61913],[138.5068,35.6201],[138.50683,35.62141],[138.5068,35.62281],[138.50955,35.6228],[138.50982,35.62279],[138.51026,35.62328],[138.51029,35.6233],[138.51034,35.62331],[138.51084,35.62334],[138.51104,35.62335],[138.51108,35.62334],[138.51114,35.6233],[138.51119,35.62327],[138.51124,35.62324],[138.5116,35.62325],[138.51262,35.62331],[138.51348,35.62335],[138.51591,35.62347]]]}},{"type":"Feature","properties":{"name":"布施","setai":1578,"jinko":3492,"key":"192140180","units":1},"geometry":{"type":"Polygon","coordinates":[[[138.52714,35.61233],[138.52719,35.61226],[138.52744,35.61227],[138.52756,35.61222],[138.5276,35.61179],[138.52759,35.61128],[138.52759,35.61113],[138.52757,35.61095],[138.52756,35.61079],[138.52749,35.61054],[138.52748,35.61045],[138.52754,35.61042],[138.52824,35.61052],[138.52823,35.61042],[138.52822,35.61027],[138.52821,35.60987],[138.5284,35.60988],[138.52833,35.60921],[138.52828,35.60922],[138.52824,35.60849],[138.52704,35.60856],[138.52706,35.60853],[138.52734,35.60819],[138.52738,35.60809],[138.52739,35.60801],[138.52738,35.6078],[138.52734,35.60743],[138.52734,35.6074],[138.52732,35.60714],[138.52727,35.60642],[138.52716,35.60545],[138.52715,35.60541],[138.52713,35.60522],[138.52713,35.60518],[138.52708,35.60456],[138.52707,35.60442],[138.52705,35.6041],[138.52697,35.60314],[138.52696,35.60302],[138.52684,35.6013],[138.52671,35.59983],[138.5266,35.59834],[138.52658,35.59791],[138.52651,35.59771],[138.52657,35.59715],[138.52656,35.59713],[138.52651,35.59659],[138.52651,35.59657],[138.5275,35.59647],[138.5275,35.59643],[138.52778,35.59642],[138.52778,35.59638],[138.52768,35.59538],[138.52761,35.5945],[138.5276,35.5945],[138.52753,35.5945],[138.52737,35.5945],[138.52737,35.59453],[138.52674,35.59441],[138.52624,35.59433],[138.52559,35.5942],[138.52486,35.59405],[138.52491,35.59441],[138.5251,35.5944],[138.52517,35.59471],[138.52552,35.59468],[138.52551,35.5955],[138.52405,35.59562],[138.52382,35.59564],[138.5237,35.59481],[138.52369,35.59477],[138.52335,35.59485],[138.52334,35.59482],[138.52278,35.59484],[138.52223,35.59488],[138.52172,35.59492],[138.52165,35.59493],[138.5216,35.59499],[138.52123,35.59507],[138.52118,35.59511],[138.52099,35.59514],[138.52064,35.595],[138.5201,35.59518],[138.51993,35.59519],[138.51983,35.59519],[138.51933,35.59518],[138.51926,35.59535],[138.5192,35.59552],[138.5192,35.59556],[138.5192,35.59561],[138.5192,35.59565],[138.51923,35.59576],[138.5193,35.59599],[138.51937,35.59628],[138.51939,35.59638],[138.5187,35.59643],[138.51867,35.59652],[138.51865,35.59659],[138.51862,35.59669],[138.51858,35.59682],[138.51845,35.5972],[138.51839,35.59742],[138.51832,35.59773],[138.51825,35.5981],[138.51839,35.59807],[138.51891,35.59805],[138.51884,35.5987],[138.51881,35.59897],[138.51898,35.59922],[138.51897,35.59941],[138.5192,35.59941],[138.51926,35.6009],[138.5193,35.60207],[138.51931,35.60237],[138.51845,35.60238],[138.5185,35.60349],[138.51853,35.60423],[138.51856,35.60499],[138.51857,35.60535],[138.51857,35.6057],[138.52029,35.60542],[138.52027,35.6058],[138.52021,35.60604],[138.52016,35.6062],[138.52004,35.60647],[138.5199,35.60672],[138.52015,35.60691],[138.52025,35.607],[138.52036,35.60711],[138.52049,35.60723],[138.52051,35.60725],[138.52084,35.60756],[138.52098,35.60765],[138.52109,35.60773],[138.52131,35.60792],[138.5217,35.60825],[138.52196,35.60845],[138.52148,35.60854],[138.52138,35.60855],[138.52123,35.60856],[138.52116,35.60878],[138.52115,35.60883],[138.52114,35.60945],[138.52112,35.60954],[138.52111,35.60961],[138.52107,35.60971],[138.52095,35.60998],[138.52113,35.61001],[138.52137,35.61002],[138.5215,35.61002],[138.52179,35.61001],[138.52236,35.61],[138.52265,35.60999],[138.52283,35.60999],[138.52314,35.60998],[138.52328,35.60997],[138.52346,35.60997],[138.52357,35.60995],[138.52361,35.60995],[138.52367,35.60995],[138.52373,35.61007],[138.52375,35.61012],[138.52385,35.61027],[138.52393,35.61045],[138.52401,35.61062],[138.52457,35.61062],[138.52455,35.6108],[138.52456,35.61084],[138.52469,35.61092],[138.52483,35.61102],[138.52489,35.61106],[138.52493,35.6111],[138.52496,35.61117],[138.52496,35.61126],[138.52496,35.6113],[138.52496,35.61138],[138.52496,35.61147],[138.52494,35.61158],[138.52491,35.61185],[138.52489,35.61197],[138.52485,35.61207],[138.5248,35.6121],[138.52475,35.61214],[138.52471,35.61222],[138.52468,35.6124],[138.52464,35.61264],[138.52454,35.61309],[138.52436,35.61367],[138.52434,35.61377],[138.52427,35.61439],[138.52441,35.61435],[138.52463,35.6143],[138.52469,35.61429],[138.52484,35.61425],[138.52498,35.61418],[138.52516,35.61414],[138.52527,35.61411],[138.52548,35.61407],[138.5258,35.61404],[138.526,35.61402],[138.52612,35.614],[138.52626,35.61398],[138.52639,35.61398],[138.5264,35.61395],[138.5264,35.61391],[138.52629,35.61385],[138.52623,35.61345],[138.52634,35.61333],[138.52663,35.61286],[138.52681,35.61269],[138.52695,35.61255],[138.52706,35.61243],[138.52714,35.61233]]]}},{"type":"Feature","properties":{"name":"臼井阿原","setai":663,"jinko":1661,"key":"192140190","units":1},"geometry":{"type":"Polygon","coordinates":[[[138.51853,35.60423],[138.5185,35.60349],[138.51845,35.60238],[138.51931,35.60237],[138.5193,35.60207],[138.51926,35.6009],[138.5192,35.59941],[138.51897,35.59941],[138.51898,35.59922],[138.51881,35.59897],[138.51884,35.5987],[138.51891,35.59805],[138.51839,35.59807],[138.51825,35.5981],[138.51832,35.59773],[138.51839,35.59742],[138.51845,35.5972],[138.51858,35.59682],[138.51862,35.59669],[138.51865,35.59659],[138.51867,35.59652],[138.5187,35.59643],[138.51939,35.59638],[138.51937,35.59628],[138.5193,35.59599],[138.51923,35.59576],[138.5192,35.59565],[138.5192,35.59561],[138.5192,35.59556],[138.5192,35.59552],[138.51926,35.59535],[138.51933,35.59518],[138.51938,35.59504],[138.51866,35.59516],[138.51862,35.59516],[138.51845,35.59518],[138.51819,35.5952],[138.5179,35.59526],[138.51778,35.59528],[138.51723,35.59534],[138.51692,35.59538],[138.51689,35.59538],[138.51681,35.59527],[138.51677,35.59519],[138.51674,35.59512],[138.51673,35.59505],[138.5162,35.5945],[138.51608,35.59436],[138.51738,35.59386],[138.51782,35.5937],[138.51731,35.59369],[138.51544,35.59364],[138.51517,35.59363],[138.5149,35.59365],[138.51436,35.5937],[138.51386,35.59374],[138.51231,35.59387],[138.51186,35.5939],[138.50918,35.59401],[138.5092,35.59406],[138.50923,35.5942],[138.5093,35.59442],[138.50945,35.59489],[138.50952,35.59512],[138.50964,35.59554],[138.50973,35.59586],[138.50983,35.59616],[138.50988,35.59631],[138.50999,35.59659],[138.51008,35.59682],[138.5101,35.59691],[138.51012,35.597],[138.51014,35.59711],[138.51015,35.59725],[138.51018,35.59757],[138.51018,35.59781],[138.51018,35.59822],[138.51014,35.59887],[138.51006,35.59938],[138.50997,35.59973],[138.5099,35.60018],[138.50981,35.6007],[138.50976,35.60115],[138.50969,35.60154],[138.50965,35.60174],[138.50959,35.60207],[138.50956,35.60223],[138.50955,35.60235],[138.50953,35.60246],[138.50951,35.60256],[138.50948,35.60264],[138.50945,35.60269],[138.50893,35.60411],[138.51247,35.60382],[138.51219,35.60448],[138.51178,35.60545],[138.51124,35.60665],[138.51083,35.60752],[138.51233,35.60717],[138.51278,35.60707],[138.51294,35.60703],[138.51327,35.60694],[138.5138,35.60684],[138.5145,35.60665],[138.51624,35.60614],[138.51573,35.60508],[138.51537,35.60433],[138.51638,35.60429],[138.51673,35.60428],[138.5176,35.60426],[138.51853,35.60423]]]}},{"type":"Feature","properties":{"name":"西花輪","setai":1213,"jinko":2758,"key":"192140200","units":1},"geometry":{"type":"Polygon","coordinates":[[[138.51866,35.59516],[138.51938,35.59504],[138.51933,35.59518],[138.51983,35.59519],[138.51993,35.59519],[138.5201,35.59518],[138.52064,35.595],[138.52099,35.59514],[138.52118,35.59511],[138.52123,35.59507],[138.5216,35.59499],[138.52165,35.59493],[138.52172,35.59492],[138.52223,35.59488],[138.52278,35.59484],[138.52334,35.59482],[138.52316,35.59426],[138.52302,35.5938],[138.5229,35.59343],[138.52288,35.59331],[138.52288,35.59306],[138.52308,35.59268],[138.52316,35.59252],[138.52319,35.59234],[138.52322,35.59214],[138.52325,35.59214],[138.52326,35.59181],[138.52327,35.59144],[138.52327,35.59113],[138.52328,35.5909],[138.52326,35.59066],[138.52326,35.59062],[138.52325,35.59042],[138.52324,35.59018],[138.52326,35.59007],[138.52332,35.58981],[138.52337,35.58981],[138.52412,35.58978],[138.52437,35.58976],[138.52436,35.58975],[138.52434,35.58947],[138.52431,35.58931],[138.5243,35.58904],[138.5243,35.5888],[138.5234,35.58888],[138.52345,35.58856],[138.5235,35.58824],[138.52351,35.58796],[138.52347,35.58767],[138.52343,35.58738],[138.52338,35.58714],[138.52318,35.58656],[138.52311,35.58637],[138.52251,35.5864],[138.52172,35.58646],[138.52147,35.58649],[138.52137,35.5865],[138.52134,35.58634],[138.52127,35.58608],[138.52108,35.58539],[138.52016,35.58555],[138.51904,35.58574],[138.51768,35.58598],[138.5168,35.58617],[138.5166,35.58583],[138.51622,35.58515],[138.51532,35.58549],[138.51473,35.58448],[138.51344,35.58497],[138.51311,35.58509],[138.5123,35.5854],[138.5115,35.58571],[138.51061,35.58605],[138.51079,35.58636],[138.50952,35.58677],[138.50883,35.58699],[138.50821,35.58721],[138.50608,35.58773],[138.50661,35.58855],[138.50717,35.58942],[138.5075,35.58994],[138.50763,35.59017],[138.50787,35.59059],[138.5081,35.59099],[138.50821,35.59118],[138.50831,35.59137],[138.50836,35.59148],[138.5084,35.59156],[138.50856,35.59191],[138.50864,35.5921],[138.50872,35.59232],[138.5088,35.59257],[138.50894,35.59306],[138.50903,35.59338],[138.5091,35.59368],[138.50918,35.59401],[138.51186,35.5939],[138.51231,35.59387],[138.51386,35.59374],[138.51436,35.5937],[138.5149,35.59365],[138.51517,35.59363],[138.51544,35.59364],[138.51731,35.59369],[138.51782,35.5937],[138.51738,35.59386],[138.51608,35.59436],[138.5162,35.5945],[138.51673,35.59505],[138.51674,35.59512],[138.51677,35.59519],[138.51681,35.59527],[138.51689,35.59538],[138.51692,35.59538],[138.51723,35.59534],[138.51778,35.59528],[138.5179,35.59526],[138.51819,35.5952],[138.51845,35.59518],[138.51862,35.59516],[138.51866,35.59516]]]}},{"type":"Feature","properties":{"name":"東花輪","setai":1529,"jinko":3661,"key":"192140210","units":1},"geometry":{"type":"Polygon","coordinates":[[[138.52551,35.5955],[138.52552,35.59468],[138.52517,35.59471],[138.5251,35.5944],[138.52491,35.59441],[138.52486,35.59405],[138.52559,35.5942],[138.52624,35.59433],[138.52674,35.59441],[138.52737,35.59453],[138.52737,35.5945],[138.52753,35.5945],[138.5276,35.5945],[138.52761,35.5945],[138.52832,35.59448],[138.52865,35.59446],[138.5289,35.59445],[138.5294,35.5944],[138.53005,35.59432],[138.53028,35.59431],[138.53046,35.5943],[138.53081,35.59428],[138.53114,35.59425],[138.53124,35.59425],[138.53132,35.59425],[138.53153,35.59419],[138.53252,35.59402],[138.53252,35.5939],[138.53252,35.5936],[138.53251,35.59352],[138.53251,35.59347],[138.5325,35.59344],[138.53241,35.5932],[138.53233,35.59303],[138.53227,35.59286],[138.53222,35.59276],[138.53213,35.59191],[138.53209,35.59171],[138.53205,35.59148],[138.532,35.59129],[138.53194,35.59108],[138.53187,35.59091],[138.53171,35.59056],[138.53166,35.59042],[138.53161,35.59028],[138.53158,35.59013],[138.53158,35.58988],[138.53159,35.58955],[138.5316,35.58933],[138.53159,35.58926],[138.53158,35.58918],[138.53157,35.58911],[138.53155,35.58903],[138.53153,35.58896],[138.5315,35.58883],[138.53144,35.58871],[138.53106,35.58875],[138.53106,35.58866],[138.53105,35.58859],[138.53105,35.58854],[138.53102,35.58836],[138.53104,35.58814],[138.53107,35.58789],[138.53109,35.58769],[138.53109,35.58755],[138.53097,35.58725],[138.53078,35.58677],[138.53069,35.58656],[138.53065,35.58645],[138.53063,35.5864],[138.53064,35.5862],[138.53072,35.58587],[138.53085,35.58534],[138.53114,35.58489],[138.53078,35.58469],[138.53102,35.58463],[138.53117,35.58459],[138.53124,35.58457],[138.53176,35.58404],[138.53226,35.58363],[138.53325,35.58272],[138.53036,35.5809],[138.53034,35.58088],[138.52999,35.58121],[138.52985,35.58136],[138.52925,35.58199],[138.52879,35.58247],[138.52862,35.58263],[138.52836,35.58286],[138.52819,35.58297],[138.528,35.58308],[138.52772,35.58328],[138.52757,35.58336],[138.52739,35.58343],[138.52718,35.58352],[138.52701,35.58362],[138.52698,35.58365],[138.52695,35.58367],[138.52693,35.5837],[138.52692,35.58373],[138.5267,35.58454],[138.52669,35.58459],[138.52672,35.585],[138.52672,35.58503],[138.5267,35.58504],[138.52663,35.58506],[138.52607,35.58515],[138.5254,35.58523],[138.52551,35.5859],[138.52483,35.58597],[138.52395,35.58606],[138.52397,35.58619],[138.52401,35.58648],[138.52407,35.58678],[138.5241,35.58705],[138.52338,35.58714],[138.52343,35.58738],[138.52347,35.58767],[138.52351,35.58796],[138.5235,35.58824],[138.52345,35.58856],[138.5234,35.58888],[138.5243,35.5888],[138.5243,35.58904],[138.52431,35.58931],[138.52434,35.58947],[138.52436,35.58975],[138.52437,35.58976],[138.52412,35.58978],[138.52337,35.58981],[138.52332,35.58981],[138.52326,35.59007],[138.52324,35.59018],[138.52325,35.59042],[138.52326,35.59062],[138.52326,35.59066],[138.52328,35.5909],[138.52327,35.59113],[138.52327,35.59144],[138.52326,35.59181],[138.52325,35.59214],[138.52322,35.59214],[138.52319,35.59234],[138.52316,35.59252],[138.52308,35.59268],[138.52288,35.59306],[138.52288,35.59331],[138.5229,35.59343],[138.52302,35.5938],[138.52316,35.59426],[138.52334,35.59482],[138.52335,35.59485],[138.52369,35.59477],[138.5237,35.59481],[138.52382,35.59564],[138.52405,35.59562],[138.52551,35.5955]]]}},{"type":"Feature","properties":{"name":"大田和","setai":137,"jinko":407,"key":"192140220","units":1},"geometry":{"type":"Polygon","coordinates":[[[138.52401,35.58648],[138.52397,35.58619],[138.52395,35.58606],[138.52483,35.58597],[138.52551,35.5859],[138.5254,35.58523],[138.52607,35.58515],[138.52663,35.58506],[138.5267,35.58504],[138.52672,35.58503],[138.52672,35.585],[138.52669,35.58459],[138.5267,35.58454],[138.52692,35.58373],[138.52693,35.5837],[138.52695,35.58367],[138.52698,35.58365],[138.52701,35.58362],[138.52718,35.58352],[138.52739,35.58343],[138.52757,35.58336],[138.52772,35.58328],[138.528,35.58308],[138.52819,35.58297],[138.52836,35.58286],[138.52862,35.58263],[138.52879,35.58247],[138.52925,35.58199],[138.52985,35.58136],[138.52999,35.58121],[138.53034,35.58088],[138.53029,35.58085],[138.53002,35.58069],[138.52978,35.58054],[138.52919,35.58016],[138.52851,35.57974],[138.52795,35.57938],[138.52786,35.57933],[138.5278,35.57929],[138.52765,35.5792],[138.52652,35.57852],[138.52583,35.5781],[138.52534,35.5778],[138.52442,35.57724],[138.52515,35.5762],[138.52517,35.57617],[138.52531,35.57594],[138.52515,35.57541],[138.52494,35.5748],[138.52486,35.57465],[138.52464,35.57416],[138.52415,35.57316],[138.5241,35.57311],[138.52381,35.57288],[138.52341,35.57257],[138.52338,35.57255],[138.5232,35.57243],[138.52312,35.57236],[138.52196,35.57234],[138.52187,35.57234],[138.52096,35.57243],[138.52062,35.57248],[138.51977,35.57277],[138.52008,35.57306],[138.51974,35.57316],[138.51936,35.57329],[138.5189,35.57347],[138.51863,35.57361],[138.5184,35.57375],[138.51814,35.57391],[138.51782,35.57413],[138.51874,35.57753],[138.51925,35.57925],[138.51933,35.57954],[138.51992,35.58155],[138.52018,35.5824],[138.52024,35.58264],[138.52048,35.58344],[138.52066,35.58404],[138.52087,35.58475],[138.52108,35.58539],[138.52127,35.58608],[138.52134,35.58634],[138.52137,35.5865],[138.52147,35.58649],[138.52172,35.58646],[138.52251,35.5864],[138.52311,35.58637],[138.52318,35.58656],[138.52338,35.58714],[138.5241,35.58705],[138.52407,35.58678],[138.52401,35.58648]]]}},{"type":"Feature","properties":{"name":"藤巻","setai":92,"jinko":274,"key":"192140230","units":1},"geometry":{"type":"Polygon","coordinates":[[[138.52108,35.58539],[138.52087,35.58475],[138.52066,35.58404],[138.52048,35.58344],[138.52024,35.58264],[138.52018,35.5824],[138.51992,35.58155],[138.51933,35.57954],[138.51925,35.57925],[138.51874,35.57753],[138.51782,35.57413],[138.51747,35.57438],[138.51665,35.57495],[138.5164,35.57489],[138.51608,35.57483],[138.51584,35.57479],[138.51563,35.57476],[138.51554,35.57474],[138.51536,35.57472],[138.51509,35.57467],[138.51477,35.57462],[138.51445,35.57457],[138.51442,35.57457],[138.51404,35.57451],[138.51368,35.57447],[138.5133,35.57445],[138.51289,35.57443],[138.51251,35.57442],[138.51238,35.57442],[138.51205,35.57441],[138.51169,35.57442],[138.51123,35.57444],[138.51082,35.57444],[138.51045,35.57445],[138.50934,35.57449],[138.50918,35.5745],[138.51169,35.57663],[138.51174,35.57685],[138.51201,35.57773],[138.51215,35.57818],[138.51254,35.57954],[138.51284,35.58052],[138.51303,35.58117],[138.51123,35.58185],[138.51157,35.58244],[138.51203,35.58322],[138.51249,35.58405],[138.5127,35.58441],[138.51311,35.58509],[138.51344,35.58497],[138.51473,35.58448],[138.51532,35.58549],[138.51622,35.58515],[138.5166,35.58583],[138.5168,35.58617],[138.51768,35.58598],[138.51904,35.58574],[138.52016,35.58555],[138.52108,35.58539]]]}},{"type":"Feature","properties":{"name":"今福","setai":69,"jinko":186,"key":"192140240","units":1},"geometry":{"type":"Polygon","coordinates":[[[138.51169,35.57663],[138.50918,35.5745],[138.50618,35.57462],[138.50613,35.57462],[138.50517,35.57464],[138.5046,35.57461],[138.50383,35.57448],[138.50318,35.57433],[138.50258,35.57417],[138.50205,35.574],[138.50149,35.57377],[138.50111,35.57361],[138.5002,35.57318],[138.49953,35.57284],[138.49892,35.57251],[138.4987,35.57237],[138.49882,35.57287],[138.49892,35.57308],[138.4991,35.57347],[138.49935,35.57398],[138.4995,35.57425],[138.49982,35.57464],[138.50002,35.57485],[138.50031,35.57514],[138.50036,35.57515],[138.50049,35.5751],[138.50074,35.57533],[138.50085,35.5754],[138.50139,35.5755],[138.502,35.57561],[138.50221,35.57579],[138.50243,35.57595],[138.50273,35.57615],[138.50309,35.57635],[138.50417,35.57691],[138.50429,35.57696],[138.50441,35.57705],[138.50452,35.57714],[138.50475,35.57737],[138.50488,35.57751],[138.50501,35.57769],[138.50517,35.57794],[138.50579,35.57893],[138.50625,35.57929],[138.50646,35.5797],[138.50686,35.58049],[138.50719,35.58125],[138.50754,35.58204],[138.50769,35.58239],[138.50743,35.58293],[138.50783,35.58372],[138.5071,35.58392],[138.50677,35.58405],[138.50657,35.58413],[138.50693,35.58485],[138.50735,35.58566],[138.5078,35.58644],[138.50821,35.58721],[138.50883,35.58699],[138.50952,35.58677],[138.51079,35.58636],[138.51061,35.58605],[138.5115,35.58571],[138.5123,35.5854],[138.51311,35.58509],[138.5127,35.58441],[138.51249,35.58405],[138.51203,35.58322],[138.51157,35.58244],[138.51123,35.58185],[138.51303,35.58117],[138.51284,35.58052],[138.51254,35.57954],[138.51215,35.57818],[138.51201,35.57773],[138.51174,35.57685],[138.51169,35.57663]]]}},{"type":"Feature","properties":{"name":"今福新田","setai":46,"jinko":138,"key":"192140250","units":1},"geometry":{"type":"Polygon","coordinates":[[[138.50821,35.58721],[138.5078,35.58644],[138.50735,35.58566],[138.50693,35.58485],[138.50657,35.58413],[138.50677,35.58405],[138.5071,35.58392],[138.50783,35.58372],[138.50743,35.58293],[138.50769,35.58239],[138.50754,35.58204],[138.50719,35.58125],[138.50686,35.58049],[138.50646,35.5797],[138.50625,35.57929],[138.50579,35.57893],[138.50517,35.57794],[138.50501,35.57769],[138.50488,35.57751],[138.50475,35.57737],[138.50452,35.57714],[138.50441,35.57705],[138.50429,35.57696],[138.50417,35.57691],[138.50309,35.57635],[138.50273,35.57615],[138.50243,35.57595],[138.50221,35.57579],[138.502,35.57561],[138.50139,35.5755],[138.50085,35.5754],[138.50074,35.57533],[138.50049,35.5751],[138.50036,35.57515],[138.50031,35.57514],[138.50002,35.57485],[138.49982,35.57464],[138.4995,35.57425],[138.49935,35.57398],[138.4991,35.57347],[138.49892,35.57308],[138.49882,35.57287],[138.4987,35.57237],[138.49773,35.57178],[138.49582,35.57404],[138.49633,35.57444],[138.49666,35.57472],[138.49686,35.57492],[138.49699,35.57511],[138.49724,35.57575],[138.4975,35.57646],[138.49759,35.57697],[138.49695,35.57741],[138.49677,35.57753],[138.49673,35.57755],[138.4969,35.5777],[138.49706,35.57788],[138.49721,35.57807],[138.49755,35.57857],[138.49776,35.57892],[138.49828,35.57968],[138.49844,35.5799],[138.49856,35.58011],[138.49874,35.58047],[138.49909,35.58129],[138.49919,35.58153],[138.49974,35.58276],[138.50001,35.5833],[138.50016,35.58353],[138.50026,35.58367],[138.5003,35.58371],[138.50037,35.58379],[138.5005,35.5839],[138.50148,35.58427],[138.50153,35.58432],[138.50189,35.58488],[138.50207,35.58479],[138.50289,35.5844],[138.50361,35.58405],[138.50424,35.58501],[138.50463,35.58559],[138.50516,35.58636],[138.5053,35.58656],[138.50547,35.58679],[138.50567,35.5871],[138.50594,35.58751],[138.50608,35.58773],[138.50821,35.58721]]]}}]}