{"type":"FeatureCollection","features":[{"type":"Feature","properties":{"name":"東一丁目","setai":1885,"jinko":3367,"key":"13215001001","units":1},"geometry":{"type":"Polygon","coordinates":[[[139.45145,35.69834],[139.45163,35.69818],[139.45176,35.69811],[139.45187,35.69796],[139.45207,35.69781],[139.45227,35.69768],[139.45277,35.69727],[139.45293,35.69708],[139.45303,35.69698],[139.45314,35.69687],[139.45328,35.69673],[139.45353,35.69647],[139.45367,35.69628],[139.45314,35.69626],[139.45231,35.69623],[139.45132,35.6962],[139.45102,35.6962],[139.45041,35.69618],[139.45024,35.69617],[139.45023,35.69617],[139.44988,35.69616],[139.44986,35.69616],[139.44977,35.69616],[139.44891,35.69614],[139.44821,35.69611],[139.44781,35.6961],[139.44677,35.69607],[139.44677,35.6961],[139.44673,35.69678],[139.44672,35.69681],[139.44671,35.69719],[139.4467,35.69748],[139.44669,35.69751],[139.44666,35.69818],[139.44666,35.69819],[139.44619,35.69818],[139.44618,35.69839],[139.44614,35.69888],[139.44635,35.69888],[139.4465,35.69903],[139.44626,35.69919],[139.44718,35.69923],[139.44777,35.69926],[139.4481,35.69927],[139.4488,35.69929],[139.449,35.69929],[139.45058,35.69933],[139.45061,35.69925],[139.45068,35.69908],[139.45073,35.69903],[139.45117,35.69863],[139.45145,35.69834]]]}},{"type":"Feature","properties":{"name":"東二丁目","setai":1584,"jinko":2897,"key":"13215001002","units":1},"geometry":{"type":"Polygon","coordinates":[[[139.45231,35.69623],[139.45234,35.69556],[139.45233,35.69553],[139.45235,35.69522],[139.45235,35.69498],[139.45238,35.69428],[139.45238,35.69427],[139.4524,35.69396],[139.45241,35.69375],[139.45242,35.69347],[139.45244,35.69291],[139.45243,35.6929],[139.45247,35.69221],[139.45247,35.6922],[139.45251,35.69152],[139.4525,35.69151],[139.45252,35.6908],[139.45226,35.69079],[139.45154,35.69077],[139.45146,35.69077],[139.45107,35.69076],[139.45002,35.69073],[139.45002,35.69073],[139.44938,35.69071],[139.4486,35.69069],[139.44732,35.69065],[139.44699,35.69064],[139.44696,35.69134],[139.44696,35.69139],[139.44695,35.69174],[139.44694,35.69204],[139.44694,35.69206],[139.44692,35.69276],[139.4469,35.69275],[139.44686,35.69359],[139.44675,35.69608],[139.44677,35.6961],[139.44677,35.69607],[139.44781,35.6961],[139.44821,35.69611],[139.44891,35.69614],[139.44977,35.69616],[139.44986,35.69616],[139.44988,35.69616],[139.45023,35.69617],[139.45024,35.69617],[139.45041,35.69618],[139.45102,35.6962],[139.45132,35.6962],[139.45231,35.69623]]]}},{"type":"Feature","properties":{"name":"東三丁目","setai":1636,"jinko":3064,"key":"13215001003","units":1},"geometry":{"type":"Polygon","coordinates":[[[139.45919,35.69234],[139.45969,35.69204],[139.4597,35.692],[139.45977,35.69186],[139.45982,35.69178],[139.45981,35.69171],[139.45982,35.6917],[139.45978,35.6917],[139.45972,35.69168],[139.45957,35.69167],[139.45941,35.69167],[139.45936,35.69167],[139.45932,35.69168],[139.45905,35.69183],[139.45837,35.69224],[139.45819,35.69196],[139.45799,35.69163],[139.45742,35.69182],[139.45739,35.69152],[139.45738,35.69133],[139.45735,35.6912],[139.45733,35.69121],[139.45733,35.69121],[139.45732,35.69121],[139.45729,35.69122],[139.45695,35.69129],[139.45593,35.6915],[139.45593,35.69135],[139.45591,35.69124],[139.45591,35.69123],[139.45591,35.69121],[139.4559,35.69113],[139.45586,35.69092],[139.45583,35.69092],[139.45502,35.69089],[139.45502,35.6909],[139.45461,35.69088],[139.45398,35.69085],[139.45347,35.69084],[139.45339,35.69083],[139.45255,35.6908],[139.45252,35.6908],[139.4525,35.69151],[139.45251,35.69152],[139.45247,35.6922],[139.45247,35.69221],[139.45243,35.6929],[139.45244,35.69291],[139.45242,35.69347],[139.45241,35.69375],[139.4524,35.69396],[139.45238,35.69427],[139.45238,35.69428],[139.45235,35.69498],[139.45235,35.69522],[139.45233,35.69553],[139.45234,35.69556],[139.45231,35.69623],[139.45314,35.69626],[139.45367,35.69628],[139.45374,35.69622],[139.45375,35.6962],[139.45413,35.69582],[139.45441,35.69556],[139.45481,35.69532],[139.45482,35.69531],[139.45523,35.69506],[139.45535,35.69499],[139.45572,35.69474],[139.45604,35.69453],[139.45605,35.69452],[139.45618,35.69443],[139.45621,35.69441],[139.4569,35.69391],[139.45704,35.69379],[139.4571,35.69374],[139.45711,35.69373],[139.45721,35.69363],[139.45767,35.69334],[139.45768,35.69333],[139.45813,35.69304],[139.45831,35.69292],[139.45832,35.69291],[139.45919,35.69234]]]}},{"type":"Feature","properties":{"name":"東四丁目","setai":1472,"jinko":3172,"key":"13215001004","units":1},"geometry":{"type":"Polygon","coordinates":[[[139.45586,35.69092],[139.45585,35.69065],[139.45584,35.69056],[139.45535,35.69063],[139.45503,35.69067],[139.4549,35.69069],[139.4548,35.69029],[139.45478,35.69029],[139.45477,35.69027],[139.45461,35.6903],[139.45462,35.69026],[139.45461,35.69013],[139.45461,35.69003],[139.45457,35.68996],[139.45455,35.68981],[139.45454,35.68978],[139.45454,35.68977],[139.45454,35.68942],[139.45454,35.6894],[139.45462,35.6894],[139.45461,35.68931],[139.45453,35.68931],[139.45453,35.68931],[139.45453,35.68924],[139.45452,35.68922],[139.45452,35.68919],[139.45451,35.68917],[139.45447,35.68904],[139.45443,35.68895],[139.4544,35.68895],[139.45425,35.68859],[139.45425,35.68858],[139.45379,35.68868],[139.45371,35.68848],[139.45368,35.6884],[139.45358,35.68804],[139.45357,35.68801],[139.45351,35.68777],[139.45351,35.68775],[139.4535,35.68772],[139.45345,35.68753],[139.45344,35.68749],[139.45334,35.68703],[139.45334,35.68702],[139.45328,35.68665],[139.45326,35.6865],[139.45325,35.68638],[139.45327,35.68638],[139.4533,35.68638],[139.45331,35.68636],[139.4533,35.68636],[139.45327,35.68636],[139.45323,35.68636],[139.45294,35.68639],[139.45272,35.68641],[139.45267,35.68641],[139.45186,35.68649],[139.45149,35.68653],[139.45097,35.68658],[139.45021,35.68667],[139.45014,35.68668],[139.4494,35.68678],[139.44879,35.68687],[139.44823,35.68696],[139.44761,35.68707],[139.44717,35.68715],[139.44715,35.68715],[139.44714,35.68764],[139.44713,35.68783],[139.44713,35.68802],[139.44712,35.68821],[139.44711,35.68848],[139.44708,35.68918],[139.44706,35.6899],[139.44705,35.69013],[139.447,35.69062],[139.44699,35.69064],[139.44732,35.69065],[139.4486,35.69069],[139.44938,35.69071],[139.45002,35.69073],[139.45002,35.69073],[139.45107,35.69076],[139.45146,35.69077],[139.45154,35.69077],[139.45226,35.69079],[139.45252,35.6908],[139.45255,35.6908],[139.45339,35.69083],[139.45347,35.69084],[139.45398,35.69085],[139.45461,35.69088],[139.45502,35.6909],[139.45502,35.69089],[139.45583,35.69092],[139.45586,35.69092]]]}},{"type":"Feature","properties":{"name":"中一丁目","setai":2267,"jinko":4082,"key":"13215002001","units":1},"geometry":{"type":"Polygon","coordinates":[[[139.4465,35.69903],[139.44635,35.69888],[139.44614,35.69888],[139.44618,35.69839],[139.44619,35.69818],[139.44666,35.69819],[139.44666,35.69818],[139.44669,35.69751],[139.4467,35.69748],[139.44671,35.69719],[139.44672,35.69681],[139.44673,35.69678],[139.44677,35.6961],[139.44675,35.69608],[139.44496,35.69603],[139.44374,35.696],[139.44212,35.69596],[139.44189,35.69595],[139.44138,35.69594],[139.44126,35.69594],[139.44114,35.69593],[139.4411,35.69593],[139.43985,35.69589],[139.43947,35.69588],[139.43864,35.69584],[139.43862,35.69653],[139.43862,35.69655],[139.4386,35.69723],[139.43857,35.69724],[139.43768,35.69721],[139.43755,35.69721],[139.43734,35.6972],[139.43732,35.6972],[139.43672,35.69719],[139.43609,35.69717],[139.43607,35.69762],[139.43606,35.69785],[139.43607,35.69788],[139.43606,35.69799],[139.43605,35.69845],[139.43604,35.69858],[139.43604,35.69886],[139.43673,35.69889],[139.43697,35.69889],[139.43742,35.69891],[139.4384,35.69894],[139.43875,35.69895],[139.43946,35.69897],[139.43987,35.69898],[139.44076,35.69901],[139.44096,35.69901],[139.44213,35.69904],[139.44218,35.69904],[139.44281,35.69905],[139.44302,35.69901],[139.44308,35.69907],[139.44517,35.69914],[139.44626,35.69919],[139.4465,35.69903]]]}},{"type":"Feature","properties":{"name":"中二丁目","setai":1388,"jinko":2652,"key":"13215002002","units":1},"geometry":{"type":"Polygon","coordinates":[[[139.44686,35.69359],[139.4469,35.69275],[139.44692,35.69276],[139.44694,35.69206],[139.44694,35.69204],[139.44695,35.69174],[139.44696,35.69139],[139.44696,35.69134],[139.44699,35.69064],[139.447,35.69062],[139.44498,35.69057],[139.44484,35.69056],[139.44401,35.69054],[139.44289,35.6905],[139.44223,35.69048],[139.44206,35.69048],[139.44135,35.69046],[139.44131,35.69046],[139.44072,35.69044],[139.4399,35.69041],[139.43912,35.69038],[139.43887,35.69037],[139.43886,35.69079],[139.43885,35.69111],[139.43883,35.69159],[139.43882,35.69178],[139.43882,35.69179],[139.43879,35.6925],[139.43879,35.69251],[139.43876,35.69304],[139.43875,35.69304],[139.43875,35.69305],[139.43874,35.69336],[139.43873,35.69366],[139.43873,35.69368],[139.4387,35.69421],[139.43868,35.69474],[139.43868,35.69477],[139.43868,35.69478],[139.43866,35.69528],[139.43866,35.69529],[139.43864,35.69583],[139.43864,35.69584],[139.43947,35.69588],[139.43985,35.69589],[139.4411,35.69593],[139.44114,35.69593],[139.44126,35.69594],[139.44138,35.69594],[139.44189,35.69595],[139.44212,35.69596],[139.44374,35.696],[139.44496,35.69603],[139.44675,35.69608],[139.44686,35.69359]]]}},{"type":"Feature","properties":{"name":"中三丁目","setai":1019,"jinko":2265,"key":"13215002003","units":1},"geometry":{"type":"Polygon","coordinates":[[[139.44713,35.68802],[139.44713,35.68783],[139.44714,35.68764],[139.44715,35.68715],[139.44637,35.6873],[139.44561,35.68744],[139.4454,35.68748],[139.44524,35.68751],[139.44514,35.68752],[139.44433,35.68764],[139.44414,35.68766],[139.44412,35.68766],[139.44381,35.68771],[139.44302,35.68763],[139.44301,35.68763],[139.4419,35.68771],[139.44176,35.68771],[139.44143,35.68778],[139.44141,35.68778],[139.44106,35.68785],[139.4409,35.68782],[139.44066,35.68772],[139.44055,35.68771],[139.44023,35.68773],[139.43897,35.68787],[139.43897,35.68788],[139.43896,35.68822],[139.43896,35.68823],[139.43894,35.68894],[139.43891,35.68965],[139.43887,35.69037],[139.43912,35.69038],[139.4399,35.69041],[139.44072,35.69044],[139.44131,35.69046],[139.44135,35.69046],[139.44206,35.69048],[139.44223,35.69048],[139.44289,35.6905],[139.44401,35.69054],[139.44484,35.69056],[139.44498,35.69057],[139.447,35.69062],[139.44705,35.69013],[139.44706,35.6899],[139.44708,35.68918],[139.44711,35.68848],[139.44712,35.68821],[139.44713,35.68802]]]}},{"type":"Feature","properties":{"name":"西一丁目","setai":2000,"jinko":3794,"key":"13215003001","units":1},"geometry":{"type":"Polygon","coordinates":[[[139.43607,35.69762],[139.43609,35.69717],[139.43672,35.69719],[139.43732,35.6972],[139.43734,35.6972],[139.43755,35.69721],[139.43768,35.69721],[139.43857,35.69724],[139.4386,35.69723],[139.43862,35.69655],[139.43862,35.69653],[139.43864,35.69584],[139.43864,35.69583],[139.43799,35.69581],[139.43739,35.69578],[139.43614,35.69574],[139.43453,35.6957],[139.43395,35.69568],[139.43368,35.69568],[139.43326,35.69566],[139.4326,35.69565],[139.43165,35.69562],[139.43122,35.6956],[139.43069,35.69559],[139.43111,35.69633],[139.43124,35.69657],[139.43146,35.69696],[139.42974,35.69751],[139.42958,35.69756],[139.42952,35.69758],[139.42836,35.69799],[139.42762,35.69825],[139.42734,35.69833],[139.42719,35.69834],[139.4271,35.69838],[139.42699,35.69842],[139.42697,35.69845],[139.42697,35.69858],[139.42698,35.69859],[139.42907,35.69865],[139.42944,35.69866],[139.43039,35.69869],[139.43109,35.6987],[139.43113,35.69871],[139.43113,35.69871],[139.4324,35.69874],[139.43272,35.69875],[139.43354,35.69878],[139.43358,35.69878],[139.4351,35.69883],[139.43516,35.69883],[139.43518,35.69883],[139.43604,35.69886],[139.43604,35.69858],[139.43605,35.69845],[139.43606,35.69799],[139.43607,35.69788],[139.43606,35.69785],[139.43607,35.69762]]]}},{"type":"Feature","properties":{"name":"西二丁目","setai":2803,"jinko":5135,"key":"13215003002","units":1},"geometry":{"type":"Polygon","coordinates":[[[139.43875,35.69305],[139.43875,35.69304],[139.43876,35.69304],[139.43879,35.69251],[139.43879,35.6925],[139.43882,35.69179],[139.43882,35.69178],[139.43883,35.69159],[139.43885,35.69111],[139.43886,35.69079],[139.43887,35.69037],[139.43801,35.69035],[139.43766,35.69034],[139.4364,35.6903],[139.43498,35.69025],[139.43494,35.69025],[139.43439,35.69024],[139.43401,35.69022],[139.43393,35.69026],[139.43215,35.69016],[139.43182,35.69023],[139.43145,35.69033],[139.43139,35.69033],[139.43136,35.6913],[139.43134,35.69211],[139.43128,35.69342],[139.43105,35.69342],[139.4308,35.69343],[139.43054,35.69343],[139.43049,35.69344],[139.43044,35.69348],[139.43017,35.6936],[139.42981,35.69371],[139.4298,35.69395],[139.4298,35.69399],[139.43008,35.6945],[139.43015,35.69463],[139.43027,35.69484],[139.43039,35.69505],[139.43057,35.69538],[139.43069,35.69559],[139.43122,35.6956],[139.43165,35.69562],[139.4326,35.69565],[139.43326,35.69566],[139.43368,35.69568],[139.43395,35.69568],[139.43453,35.6957],[139.43614,35.69574],[139.43739,35.69578],[139.43799,35.69581],[139.43864,35.69583],[139.43866,35.69529],[139.43866,35.69528],[139.43868,35.69478],[139.43868,35.69477],[139.43868,35.69474],[139.4387,35.69421],[139.43873,35.69368],[139.43873,35.69366],[139.43874,35.69336],[139.43875,35.69305]]]}},{"type":"Feature","properties":{"name":"西三丁目","setai":661,"jinko":1376,"key":"13215003003","units":1},"geometry":{"type":"Polygon","coordinates":[[[139.43887,35.69037],[139.43891,35.68965],[139.43894,35.68894],[139.43896,35.68823],[139.43896,35.68822],[139.43897,35.68788],[139.43896,35.68787],[139.43844,35.68794],[139.43778,35.68802],[139.43774,35.68803],[139.4376,35.68801],[139.43732,35.68804],[139.43681,35.68813],[139.43649,35.68821],[139.43649,35.68822],[139.43612,35.68831],[139.43563,35.6884],[139.43573,35.68876],[139.43539,35.68889],[139.43458,35.6892],[139.43402,35.68944],[139.43399,35.68945],[139.43314,35.68981],[139.43262,35.68999],[139.43237,35.69008],[139.43235,35.69009],[139.43215,35.69016],[139.43393,35.69026],[139.43401,35.69022],[139.43439,35.69024],[139.43494,35.69025],[139.43498,35.69025],[139.4364,35.6903],[139.43766,35.69034],[139.43801,35.69035],[139.43887,35.69037]]]}},{"type":"Feature","properties":{"name":"富士見台一丁目","setai":2722,"jinko":5132,"key":"13215004001","units":1},"geometry":{"type":"Polygon","coordinates":[[[139.45284,35.68387],[139.4528,35.68369],[139.45238,35.68378],[139.45223,35.68354],[139.45204,35.68325],[139.45199,35.68318],[139.45169,35.68271],[139.45188,35.68259],[139.45182,35.68254],[139.45176,35.68251],[139.4517,35.68249],[139.45162,35.68246],[139.45153,35.68245],[139.45141,35.68236],[139.45173,35.68165],[139.45165,35.68159],[139.4516,35.68154],[139.45166,35.68148],[139.45153,35.68134],[139.45144,35.68124],[139.45138,35.68117],[139.45156,35.68106],[139.45156,35.68105],[139.45149,35.68097],[139.45149,35.68096],[139.4516,35.68089],[139.45162,35.68088],[139.45128,35.68063],[139.45196,35.68],[139.45192,35.67984],[139.45182,35.67962],[139.45213,35.67951],[139.45213,35.6795],[139.45214,35.67949],[139.45216,35.6794],[139.45228,35.67928],[139.45229,35.67927],[139.4521,35.67908],[139.45188,35.67889],[139.45186,35.67887],[139.4516,35.67911],[139.45124,35.67946],[139.45109,35.67958],[139.45074,35.67981],[139.45057,35.67992],[139.45017,35.68012],[139.45001,35.68018],[139.44944,35.6804],[139.4494,35.68041],[139.44815,35.68085],[139.44816,35.68086],[139.44769,35.68101],[139.44707,35.68124],[139.44687,35.68132],[139.44675,35.68137],[139.44648,35.68147],[139.44614,35.68159],[139.44636,35.68197],[139.44669,35.68185],[139.44681,35.68206],[139.44706,35.68253],[139.44708,35.68263],[139.44735,35.68359],[139.44734,35.68379],[139.44734,35.68395],[139.44732,35.68424],[139.44732,35.68444],[139.4473,35.6847],[139.44729,35.68484],[139.44729,35.685],[139.44728,35.68529],[139.44726,35.68553],[139.44725,35.68582],[139.44721,35.68651],[139.44719,35.68681],[139.44717,35.68715],[139.44761,35.68707],[139.44823,35.68696],[139.44879,35.68687],[139.4494,35.68678],[139.45014,35.68668],[139.45021,35.68667],[139.45097,35.68658],[139.45149,35.68653],[139.45186,35.68649],[139.45267,35.68641],[139.45272,35.68641],[139.45294,35.68639],[139.45323,35.68636],[139.45327,35.68636],[139.4533,35.68636],[139.45331,35.68636],[139.45332,35.68636],[139.45332,35.68635],[139.45333,35.68618],[139.45332,35.68614],[139.45333,35.68611],[139.45332,35.68604],[139.45331,35.68595],[139.45326,35.6857],[139.45323,35.68549],[139.45321,35.68537],[139.45319,35.68526],[139.45315,35.6851],[139.45314,35.685],[139.45308,35.68478],[139.45294,35.68432],[139.45284,35.68387]]]}},{"type":"Feature","properties":{"name":"富士見台二丁目","setai":2279,"jinko":4634,"key":"13215004002","units":1},"geometry":{"type":"Polygon","coordinates":[[[139.4419,35.68771],[139.44301,35.68763],[139.44302,35.68763],[139.44381,35.68771],[139.44412,35.68766],[139.44414,35.68766],[139.44433,35.68764],[139.44514,35.68752],[139.44524,35.68751],[139.4454,35.68748],[139.44561,35.68744],[139.44637,35.6873],[139.44715,35.68715],[139.44717,35.68715],[139.44719,35.68681],[139.44721,35.68651],[139.44725,35.68582],[139.44726,35.68553],[139.44728,35.68529],[139.44729,35.685],[139.44729,35.68484],[139.4473,35.6847],[139.44732,35.68444],[139.44732,35.68424],[139.44734,35.68395],[139.44734,35.68379],[139.44735,35.68359],[139.44708,35.68263],[139.44706,35.68253],[139.44681,35.68206],[139.44669,35.68185],[139.44636,35.68197],[139.44614,35.68159],[139.44575,35.68173],[139.44517,35.68194],[139.44496,35.68202],[139.44465,35.68213],[139.44412,35.68232],[139.44406,35.68234],[139.44359,35.68252],[139.4435,35.68255],[139.44305,35.6827],[139.44305,35.68271],[139.44189,35.68312],[139.44076,35.68352],[139.44036,35.68366],[139.43998,35.6838],[139.43968,35.68388],[139.43973,35.68442],[139.43975,35.68468],[139.43975,35.68476],[139.43979,35.68521],[139.43982,35.68551],[139.44022,35.68604],[139.44057,35.68651],[139.44054,35.6866],[139.44059,35.68666],[139.44063,35.68671],[139.44075,35.68673],[139.44105,35.68713],[139.44141,35.68778],[139.44143,35.68778],[139.44176,35.68771],[139.4419,35.68771]]]}},{"type":"Feature","properties":{"name":"富士見台三丁目","setai":1930,"jinko":3959,"key":"13215004003","units":1},"geometry":{"type":"Polygon","coordinates":[[[139.43732,35.68804],[139.4376,35.68801],[139.43774,35.68803],[139.43778,35.68802],[139.43844,35.68794],[139.43896,35.68787],[139.43897,35.68788],[139.43897,35.68787],[139.44023,35.68773],[139.44055,35.68771],[139.44066,35.68772],[139.4409,35.68782],[139.44106,35.68785],[139.44141,35.68778],[139.44105,35.68713],[139.44075,35.68673],[139.44063,35.68671],[139.44059,35.68666],[139.44054,35.6866],[139.44057,35.68651],[139.44022,35.68604],[139.43982,35.68551],[139.43979,35.68521],[139.43975,35.68476],[139.43975,35.68468],[139.43973,35.68442],[139.43968,35.68388],[139.43965,35.68388],[139.43885,35.68409],[139.43851,35.68415],[139.43785,35.68426],[139.43762,35.68429],[139.43736,35.68432],[139.4358,35.68452],[139.43495,35.68463],[139.43403,35.68475],[139.43356,35.68482],[139.43297,35.6849],[139.43293,35.6849],[139.43293,35.6849],[139.43235,35.68497],[139.43198,35.68502],[139.43189,35.68503],[139.43194,35.6853],[139.43194,35.68536],[139.43243,35.6853],[139.43267,35.68594],[139.43288,35.68638],[139.43306,35.68668],[139.4333,35.68706],[139.4337,35.68772],[139.43379,35.68787],[139.43387,35.68817],[139.43399,35.68851],[139.43403,35.68894],[139.43402,35.68904],[139.43402,35.68944],[139.43458,35.6892],[139.43539,35.68889],[139.43573,35.68876],[139.43563,35.6884],[139.43612,35.68831],[139.43649,35.68822],[139.43649,35.68821],[139.43681,35.68813],[139.43732,35.68804]]]}},{"type":"Feature","properties":{"name":"富士見台四丁目","setai":2083,"jinko":4063,"key":"13215004004","units":1},"geometry":{"type":"Polygon","coordinates":[[[139.43403,35.68894],[139.43399,35.68851],[139.43387,35.68817],[139.43379,35.68787],[139.4337,35.68772],[139.4333,35.68706],[139.43306,35.68668],[139.43288,35.68638],[139.43267,35.68594],[139.43243,35.6853],[139.43194,35.68536],[139.43194,35.6853],[139.43189,35.68503],[139.43129,35.6851],[139.43116,35.68512],[139.43069,35.68518],[139.43013,35.68526],[139.42985,35.6853],[139.42944,35.68537],[139.42927,35.68541],[139.42912,35.68545],[139.4288,35.68558],[139.42879,35.68556],[139.42865,35.68562],[139.42861,35.68563],[139.42841,35.68573],[139.42789,35.68599],[139.42763,35.68616],[139.42743,35.68633],[139.42739,35.68636],[139.4272,35.68653],[139.427,35.68672],[139.42695,35.68679],[139.42676,35.68704],[139.42675,35.68705],[139.42673,35.68709],[139.42653,35.68742],[139.42635,35.68776],[139.42643,35.68784],[139.42641,35.68793],[139.42639,35.68799],[139.42642,35.68808],[139.42655,35.68825],[139.42664,35.68835],[139.42619,35.68843],[139.42625,35.68868],[139.42627,35.68886],[139.42693,35.68882],[139.42749,35.68976],[139.42749,35.68977],[139.42771,35.69015],[139.42792,35.69046],[139.42804,35.69066],[139.42806,35.69072],[139.42829,35.6912],[139.42831,35.69126],[139.42883,35.6911],[139.42923,35.69099],[139.42989,35.69079],[139.43005,35.69074],[139.43038,35.69063],[139.4309,35.69045],[139.43104,35.6904],[139.43139,35.69033],[139.43145,35.69033],[139.43182,35.69023],[139.43215,35.69016],[139.43235,35.69009],[139.43237,35.69008],[139.43262,35.68999],[139.43314,35.68981],[139.43399,35.68945],[139.43402,35.68944],[139.43402,35.68904],[139.43403,35.68894]]]}},{"type":"Feature","properties":{"name":"北一丁目","setai":1002,"jinko":1857,"key":"13215005001","units":1},"geometry":{"type":"Polygon","coordinates":[[[139.44848,35.70088],[139.44852,35.70074],[139.44864,35.70074],[139.44871,35.70073],[139.44889,35.70067],[139.44892,35.7007],[139.4494,35.70044],[139.4496,35.70033],[139.44974,35.70023],[139.44979,35.70019],[139.44997,35.70005],[139.45011,35.69991],[139.45038,35.69965],[139.45051,35.69948],[139.45058,35.69933],[139.449,35.69929],[139.4488,35.69929],[139.4481,35.69927],[139.44777,35.69926],[139.44718,35.69923],[139.44626,35.69919],[139.44517,35.69914],[139.44308,35.69907],[139.44302,35.69901],[139.44281,35.69905],[139.44218,35.69904],[139.44213,35.69904],[139.44213,35.6991],[139.44213,35.69931],[139.44213,35.69934],[139.44242,35.69938],[139.4424,35.69975],[139.44238,35.70004],[139.44235,35.70025],[139.44238,35.70033],[139.44418,35.70039],[139.44418,35.70026],[139.44442,35.70025],[139.44468,35.70027],[139.44468,35.70041],[139.4448,35.70041],[139.44483,35.70041],[139.44483,35.70042],[139.44509,35.70043],[139.4451,35.7003],[139.4454,35.70031],[139.4455,35.7003],[139.4455,35.7002],[139.44568,35.70021],[139.44569,35.70018],[139.44574,35.70005],[139.44603,35.70011],[139.44656,35.7002],[139.4472,35.70022],[139.4472,35.70039],[139.44782,35.70041],[139.44784,35.70045],[139.44784,35.70064],[139.448,35.7007],[139.44799,35.70088],[139.44808,35.70087],[139.44812,35.70086],[139.44839,35.7009],[139.44848,35.70091],[139.44848,35.70088]]]}},{"type":"Feature","properties":{"name":"北二丁目","setai":1262,"jinko":2281,"key":"13215005002","units":1},"geometry":{"type":"Polygon","coordinates":[[[139.43831,35.70146],[139.43835,35.70132],[139.43845,35.70131],[139.43859,35.70135],[139.43861,35.70135],[139.43865,35.70131],[139.43871,35.7013],[139.43924,35.70127],[139.43952,35.7013],[139.44001,35.70134],[139.44006,35.70127],[139.44079,35.70132],[139.44093,35.70133],[139.441,35.70133],[139.44098,35.70139],[139.44119,35.7014],[139.44122,35.70135],[139.44141,35.70107],[139.44157,35.70083],[139.44164,35.70074],[139.44192,35.70025],[139.44235,35.70025],[139.44238,35.70004],[139.4424,35.69975],[139.44242,35.69938],[139.44213,35.69934],[139.44213,35.69931],[139.44213,35.6991],[139.44213,35.69904],[139.44096,35.69901],[139.44076,35.69901],[139.43987,35.69898],[139.43946,35.69897],[139.43875,35.69895],[139.4384,35.69894],[139.43742,35.69891],[139.43697,35.69889],[139.43673,35.69889],[139.43604,35.69886],[139.43518,35.69883],[139.43516,35.69883],[139.43515,35.69886],[139.43514,35.69887],[139.43474,35.69945],[139.43455,35.69976],[139.43441,35.69996],[139.43433,35.7001],[139.43413,35.70043],[139.43398,35.70068],[139.43391,35.70079],[139.43387,35.70086],[139.43381,35.70097],[139.4352,35.7012],[139.43528,35.70119],[139.43543,35.70105],[139.4355,35.70106],[139.43618,35.70121],[139.43684,35.70134],[139.43709,35.70138],[139.43752,35.70138],[139.43751,35.7014],[139.43764,35.70145],[139.43769,35.70137],[139.43809,35.70137],[139.43807,35.7014],[139.43821,35.70146],[139.43823,35.70143],[139.43831,35.70146]]]}},{"type":"Feature","properties":{"name":"北三丁目","setai":1793,"jinko":3936,"key":"13215005003","units":1},"geometry":{"type":"Polygon","coordinates":[[[139.43022,35.7035],[139.43023,35.70329],[139.43073,35.70331],[139.43081,35.70331],[139.43098,35.70332],[139.43124,35.70334],[139.43169,35.70336],[139.43169,35.70336],[139.4317,35.70332],[139.43173,35.70301],[139.43177,35.70262],[139.43141,35.70261],[139.43141,35.70251],[139.43142,35.70244],[139.43135,35.70244],[139.43144,35.7023],[139.43153,35.70215],[139.43184,35.70165],[139.432,35.70137],[139.43342,35.70156],[139.43366,35.70119],[139.43372,35.7011],[139.43381,35.70097],[139.43387,35.70086],[139.43391,35.70079],[139.43398,35.70068],[139.43413,35.70043],[139.43433,35.7001],[139.43441,35.69996],[139.43455,35.69976],[139.43474,35.69945],[139.43514,35.69887],[139.43515,35.69886],[139.43516,35.69883],[139.4351,35.69883],[139.43358,35.69878],[139.43354,35.69878],[139.43272,35.69875],[139.4324,35.69874],[139.43113,35.69871],[139.43113,35.69871],[139.43109,35.6987],[139.43039,35.69869],[139.42944,35.69866],[139.42907,35.69865],[139.42698,35.69859],[139.42702,35.69864],[139.42716,35.69881],[139.42721,35.69894],[139.42711,35.69913],[139.42703,35.69926],[139.42703,35.69926],[139.42706,35.69928],[139.42821,35.69993],[139.42926,35.70051],[139.42934,35.70056],[139.42936,35.70057],[139.42926,35.70074],[139.42918,35.70086],[139.42917,35.70087],[139.42897,35.70117],[139.42837,35.70079],[139.42816,35.70066],[139.42777,35.70042],[139.42676,35.69978],[139.42673,35.69977],[139.42673,35.69976],[139.42663,35.69993],[139.42646,35.70022],[139.42645,35.70022],[139.42644,35.70024],[139.42602,35.70097],[139.4255,35.70094],[139.42545,35.70161],[139.42542,35.70205],[139.42543,35.70205],[139.42611,35.70209],[139.42619,35.70214],[139.42736,35.70219],[139.42729,35.70286],[139.42732,35.70287],[139.42755,35.70302],[139.42772,35.70314],[139.42761,35.70338],[139.42795,35.70362],[139.42807,35.70369],[139.42812,35.70373],[139.42813,35.70373],[139.42827,35.70374],[139.4285,35.70376],[139.43006,35.70383],[139.43047,35.70385],[139.4305,35.70382],[139.43051,35.7038],[139.43055,35.70375],[139.4302,35.70374],[139.43021,35.70355],[139.43022,35.7035]]]}},{"type":"Feature","properties":{"name":"谷保","setai":4144,"jinko":9163,"key":"13215006002","units":6},"geometry":{"type":"MultiPolygon","coordinates":[[[[139.43762,35.68429],[139.43785,35.68426],[139.43851,35.68415],[139.43885,35.68409],[139.43965,35.68388],[139.43956,35.68343],[139.43945,35.68314],[139.43927,35.68266],[139.43916,35.68243],[139.43906,35.68182],[139.43901,35.68134],[139.43908,35.68105],[139.4387,35.68113],[139.43811,35.68107],[139.43797,35.68106],[139.43736,35.68095],[139.43728,35.68097],[139.43718,35.68097],[139.43645,35.68092],[139.43631,35.6809],[139.43493,35.68098],[139.43493,35.68098],[139.43396,35.68103],[139.43358,35.68087],[139.43354,35.68087],[139.43327,35.68083],[139.43316,35.68081],[139.43287,35.68084],[139.43231,35.68089],[139.43215,35.68088],[139.4316,35.68085],[139.43174,35.68131],[139.43179,35.68163],[139.43179,35.68192],[139.43178,35.68228],[139.43111,35.68233],[139.43097,35.68234],[139.43054,35.68237],[139.43014,35.6824],[139.42978,35.6827],[139.42961,35.68292],[139.42949,35.68309],[139.42952,35.68313],[139.42978,35.68324],[139.43006,35.68324],[139.43006,35.68354],[139.43006,35.68369],[139.4302,35.68382],[139.42991,35.68401],[139.42991,35.68402],[139.42993,35.68424],[139.43007,35.68445],[139.4302,35.68438],[139.43025,35.68432],[139.43039,35.68424],[139.43038,35.68415],[139.43041,35.68405],[139.43056,35.68386],[139.43069,35.68374],[139.4309,35.68382],[139.431,35.68391],[139.43108,35.68394],[139.43077,35.68423],[139.43081,35.68429],[139.431,35.68424],[139.43142,35.68419],[139.43147,35.68437],[139.43208,35.68427],[139.43235,35.68497],[139.43293,35.6849],[139.43293,35.6849],[139.43297,35.6849],[139.43356,35.68482],[139.43403,35.68475],[139.43495,35.68463],[139.4358,35.68452],[139.43736,35.68432],[139.43762,35.68429]]],[[[139.43095,35.68496],[139.43093,35.68483],[139.43114,35.68477],[139.43129,35.6851],[139.43189,35.68503],[139.43198,35.68502],[139.43182,35.68476],[139.4317,35.68478],[139.43153,35.68447],[139.43134,35.68454],[139.43126,35.68446],[139.43088,35.68453],[139.42978,35.6849],[139.42968,35.68482],[139.4296,35.68496],[139.4294,35.68506],[139.42916,35.68515],[139.42896,35.68518],[139.42872,35.68544],[139.4287,35.68545],[139.42879,35.68556],[139.4288,35.68558],[139.42912,35.68545],[139.42927,35.68541],[139.42944,35.68537],[139.42985,35.6853],[139.43013,35.68526],[139.43069,35.68518],[139.43062,35.68505],[139.43095,35.68496]]],[[[139.44521,35.68109],[139.44498,35.6808],[139.44469,35.68044],[139.44522,35.68018],[139.44564,35.67997],[139.44578,35.6799],[139.44576,35.67988],[139.44523,35.67929],[139.44519,35.67931],[139.44514,35.67925],[139.44517,35.67923],[139.44509,35.67914],[139.4447,35.6787],[139.44461,35.67875],[139.44458,35.6787],[139.44426,35.67885],[139.44387,35.67881],[139.44366,35.67878],[139.44366,35.6786],[139.44333,35.67863],[139.44305,35.67869],[139.44281,35.6787],[139.44276,35.6787],[139.44239,35.67878],[139.44216,35.67877],[139.44194,35.67888],[139.44183,35.67842],[139.44152,35.67792],[139.44132,35.67773],[139.44129,35.67762],[139.4413,35.67737],[139.44124,35.67725],[139.44111,35.67718],[139.4409,35.67757],[139.44082,35.67767],[139.4407,35.67775],[139.44051,35.67783],[139.44038,35.67791],[139.44014,35.67802],[139.44002,35.67809],[139.43997,35.67816],[139.43963,35.67883],[139.43959,35.67897],[139.43964,35.67924],[139.43931,35.67913],[139.43916,35.67901],[139.43911,35.67879],[139.43875,35.67857],[139.43866,35.67856],[139.43837,35.67861],[139.43842,35.67906],[139.43838,35.67913],[139.43812,35.67938],[139.43792,35.67963],[139.43774,35.67977],[139.43767,35.67986],[139.43768,35.67995],[139.43766,35.68012],[139.43757,35.68028],[139.43747,35.68041],[139.43736,35.68095],[139.43797,35.68106],[139.43811,35.68107],[139.4387,35.68113],[139.43908,35.68105],[139.43901,35.68134],[139.43906,35.68182],[139.43916,35.68243],[139.43927,35.68266],[139.43945,35.68314],[139.43956,35.68343],[139.43965,35.68388],[139.43968,35.68388],[139.43998,35.6838],[139.44036,35.68366],[139.44076,35.68352],[139.44189,35.68312],[139.44305,35.68271],[139.44305,35.6827],[139.4435,35.68255],[139.44359,35.68252],[139.44406,35.68234],[139.44412,35.68232],[139.44465,35.68213],[139.44496,35.68202],[139.44517,35.68194],[139.44575,35.68173],[139.44573,35.68172],[139.44521,35.68109]]],[[[139.45124,35.67946],[139.4516,35.67911],[139.45186,35.67887],[139.45188,35.67889],[139.45219,35.67843],[139.45211,35.6784],[139.452,35.67836],[139.45137,35.67844],[139.45129,35.67823],[139.45128,35.67823],[139.4512,35.67826],[139.45111,35.67807],[139.45121,35.67804],[139.45122,35.67804],[139.45121,35.67801],[139.45121,35.67801],[139.45169,35.67786],[139.45166,35.67775],[139.45178,35.67772],[139.45173,35.67755],[139.45172,35.67756],[139.45172,35.67756],[139.45146,35.67764],[139.45149,35.67774],[139.45131,35.67778],[139.45126,35.67779],[139.45128,35.67785],[139.45118,35.67787],[139.45117,35.67788],[139.45115,35.67782],[139.45105,35.67755],[139.45122,35.67751],[139.45139,35.67746],[139.45136,35.6774],[139.45167,35.67728],[139.45151,35.67683],[139.45108,35.67708],[139.45072,35.67724],[139.45027,35.67751],[139.45008,35.6776],[139.44984,35.67774],[139.44896,35.67822],[139.44823,35.67862],[139.44767,35.67893],[139.44671,35.67799],[139.44647,35.67792],[139.44626,35.67785],[139.44605,35.67776],[139.44603,35.67777],[139.44583,35.67791],[139.44569,35.67797],[139.44548,35.67813],[139.4451,35.67835],[139.44485,35.6785],[139.44468,35.6786],[139.44461,35.67866],[139.44457,35.67869],[139.44458,35.6787],[139.44461,35.67875],[139.4447,35.6787],[139.44509,35.67914],[139.44517,35.67923],[139.44514,35.67925],[139.44519,35.67931],[139.44523,35.67929],[139.44576,35.67988],[139.44578,35.6799],[139.44564,35.67997],[139.44522,35.68018],[139.44469,35.68044],[139.44498,35.6808],[139.44521,35.68109],[139.44573,35.68172],[139.44575,35.68173],[139.44614,35.68159],[139.44648,35.68147],[139.44675,35.68137],[139.44687,35.68132],[139.44707,35.68124],[139.44769,35.68101],[139.44816,35.68086],[139.44815,35.68085],[139.4494,35.68041],[139.44944,35.6804],[139.45001,35.68018],[139.45017,35.68012],[139.45057,35.67992],[139.45074,35.67981],[139.45109,35.67958],[139.45124,35.67946]]],[[[139.44896,35.67822],[139.44984,35.67774],[139.45008,35.6776],[139.45027,35.67751],[139.45072,35.67724],[139.45108,35.67708],[139.45086,35.6767],[139.45075,35.67649],[139.45071,35.67637],[139.451,35.67627],[139.45094,35.67613],[139.45092,35.67608],[139.45101,35.67596],[139.4511,35.67579],[139.45118,35.67558],[139.45121,35.67539],[139.45122,35.67522],[139.45122,35.67502],[139.45121,35.67482],[139.45118,35.67453],[139.45114,35.67439],[139.45111,35.67425],[139.4511,35.67407],[139.45115,35.67384],[139.45116,35.67365],[139.45112,35.67362],[139.45079,35.67386],[139.4505,35.67408],[139.45023,35.67432],[139.4501,35.67423],[139.4499,35.67443],[139.44971,35.6746],[139.44929,35.67508],[139.44919,35.67522],[139.44891,35.67561],[139.44891,35.67569],[139.44887,35.67572],[139.44879,35.67579],[139.44845,35.67624],[139.4483,35.67637],[139.44791,35.67623],[139.44771,35.67617],[139.44755,35.67611],[139.4473,35.67604],[139.44707,35.67599],[139.44696,35.67597],[139.44677,35.67594],[139.44615,35.67584],[139.44576,35.67583],[139.44538,35.67582],[139.44465,35.67581],[139.44452,35.6758],[139.44281,35.67583],[139.44208,35.67585],[139.44092,35.6759],[139.44074,35.6759],[139.44069,35.6759],[139.44067,35.67591],[139.44068,35.67598],[139.4408,35.6764],[139.44085,35.67673],[139.44094,35.67697],[139.441,35.67708],[139.44111,35.67718],[139.44124,35.67725],[139.4413,35.67737],[139.44129,35.67762],[139.44132,35.67773],[139.44152,35.67792],[139.44183,35.67842],[139.44194,35.67888],[139.44216,35.67877],[139.44239,35.67878],[139.44276,35.6787],[139.44281,35.6787],[139.44305,35.67869],[139.44333,35.67863],[139.44366,35.6786],[139.44366,35.67878],[139.44387,35.67881],[139.44426,35.67885],[139.44458,35.6787],[139.44457,35.67869],[139.44461,35.67866],[139.44468,35.6786],[139.44485,35.6785],[139.4451,35.67835],[139.44548,35.67813],[139.44569,35.67797],[139.44583,35.67791],[139.44603,35.67777],[139.44605,35.67776],[139.44626,35.67785],[139.44647,35.67792],[139.44671,35.67799],[139.44767,35.67893],[139.44823,35.67862],[139.44896,35.67822]]],[[[139.42635,35.68776],[139.42653,35.68742],[139.42673,35.68709],[139.42675,35.68705],[139.42676,35.68704],[139.42695,35.68679],[139.427,35.68672],[139.4272,35.68653],[139.42739,35.68636],[139.42743,35.68633],[139.42763,35.68616],[139.42789,35.68599],[139.42841,35.68573],[139.42861,35.68563],[139.42865,35.68562],[139.42879,35.68556],[139.4287,35.68545],[139.42872,35.68544],[139.42896,35.68518],[139.42916,35.68515],[139.4294,35.68506],[139.4296,35.68496],[139.42968,35.68482],[139.42979,35.68458],[139.43007,35.68445],[139.42993,35.68424],[139.42991,35.68402],[139.42991,35.68401],[139.4302,35.68382],[139.43006,35.68369],[139.43006,35.68354],[139.43006,35.68324],[139.42978,35.68324],[139.42952,35.68313],[139.42949,35.68309],[139.42961,35.68292],[139.42978,35.6827],[139.43014,35.6824],[139.42996,35.68241],[139.42919,35.68247],[139.42883,35.6825],[139.42829,35.68257],[139.42782,35.68262],[139.42734,35.68271],[139.42635,35.68289],[139.42679,35.68416],[139.42685,35.68435],[139.42686,35.68438],[139.42691,35.68526],[139.42682,35.68539],[139.42678,35.68553],[139.4267,35.68566],[139.42657,35.68577],[139.42641,35.68589],[139.42623,35.68608],[139.42611,35.68628],[139.42597,35.68643],[139.42586,35.68653],[139.42581,35.68662],[139.42589,35.68674],[139.42589,35.68681],[139.42585,35.68687],[139.42578,35.68695],[139.42577,35.68697],[139.42583,35.68711],[139.42584,35.68716],[139.42591,35.68728],[139.42597,35.68737],[139.42591,35.68739],[139.42581,35.68743],[139.42582,35.68744],[139.42598,35.68771],[139.42619,35.68762],[139.42635,35.68776]]],[[[139.43493,35.68098],[139.43631,35.6809],[139.43645,35.68092],[139.43718,35.68097],[139.43728,35.68097],[139.43736,35.68095],[139.43747,35.68041],[139.43757,35.68028],[139.43766,35.68012],[139.43768,35.67995],[139.43767,35.67986],[139.43774,35.67977],[139.43792,35.67963],[139.43812,35.67938],[139.43838,35.67913],[139.43842,35.67906],[139.43837,35.67861],[139.43816,35.67871],[139.43806,35.67875],[139.4379,35.67878],[139.43767,35.67879],[139.4363,35.67871],[139.43593,35.67867],[139.43571,35.67863],[139.43564,35.67862],[139.43527,35.67858],[139.43499,35.67855],[139.43467,35.67849],[139.43433,35.67845],[139.43411,35.67844],[139.43402,35.67844],[139.43391,35.67848],[139.43381,35.67852],[139.43379,35.67858],[139.43373,35.67869],[139.43356,35.67855],[139.43341,35.67852],[139.43273,35.67867],[139.43263,35.67867],[139.43258,35.67866],[139.43253,35.6787],[139.43193,35.67892],[139.43187,35.67894],[139.43159,35.67906],[139.43127,35.67922],[139.43087,35.67935],[139.43121,35.67982],[139.4315,35.68066],[139.43158,35.68082],[139.4316,35.68085],[139.43215,35.68088],[139.43231,35.68089],[139.43287,35.68084],[139.43316,35.68081],[139.43327,35.68083],[139.43354,35.68087],[139.43358,35.68087],[139.43396,35.68103],[139.43493,35.68098],[139.43493,35.68098]]],[[[139.44064,35.67577],[139.44058,35.67576],[139.44048,35.67576],[139.44035,35.67576],[139.44033,35.67576],[139.44017,35.67576],[139.44007,35.67576],[139.43994,35.67576],[139.43973,35.67576],[139.43948,35.67576],[139.43939,35.67576],[139.43924,35.67576],[139.43912,35.67576],[139.43915,35.6765],[139.43916,35.67726],[139.43915,35.67747],[139.43915,35.6782],[139.43916,35.67901],[139.43931,35.67913],[139.43964,35.67924],[139.43959,35.67897],[139.43963,35.67883],[139.43997,35.67816],[139.44002,35.67809],[139.44014,35.67802],[139.44038,35.67791],[139.44051,35.67783],[139.4407,35.67775],[139.44082,35.67767],[139.4409,35.67757],[139.44111,35.67718],[139.441,35.67708],[139.44094,35.67697],[139.44085,35.67673],[139.4408,35.6764],[139.44068,35.67598],[139.44067,35.67591],[139.44064,35.67577]]]]}},{"type":"Feature","properties":{"name":"谷保六丁目","setai":175,"jinko":511,"key":"13215006011","units":1},"geometry":{"type":"Polygon","coordinates":[[[139.44696,35.67597],[139.44726,35.67538],[139.44773,35.67443],[139.44792,35.67405],[139.44798,35.67395],[139.44831,35.67328],[139.4486,35.6727],[139.44861,35.6727],[139.44887,35.67217],[139.4482,35.6724],[139.4476,35.67242],[139.44739,35.67248],[139.44714,35.67257],[139.44682,35.67294],[139.44661,35.67303],[139.44618,35.67321],[139.44589,35.67313],[139.4459,35.67302],[139.4459,35.673],[139.44592,35.6729],[139.44545,35.67287],[139.44507,35.6728],[139.44507,35.67275],[139.44455,35.67259],[139.44449,35.67258],[139.44442,35.67261],[139.4444,35.67255],[139.44439,35.67252],[139.44455,35.67246],[139.44478,35.67225],[139.44477,35.67222],[139.44484,35.67215],[139.44485,35.67214],[139.44484,35.6721],[139.44519,35.67208],[139.44489,35.67196],[139.44485,35.67198],[139.44438,35.67193],[139.44426,35.67202],[139.4442,35.67203],[139.44392,35.67209],[139.4437,35.67219],[139.44348,35.67229],[139.44337,35.67237],[139.44319,35.67234],[139.44316,35.67233],[139.4429,35.67232],[139.44269,35.67232],[139.44264,35.67232],[139.44235,35.67234],[139.44237,35.67221],[139.44228,35.67219],[139.44212,35.67213],[139.44197,35.67204],[139.44181,35.67197],[139.4417,35.67207],[139.44145,35.672],[139.44128,35.67192],[139.44136,35.67172],[139.44103,35.6716],[139.44057,35.67162],[139.44035,35.67155],[139.44012,35.67151],[139.44009,35.67151],[139.44008,35.67156],[139.44007,35.67182],[139.44013,35.67207],[139.44025,35.67232],[139.44037,35.67248],[139.44062,35.67272],[139.44021,35.67309],[139.4391,35.67409],[139.43845,35.67463],[139.43874,35.67485],[139.43881,35.6749],[139.43897,35.67505],[139.43906,35.67523],[139.4391,35.67532],[139.43911,35.67536],[139.43911,35.67545],[139.43912,35.67576],[139.43924,35.67576],[139.43939,35.67576],[139.43948,35.67576],[139.43973,35.67576],[139.43994,35.67576],[139.44007,35.67576],[139.44017,35.67576],[139.44033,35.67576],[139.44035,35.67576],[139.44048,35.67576],[139.44058,35.67576],[139.44064,35.67577],[139.44067,35.67591],[139.44069,35.6759],[139.44074,35.6759],[139.44092,35.6759],[139.44208,35.67585],[139.44281,35.67583],[139.44452,35.6758],[139.44465,35.67581],[139.44538,35.67582],[139.44576,35.67583],[139.44615,35.67584],[139.44677,35.67594],[139.44696,35.67597]]]}},{"type":"Feature","properties":{"name":"谷保七丁目","setai":335,"jinko":738,"key":"13215006012","units":1},"geometry":{"type":"Polygon","coordinates":[[[139.45111,35.67323],[139.4512,35.67311],[139.45127,35.67313],[139.4513,35.67314],[139.45133,35.67313],[139.45137,35.67311],[139.45139,35.6731],[139.45147,35.67307],[139.45153,35.67305],[139.45159,35.67299],[139.45166,35.67293],[139.45172,35.67287],[139.45178,35.67282],[139.45181,35.67279],[139.45186,35.67275],[139.45193,35.67269],[139.45201,35.67264],[139.45203,35.67262],[139.45209,35.67258],[139.45211,35.67257],[139.4521,35.67256],[139.45209,35.67256],[139.45211,35.67255],[139.45247,35.67224],[139.45273,35.67208],[139.45272,35.67206],[139.45267,35.67196],[139.45266,35.67193],[139.45268,35.67192],[139.45271,35.67191],[139.45272,35.6719],[139.45269,35.67179],[139.45268,35.67175],[139.45281,35.6716],[139.45292,35.67155],[139.45305,35.67152],[139.45304,35.67145],[139.45311,35.67145],[139.45312,35.67136],[139.45326,35.67136],[139.45326,35.67149],[139.45326,35.6715],[139.45376,35.6715],[139.45382,35.67156],[139.45416,35.67136],[139.45413,35.67134],[139.45376,35.67132],[139.45319,35.67125],[139.4529,35.67119],[139.4527,35.67114],[139.45251,35.67111],[139.45249,35.6711],[139.45223,35.67111],[139.45198,35.67112],[139.45204,35.67133],[139.4521,35.67156],[139.45105,35.67178],[139.45038,35.67196],[139.45026,35.67198],[139.44992,35.67207],[139.44984,35.67185],[139.44968,35.67188],[139.44928,35.67202],[139.44902,35.67212],[139.44887,35.67217],[139.44861,35.6727],[139.4486,35.6727],[139.44831,35.67328],[139.44798,35.67395],[139.44792,35.67405],[139.44773,35.67443],[139.44726,35.67538],[139.44696,35.67597],[139.44707,35.67599],[139.4473,35.67604],[139.44755,35.67611],[139.44771,35.67617],[139.44791,35.67623],[139.4483,35.67637],[139.44845,35.67624],[139.44879,35.67579],[139.44887,35.67572],[139.44891,35.67569],[139.44891,35.67561],[139.44919,35.67522],[139.44929,35.67508],[139.44971,35.6746],[139.4499,35.67443],[139.4501,35.67423],[139.45032,35.67404],[139.45053,35.67386],[139.45071,35.6737],[139.45083,35.67359],[139.45091,35.67355],[139.45103,35.67341],[139.45111,35.67323]]]}},{"type":"Feature","properties":{"name":"青柳","setai":7,"jinko":18,"key":"13215007000","units":1},"geometry":{"type":"Polygon","coordinates":[[[139.43077,35.68423],[139.43108,35.68394],[139.431,35.68391],[139.4309,35.68382],[139.43069,35.68374],[139.43056,35.68386],[139.43041,35.68405],[139.43038,35.68415],[139.43039,35.68424],[139.43064,35.68408],[139.43076,35.68423],[139.43077,35.68423]]]}},{"type":"Feature","properties":{"name":"青柳一丁目","setai":890,"jinko":2018,"key":"13215007001","units":1},"geometry":{"type":"Polygon","coordinates":[[[139.42298,35.68779],[139.42334,35.68762],[139.42351,35.68765],[139.42365,35.68765],[139.42396,35.68759],[139.42397,35.68759],[139.42406,35.68755],[139.42406,35.68755],[139.42422,35.68746],[139.42437,35.68737],[139.42437,35.68736],[139.42436,35.68723],[139.42472,35.68707],[139.42483,35.68702],[139.42489,35.68702],[139.42491,35.68702],[139.42493,35.68703],[139.42498,35.68708],[139.42503,35.68706],[139.42522,35.68697],[139.42532,35.68691],[139.42539,35.68687],[139.42541,35.68686],[139.42549,35.68679],[139.42554,35.68675],[139.42575,35.68689],[139.42575,35.68693],[139.42577,35.68697],[139.42578,35.68695],[139.42585,35.68687],[139.42589,35.68681],[139.42589,35.68674],[139.42581,35.68662],[139.42586,35.68653],[139.42597,35.68643],[139.42611,35.68628],[139.42623,35.68608],[139.42641,35.68589],[139.42657,35.68577],[139.4267,35.68566],[139.42678,35.68553],[139.42682,35.68539],[139.42691,35.68526],[139.42686,35.68438],[139.42685,35.68435],[139.42679,35.68416],[139.42635,35.68289],[139.42634,35.68286],[139.42593,35.68294],[139.42577,35.68297],[139.42557,35.683],[139.42537,35.68304],[139.42501,35.68312],[139.42479,35.68317],[139.42475,35.68318],[139.4246,35.68321],[139.42443,35.68325],[139.42425,35.68329],[139.42399,35.68335],[139.42395,35.68336],[139.42361,35.68343],[139.42344,35.68346],[139.42317,35.68352],[139.42296,35.68357],[139.42284,35.6836],[139.42248,35.68368],[139.42246,35.68368],[139.42224,35.68373],[139.42219,35.68374],[139.42174,35.68384],[139.42163,35.68386],[139.42149,35.68389],[139.42147,35.6839],[139.42106,35.68399],[139.42135,35.68478],[139.42171,35.68569],[139.42172,35.68572],[139.42182,35.68603],[139.42201,35.68648],[139.4221,35.6867],[139.42222,35.68699],[139.42243,35.68751],[139.42259,35.68791],[139.42259,35.68792],[139.42274,35.68788],[139.42283,35.68786],[139.4229,35.68784],[139.42298,35.68779]]]}},{"type":"Feature","properties":{"name":"青柳二丁目","setai":731,"jinko":1375,"key":"13215007002","units":1},"geometry":{"type":"Polygon","coordinates":[[[139.42614,35.68207],[139.42603,35.6816],[139.42594,35.68124],[139.42588,35.68097],[139.42586,35.68096],[139.42574,35.68089],[139.42559,35.68091],[139.42518,35.68071],[139.42516,35.6807],[139.42536,35.68047],[139.42529,35.6804],[139.42517,35.68047],[139.42462,35.68058],[139.42444,35.68062],[139.42415,35.68069],[139.4241,35.68054],[139.42402,35.68031],[139.42398,35.68023],[139.42393,35.68013],[139.42381,35.67989],[139.42369,35.67965],[139.4236,35.67946],[139.42358,35.67945],[139.42356,35.67947],[139.42354,35.67944],[139.42348,35.67937],[139.42341,35.6793],[139.42332,35.67921],[139.42325,35.67915],[139.42317,35.67907],[139.42307,35.67899],[139.42298,35.67891],[139.42281,35.6791],[139.42279,35.67913],[139.42262,35.6793],[139.42231,35.6796],[139.42199,35.67987],[139.42191,35.67993],[139.42171,35.68011],[139.42156,35.68023],[139.42142,35.68035],[139.42117,35.68054],[139.42062,35.68092],[139.42027,35.68111],[139.41993,35.6813],[139.41962,35.68147],[139.41925,35.68166],[139.41897,35.6818],[139.4172,35.68273],[139.41716,35.68276],[139.41717,35.68276],[139.41739,35.68274],[139.41747,35.68275],[139.41767,35.68272],[139.41805,35.6826],[139.41824,35.68257],[139.41851,35.68252],[139.41858,35.68251],[139.41864,35.68249],[139.41872,35.68244],[139.41876,35.6824],[139.41886,35.68235],[139.41892,35.68232],[139.41899,35.68229],[139.41907,35.68224],[139.41917,35.68218],[139.41927,35.68213],[139.41932,35.68209],[139.41937,35.68205],[139.41944,35.68203],[139.41951,35.68202],[139.41958,35.68199],[139.42007,35.68181],[139.42012,35.6818],[139.42025,35.68212],[139.42036,35.6824],[139.42054,35.68283],[139.42063,35.68306],[139.42065,35.68309],[139.42091,35.68375],[139.421,35.684],[139.42106,35.68399],[139.42147,35.6839],[139.42149,35.68389],[139.42163,35.68386],[139.42174,35.68384],[139.42219,35.68374],[139.42224,35.68373],[139.42246,35.68368],[139.42248,35.68368],[139.42284,35.6836],[139.42296,35.68357],[139.42317,35.68352],[139.42344,35.68346],[139.42361,35.68343],[139.42395,35.68336],[139.42399,35.68335],[139.42425,35.68329],[139.42443,35.68325],[139.4246,35.68321],[139.42475,35.68318],[139.42479,35.68317],[139.42501,35.68312],[139.42537,35.68304],[139.42557,35.683],[139.42577,35.68297],[139.42593,35.68294],[139.42634,35.68286],[139.42621,35.68242],[139.42622,35.68242],[139.42614,35.68207]]]}},{"type":"Feature","properties":{"name":"青柳三丁目","setai":642,"jinko":1800,"key":"13215007003","units":1},"geometry":{"type":"Polygon","coordinates":[[[139.42259,35.68791],[139.42243,35.68751],[139.42222,35.68699],[139.4221,35.6867],[139.42201,35.68648],[139.42182,35.68603],[139.42172,35.68572],[139.42171,35.68569],[139.42135,35.68478],[139.42106,35.68399],[139.421,35.684],[139.42091,35.68375],[139.42065,35.68309],[139.42063,35.68306],[139.42054,35.68283],[139.42036,35.6824],[139.42025,35.68212],[139.42012,35.6818],[139.42007,35.68181],[139.41958,35.68199],[139.41951,35.68202],[139.41944,35.68203],[139.41937,35.68205],[139.41932,35.68209],[139.41927,35.68213],[139.41917,35.68218],[139.41907,35.68224],[139.41899,35.68229],[139.41892,35.68232],[139.41886,35.68235],[139.41876,35.6824],[139.41872,35.68244],[139.41864,35.68249],[139.41858,35.68251],[139.41851,35.68252],[139.41824,35.68257],[139.41805,35.6826],[139.41767,35.68272],[139.41747,35.68275],[139.41739,35.68274],[139.41717,35.68276],[139.41716,35.68276],[139.41708,35.6828],[139.41688,35.68289],[139.4169,35.68307],[139.41718,35.68302],[139.41744,35.68319],[139.41761,35.68329],[139.4179,35.68348],[139.41815,35.68365],[139.41837,35.68388],[139.41857,35.68407],[139.41859,35.6841],[139.4189,35.68444],[139.41888,35.6845],[139.41885,35.68457],[139.41896,35.68472],[139.41913,35.68496],[139.41947,35.68545],[139.4195,35.68549],[139.41955,35.68558],[139.41979,35.68596],[139.41984,35.68604],[139.41989,35.68612],[139.4199,35.68614],[139.4201,35.68642],[139.42011,35.68644],[139.42014,35.68649],[139.42029,35.68679],[139.42036,35.68693],[139.42036,35.68695],[139.42065,35.68751],[139.42078,35.68777],[139.42082,35.68783],[139.42083,35.68783],[139.42089,35.68788],[139.42091,35.6879],[139.42095,35.68794],[139.42096,35.68795],[139.42097,35.68794],[139.42151,35.68777],[139.42151,35.68777],[139.42178,35.68769],[139.42184,35.68777],[139.42194,35.68774],[139.42217,35.68816],[139.42219,35.6882],[139.42233,35.6881],[139.42257,35.68792],[139.42257,35.68792],[139.42259,35.68792],[139.42259,35.68791]]]}},{"type":"Feature","properties":{"name":"石田","setai":45,"jinko":103,"key":"132150080","units":1},"geometry":{"type":"MultiPolygon","coordinates":[[[[139.43235,35.68497],[139.43208,35.68427],[139.43147,35.68437],[139.43142,35.68419],[139.431,35.68424],[139.43081,35.68429],[139.43077,35.68423],[139.43076,35.68423],[139.43064,35.68408],[139.43039,35.68424],[139.43025,35.68432],[139.4302,35.68438],[139.43007,35.68445],[139.42979,35.68458],[139.42968,35.68482],[139.42978,35.6849],[139.43088,35.68453],[139.43126,35.68446],[139.43134,35.68454],[139.43153,35.68447],[139.4317,35.68478],[139.43182,35.68476],[139.43198,35.68502],[139.43235,35.68497]]],[[[139.43129,35.6851],[139.43114,35.68477],[139.43093,35.68483],[139.43095,35.68496],[139.43062,35.68505],[139.43069,35.68518],[139.43116,35.68512],[139.43129,35.6851]]]]}},{"type":"Feature","properties":{"name":"泉一丁目","setai":106,"jinko":192,"key":"13215009001","units":1},"geometry":{"type":"Polygon","coordinates":[[[139.44025,35.67232],[139.44013,35.67207],[139.44007,35.67182],[139.44008,35.67156],[139.44009,35.67151],[139.44012,35.67151],[139.44013,35.67143],[139.44015,35.67135],[139.44052,35.67143],[139.44066,35.67142],[139.44067,35.67137],[139.44066,35.67131],[139.44069,35.67128],[139.4408,35.67125],[139.44095,35.67123],[139.44096,35.67131],[139.44092,35.67134],[139.44106,35.67137],[139.44129,35.67132],[139.44139,35.67133],[139.44151,35.6714],[139.44162,35.67152],[139.44189,35.67162],[139.44191,35.67129],[139.44232,35.6713],[139.44233,35.6713],[139.44232,35.67124],[139.44232,35.67121],[139.44266,35.67112],[139.44279,35.67109],[139.44292,35.67108],[139.44292,35.67106],[139.44294,35.67106],[139.44305,35.67104],[139.44326,35.67102],[139.44328,35.67101],[139.44329,35.67101],[139.44329,35.67101],[139.4433,35.67096],[139.44343,35.67096],[139.44353,35.67095],[139.44352,35.67093],[139.44352,35.6709],[139.44334,35.67073],[139.44271,35.67084],[139.44244,35.67093],[139.44195,35.67099],[139.4418,35.67099],[139.44164,35.67106],[139.44145,35.67106],[139.44139,35.67102],[139.44135,35.67102],[139.44114,35.67096],[139.44111,35.67086],[139.44121,35.67077],[139.4412,35.67072],[139.44072,35.67081],[139.44048,35.6709],[139.44035,35.67094],[139.44006,35.67101],[139.43981,35.67111],[139.43955,35.67118],[139.43958,35.67141],[139.4394,35.67144],[139.43915,35.67152],[139.43905,35.67132],[139.43867,35.6715],[139.43841,35.67166],[139.43818,35.67179],[139.43816,35.67177],[139.43805,35.6716],[139.43724,35.67203],[139.43723,35.6721],[139.43711,35.67217],[139.43697,35.67225],[139.43702,35.67174],[139.43695,35.67173],[139.43696,35.67176],[139.43684,35.6718],[139.43677,35.67181],[139.43643,35.67179],[139.43647,35.67142],[139.43638,35.67142],[139.43605,35.67154],[139.43588,35.67166],[139.43573,35.67148],[139.43542,35.67161],[139.43526,35.67169],[139.4351,35.67177],[139.43472,35.672],[139.43438,35.67218],[139.43417,35.6721],[139.4336,35.67264],[139.43318,35.67303],[139.43296,35.67322],[139.43265,35.6735],[139.43247,35.67366],[139.43227,35.67383],[139.43225,35.67386],[139.43182,35.67423],[139.43126,35.67474],[139.43089,35.67506],[139.43067,35.67527],[139.43058,35.67529],[139.43037,35.67547],[139.43067,35.67557],[139.43104,35.67566],[139.43224,35.67578],[139.43444,35.6758],[139.43543,35.6758],[139.43692,35.6758],[139.43706,35.6757],[139.43773,35.67519],[139.43816,35.67487],[139.43845,35.67463],[139.4391,35.67409],[139.44021,35.67309],[139.44062,35.67272],[139.44037,35.67248],[139.44025,35.67232]]]}},{"type":"Feature","properties":{"name":"泉二丁目","setai":473,"jinko":1080,"key":"13215009002","units":1},"geometry":{"type":"Polygon","coordinates":[[[139.43022,35.67529],[139.43057,35.67526],[139.43058,35.67529],[139.43067,35.67527],[139.43089,35.67506],[139.43126,35.67474],[139.43182,35.67423],[139.43225,35.67386],[139.43227,35.67383],[139.43247,35.67366],[139.43265,35.6735],[139.43296,35.67322],[139.43318,35.67303],[139.4336,35.67264],[139.43417,35.6721],[139.4341,35.67201],[139.4341,35.67201],[139.43393,35.67208],[139.43347,35.67227],[139.43343,35.6722],[139.43303,35.67235],[139.43299,35.67241],[139.43263,35.67251],[139.43218,35.67261],[139.43215,35.67262],[139.43193,35.67269],[139.43181,35.67272],[139.43082,35.67204],[139.43089,35.67195],[139.43056,35.67175],[139.43048,35.67183],[139.43039,35.67176],[139.42944,35.67117],[139.42886,35.67161],[139.42854,35.67187],[139.42821,35.67213],[139.42794,35.67232],[139.4277,35.67251],[139.42733,35.67288],[139.42698,35.67322],[139.4268,35.67341],[139.4267,35.67355],[139.42663,35.67364],[139.42645,35.6739],[139.42631,35.67411],[139.4277,35.67401],[139.42774,35.67401],[139.42813,35.67419],[139.42836,35.6743],[139.42841,35.67432],[139.42858,35.67442],[139.42963,35.67497],[139.42981,35.67507],[139.42982,35.67514],[139.4299,35.67517],[139.43022,35.67529]]]}},{"type":"Feature","properties":{"name":"泉三丁目","setai":424,"jinko":1185,"key":"13215009003","units":1},"geometry":{"type":"Polygon","coordinates":[[[139.42659,35.68042],[139.42687,35.68036],[139.42725,35.68024],[139.42745,35.68018],[139.42782,35.6801],[139.42802,35.68004],[139.42799,35.6799],[139.42794,35.67959],[139.42793,35.6793],[139.42792,35.6791],[139.42794,35.67885],[139.42803,35.67834],[139.42816,35.6779],[139.42819,35.67784],[139.42833,35.67764],[139.42843,35.67746],[139.42846,35.67741],[139.4285,35.67734],[139.42859,35.6772],[139.42869,35.67704],[139.42919,35.67658],[139.43011,35.67568],[139.43037,35.67547],[139.43058,35.67529],[139.43057,35.67526],[139.43022,35.67529],[139.4299,35.67517],[139.42982,35.67514],[139.42981,35.67507],[139.42963,35.67497],[139.42858,35.67442],[139.42841,35.67432],[139.42836,35.6743],[139.42813,35.67419],[139.42774,35.67401],[139.4277,35.67401],[139.42631,35.67411],[139.42626,35.67419],[139.42613,35.67445],[139.426,35.67468],[139.42566,35.67522],[139.42565,35.67523],[139.42532,35.67564],[139.42512,35.67586],[139.4249,35.67608],[139.42474,35.67626],[139.42468,35.67632],[139.42456,35.67644],[139.42445,35.67658],[139.4244,35.67664],[139.42427,35.67686],[139.4239,35.67742],[139.42383,35.67753],[139.42373,35.67769],[139.42362,35.67785],[139.42353,35.67803],[139.42337,35.6783],[139.42312,35.6787],[139.42301,35.67887],[139.42298,35.67891],[139.42307,35.67899],[139.42317,35.67907],[139.42325,35.67915],[139.42332,35.67921],[139.42341,35.6793],[139.42348,35.67937],[139.42354,35.67944],[139.42356,35.67947],[139.42358,35.67945],[139.4236,35.67946],[139.42369,35.67965],[139.42381,35.67989],[139.42393,35.68013],[139.42398,35.68023],[139.42402,35.68031],[139.4241,35.68054],[139.42415,35.68069],[139.42444,35.68062],[139.42462,35.68058],[139.42517,35.68047],[139.42529,35.6804],[139.42536,35.68047],[139.42516,35.6807],[139.42556,35.68066],[139.42592,35.68065],[139.4264,35.68049],[139.42659,35.68042]]]}},{"type":"Feature","properties":{"name":"泉四丁目","setai":77,"jinko":185,"key":"13215009004","units":1},"geometry":{"type":"Polygon","coordinates":[[[139.43635,35.67622],[139.43692,35.6758],[139.43543,35.6758],[139.43444,35.6758],[139.43224,35.67578],[139.43104,35.67566],[139.43067,35.67557],[139.43037,35.67547],[139.43011,35.67568],[139.42919,35.67658],[139.42869,35.67704],[139.42859,35.6772],[139.4285,35.67734],[139.42846,35.67741],[139.42843,35.67746],[139.42833,35.67764],[139.42819,35.67784],[139.42816,35.6779],[139.42803,35.67834],[139.42794,35.67885],[139.42899,35.6788],[139.42927,35.67878],[139.4297,35.67873],[139.43035,35.67864],[139.43086,35.67854],[139.43131,35.67843],[139.43152,35.67839],[139.43167,35.67834],[139.43212,35.67822],[139.43283,35.678],[139.43372,35.67767],[139.43446,35.67734],[139.43458,35.67728],[139.4349,35.6771],[139.43542,35.6768],[139.43566,35.67666],[139.43581,35.67657],[139.43635,35.67622]]]}},{"type":"Feature","properties":{"name":"泉五丁目","setai":82,"jinko":205,"key":"13215009005","units":1},"geometry":{"type":"Polygon","coordinates":[[[139.43253,35.6787],[139.43258,35.67866],[139.43263,35.67867],[139.43273,35.67867],[139.43341,35.67852],[139.43356,35.67855],[139.43373,35.67869],[139.43379,35.67858],[139.43381,35.67852],[139.43391,35.67848],[139.43402,35.67844],[139.43411,35.67844],[139.43433,35.67845],[139.43467,35.67849],[139.43499,35.67855],[139.43527,35.67858],[139.43564,35.67862],[139.43571,35.67863],[139.43593,35.67867],[139.4363,35.67871],[139.43767,35.67879],[139.4379,35.67878],[139.43806,35.67875],[139.43816,35.67871],[139.43837,35.67861],[139.43866,35.67856],[139.43875,35.67857],[139.43911,35.67879],[139.43916,35.67901],[139.43915,35.6782],[139.43915,35.67747],[139.43916,35.67726],[139.43915,35.6765],[139.43912,35.67576],[139.43911,35.67545],[139.43911,35.67536],[139.4391,35.67532],[139.43906,35.67523],[139.43897,35.67505],[139.43881,35.6749],[139.43874,35.67485],[139.43845,35.67463],[139.43816,35.67487],[139.43773,35.67519],[139.43706,35.6757],[139.43692,35.6758],[139.43635,35.67622],[139.43581,35.67657],[139.43566,35.67666],[139.43542,35.6768],[139.4349,35.6771],[139.43458,35.67728],[139.43446,35.67734],[139.43372,35.67767],[139.43283,35.678],[139.43212,35.67822],[139.43167,35.67834],[139.43152,35.67839],[139.43131,35.67843],[139.43086,35.67854],[139.43035,35.67864],[139.4297,35.67873],[139.42927,35.67878],[139.42899,35.6788],[139.42794,35.67885],[139.42792,35.6791],[139.42793,35.6793],[139.42794,35.67959],[139.42799,35.6799],[139.42802,35.68004],[139.42809,35.68016],[139.42835,35.68015],[139.4286,35.6801],[139.4292,35.67994],[139.4299,35.67987],[139.4302,35.67976],[139.43066,35.67943],[139.43087,35.67935],[139.43127,35.67922],[139.43159,35.67906],[139.43187,35.67894],[139.43193,35.67892],[139.43253,35.6787]]]}},{"type":"Feature","properties":{"name":"矢川","setai":358,"jinko":891,"key":"132150100","units":1},"geometry":{"type":"Polygon","coordinates":[[[139.43174,35.68131],[139.4316,35.68085],[139.43158,35.68082],[139.4315,35.68066],[139.43121,35.67982],[139.43087,35.67935],[139.43066,35.67943],[139.4302,35.67976],[139.4299,35.67987],[139.4292,35.67994],[139.4286,35.6801],[139.42835,35.68015],[139.42809,35.68016],[139.42802,35.68004],[139.42782,35.6801],[139.42745,35.68018],[139.42725,35.68024],[139.42687,35.68036],[139.42659,35.68042],[139.4264,35.68049],[139.42592,35.68065],[139.42556,35.68066],[139.42516,35.6807],[139.42518,35.68071],[139.42559,35.68091],[139.42574,35.68089],[139.42586,35.68096],[139.42588,35.68097],[139.42594,35.68124],[139.42603,35.6816],[139.42614,35.68207],[139.42622,35.68242],[139.42621,35.68242],[139.42634,35.68286],[139.42635,35.68289],[139.42734,35.68271],[139.42782,35.68262],[139.42829,35.68257],[139.42883,35.6825],[139.42919,35.68247],[139.42996,35.68241],[139.43014,35.6824],[139.43054,35.68237],[139.43097,35.68234],[139.43111,35.68233],[139.43178,35.68228],[139.43179,35.68192],[139.43179,35.68163],[139.43174,35.68131]]]}}]}