{"type":"FeatureCollection","features":[{"type":"Feature","properties":{"name":"丸の内一丁目","setai":10,"jinko":10,"key":"13101001001","units":1},"geometry":{"type":"Polygon","coordinates":[[[139.761,35.68572],[139.763,35.68528],[139.76451,35.68494],[139.76563,35.6847],[139.76573,35.68468],[139.76637,35.68455],[139.76761,35.68428],[139.76829,35.68413],[139.76888,35.68401],[139.76906,35.68398],[139.7695,35.68388],[139.77052,35.68365],[139.77054,35.68369],[139.7706,35.68367],[139.77059,35.68363],[139.77056,35.68353],[139.77057,35.68352],[139.77058,35.68351],[139.7706,35.68348],[139.77065,35.68342],[139.77064,35.68341],[139.77021,35.68253],[139.77012,35.68255],[139.7701,35.68251],[139.7701,35.68249],[139.77017,35.68246],[139.76988,35.68198],[139.76985,35.68196],[139.76979,35.68185],[139.76968,35.68193],[139.7696,35.68178],[139.76967,35.68174],[139.76966,35.68173],[139.76943,35.68146],[139.76933,35.68129],[139.76906,35.68091],[139.76878,35.68048],[139.76803,35.6793],[139.76784,35.67901],[139.76775,35.67888],[139.76753,35.67852],[139.76753,35.67853],[139.76724,35.67808],[139.76726,35.67807],[139.76702,35.6777],[139.76702,35.67771],[139.76702,35.6777],[139.76699,35.67771],[139.76688,35.67756],[139.76689,35.67754],[139.76689,35.67753],[139.76687,35.67747],[139.76683,35.67744],[139.76679,35.67744],[139.7667,35.67731],[139.76664,35.67723],[139.76596,35.67737],[139.76582,35.67739],[139.76519,35.67754],[139.76492,35.67761],[139.7656,35.67939],[139.76556,35.6795],[139.76535,35.67982],[139.76466,35.68091],[139.76451,35.68121],[139.76451,35.68138],[139.7645,35.68156],[139.76453,35.68164],[139.76351,35.68188],[139.76213,35.6822],[139.76257,35.68356],[139.7627,35.68413],[139.76025,35.68446],[139.76054,35.68532],[139.76082,35.68528],[139.76093,35.68566],[139.76098,35.68565],[139.761,35.68572]]]}},{"type":"Feature","properties":{"name":"丸の内二丁目","setai":0,"jinko":0,"key":"13101001002","units":1},"geometry":{"type":"Polygon","coordinates":[[[139.7656,35.67939],[139.76492,35.67761],[139.76341,35.67795],[139.76227,35.6782],[139.76086,35.67852],[139.76097,35.67884],[139.76132,35.67986],[139.7617,35.68092],[139.76213,35.6822],[139.76351,35.68188],[139.76453,35.68164],[139.7645,35.68156],[139.76451,35.68138],[139.76451,35.68121],[139.76466,35.68091],[139.76535,35.67982],[139.76556,35.6795],[139.7656,35.67939]]]}},{"type":"Feature","properties":{"name":"丸の内三丁目","setai":0,"jinko":0,"key":"13101001003","units":1},"geometry":{"type":"Polygon","coordinates":[[[139.76527,35.67526],[139.76524,35.67522],[139.76427,35.67545],[139.76418,35.67547],[139.76366,35.6756],[139.76274,35.67583],[139.76157,35.67611],[139.7601,35.67641],[139.76046,35.67744],[139.76057,35.67772],[139.76086,35.67852],[139.76227,35.6782],[139.76341,35.67795],[139.76492,35.67761],[139.76519,35.67754],[139.76582,35.67739],[139.76596,35.67737],[139.76664,35.67723],[139.76581,35.67598],[139.76575,35.67596],[139.7656,35.67574],[139.76553,35.67564],[139.76527,35.67526]]]}},{"type":"Feature","properties":{"name":"大手町一丁目","setai":0,"jinko":0,"key":"13101002001","units":1},"geometry":{"type":"Polygon","coordinates":[[[139.76053,35.69127],[139.76082,35.69123],[139.76087,35.69121],[139.76095,35.69118],[139.76121,35.69104],[139.76158,35.69074],[139.76185,35.69047],[139.76205,35.69038],[139.76229,35.69032],[139.76281,35.6902],[139.76302,35.69014],[139.76315,35.69007],[139.76318,35.69004],[139.76333,35.68989],[139.76351,35.68975],[139.76374,35.68955],[139.76396,35.68939],[139.7642,35.68927],[139.76511,35.68913],[139.7667,35.68885],[139.76675,35.68883],[139.76647,35.68777],[139.76635,35.68724],[139.76617,35.6865],[139.76608,35.68598],[139.76573,35.68468],[139.76563,35.6847],[139.76451,35.68494],[139.763,35.68528],[139.761,35.68572],[139.76141,35.68723],[139.76137,35.68729],[139.76095,35.68844],[139.76083,35.68876],[139.76069,35.68918],[139.76066,35.68922],[139.76,35.68934],[139.75992,35.68981],[139.75989,35.68984],[139.75977,35.68994],[139.75883,35.69015],[139.75883,35.69022],[139.75889,35.69087],[139.75893,35.69124],[139.75893,35.69127],[139.75916,35.69126],[139.75968,35.69127],[139.76021,35.69127],[139.76053,35.69127]]]}},{"type":"Feature","properties":{"name":"大手町二丁目","setai":2,"jinko":2,"key":"13101002002","units":1},"geometry":{"type":"Polygon","coordinates":[[[139.77086,35.68395],[139.77081,35.6838],[139.77081,35.68379],[139.77065,35.68383],[139.7706,35.68367],[139.77054,35.68369],[139.77052,35.68365],[139.7695,35.68388],[139.76906,35.68398],[139.76888,35.68401],[139.76829,35.68413],[139.76761,35.68428],[139.76637,35.68455],[139.76573,35.68468],[139.76608,35.68598],[139.76617,35.6865],[139.76635,35.68724],[139.76647,35.68777],[139.76675,35.68883],[139.7667,35.68885],[139.76814,35.68859],[139.76839,35.68854],[139.76841,35.68845],[139.76859,35.6882],[139.76907,35.68777],[139.76952,35.68729],[139.76958,35.68722],[139.77027,35.68639],[139.77043,35.68614],[139.77045,35.6861],[139.77081,35.6853],[139.77081,35.68529],[139.77092,35.68507],[139.77097,35.68484],[139.77091,35.68463],[139.7709,35.68447],[139.77086,35.68437],[139.771,35.68433],[139.77086,35.68395]]]}},{"type":"Feature","properties":{"name":"内幸町一丁目","setai":1,"jinko":1,"key":"13101003001","units":1},"geometry":{"type":"Polygon","coordinates":[[[139.75855,35.66863],[139.75853,35.66857],[139.75853,35.66857],[139.7585,35.66858],[139.75802,35.66874],[139.75797,35.66876],[139.75699,35.66909],[139.75696,35.6691],[139.75582,35.66948],[139.75546,35.66956],[139.75553,35.66968],[139.75579,35.67013],[139.75608,35.67061],[139.75616,35.67072],[139.75756,35.67302],[139.75764,35.67308],[139.75933,35.67247],[139.75998,35.67222],[139.76004,35.67219],[139.7604,35.67208],[139.76009,35.67153],[139.75947,35.67042],[139.75897,35.66953],[139.75893,35.66944],[139.75867,35.66897],[139.75859,35.66877],[139.75855,35.66863]]]}},{"type":"Feature","properties":{"name":"内幸町二丁目","setai":0,"jinko":0,"key":"13101003002","units":1},"geometry":{"type":"Polygon","coordinates":[[[139.75553,35.66968],[139.75546,35.66956],[139.75543,35.66957],[139.75512,35.66968],[139.75451,35.66989],[139.75395,35.67008],[139.7534,35.67026],[139.75328,35.67029],[139.75229,35.67058],[139.75204,35.67062],[139.7529,35.67206],[139.75416,35.67154],[139.75616,35.67072],[139.75608,35.67061],[139.75579,35.67013],[139.75553,35.66968]]]}},{"type":"Feature","properties":{"name":"有楽町一丁目","setai":10,"jinko":13,"key":"13101004001","units":1},"geometry":{"type":"Polygon","coordinates":[[[139.7604,35.67282],[139.76004,35.67219],[139.75998,35.67222],[139.75933,35.67247],[139.75764,35.67308],[139.75891,35.67432],[139.7592,35.67461],[139.7596,35.67499],[139.75963,35.67504],[139.75967,35.67521],[139.75979,35.67566],[139.7601,35.67641],[139.76157,35.67611],[139.76274,35.67583],[139.76366,35.6756],[139.76231,35.67459],[139.76138,35.67379],[139.76096,35.67344],[139.76069,35.67317],[139.76058,35.67305],[139.7604,35.67282]]]}},{"type":"Feature","properties":{"name":"有楽町二丁目","setai":1,"jinko":1,"key":"13101004002","units":1},"geometry":{"type":"Polygon","coordinates":[[[139.76051,35.67222],[139.7604,35.67208],[139.76004,35.67219],[139.7604,35.67282],[139.76058,35.67305],[139.76069,35.67317],[139.76096,35.67344],[139.76138,35.67379],[139.76231,35.67459],[139.76366,35.6756],[139.76418,35.67547],[139.76427,35.67545],[139.76524,35.67522],[139.76472,35.67446],[139.76466,35.67438],[139.76416,35.67364],[139.76414,35.67361],[139.76405,35.67351],[139.76393,35.67339],[139.76381,35.67332],[139.76354,35.67322],[139.76268,35.67297],[139.76266,35.67296],[139.76091,35.67253],[139.76077,35.67245],[139.76067,35.67239],[139.76058,35.67231],[139.76055,35.67227],[139.76051,35.67222]]]}},{"type":"Feature","properties":{"name":"霞が関一丁目","setai":0,"jinko":0,"key":"13101005001","units":1},"geometry":{"type":"Polygon","coordinates":[[[139.7518,35.67015],[139.7518,35.67014],[139.75104,35.67039],[139.74963,35.67088],[139.74974,35.67111],[139.74979,35.67124],[139.74989,35.6715],[139.75039,35.67293],[139.75048,35.67308],[139.75053,35.67315],[139.75148,35.6746],[139.75157,35.67475],[139.75351,35.67789],[139.75589,35.67687],[139.75392,35.67373],[139.75289,35.6721],[139.7529,35.67206],[139.75204,35.67062],[139.75202,35.67057],[139.7518,35.67015]]]}},{"type":"Feature","properties":{"name":"霞が関二丁目","setai":5,"jinko":5,"key":"13101005002","units":1},"geometry":{"type":"Polygon","coordinates":[[[139.75351,35.67789],[139.75157,35.67475],[139.75148,35.6746],[139.75053,35.67315],[139.74781,35.6743],[139.74868,35.67576],[139.74891,35.67616],[139.7493,35.67677],[139.74962,35.67732],[139.74968,35.67747],[139.7507,35.67736],[139.75136,35.67742],[139.7529,35.67788],[139.75323,35.67804],[139.75329,35.678],[139.75351,35.67789]]]}},{"type":"Feature","properties":{"name":"霞が関三丁目","setai":7,"jinko":7,"key":"13101005003","units":1},"geometry":{"type":"Polygon","coordinates":[[[139.74989,35.6715],[139.74979,35.67124],[139.74974,35.67111],[139.74963,35.67088],[139.74942,35.67094],[139.74892,35.67057],[139.7487,35.6704],[139.74754,35.66953],[139.74663,35.67015],[139.74643,35.67028],[139.7464,35.67029],[139.74614,35.67034],[139.74594,35.67038],[139.7451,35.67055],[139.74495,35.67058],[139.74498,35.67077],[139.74503,35.67095],[139.74502,35.67095],[139.74496,35.67096],[139.74366,35.67123],[139.74328,35.67132],[139.74318,35.67135],[139.74315,35.67132],[139.74306,35.67137],[139.74328,35.67157],[139.74348,35.6717],[139.7436,35.67176],[139.74374,35.67183],[139.74383,35.67186],[139.74411,35.67195],[139.74437,35.67202],[139.74473,35.67209],[139.74554,35.67224],[139.74579,35.67232],[139.74599,35.67243],[139.74626,35.6726],[139.74634,35.67265],[139.74665,35.67294],[139.74673,35.67301],[139.74724,35.67353],[139.74738,35.67366],[139.74758,35.67393],[139.74781,35.6743],[139.75053,35.67315],[139.75048,35.67308],[139.75039,35.67293],[139.74989,35.6715]]]}},{"type":"Feature","properties":{"name":"永田町一丁目","setai":7,"jinko":8,"key":"13101006001","units":1},"geometry":{"type":"Polygon","coordinates":[[[139.74726,35.67953],[139.74776,35.67916],[139.74837,35.67855],[139.74861,35.67819],[139.74921,35.67764],[139.74956,35.67749],[139.74968,35.67747],[139.74962,35.67732],[139.7493,35.67677],[139.74891,35.67616],[139.74868,35.67576],[139.74781,35.6743],[139.74758,35.67393],[139.74738,35.67366],[139.74724,35.67353],[139.74673,35.67301],[139.74665,35.67294],[139.74634,35.67265],[139.74626,35.6726],[139.74599,35.67243],[139.74579,35.67232],[139.74554,35.67224],[139.74473,35.67209],[139.74441,35.67294],[139.74436,35.67323],[139.74419,35.67381],[139.74388,35.67501],[139.74315,35.6776],[139.74307,35.6776],[139.74202,35.67762],[139.74193,35.67763],[139.74148,35.67784],[139.74023,35.67875],[139.74013,35.6788],[139.74086,35.67893],[139.74313,35.67934],[139.74314,35.67933],[139.74394,35.67949],[139.7449,35.67967],[139.74591,35.67985],[139.74614,35.67989],[139.747,35.67964],[139.74726,35.67953]]]}},{"type":"Feature","properties":{"name":"永田町二丁目","setai":340,"jinko":566,"key":"13101006002","units":1},"geometry":{"type":"Polygon","coordinates":[[[139.74328,35.67157],[139.74306,35.67137],[139.74169,35.67219],[139.74146,35.67233],[139.74052,35.6729],[139.73932,35.6736],[139.73912,35.67373],[139.7389,35.67383],[139.73883,35.67386],[139.73877,35.67404],[139.73859,35.67452],[139.73856,35.6746],[139.73821,35.67544],[139.73811,35.67556],[139.7378,35.67594],[139.73752,35.67628],[139.73727,35.6767],[139.73725,35.67675],[139.73716,35.67718],[139.73713,35.6773],[139.73702,35.67758],[139.737,35.67768],[139.73704,35.67788],[139.73707,35.67798],[139.73708,35.67798],[139.73713,35.67809],[139.73706,35.67826],[139.73706,35.67826],[139.73706,35.67827],[139.73697,35.67847],[139.737,35.67849],[139.73758,35.67854],[139.73852,35.67861],[139.73904,35.67866],[139.73939,35.67868],[139.73975,35.67873],[139.74013,35.6788],[139.74023,35.67875],[139.74148,35.67784],[139.74193,35.67763],[139.74202,35.67762],[139.74307,35.6776],[139.74315,35.6776],[139.74388,35.67501],[139.74419,35.67381],[139.74436,35.67323],[139.74441,35.67294],[139.74473,35.67209],[139.74437,35.67202],[139.74411,35.67195],[139.74383,35.67186],[139.74374,35.67183],[139.7436,35.67176],[139.74348,35.6717],[139.74328,35.67157]]]}},{"type":"Feature","properties":{"name":"隼町","setai":333,"jinko":425,"key":"131010070","units":1},"geometry":{"type":"Polygon","coordinates":[[[139.74394,35.67949],[139.74314,35.67933],[139.74313,35.67934],[139.74301,35.67948],[139.74291,35.67956],[139.74228,35.67984],[139.7421,35.67993],[139.74203,35.68002],[139.74193,35.68015],[139.74189,35.6802],[139.74189,35.68032],[139.74189,35.68045],[139.74188,35.68054],[139.74187,35.68092],[139.74186,35.68119],[139.74185,35.68179],[139.74182,35.68233],[139.74183,35.68234],[139.7418,35.68276],[139.74174,35.6831],[139.74167,35.68341],[139.74223,35.68335],[139.74261,35.68331],[139.74264,35.6833],[139.74343,35.68322],[139.74394,35.68317],[139.7443,35.68313],[139.74439,35.68312],[139.74446,35.68276],[139.74448,35.68265],[139.74459,35.68231],[139.7455,35.68078],[139.74596,35.68],[139.74614,35.67989],[139.74591,35.67985],[139.7449,35.67967],[139.74394,35.67949]]]}},{"type":"Feature","properties":{"name":"平河町一丁目","setai":610,"jinko":1037,"key":"13101008001","units":1},"geometry":{"type":"Polygon","coordinates":[[[139.74182,35.68233],[139.74185,35.68179],[139.74133,35.6818],[139.74112,35.68189],[139.74038,35.68223],[139.73943,35.68222],[139.73823,35.68226],[139.73822,35.68252],[139.7382,35.68296],[139.73838,35.68299],[139.73877,35.68303],[139.73922,35.68309],[139.73927,35.68309],[139.74029,35.68326],[139.74105,35.68338],[139.74127,35.68341],[139.74158,35.68341],[139.74167,35.68341],[139.74174,35.6831],[139.7418,35.68276],[139.74183,35.68234],[139.74182,35.68233]]]}},{"type":"Feature","properties":{"name":"平河町二丁目","setai":472,"jinko":911,"key":"13101008002","units":1},"geometry":{"type":"Polygon","coordinates":[[[139.73823,35.68226],[139.73943,35.68222],[139.74038,35.68223],[139.74112,35.68189],[139.74133,35.6818],[139.74185,35.68179],[139.74186,35.68119],[139.74187,35.68092],[139.74188,35.68054],[139.74189,35.68045],[139.74189,35.68032],[139.74189,35.6802],[139.74193,35.68015],[139.74203,35.68002],[139.7421,35.67993],[139.74228,35.67984],[139.74291,35.67956],[139.74301,35.67948],[139.74313,35.67934],[139.74086,35.67893],[139.74013,35.6788],[139.73975,35.67873],[139.73939,35.67868],[139.73904,35.67866],[139.73852,35.67861],[139.73839,35.67955],[139.73837,35.67967],[139.73833,35.68018],[139.73831,35.68063],[139.7383,35.68074],[139.7383,35.68075],[139.73823,35.68226]]]}},{"type":"Feature","properties":{"name":"麹町一丁目","setai":382,"jinko":706,"key":"13101009001","units":1},"geometry":{"type":"Polygon","coordinates":[[[139.74457,35.68524],[139.74483,35.6852],[139.74484,35.6852],[139.74468,35.68441],[139.74464,35.68414],[139.74463,35.68389],[139.74464,35.68378],[139.74454,35.68379],[139.74436,35.68381],[139.74435,35.68374],[139.74431,35.68357],[139.74439,35.68312],[139.7443,35.68313],[139.74394,35.68317],[139.74343,35.68322],[139.74264,35.6833],[139.74261,35.68331],[139.74223,35.68335],[139.74167,35.68341],[139.74159,35.68382],[139.74151,35.68422],[139.74147,35.68422],[139.74153,35.68478],[139.74157,35.68519],[139.74164,35.68568],[139.74164,35.68572],[139.74228,35.68563],[139.74297,35.68553],[139.74295,35.68538],[139.74434,35.68526],[139.74457,35.68524]]]}},{"type":"Feature","properties":{"name":"麹町二丁目","setai":318,"jinko":638,"key":"13101009002","units":1},"geometry":{"type":"Polygon","coordinates":[[[139.74151,35.68422],[139.74159,35.68382],[139.74167,35.68341],[139.74158,35.68341],[139.74127,35.68341],[139.74105,35.68338],[139.74029,35.68326],[139.74023,35.68368],[139.74021,35.68375],[139.74013,35.68411],[139.74012,35.68416],[139.73955,35.68412],[139.73944,35.6846],[139.73938,35.68486],[139.73926,35.68538],[139.73926,35.68539],[139.73919,35.68573],[139.7397,35.68577],[139.74024,35.68579],[139.74067,35.68576],[139.74074,35.68576],[139.74078,35.68575],[139.74112,35.68573],[139.74118,35.68573],[139.74137,35.68571],[139.74158,35.68569],[139.74164,35.68568],[139.74157,35.68519],[139.74153,35.68478],[139.74147,35.68422],[139.74151,35.68422]]]}},{"type":"Feature","properties":{"name":"麹町三丁目","setai":211,"jinko":388,"key":"13101009003","units":1},"geometry":{"type":"Polygon","coordinates":[[[139.73944,35.6846],[139.73955,35.68412],[139.74012,35.68416],[139.74013,35.68411],[139.74021,35.68375],[139.74023,35.68368],[139.74029,35.68326],[139.73927,35.68309],[139.73922,35.68309],[139.73877,35.68303],[139.73838,35.68299],[139.7382,35.68296],[139.73817,35.68346],[139.73815,35.68387],[139.73815,35.68393],[139.73773,35.68391],[139.73755,35.6843],[139.73726,35.68495],[139.73792,35.68513],[139.73798,35.68514],[139.73806,35.68516],[139.73891,35.68605],[139.73895,35.68609],[139.73911,35.68586],[139.73919,35.68573],[139.73926,35.68539],[139.73926,35.68538],[139.73938,35.68486],[139.73944,35.6846]]]}},{"type":"Feature","properties":{"name":"麹町四丁目","setai":298,"jinko":601,"key":"13101009004","units":1},"geometry":{"type":"Polygon","coordinates":[[[139.73726,35.68495],[139.73755,35.6843],[139.73773,35.68391],[139.73815,35.68393],[139.73815,35.68387],[139.73817,35.68346],[139.7382,35.68296],[139.73812,35.68296],[139.73699,35.68292],[139.73691,35.68291],[139.73686,35.68293],[139.73662,35.68295],[139.73642,35.6829],[139.73616,35.68276],[139.73595,35.6826],[139.73579,35.68249],[139.73561,35.68241],[139.73524,35.68232],[139.73523,35.68263],[139.73529,35.68306],[139.73536,35.68359],[139.73536,35.68361],[139.7352,35.68364],[139.73526,35.68395],[139.73527,35.68401],[139.73509,35.68403],[139.73513,35.68442],[139.73514,35.68456],[139.73514,35.68456],[139.73513,35.68458],[139.73578,35.68467],[139.73581,35.68461],[139.7359,35.68464],[139.73653,35.68479],[139.73726,35.68497],[139.73726,35.68495]]]}},{"type":"Feature","properties":{"name":"麹町五丁目","setai":53,"jinko":86,"key":"13101009005","units":1},"geometry":{"type":"Polygon","coordinates":[[[139.73391,35.68513],[139.73449,35.68484],[139.73454,35.68484],[139.73494,35.68486],[139.73499,35.68487],[139.73501,35.68483],[139.7351,35.68466],[139.73511,35.68463],[139.73513,35.68458],[139.73514,35.68456],[139.73514,35.68456],[139.73513,35.68442],[139.73509,35.68403],[139.73527,35.68401],[139.73526,35.68395],[139.7352,35.68364],[139.73536,35.68361],[139.73536,35.68359],[139.73529,35.68306],[139.73523,35.68263],[139.73524,35.68232],[139.73487,35.68225],[139.73464,35.68224],[139.7345,35.68226],[139.73445,35.68229],[139.73357,35.68304],[139.73344,35.68337],[139.73342,35.68342],[139.73308,35.68428],[139.73305,35.68434],[139.73323,35.68462],[139.7333,35.68473],[139.73346,35.68465],[139.73355,35.68476],[139.73378,35.68502],[139.73391,35.68513]]]}},{"type":"Feature","properties":{"name":"麹町六丁目","setai":93,"jinko":215,"key":"13101009006","units":1},"geometry":{"type":"Polygon","coordinates":[[[139.73047,35.68635],[139.73118,35.68606],[139.73126,35.68603],[139.73137,35.68618],[139.73165,35.68602],[139.73203,35.68584],[139.73242,35.68567],[139.73253,35.68575],[139.73299,35.68601],[139.73324,35.68616],[139.73339,35.68625],[139.73342,35.68627],[139.73376,35.68573],[139.73349,35.68555],[139.73384,35.6852],[139.7339,35.68515],[139.73391,35.68513],[139.73378,35.68502],[139.73355,35.68476],[139.73346,35.68465],[139.7333,35.68473],[139.73323,35.68462],[139.73305,35.68434],[139.73302,35.68442],[139.73218,35.68414],[139.73119,35.68376],[139.73109,35.68372],[139.73036,35.68344],[139.73026,35.68362],[139.72989,35.68454],[139.72996,35.68467],[139.73025,35.68459],[139.73037,35.68485],[139.73036,35.68485],[139.73009,35.68493],[139.73011,35.68497],[139.73016,35.68514],[139.73018,35.68538],[139.73026,35.68564],[139.73036,35.68596],[139.73031,35.68597],[139.7304,35.68625],[139.73044,35.68625],[139.73046,35.68631],[139.73047,35.68635]]]}},{"type":"Feature","properties":{"name":"紀尾井町","setai":301,"jinko":514,"key":"131010100","units":1},"geometry":{"type":"Polygon","coordinates":[[[139.7345,35.68226],[139.73464,35.68224],[139.73487,35.68225],[139.73524,35.68232],[139.73561,35.68241],[139.73579,35.68249],[139.73595,35.6826],[139.73616,35.68276],[139.73642,35.6829],[139.73662,35.68295],[139.73686,35.68293],[139.73691,35.68291],[139.73699,35.68292],[139.73812,35.68296],[139.7382,35.68296],[139.73822,35.68252],[139.73823,35.68226],[139.7383,35.68075],[139.7383,35.68074],[139.73831,35.68063],[139.73833,35.68018],[139.73837,35.67967],[139.73839,35.67955],[139.73852,35.67861],[139.73758,35.67854],[139.737,35.67849],[139.73691,35.6787],[139.7369,35.67887],[139.73627,35.67884],[139.73623,35.67884],[139.73623,35.67884],[139.73605,35.67882],[139.73535,35.67879],[139.73508,35.67879],[139.73474,35.67881],[139.73437,35.67886],[139.73405,35.6789],[139.73364,35.67899],[139.7336,35.67901],[139.73346,35.67908],[139.73342,35.67911],[139.73331,35.67924],[139.73317,35.67953],[139.73308,35.67979],[139.73303,35.67993],[139.73288,35.68025],[139.73269,35.68054],[139.7326,35.68063],[139.73243,35.68078],[139.73203,35.68111],[139.73153,35.68155],[139.7315,35.68154],[139.73131,35.68172],[139.73126,35.6818],[139.73112,35.68198],[139.73075,35.68268],[139.7307,35.68281],[139.73036,35.68344],[139.73109,35.68372],[139.73119,35.68376],[139.73218,35.68414],[139.73302,35.68442],[139.73305,35.68434],[139.73308,35.68428],[139.73342,35.68342],[139.73344,35.68337],[139.73357,35.68304],[139.73445,35.68229],[139.7345,35.68226]]]}},{"type":"Feature","properties":{"name":"一番町","setai":1697,"jinko":3965,"key":"131010110","units":1},"geometry":{"type":"Polygon","coordinates":[[[139.74251,35.68886],[139.74226,35.68824],[139.7437,35.68865],[139.74445,35.68885],[139.7448,35.68893],[139.74519,35.68902],[139.74538,35.68902],[139.74516,35.68813],[139.74544,35.68808],[139.74542,35.68791],[139.74533,35.68732],[139.74534,35.68715],[139.74508,35.68601],[139.74484,35.6852],[139.74483,35.6852],[139.74457,35.68524],[139.74434,35.68526],[139.74295,35.68538],[139.74297,35.68553],[139.74228,35.68563],[139.74164,35.68572],[139.74164,35.68568],[139.74158,35.68569],[139.74137,35.68571],[139.74118,35.68573],[139.74112,35.68573],[139.74078,35.68575],[139.74074,35.68576],[139.74067,35.68576],[139.74024,35.68579],[139.7397,35.68577],[139.73919,35.68573],[139.73911,35.68586],[139.73895,35.68609],[139.73891,35.68605],[139.73867,35.68647],[139.73864,35.68651],[139.73861,35.68656],[139.73843,35.68684],[139.73841,35.68688],[139.73787,35.68788],[139.73874,35.68822],[139.74037,35.68879],[139.741,35.68902],[139.74158,35.68917],[139.74277,35.6895],[139.74251,35.68886]]]}},{"type":"Feature","properties":{"name":"皇居外苑","setai":0,"jinko":0,"key":"131010120","units":1},"geometry":{"type":"Polygon","coordinates":[[[139.7627,35.68413],[139.76257,35.68356],[139.76213,35.6822],[139.7617,35.68092],[139.76132,35.67986],[139.76097,35.67884],[139.76086,35.67852],[139.76057,35.67772],[139.76046,35.67744],[139.7601,35.67641],[139.75979,35.67566],[139.75967,35.67521],[139.75963,35.67504],[139.75935,35.6753],[139.7576,35.67601],[139.75588,35.67673],[139.75597,35.67685],[139.75589,35.67687],[139.75351,35.67789],[139.75329,35.678],[139.75323,35.67804],[139.75359,35.67856],[139.75337,35.67865],[139.75343,35.67876],[139.75351,35.67873],[139.7536,35.67883],[139.75396,35.67871],[139.75397,35.67873],[139.75412,35.67868],[139.75411,35.67865],[139.75479,35.6784],[139.75554,35.67984],[139.75553,35.67986],[139.75468,35.68018],[139.75527,35.68194],[139.75613,35.68181],[139.75643,35.68274],[139.7577,35.6825],[139.75815,35.68355],[139.75979,35.68318],[139.76025,35.68446],[139.7627,35.68413]]]}},{"type":"Feature","properties":{"name":"日比谷公園","setai":3,"jinko":3,"key":"131010130","units":1},"geometry":{"type":"Polygon","coordinates":[[[139.75963,35.67504],[139.7596,35.67499],[139.7592,35.67461],[139.75891,35.67432],[139.75764,35.67308],[139.75756,35.67302],[139.75616,35.67072],[139.75416,35.67154],[139.7529,35.67206],[139.75289,35.6721],[139.75392,35.67373],[139.75589,35.67687],[139.75597,35.67685],[139.75588,35.67673],[139.7576,35.67601],[139.75935,35.6753],[139.75963,35.67504]]]}},{"type":"Feature","properties":{"name":"千代田","setai":94,"jinko":97,"key":"131010140","units":1},"geometry":{"type":"Polygon","coordinates":[[[139.75624,35.69056],[139.75731,35.6902],[139.75735,35.69026],[139.75814,35.6902],[139.75824,35.69017],[139.75868,35.69019],[139.75869,35.69019],[139.75883,35.69015],[139.75977,35.68994],[139.75989,35.68984],[139.75992,35.68981],[139.76,35.68934],[139.76066,35.68922],[139.76069,35.68918],[139.76083,35.68876],[139.76095,35.68844],[139.76137,35.68729],[139.76141,35.68723],[139.761,35.68572],[139.76098,35.68565],[139.76093,35.68566],[139.76082,35.68528],[139.76054,35.68532],[139.76025,35.68446],[139.75979,35.68318],[139.75815,35.68355],[139.7577,35.6825],[139.75643,35.68274],[139.75613,35.68181],[139.75527,35.68194],[139.75468,35.68018],[139.75553,35.67986],[139.75554,35.67984],[139.75479,35.6784],[139.75411,35.67865],[139.75412,35.67868],[139.75397,35.67873],[139.75396,35.67871],[139.7536,35.67883],[139.75351,35.67873],[139.75343,35.67876],[139.75337,35.67865],[139.75359,35.67856],[139.75323,35.67804],[139.7529,35.67788],[139.75136,35.67742],[139.7507,35.67736],[139.74968,35.67747],[139.74956,35.67749],[139.74921,35.67764],[139.74861,35.67819],[139.74837,35.67855],[139.74776,35.67916],[139.74726,35.67953],[139.747,35.67964],[139.74614,35.67989],[139.74596,35.68],[139.7455,35.68078],[139.74459,35.68231],[139.74448,35.68265],[139.74446,35.68276],[139.74439,35.68312],[139.74431,35.68357],[139.74435,35.68374],[139.74436,35.68381],[139.74454,35.68379],[139.74464,35.68378],[139.74463,35.68389],[139.74464,35.68414],[139.74468,35.68441],[139.74484,35.6852],[139.74508,35.68601],[139.74534,35.68715],[139.74533,35.68732],[139.74542,35.68791],[139.74641,35.68782],[139.74723,35.68789],[139.74802,35.68795],[139.74862,35.68812],[139.7495,35.68841],[139.75048,35.68889],[139.75129,35.68929],[139.75209,35.6895],[139.7526,35.68888],[139.75365,35.68941],[139.75445,35.68984],[139.75479,35.68997],[139.75623,35.69057],[139.75624,35.69056]]]}},{"type":"Feature","properties":{"name":"北の丸公園","setai":384,"jinko":719,"key":"131010150","units":1},"geometry":{"type":"Polygon","coordinates":[[[139.75265,35.69345],[139.7532,35.69323],[139.7535,35.69347],[139.7536,35.69342],[139.7539,35.69329],[139.75431,35.69314],[139.75433,35.69314],[139.75445,35.69308],[139.75482,35.69291],[139.75513,35.69278],[139.75533,35.69269],[139.75549,35.69239],[139.75566,35.6921],[139.75574,35.69201],[139.75581,35.69186],[139.75568,35.69181],[139.7557,35.69178],[139.75624,35.69056],[139.75623,35.69057],[139.75479,35.68997],[139.75445,35.68984],[139.75365,35.68941],[139.7526,35.68888],[139.75209,35.6895],[139.75129,35.68929],[139.75048,35.68889],[139.7495,35.68841],[139.74862,35.68812],[139.74802,35.68795],[139.74723,35.68789],[139.74641,35.68782],[139.74542,35.68791],[139.74544,35.68808],[139.74516,35.68813],[139.74538,35.68902],[139.74558,35.68904],[139.74593,35.68919],[139.74642,35.68929],[139.74678,35.68936],[139.74704,35.68942],[139.74773,35.68955],[139.74796,35.68988],[139.74767,35.69031],[139.74757,35.69052],[139.74742,35.69089],[139.74734,35.69101],[139.74723,35.69111],[139.74718,35.69126],[139.74714,35.69128],[139.74716,35.69128],[139.74712,35.69146],[139.74712,35.69163],[139.74717,35.69169],[139.74737,35.69193],[139.74757,35.69213],[139.74767,35.69223],[139.74769,35.69248],[139.7477,35.69288],[139.7477,35.69326],[139.74767,35.69368],[139.74762,35.69398],[139.74758,35.69432],[139.74904,35.69468],[139.74902,35.69468],[139.74926,35.69474],[139.74934,35.69501],[139.75027,35.69513],[139.75039,35.69488],[139.75041,35.69487],[139.75157,35.69365],[139.75259,35.69349],[139.75265,35.69345]]]}},{"type":"Feature","properties":{"name":"九段南一丁目","setai":44,"jinko":66,"key":"13101016001","units":1},"geometry":{"type":"Polygon","coordinates":[[[139.75282,35.69536],[139.75294,35.6951],[139.753,35.69498],[139.75319,35.69476],[139.75331,35.69465],[139.75359,35.69444],[139.75375,35.69434],[139.75408,35.6942],[139.75416,35.69418],[139.75436,35.69413],[139.75437,35.69413],[139.75496,35.69399],[139.75534,35.69389],[139.75552,35.69382],[139.75567,35.69371],[139.75574,35.69357],[139.75579,35.69343],[139.75584,35.69322],[139.75588,35.69303],[139.75595,35.69275],[139.75623,35.69275],[139.75622,35.69262],[139.75613,35.69202],[139.75574,35.69201],[139.75566,35.6921],[139.75549,35.69239],[139.75533,35.69269],[139.75513,35.69278],[139.75482,35.69291],[139.75445,35.69308],[139.75433,35.69314],[139.75431,35.69314],[139.7539,35.69329],[139.7536,35.69342],[139.7535,35.69347],[139.7532,35.69323],[139.75265,35.69345],[139.75259,35.69349],[139.75157,35.69365],[139.75041,35.69487],[139.75039,35.69488],[139.75027,35.69513],[139.74934,35.69501],[139.74926,35.69474],[139.74902,35.69468],[139.74887,35.69502],[139.74935,35.69516],[139.75004,35.69526],[139.75133,35.69543],[139.75144,35.69546],[139.75187,35.69552],[139.75206,35.69555],[139.75237,35.6956],[139.75277,35.69566],[139.75277,35.69565],[139.75278,35.69556],[139.75282,35.69536]]]}},{"type":"Feature","properties":{"name":"九段南二丁目","setai":467,"jinko":841,"key":"13101016002","units":1},"geometry":{"type":"Polygon","coordinates":[[[139.7477,35.69288],[139.74769,35.69248],[139.74767,35.69223],[139.74757,35.69213],[139.74737,35.69193],[139.74717,35.69169],[139.74712,35.69163],[139.74712,35.69146],[139.74716,35.69128],[139.74714,35.69128],[139.74609,35.69143],[139.74591,35.69146],[139.7462,35.69287],[139.74494,35.6925],[139.74489,35.69251],[139.74462,35.69242],[139.74416,35.69228],[139.74368,35.69214],[139.74376,35.69257],[139.74379,35.69281],[139.7438,35.69287],[139.74384,35.69306],[139.7439,35.69343],[139.74526,35.69398],[139.74649,35.69433],[139.74722,35.69454],[139.74733,35.69457],[139.74887,35.69502],[139.74902,35.69468],[139.74904,35.69468],[139.74758,35.69432],[139.74762,35.69398],[139.74767,35.69368],[139.7477,35.69326],[139.7477,35.69288]]]}},{"type":"Feature","properties":{"name":"九段南三丁目","setai":437,"jinko":693,"key":"13101016003","units":1},"geometry":{"type":"Polygon","coordinates":[[[139.74246,35.69179],[139.74132,35.69145],[139.74119,35.69178],[139.74108,35.69205],[139.74088,35.6925],[139.74199,35.69283],[139.74205,35.69284],[139.74295,35.69313],[139.7439,35.69343],[139.74384,35.69306],[139.7438,35.69287],[139.74379,35.69281],[139.74376,35.69257],[139.74368,35.69214],[139.74341,35.69208],[139.74246,35.69179]]]}},{"type":"Feature","properties":{"name":"九段南四丁目","setai":539,"jinko":1346,"key":"13101016004","units":1},"geometry":{"type":"Polygon","coordinates":[[[139.73718,35.69007],[139.73705,35.68998],[139.73672,35.69061],[139.7364,35.69118],[139.73821,35.69172],[139.73824,35.69173],[139.73902,35.69196],[139.73911,35.69198],[139.74007,35.69225],[139.74063,35.69242],[139.74088,35.6925],[139.74108,35.69205],[139.74119,35.69178],[139.74132,35.69145],[139.74094,35.69133],[139.74051,35.69121],[139.74029,35.69113],[139.74026,35.69112],[139.73949,35.69089],[139.73882,35.69067],[139.73867,35.69061],[139.73864,35.6906],[139.73718,35.69007]]]}},{"type":"Feature","properties":{"name":"九段北一丁目","setai":732,"jinko":1145,"key":"13101017001","units":1},"geometry":{"type":"Polygon","coordinates":[[[139.74935,35.69516],[139.74887,35.69502],[139.74871,35.69545],[139.7486,35.69551],[139.74825,35.6957],[139.74816,35.69578],[139.74756,35.69628],[139.74758,35.69629],[139.74852,35.69637],[139.74873,35.69677],[139.74987,35.69689],[139.75091,35.697],[139.75092,35.69701],[139.75089,35.69713],[139.75074,35.69743],[139.75057,35.69762],[139.75016,35.69802],[139.75005,35.69815],[139.75002,35.69824],[139.75036,35.69819],[139.75109,35.69809],[139.75127,35.69806],[139.75134,35.69805],[139.75157,35.69802],[139.75194,35.69796],[139.75195,35.69796],[139.75235,35.6979],[139.75253,35.69689],[139.75257,35.6968],[139.75256,35.6968],[139.75265,35.69628],[139.75277,35.69566],[139.75237,35.6956],[139.75206,35.69555],[139.75187,35.69552],[139.75144,35.69546],[139.75133,35.69543],[139.75004,35.69526],[139.74935,35.69516]]]}},{"type":"Feature","properties":{"name":"九段北二丁目","setai":123,"jinko":264,"key":"13101017002","units":1},"geometry":{"type":"Polygon","coordinates":[[[139.74727,35.69654],[139.74758,35.69629],[139.74756,35.69628],[139.74816,35.69578],[139.74825,35.6957],[139.7486,35.69551],[139.74871,35.69545],[139.74887,35.69502],[139.74733,35.69457],[139.74722,35.69454],[139.74649,35.69433],[139.74526,35.69398],[139.74496,35.69492],[139.74416,35.6947],[139.74382,35.69582],[139.74497,35.69612],[139.74504,35.69607],[139.74608,35.69629],[139.74638,35.69636],[139.74638,35.69635],[139.74683,35.69646],[139.74722,35.69653],[139.74725,35.69653],[139.74727,35.69654]]]}},{"type":"Feature","properties":{"name":"九段北三丁目","setai":23,"jinko":50,"key":"13101017003","units":1},"geometry":{"type":"Polygon","coordinates":[[[139.74382,35.69582],[139.74416,35.6947],[139.74496,35.69492],[139.74526,35.69398],[139.7439,35.69343],[139.74295,35.69313],[139.74205,35.69284],[139.74199,35.69283],[139.74088,35.6925],[139.74043,35.69359],[139.73999,35.69467],[139.74107,35.69501],[139.74142,35.69512],[139.74195,35.6953],[139.74213,35.69535],[139.74354,35.69575],[139.74382,35.69582]]]}},{"type":"Feature","properties":{"name":"九段北四丁目","setai":342,"jinko":707,"key":"13101017004","units":1},"geometry":{"type":"Polygon","coordinates":[[[139.73902,35.69196],[139.73824,35.69173],[139.73821,35.69172],[139.7364,35.69118],[139.73621,35.69113],[139.73615,35.69111],[139.73605,35.69112],[139.73594,35.69115],[139.7358,35.69128],[139.73545,35.69177],[139.73561,35.69186],[139.73561,35.6919],[139.73571,35.69196],[139.73574,35.69198],[139.73578,35.69195],[139.73621,35.69221],[139.73758,35.69324],[139.7376,35.69325],[139.73795,35.69367],[139.7381,35.69383],[139.73823,35.694],[139.73866,35.69449],[139.73874,35.6946],[139.73913,35.69513],[139.73921,35.69523],[139.73974,35.69498],[139.73999,35.69487],[139.73994,35.69479],[139.73999,35.69467],[139.74043,35.69359],[139.74088,35.6925],[139.74063,35.69242],[139.74007,35.69225],[139.73911,35.69198],[139.73902,35.69196]]]}},{"type":"Feature","properties":{"name":"富士見一丁目","setai":530,"jinko":1173,"key":"13101018001","units":1},"geometry":{"type":"Polygon","coordinates":[[[139.74785,35.69894],[139.74824,35.69877],[139.74852,35.69879],[139.74906,35.69812],[139.74911,35.698],[139.74941,35.69782],[139.74957,35.69766],[139.74964,35.69759],[139.74987,35.69689],[139.74873,35.69677],[139.74852,35.69637],[139.74758,35.69629],[139.74727,35.69654],[139.74725,35.69653],[139.74722,35.69653],[139.74683,35.69646],[139.74638,35.69635],[139.74638,35.69636],[139.74608,35.69629],[139.74504,35.69607],[139.74497,35.69612],[139.74482,35.69649],[139.74471,35.69679],[139.74468,35.69686],[139.74457,35.69709],[139.7445,35.69718],[139.74406,35.69755],[139.7446,35.69799],[139.74462,35.698],[139.74478,35.69813],[139.74522,35.69853],[139.74553,35.6988],[139.74584,35.69902],[139.74598,35.69912],[139.74614,35.69924],[139.74641,35.69946],[139.74658,35.69958],[139.74697,35.6995],[139.74722,35.69941],[139.74746,35.69934],[139.74742,35.69922],[139.74775,35.69895],[139.74785,35.69894]]]}},{"type":"Feature","properties":{"name":"富士見二丁目","setai":1628,"jinko":3283,"key":"13101018002","units":1},"geometry":{"type":"Polygon","coordinates":[[[139.74674,35.70027],[139.7469,35.70024],[139.74706,35.70028],[139.74715,35.7002],[139.74705,35.70009],[139.74707,35.6999],[139.74694,35.6997],[139.74707,35.69964],[139.74697,35.6995],[139.74658,35.69958],[139.74641,35.69946],[139.74614,35.69924],[139.74598,35.69912],[139.74584,35.69902],[139.74553,35.6988],[139.74522,35.69853],[139.74478,35.69813],[139.74462,35.698],[139.7446,35.69799],[139.74406,35.69755],[139.7445,35.69718],[139.74457,35.69709],[139.74468,35.69686],[139.74471,35.69679],[139.74482,35.69649],[139.74497,35.69612],[139.74382,35.69582],[139.74354,35.69575],[139.74213,35.69535],[139.74195,35.6953],[139.74142,35.69512],[139.74107,35.69501],[139.73999,35.69467],[139.73994,35.69479],[139.73999,35.69487],[139.73974,35.69498],[139.73921,35.69523],[139.73937,35.69546],[139.7399,35.69623],[139.73995,35.69631],[139.74009,35.69651],[139.74012,35.69656],[139.74021,35.6967],[139.74021,35.69671],[139.74032,35.69684],[139.74151,35.69832],[139.74156,35.6983],[139.74194,35.69876],[139.74215,35.69904],[139.74259,35.69958],[139.74284,35.69989],[139.74302,35.70011],[139.74314,35.70025],[139.74316,35.70025],[139.74316,35.70024],[139.74331,35.70019],[139.7434,35.70015],[139.74343,35.70014],[139.74377,35.69997],[139.74388,35.70008],[139.74426,35.70073],[139.7444,35.70097],[139.74451,35.70106],[139.74487,35.70138],[139.74499,35.70149],[139.74522,35.70139],[139.7455,35.70128],[139.74583,35.70108],[139.74608,35.70094],[139.74602,35.70085],[139.74592,35.70063],[139.74588,35.70053],[139.74611,35.70047],[139.74609,35.70038],[139.74651,35.7003],[139.74674,35.70027]]]}},{"type":"Feature","properties":{"name":"飯田橋一丁目","setai":147,"jinko":273,"key":"13101019001","units":1},"geometry":{"type":"Polygon","coordinates":[[[139.74938,35.69893],[139.74967,35.69862],[139.74979,35.69849],[139.74991,35.69836],[139.74996,35.6983],[139.75002,35.69824],[139.75005,35.69815],[139.75016,35.69802],[139.75057,35.69762],[139.75074,35.69743],[139.75089,35.69713],[139.75092,35.69701],[139.75091,35.697],[139.74987,35.69689],[139.74964,35.69759],[139.74957,35.69766],[139.74941,35.69782],[139.74911,35.698],[139.74906,35.69812],[139.74852,35.69879],[139.74824,35.69877],[139.74785,35.69894],[139.74775,35.69895],[139.74742,35.69922],[139.74746,35.69934],[139.74758,35.69956],[139.74768,35.69965],[139.74777,35.69973],[139.7478,35.69974],[139.7483,35.70007],[139.7485,35.69985],[139.74865,35.6997],[139.7488,35.69953],[139.74898,35.69936],[139.74927,35.69903],[139.74938,35.69893]]]}},{"type":"Feature","properties":{"name":"飯田橋二丁目","setai":812,"jinko":1486,"key":"13101019002","units":1},"geometry":{"type":"Polygon","coordinates":[[[139.74969,35.69977],[139.74981,35.69965],[139.7503,35.69982],[139.75142,35.7002],[139.75175,35.6996],[139.75203,35.69908],[139.75214,35.69889],[139.7522,35.69878],[139.75221,35.69877],[139.75236,35.6979],[139.75235,35.6979],[139.75195,35.69796],[139.75194,35.69796],[139.75157,35.69802],[139.75134,35.69805],[139.75127,35.69806],[139.75109,35.69809],[139.75036,35.69819],[139.75002,35.69824],[139.74996,35.6983],[139.74991,35.69836],[139.74979,35.69849],[139.74967,35.69862],[139.74938,35.69893],[139.74927,35.69903],[139.74898,35.69936],[139.7488,35.69953],[139.74865,35.6997],[139.7485,35.69985],[139.7483,35.70007],[139.74848,35.70018],[139.74865,35.7003],[139.74895,35.70049],[139.74917,35.70029],[139.74932,35.70013],[139.74969,35.69977]]]}},{"type":"Feature","properties":{"name":"飯田橋三丁目","setai":212,"jinko":467,"key":"13101019003","units":1},"geometry":{"type":"Polygon","coordinates":[[[139.75112,35.70075],[139.75127,35.70046],[139.75142,35.7002],[139.7503,35.69982],[139.74981,35.69965],[139.74969,35.69977],[139.74932,35.70013],[139.74917,35.70029],[139.74895,35.70049],[139.74865,35.7003],[139.74848,35.70018],[139.7483,35.70007],[139.74796,35.70042],[139.74781,35.70058],[139.74763,35.70077],[139.74757,35.70081],[139.74727,35.70097],[139.74722,35.701],[139.74696,35.70115],[139.74678,35.70127],[139.74652,35.70141],[139.74593,35.70176],[139.7457,35.70193],[139.74567,35.70196],[139.74558,35.70201],[139.74516,35.70231],[139.74497,35.70244],[139.74512,35.70255],[139.74542,35.7026],[139.74543,35.7026],[139.74582,35.70271],[139.74584,35.70272],[139.74589,35.70273],[139.74636,35.7029],[139.74652,35.7029],[139.74738,35.70291],[139.74921,35.70284],[139.74981,35.70276],[139.75045,35.70269],[139.75059,35.70266],[139.75085,35.70264],[139.75085,35.70263],[139.75082,35.70233],[139.75079,35.70194],[139.75075,35.70157],[139.75074,35.70144],[139.75099,35.70098],[139.75112,35.70075]]]}},{"type":"Feature","properties":{"name":"飯田橋四丁目","setai":310,"jinko":529,"key":"13101019004","units":1},"geometry":{"type":"Polygon","coordinates":[[[139.74516,35.70231],[139.74558,35.70201],[139.74567,35.70196],[139.7457,35.70193],[139.74593,35.70176],[139.74652,35.70141],[139.74678,35.70127],[139.74696,35.70115],[139.74722,35.701],[139.74727,35.70097],[139.74757,35.70081],[139.74763,35.70077],[139.74781,35.70058],[139.74796,35.70042],[139.7483,35.70007],[139.7478,35.69974],[139.74777,35.69973],[139.74768,35.69965],[139.74758,35.69956],[139.74746,35.69934],[139.74722,35.69941],[139.74697,35.6995],[139.74707,35.69964],[139.74694,35.6997],[139.74707,35.6999],[139.74705,35.70009],[139.74715,35.7002],[139.74706,35.70028],[139.7469,35.70024],[139.74674,35.70027],[139.74651,35.7003],[139.74609,35.70038],[139.74611,35.70047],[139.74588,35.70053],[139.74592,35.70063],[139.74602,35.70085],[139.74608,35.70094],[139.74583,35.70108],[139.7455,35.70128],[139.74522,35.70139],[139.74499,35.70149],[139.74487,35.70138],[139.74451,35.70106],[139.7444,35.70097],[139.74426,35.70073],[139.74388,35.70008],[139.74377,35.69997],[139.74343,35.70014],[139.74349,35.70022],[139.74383,35.7007],[139.74421,35.70125],[139.74428,35.70134],[139.74421,35.70139],[139.74409,35.70146],[139.7438,35.70163],[139.74387,35.7017],[139.74392,35.70175],[139.74391,35.70176],[139.74377,35.70189],[139.74418,35.70223],[139.7442,35.70225],[139.74436,35.70238],[139.74476,35.7023],[139.74487,35.70237],[139.74497,35.70244],[139.74516,35.70231]]]}},{"type":"Feature","properties":{"name":"一ツ橋一丁目","setai":0,"jinko":0,"key":"13101020001","units":1},"geometry":{"type":"Polygon","coordinates":[[[139.75623,35.69275],[139.7566,35.69274],[139.75819,35.69124],[139.75889,35.69124],[139.75893,35.69124],[139.75889,35.69087],[139.75883,35.69022],[139.75883,35.69015],[139.75869,35.69019],[139.75868,35.69019],[139.75824,35.69017],[139.75814,35.6902],[139.75735,35.69026],[139.75731,35.6902],[139.75624,35.69056],[139.7557,35.69178],[139.75568,35.69181],[139.75581,35.69186],[139.75574,35.69201],[139.75613,35.69202],[139.75622,35.69262],[139.75623,35.69275]]]}},{"type":"Feature","properties":{"name":"一ツ橋二丁目","setai":40,"jinko":55,"key":"13101020002","units":1},"geometry":{"type":"Polygon","coordinates":[[[139.75893,35.69124],[139.75889,35.69124],[139.75819,35.69124],[139.7566,35.69274],[139.75623,35.69275],[139.75595,35.69275],[139.75588,35.69303],[139.75584,35.69322],[139.75612,35.6933],[139.7561,35.69341],[139.75605,35.69356],[139.75599,35.69375],[139.75583,35.69412],[139.75576,35.69483],[139.75635,35.69486],[139.75685,35.69487],[139.75711,35.69488],[139.75751,35.6949],[139.75778,35.69491],[139.75825,35.69493],[139.75831,35.69493],[139.75833,35.69482],[139.75837,35.69465],[139.75837,35.69463],[139.75839,35.69454],[139.75842,35.69443],[139.75848,35.69414],[139.75854,35.69384],[139.75855,35.69381],[139.75875,35.69287],[139.75876,35.69283],[139.75888,35.69223],[139.75897,35.69166],[139.75896,35.69156],[139.75893,35.69127],[139.75893,35.69124]]]}},{"type":"Feature","properties":{"name":"神田神保町一丁目","setai":950,"jinko":1547,"key":"13101021001","units":1},"geometry":{"type":"Polygon","coordinates":[[[139.76062,35.69599],[139.76099,35.69573],[139.76127,35.69553],[139.76129,35.69552],[139.76128,35.69544],[139.76125,35.69514],[139.76123,35.69492],[139.76121,35.69478],[139.7612,35.69465],[139.76118,35.69447],[139.76118,35.6944],[139.76115,35.69413],[139.76113,35.69384],[139.76112,35.69382],[139.76067,35.69382],[139.76066,35.69382],[139.76023,35.69382],[139.76022,35.69382],[139.75966,35.69383],[139.75965,35.69383],[139.7591,35.69383],[139.75903,35.69383],[139.75854,35.69384],[139.75848,35.69414],[139.75842,35.69443],[139.75839,35.69454],[139.75837,35.69463],[139.75837,35.69465],[139.75833,35.69482],[139.75831,35.69493],[139.75829,35.69504],[139.75823,35.69531],[139.75823,35.69533],[139.75816,35.6956],[139.75806,35.69596],[139.75803,35.69596],[139.75793,35.69626],[139.75786,35.69645],[139.75783,35.6965],[139.75765,35.69682],[139.75745,35.69718],[139.75742,35.69723],[139.75732,35.69741],[139.75729,35.69746],[139.75721,35.69762],[139.75709,35.69782],[139.75708,35.69784],[139.75698,35.69801],[139.75691,35.69815],[139.7569,35.69817],[139.75684,35.69828],[139.75671,35.69851],[139.75676,35.69853],[139.75728,35.69874],[139.75748,35.69882],[139.75752,35.69883],[139.75789,35.69898],[139.75812,35.69907],[139.75843,35.69876],[139.75872,35.69844],[139.75872,35.69844],[139.75886,35.69827],[139.75903,35.69802],[139.75911,35.69791],[139.75916,35.69784],[139.75939,35.6975],[139.7594,35.69749],[139.75961,35.69719],[139.75979,35.69693],[139.75992,35.69675],[139.75996,35.6967],[139.75997,35.69669],[139.76011,35.69654],[139.76048,35.69612],[139.76053,35.69606],[139.76056,35.69602],[139.76062,35.69599]]]}},{"type":"Feature","properties":{"name":"神田神保町二丁目","setai":763,"jinko":1104,"key":"13101021002","units":1},"geometry":{"type":"Polygon","coordinates":[[[139.75793,35.69626],[139.75803,35.69596],[139.75806,35.69596],[139.75816,35.6956],[139.75823,35.69533],[139.75823,35.69531],[139.75829,35.69504],[139.75831,35.69493],[139.75825,35.69493],[139.75778,35.69491],[139.75751,35.6949],[139.75711,35.69488],[139.75685,35.69487],[139.75635,35.69486],[139.75576,35.69483],[139.7557,35.69521],[139.75556,35.69547],[139.75554,35.69549],[139.75533,35.69588],[139.75515,35.69619],[139.75503,35.69641],[139.75503,35.69641],[139.75498,35.69651],[139.75473,35.69696],[139.75452,35.69736],[139.75442,35.69756],[139.75445,35.69758],[139.75505,35.69783],[139.75507,35.69784],[139.75567,35.69809],[139.75592,35.69819],[139.75622,35.69831],[139.75642,35.69839],[139.75671,35.69851],[139.75684,35.69828],[139.7569,35.69817],[139.75691,35.69815],[139.75698,35.69801],[139.75708,35.69784],[139.75709,35.69782],[139.75721,35.69762],[139.75729,35.69746],[139.75732,35.69741],[139.75742,35.69723],[139.75745,35.69718],[139.75765,35.69682],[139.75783,35.6965],[139.75786,35.69645],[139.75793,35.69626]]]}},{"type":"Feature","properties":{"name":"神田神保町三丁目","setai":362,"jinko":602,"key":"13101021003","units":1},"geometry":{"type":"Polygon","coordinates":[[[139.75473,35.69696],[139.75498,35.69651],[139.75503,35.69641],[139.75503,35.69641],[139.75515,35.69619],[139.75533,35.69588],[139.75554,35.69549],[139.75556,35.69547],[139.7557,35.69521],[139.75576,35.69483],[139.75583,35.69412],[139.75599,35.69375],[139.75605,35.69356],[139.7561,35.69341],[139.75612,35.6933],[139.75584,35.69322],[139.75579,35.69343],[139.75574,35.69357],[139.75567,35.69371],[139.75552,35.69382],[139.75534,35.69389],[139.75496,35.69399],[139.75437,35.69413],[139.75436,35.69413],[139.75416,35.69418],[139.75408,35.6942],[139.75375,35.69434],[139.75359,35.69444],[139.75331,35.69465],[139.75319,35.69476],[139.753,35.69498],[139.75294,35.6951],[139.75282,35.69536],[139.75278,35.69556],[139.75277,35.69565],[139.75277,35.69566],[139.75265,35.69628],[139.75256,35.6968],[139.75257,35.6968],[139.75257,35.69679],[139.7532,35.69705],[139.7532,35.69705],[139.75362,35.69722],[139.75398,35.69738],[139.75442,35.69756],[139.75452,35.69736],[139.75473,35.69696]]]}},{"type":"Feature","properties":{"name":"三崎町一丁目","setai":13,"jinko":27,"key":"13101022001","units":1},"geometry":{"type":"Polygon","coordinates":[[[139.75667,35.69998],[139.75607,35.69982],[139.75572,35.70052],[139.7555,35.70091],[139.75508,35.70172],[139.75508,35.70174],[139.75523,35.70212],[139.75549,35.70206],[139.75576,35.70201],[139.7566,35.7018],[139.75673,35.70136],[139.75674,35.70134],[139.75674,35.70132],[139.75683,35.70101],[139.75694,35.70066],[139.7571,35.70011],[139.75714,35.70009],[139.75669,35.69998],[139.75667,35.69998]]]}},{"type":"Feature","properties":{"name":"三崎町二丁目","setai":237,"jinko":471,"key":"13101022002","units":1},"geometry":{"type":"Polygon","coordinates":[[[139.75416,35.6993],[139.75359,35.69915],[139.75327,35.69974],[139.75308,35.70007],[139.75284,35.70049],[139.7526,35.70092],[139.75241,35.70132],[139.75216,35.70181],[139.75188,35.70229],[139.75182,35.70241],[139.75184,35.70255],[139.7519,35.70255],[139.7529,35.70248],[139.75343,35.70242],[139.75377,35.70238],[139.75427,35.70231],[139.75449,35.70228],[139.75523,35.70212],[139.75508,35.70174],[139.75508,35.70172],[139.7555,35.70091],[139.75572,35.70052],[139.75607,35.69982],[139.75558,35.69968],[139.75525,35.69959],[139.75493,35.69951],[139.75469,35.69944],[139.75416,35.6993]]]}},{"type":"Feature","properties":{"name":"三崎町三丁目","setai":296,"jinko":440,"key":"13101022003","units":1},"geometry":{"type":"Polygon","coordinates":[[[139.7525,35.69885],[139.75221,35.69877],[139.7522,35.69878],[139.75214,35.69889],[139.75203,35.69908],[139.75175,35.6996],[139.75142,35.7002],[139.75127,35.70046],[139.75112,35.70075],[139.75099,35.70098],[139.75074,35.70144],[139.75075,35.70157],[139.75079,35.70194],[139.75082,35.70233],[139.75085,35.70263],[139.75184,35.70255],[139.75182,35.70241],[139.75188,35.70229],[139.75216,35.70181],[139.75241,35.70132],[139.7526,35.70092],[139.75284,35.70049],[139.75308,35.70007],[139.75327,35.69974],[139.75359,35.69915],[139.75311,35.69901],[139.75253,35.69886],[139.7525,35.69885]]]}},{"type":"Feature","properties":{"name":"西神田一丁目","setai":48,"jinko":106,"key":"13101023001","units":1},"geometry":{"type":"Polygon","coordinates":[[[139.75728,35.69874],[139.75676,35.69853],[139.75644,35.69911],[139.75607,35.69982],[139.75667,35.69998],[139.75669,35.69998],[139.75714,35.70009],[139.75739,35.69983],[139.75754,35.69967],[139.75764,35.69956],[139.75809,35.6991],[139.75812,35.69907],[139.75789,35.69898],[139.75752,35.69883],[139.75748,35.69882],[139.75728,35.69874]]]}},{"type":"Feature","properties":{"name":"西神田二丁目","setai":399,"jinko":706,"key":"13101023002","units":1},"geometry":{"type":"Polygon","coordinates":[[[139.75505,35.69783],[139.75445,35.69758],[139.75403,35.69835],[139.75383,35.69871],[139.75359,35.69915],[139.75416,35.6993],[139.75469,35.69944],[139.75493,35.69951],[139.75525,35.69959],[139.75558,35.69968],[139.75607,35.69982],[139.75644,35.69911],[139.75676,35.69853],[139.75671,35.69851],[139.75642,35.69839],[139.75622,35.69831],[139.75592,35.69819],[139.75567,35.69809],[139.75507,35.69784],[139.75505,35.69783]]]}},{"type":"Feature","properties":{"name":"西神田三丁目","setai":250,"jinko":427,"key":"13101023003","units":1},"geometry":{"type":"Polygon","coordinates":[[[139.75403,35.69835],[139.75445,35.69758],[139.75442,35.69756],[139.75398,35.69738],[139.75362,35.69722],[139.7532,35.69705],[139.7532,35.69705],[139.75257,35.69679],[139.75257,35.6968],[139.75253,35.69689],[139.75235,35.6979],[139.75236,35.6979],[139.75221,35.69877],[139.7525,35.69885],[139.75253,35.69886],[139.75311,35.69901],[139.75359,35.69915],[139.75383,35.69871],[139.75403,35.69835]]]}},{"type":"Feature","properties":{"name":"猿楽町一丁目","setai":222,"jinko":495,"key":"13101024001","units":1},"geometry":{"type":"Polygon","coordinates":[[[139.75973,35.69961],[139.76007,35.69938],[139.76036,35.69913],[139.76053,35.69899],[139.76088,35.69879],[139.76092,35.69857],[139.76089,35.69834],[139.76085,35.69806],[139.76082,35.69774],[139.76073,35.69749],[139.76068,35.69721],[139.76072,35.69704],[139.76069,35.6969],[139.76003,35.69673],[139.75997,35.69669],[139.75996,35.6967],[139.75992,35.69675],[139.75979,35.69693],[139.75961,35.69719],[139.7594,35.69749],[139.75939,35.6975],[139.75916,35.69784],[139.75911,35.69791],[139.75903,35.69802],[139.75886,35.69827],[139.75872,35.69844],[139.7592,35.69867],[139.75968,35.6989],[139.75929,35.69919],[139.75951,35.69942],[139.7596,35.69952],[139.75963,35.69949],[139.75973,35.69961]]]}},{"type":"Feature","properties":{"name":"猿楽町二丁目","setai":457,"jinko":671,"key":"13101024002","units":1},"geometry":{"type":"Polygon","coordinates":[[[139.75813,35.7009],[139.75847,35.70053],[139.75854,35.70053],[139.75866,35.70041],[139.75869,35.70042],[139.75884,35.7004],[139.75891,35.70045],[139.75895,35.70042],[139.75932,35.70007],[139.75957,35.69991],[139.75987,35.69975],[139.75975,35.69963],[139.75973,35.69961],[139.75963,35.69949],[139.7596,35.69952],[139.75951,35.69942],[139.75929,35.69919],[139.75968,35.6989],[139.7592,35.69867],[139.75872,35.69844],[139.75872,35.69844],[139.75843,35.69876],[139.75812,35.69907],[139.75809,35.6991],[139.75764,35.69956],[139.75754,35.69967],[139.75739,35.69983],[139.75714,35.70009],[139.7571,35.70011],[139.75694,35.70066],[139.75683,35.70101],[139.75674,35.70132],[139.75702,35.70124],[139.75702,35.70122],[139.75719,35.70111],[139.75756,35.70104],[139.75768,35.701],[139.7578,35.70095],[139.75813,35.7009]]]}},{"type":"Feature","properties":{"name":"神田駿河台一丁目","setai":55,"jinko":71,"key":"13101025001","units":1},"geometry":{"type":"Polygon","coordinates":[[[139.76368,35.69724],[139.76337,35.69662],[139.76319,35.69626],[139.76317,35.69626],[139.76287,35.69637],[139.76284,35.69638],[139.76264,35.69645],[139.76259,35.69647],[139.7623,35.69658],[139.76223,35.6966],[139.76169,35.6968],[139.76168,35.6968],[139.76159,35.69684],[139.76126,35.6969],[139.761,35.69689],[139.76072,35.69704],[139.76068,35.69721],[139.76073,35.69749],[139.76082,35.69774],[139.76085,35.69806],[139.76089,35.69834],[139.76092,35.69857],[139.76088,35.69879],[139.76053,35.69899],[139.76036,35.69913],[139.76007,35.69938],[139.75973,35.69961],[139.75975,35.69963],[139.75987,35.69975],[139.7611,35.69932],[139.76151,35.69918],[139.76173,35.69911],[139.76277,35.69875],[139.76289,35.69871],[139.76327,35.69858],[139.76331,35.69856],[139.76377,35.6984],[139.76389,35.69836],[139.76417,35.69826],[139.76403,35.69797],[139.76369,35.69726],[139.76368,35.69724]]]}},{"type":"Feature","properties":{"name":"神田駿河台二丁目","setai":439,"jinko":591,"key":"13101025002","units":1},"geometry":{"type":"Polygon","coordinates":[[[139.75763,35.70157],[139.75769,35.70157],[139.75863,35.70158],[139.75958,35.70159],[139.76012,35.70159],[139.76075,35.70159],[139.7611,35.70157],[139.76158,35.7015],[139.76185,35.70144],[139.76208,35.70134],[139.76227,35.7012],[139.76229,35.70122],[139.76249,35.70104],[139.76269,35.70079],[139.76278,35.70065],[139.76294,35.7005],[139.76334,35.7003],[139.76356,35.70022],[139.76383,35.70012],[139.76406,35.70014],[139.76451,35.70001],[139.765,35.69988],[139.76471,35.69933],[139.76453,35.69898],[139.76439,35.69867],[139.76438,35.69867],[139.76417,35.69826],[139.76389,35.69836],[139.76377,35.6984],[139.76331,35.69856],[139.76327,35.69858],[139.76289,35.69871],[139.76277,35.69875],[139.76173,35.69911],[139.76151,35.69918],[139.7611,35.69932],[139.75987,35.69975],[139.75957,35.69991],[139.75932,35.70007],[139.75895,35.70042],[139.75891,35.70045],[139.75884,35.7004],[139.75869,35.70042],[139.75866,35.70041],[139.75854,35.70053],[139.75847,35.70053],[139.75813,35.7009],[139.7578,35.70095],[139.75768,35.701],[139.75756,35.70104],[139.75719,35.70111],[139.75702,35.70122],[139.75702,35.70124],[139.75674,35.70132],[139.75674,35.70134],[139.75673,35.70136],[139.7566,35.7018],[139.75688,35.70173],[139.75763,35.70157]]]}},{"type":"Feature","properties":{"name":"神田駿河台三丁目","setai":127,"jinko":200,"key":"13101025003","units":1},"geometry":{"type":"Polygon","coordinates":[[[139.76574,35.69598],[139.76549,35.69549],[139.76516,35.69562],[139.76506,35.6956],[139.76506,35.69561],[139.76446,35.69559],[139.76406,35.69558],[139.76405,35.69558],[139.76374,35.69557],[139.76373,35.69557],[139.76343,35.69557],[139.76339,35.69619],[139.76336,35.69619],[139.76319,35.69626],[139.76337,35.69662],[139.76368,35.69724],[139.76369,35.69726],[139.76403,35.69797],[139.76566,35.69742],[139.76631,35.6972],[139.76595,35.69661],[139.76604,35.69656],[139.76574,35.69598]]]}},{"type":"Feature","properties":{"name":"神田駿河台四丁目","setai":100,"jinko":141,"key":"13101025004","units":1},"geometry":{"type":"Polygon","coordinates":[[[139.76735,35.69875],[139.76712,35.69816],[139.76691,35.69819],[139.76677,35.69795],[139.76671,35.69786],[139.76649,35.69749],[139.76631,35.6972],[139.76566,35.69742],[139.76403,35.69797],[139.76417,35.69826],[139.76438,35.69867],[139.76439,35.69867],[139.76453,35.69898],[139.76471,35.69933],[139.765,35.69988],[139.76541,35.69978],[139.76552,35.69975],[139.7664,35.69952],[139.76655,35.69948],[139.76698,35.69934],[139.76722,35.69924],[139.76749,35.6991],[139.76735,35.69875]]]}},{"type":"Feature","properties":{"name":"神田錦町一丁目","setai":288,"jinko":382,"key":"13101026001","units":1},"geometry":{"type":"Polygon","coordinates":[[[139.76437,35.69008],[139.7642,35.68927],[139.76396,35.68939],[139.76374,35.68955],[139.76351,35.68975],[139.76333,35.68989],[139.76318,35.69004],[139.76332,35.69077],[139.76338,35.69104],[139.76343,35.69129],[139.76344,35.69136],[139.76345,35.69138],[139.76347,35.69148],[139.76348,35.69155],[139.76351,35.69169],[139.76355,35.69192],[139.76358,35.6921],[139.76367,35.69258],[139.76377,35.69318],[139.76383,35.69349],[139.76387,35.6937],[139.76391,35.69394],[139.76461,35.69389],[139.76509,35.69385],[139.76513,35.69384],[139.76507,35.69358],[139.76505,35.69358],[139.76494,35.69305],[139.76486,35.69273],[139.76481,35.69245],[139.7648,35.69243],[139.76471,35.69194],[139.76465,35.69163],[139.76463,35.69154],[139.76455,35.69122],[139.76452,35.69092],[139.76449,35.69088],[139.76444,35.69059],[139.76436,35.69023],[139.76434,35.69014],[139.76437,35.69008]]]}},{"type":"Feature","properties":{"name":"神田錦町二丁目","setai":250,"jinko":432,"key":"13101026002","units":1},"geometry":{"type":"Polygon","coordinates":[[[139.76332,35.69077],[139.76318,35.69004],[139.76315,35.69007],[139.76302,35.69014],[139.76281,35.6902],[139.76229,35.69032],[139.76205,35.69038],[139.76221,35.6912],[139.76228,35.69152],[139.76233,35.69183],[139.76242,35.69224],[139.76252,35.69273],[139.76257,35.69304],[139.76262,35.69331],[139.76274,35.69383],[139.76278,35.69405],[139.76278,35.69408],[139.76388,35.69398],[139.76388,35.69395],[139.76391,35.69394],[139.76387,35.6937],[139.76383,35.69349],[139.76377,35.69318],[139.76367,35.69258],[139.76358,35.6921],[139.76355,35.69192],[139.76351,35.69169],[139.76348,35.69155],[139.76347,35.69148],[139.76345,35.69138],[139.76344,35.69136],[139.76343,35.69129],[139.76338,35.69104],[139.76332,35.69077]]]}},{"type":"Feature","properties":{"name":"神田錦町三丁目","setai":284,"jinko":370,"key":"13101026003","units":1},"geometry":{"type":"Polygon","coordinates":[[[139.76274,35.69383],[139.76262,35.69331],[139.76257,35.69304],[139.76252,35.69273],[139.76242,35.69224],[139.76233,35.69183],[139.76228,35.69152],[139.76221,35.6912],[139.76205,35.69038],[139.76185,35.69047],[139.76158,35.69074],[139.76121,35.69104],[139.76095,35.69118],[139.76087,35.69121],[139.76082,35.69123],[139.76053,35.69127],[139.76021,35.69127],[139.75968,35.69127],[139.75916,35.69126],[139.75893,35.69127],[139.75896,35.69156],[139.75897,35.69166],[139.75888,35.69223],[139.75876,35.69283],[139.75875,35.69287],[139.75855,35.69381],[139.75854,35.69384],[139.75903,35.69383],[139.7591,35.69383],[139.75965,35.69383],[139.75966,35.69383],[139.76022,35.69382],[139.76023,35.69382],[139.76066,35.69382],[139.76067,35.69382],[139.76112,35.69382],[139.76113,35.69384],[139.7616,35.69384],[139.76213,35.69383],[139.76274,35.69383]]]}},{"type":"Feature","properties":{"name":"神田小川町一丁目","setai":158,"jinko":267,"key":"13101027001","units":1},"geometry":{"type":"Polygon","coordinates":[[[139.76679,35.69566],[139.76704,35.69524],[139.76727,35.69533],[139.76743,35.6954],[139.76745,35.6954],[139.76745,35.69482],[139.76744,35.69476],[139.76745,35.69444],[139.76697,35.69428],[139.76643,35.69413],[139.766,35.69404],[139.76598,35.69403],[139.76527,35.69384],[139.76532,35.69414],[139.76533,35.69419],[139.76525,35.69458],[139.76517,35.69493],[139.76518,35.69505],[139.76512,35.69534],[139.76506,35.6956],[139.76516,35.69562],[139.76549,35.69549],[139.76557,35.69546],[139.7656,35.69545],[139.76565,35.69523],[139.76568,35.69524],[139.76614,35.69542],[139.76626,35.69546],[139.76628,35.69546],[139.76655,35.69557],[139.76679,35.69566]]]}},{"type":"Feature","properties":{"name":"神田小川町二丁目","setai":128,"jinko":210,"key":"13101027002","units":1},"geometry":{"type":"Polygon","coordinates":[[[139.76506,35.6956],[139.76512,35.69534],[139.76518,35.69505],[139.76517,35.69493],[139.76525,35.69458],[139.76533,35.69419],[139.76532,35.69414],[139.76527,35.69384],[139.76513,35.69384],[139.76509,35.69385],[139.76461,35.69389],[139.76391,35.69394],[139.76388,35.69395],[139.76388,35.69398],[139.76278,35.69408],[139.76285,35.69439],[139.76286,35.69442],[139.76347,35.69438],[139.7635,35.69438],[139.76348,35.69487],[139.76348,35.69488],[139.76343,35.69557],[139.76373,35.69557],[139.76374,35.69557],[139.76405,35.69558],[139.76406,35.69558],[139.76446,35.69559],[139.76506,35.69561],[139.76506,35.6956]]]}},{"type":"Feature","properties":{"name":"神田小川町三丁目","setai":424,"jinko":675,"key":"13101027003","units":1},"geometry":{"type":"Polygon","coordinates":[[[139.76072,35.69704],[139.761,35.69689],[139.76126,35.6969],[139.76159,35.69684],[139.76168,35.6968],[139.76169,35.6968],[139.76223,35.6966],[139.7623,35.69658],[139.76259,35.69647],[139.76264,35.69645],[139.76284,35.69638],[139.76287,35.69637],[139.76317,35.69626],[139.76319,35.69626],[139.76336,35.69619],[139.76339,35.69619],[139.76343,35.69557],[139.76348,35.69488],[139.76348,35.69487],[139.7635,35.69438],[139.76347,35.69438],[139.76286,35.69442],[139.76285,35.69439],[139.76278,35.69408],[139.76278,35.69405],[139.76274,35.69383],[139.76213,35.69383],[139.7616,35.69384],[139.76113,35.69384],[139.76115,35.69413],[139.76118,35.6944],[139.76118,35.69447],[139.7612,35.69465],[139.76121,35.69478],[139.76123,35.69492],[139.76125,35.69514],[139.76128,35.69544],[139.76129,35.69552],[139.76127,35.69553],[139.76099,35.69573],[139.76062,35.69599],[139.76056,35.69602],[139.76053,35.69606],[139.76048,35.69612],[139.76011,35.69654],[139.75997,35.69669],[139.76003,35.69673],[139.76069,35.6969],[139.76072,35.69704]]]}},{"type":"Feature","properties":{"name":"神田美土代町","setai":98,"jinko":144,"key":"131010280","units":1},"geometry":{"type":"Polygon","coordinates":[[[139.7664,35.69386],[139.76635,35.69345],[139.76634,35.69343],[139.76624,35.69287],[139.7662,35.69264],[139.76613,35.69233],[139.76551,35.69237],[139.76481,35.69245],[139.76486,35.69273],[139.76494,35.69305],[139.76505,35.69358],[139.76507,35.69358],[139.76513,35.69384],[139.76527,35.69384],[139.76598,35.69403],[139.766,35.69404],[139.76643,35.69413],[139.7664,35.69386]]]}},{"type":"Feature","properties":{"name":"内神田一丁目","setai":538,"jinko":874,"key":"13101029001","units":1},"geometry":{"type":"Polygon","coordinates":[[[139.76685,35.68957],[139.7667,35.68885],[139.76511,35.68913],[139.7642,35.68927],[139.76437,35.69008],[139.76434,35.69014],[139.76436,35.69023],[139.76444,35.69059],[139.76449,35.69088],[139.76452,35.69092],[139.76455,35.69122],[139.76463,35.69154],[139.76465,35.69163],[139.76471,35.69194],[139.7648,35.69243],[139.76481,35.69245],[139.76551,35.69237],[139.76613,35.69233],[139.76659,35.69226],[139.76696,35.69225],[139.76706,35.69223],[139.76743,35.69219],[139.76732,35.69173],[139.76723,35.69128],[139.76709,35.69064],[139.76704,35.6904],[139.76697,35.69005],[139.76694,35.68998],[139.76685,35.68957]]]}},{"type":"Feature","properties":{"name":"内神田二丁目","setai":212,"jinko":334,"key":"13101029002","units":1},"geometry":{"type":"Polygon","coordinates":[[[139.769,35.69253],[139.7691,35.69214],[139.76906,35.69184],[139.76902,35.69155],[139.76899,35.69113],[139.76897,35.69089],[139.76893,35.69044],[139.76887,35.69013],[139.7688,35.68976],[139.76876,35.68948],[139.76844,35.68926],[139.76864,35.68903],[139.7688,35.68884],[139.76813,35.6886],[139.76814,35.68859],[139.7667,35.68885],[139.76685,35.68957],[139.76694,35.68998],[139.76697,35.69005],[139.76704,35.6904],[139.76709,35.69064],[139.76723,35.69128],[139.76732,35.69173],[139.76743,35.69219],[139.76761,35.69217],[139.76815,35.69231],[139.76841,35.69239],[139.769,35.69253]]]}},{"type":"Feature","properties":{"name":"内神田三丁目","setai":232,"jinko":392,"key":"13101029003","units":1},"geometry":{"type":"Polygon","coordinates":[[[139.76881,35.68884],[139.7688,35.68884],[139.76864,35.68903],[139.76844,35.68926],[139.76876,35.68948],[139.7688,35.68976],[139.76887,35.69013],[139.76893,35.69044],[139.76897,35.69089],[139.76899,35.69113],[139.76902,35.69155],[139.76906,35.69184],[139.7691,35.69214],[139.769,35.69253],[139.76929,35.69263],[139.76974,35.69274],[139.77024,35.69288],[139.77065,35.69298],[139.77108,35.69309],[139.77133,35.69316],[139.77118,35.69289],[139.77092,35.69244],[139.77064,35.6919],[139.77053,35.69161],[139.77037,35.69122],[139.77037,35.69115],[139.7703,35.69083],[139.77019,35.69048],[139.77017,35.69039],[139.77015,35.69036],[139.76977,35.68942],[139.76976,35.6894],[139.76975,35.68939],[139.76965,35.68915],[139.76964,35.68912],[139.76881,35.68884]]]}},{"type":"Feature","properties":{"name":"神田司町","setai":318,"jinko":503,"key":"131010300","units":1},"geometry":{"type":"Polygon","coordinates":[[[139.76815,35.69231],[139.76761,35.69217],[139.76743,35.69219],[139.76706,35.69223],[139.76696,35.69225],[139.76659,35.69226],[139.76613,35.69233],[139.7662,35.69264],[139.76624,35.69287],[139.76634,35.69343],[139.76635,35.69345],[139.7664,35.69386],[139.76643,35.69413],[139.76697,35.69428],[139.76745,35.69444],[139.76776,35.69456],[139.76836,35.6948],[139.76841,35.69441],[139.76843,35.6942],[139.76843,35.69419],[139.76853,35.69367],[139.76867,35.69329],[139.769,35.69253],[139.76841,35.69239],[139.76815,35.69231]]]}},{"type":"Feature","properties":{"name":"神田多町","setai":704,"jinko":976,"key":"131010310","units":1},"geometry":{"type":"Polygon","coordinates":[[[139.76929,35.69263],[139.769,35.69253],[139.76867,35.69329],[139.76853,35.69367],[139.76843,35.69419],[139.76843,35.6942],[139.76841,35.69441],[139.76836,35.6948],[139.76837,35.6948],[139.76882,35.69499],[139.76882,35.69499],[139.7691,35.69507],[139.76931,35.69513],[139.76938,35.69495],[139.76946,35.69477],[139.76955,35.69453],[139.76955,35.69451],[139.76977,35.69403],[139.76978,35.69402],[139.76991,35.69368],[139.76995,35.69357],[139.77024,35.69288],[139.76974,35.69274],[139.76929,35.69263]]]}},{"type":"Feature","properties":{"name":"神田淡路町一丁目","setai":117,"jinko":165,"key":"13101032001","units":1},"geometry":{"type":"Polygon","coordinates":[[[139.7674,35.69599],[139.76743,35.69598],[139.76751,35.69599],[139.76792,35.69616],[139.76799,35.69601],[139.76816,35.69568],[139.76791,35.69557],[139.76745,35.6954],[139.76743,35.6954],[139.76727,35.69533],[139.76704,35.69524],[139.76679,35.69566],[139.76655,35.69557],[139.76628,35.69546],[139.76626,35.69546],[139.76614,35.69542],[139.76568,35.69524],[139.76565,35.69523],[139.7656,35.69545],[139.76557,35.69546],[139.76549,35.69549],[139.76574,35.69598],[139.76604,35.69656],[139.76616,35.69651],[139.76648,35.69637],[139.76663,35.69629],[139.76686,35.69618],[139.76701,35.69611],[139.76728,35.69599],[139.7674,35.69599]]]}},{"type":"Feature","properties":{"name":"神田淡路町二丁目","setai":540,"jinko":1082,"key":"13101032002","units":1},"geometry":{"type":"Polygon","coordinates":[[[139.76883,35.69838],[139.76866,35.69811],[139.76923,35.69758],[139.76892,35.69718],[139.7689,35.69714],[139.76873,35.69689],[139.76872,35.69688],[139.76858,35.69668],[139.76839,35.6964],[139.76834,35.69633],[139.76807,35.69621],[139.76792,35.69616],[139.76751,35.69599],[139.76743,35.69598],[139.7674,35.69599],[139.76728,35.69599],[139.76701,35.69611],[139.76686,35.69618],[139.76663,35.69629],[139.76648,35.69637],[139.76616,35.69651],[139.76604,35.69656],[139.76595,35.69661],[139.76631,35.6972],[139.76649,35.69749],[139.76671,35.69786],[139.76677,35.69795],[139.76691,35.69819],[139.76712,35.69816],[139.76735,35.69875],[139.76749,35.6991],[139.76788,35.69891],[139.76838,35.69864],[139.76883,35.69838]]]}},{"type":"Feature","properties":{"name":"神田須田町一丁目","setai":704,"jinko":1104,"key":"13101033001","units":1},"geometry":{"type":"Polygon","coordinates":[[[139.77156,35.69515],[139.77158,35.69498],[139.77157,35.69453],[139.77157,35.69452],[139.77126,35.69443],[139.77125,35.69444],[139.77065,35.69428],[139.77064,35.69426],[139.77018,35.69414],[139.77018,35.69415],[139.76977,35.69403],[139.76955,35.69451],[139.76955,35.69453],[139.76946,35.69477],[139.76938,35.69495],[139.76931,35.69513],[139.7691,35.69507],[139.76882,35.69499],[139.76882,35.69499],[139.76837,35.6948],[139.76836,35.6948],[139.76776,35.69456],[139.76745,35.69444],[139.76744,35.69476],[139.76745,35.69482],[139.76745,35.6954],[139.76791,35.69557],[139.76816,35.69568],[139.76799,35.69601],[139.76792,35.69616],[139.76807,35.69621],[139.76834,35.69633],[139.76839,35.6964],[139.76858,35.69668],[139.76872,35.69688],[139.76873,35.69689],[139.7689,35.69714],[139.76892,35.69718],[139.76923,35.69758],[139.76866,35.69811],[139.76883,35.69838],[139.76889,35.69834],[139.76961,35.6979],[139.76983,35.69777],[139.76986,35.69775],[139.76994,35.6977],[139.77097,35.69708],[139.77097,35.69707],[139.77085,35.69679],[139.77079,35.69664],[139.77076,35.69657],[139.77096,35.69637],[139.77106,35.69626],[139.7712,35.69607],[139.77132,35.69585],[139.77136,35.69576],[139.77138,35.69573],[139.7715,35.69543],[139.77153,35.69531],[139.77156,35.69515]]]}},{"type":"Feature","properties":{"name":"神田須田町二丁目","setai":438,"jinko":622,"key":"13101033002","units":1},"geometry":{"type":"Polygon","coordinates":[[[139.77196,35.69698],[139.77246,35.69697],[139.77269,35.69697],[139.77269,35.69695],[139.77281,35.69695],[139.77369,35.69694],[139.77443,35.69693],[139.77481,35.69691],[139.77479,35.69658],[139.77471,35.69657],[139.77471,35.69654],[139.7747,35.69652],[139.77469,35.69611],[139.77467,35.69559],[139.77467,35.69556],[139.77465,35.69535],[139.77364,35.69508],[139.77358,35.69507],[139.77302,35.69492],[139.77247,35.69477],[139.77209,35.69466],[139.77157,35.69453],[139.77158,35.69498],[139.77156,35.69515],[139.77153,35.69531],[139.7715,35.69543],[139.77138,35.69573],[139.77136,35.69576],[139.77132,35.69585],[139.7712,35.69607],[139.77106,35.69626],[139.77096,35.69637],[139.77076,35.69657],[139.77079,35.69664],[139.77085,35.69679],[139.77097,35.69707],[139.77097,35.69707],[139.77168,35.697],[139.77196,35.69698]]]}},{"type":"Feature","properties":{"name":"外神田一丁目","setai":136,"jinko":187,"key":"13101034001","units":1},"geometry":{"type":"Polygon","coordinates":[[[139.77189,35.69863],[139.77231,35.69859],[139.77287,35.69894],[139.77284,35.69872],[139.77277,35.69811],[139.7727,35.69753],[139.77271,35.69696],[139.77269,35.69697],[139.77246,35.69697],[139.77196,35.69698],[139.77168,35.697],[139.77097,35.69707],[139.77097,35.69707],[139.77097,35.69708],[139.76994,35.6977],[139.76986,35.69775],[139.76983,35.69777],[139.76961,35.6979],[139.76889,35.69834],[139.76895,35.69847],[139.76897,35.69868],[139.76896,35.69876],[139.76896,35.69887],[139.76907,35.6994],[139.76908,35.69945],[139.76914,35.69982],[139.76915,35.69986],[139.7697,35.69982],[139.77038,35.69977],[139.77064,35.69975],[139.77119,35.69972],[139.77119,35.69967],[139.7713,35.69966],[139.77136,35.69966],[139.7718,35.69963],[139.77179,35.69958],[139.77174,35.69924],[139.77169,35.69864],[139.77189,35.69863]]]}},{"type":"Feature","properties":{"name":"外神田二丁目","setai":724,"jinko":1184,"key":"13101034002","units":1},"geometry":{"type":"Polygon","coordinates":[[[139.76959,35.70296],[139.76939,35.70225],[139.76934,35.70202],[139.76931,35.70179],[139.7693,35.70149],[139.76926,35.70122],[139.76924,35.70092],[139.76921,35.70073],[139.76921,35.70064],[139.76919,35.70035],[139.76917,35.70011],[139.76915,35.69986],[139.76914,35.69982],[139.76908,35.69945],[139.76907,35.6994],[139.76896,35.69887],[139.76896,35.69876],[139.76897,35.69868],[139.76895,35.69847],[139.76889,35.69834],[139.76883,35.69838],[139.76838,35.69864],[139.76788,35.69891],[139.76749,35.6991],[139.76722,35.69924],[139.76698,35.69934],[139.76655,35.69948],[139.7664,35.69952],[139.76652,35.69979],[139.76701,35.69964],[139.76715,35.69989],[139.76726,35.7001],[139.76761,35.69996],[139.7676,35.69993],[139.76755,35.69985],[139.76831,35.6995],[139.76843,35.6998],[139.76844,35.6998],[139.76859,35.6998],[139.7686,35.69986],[139.76862,35.69998],[139.76862,35.70008],[139.76845,35.70008],[139.76823,35.70028],[139.76817,35.70035],[139.76807,35.70045],[139.76802,35.7005],[139.76802,35.7005],[139.76804,35.70064],[139.76813,35.70063],[139.76815,35.7008],[139.76814,35.7008],[139.76808,35.70081],[139.76807,35.70081],[139.76808,35.70082],[139.76802,35.70087],[139.76799,35.70089],[139.76791,35.70082],[139.76775,35.70091],[139.76746,35.70107],[139.76734,35.70113],[139.76716,35.70097],[139.76708,35.70103],[139.76707,35.70104],[139.76694,35.7011],[139.76697,35.70129],[139.76618,35.70177],[139.76614,35.7018],[139.7663,35.70215],[139.76642,35.70245],[139.76646,35.70256],[139.76649,35.70256],[139.76654,35.70266],[139.76661,35.70266],[139.76668,35.70265],[139.76663,35.70246],[139.76666,35.70247],[139.76672,35.70247],[139.76697,35.7025],[139.76738,35.70254],[139.76739,35.70254],[139.76812,35.70262],[139.76815,35.70264],[139.76814,35.70286],[139.76852,35.70289],[139.76899,35.70292],[139.76933,35.70295],[139.76959,35.70296]]]}},{"type":"Feature","properties":{"name":"外神田三丁目","setai":275,"jinko":526,"key":"13101034003","units":1},"geometry":{"type":"Polygon","coordinates":[[[139.76959,35.70296],[139.77012,35.70296],[139.77025,35.70296],[139.77062,35.70294],[139.77111,35.70294],[139.77166,35.70295],[139.77159,35.70231],[139.77155,35.70187],[139.7715,35.70145],[139.77149,35.70139],[139.77145,35.70097],[139.77143,35.7008],[139.77138,35.70031],[139.77136,35.70018],[139.77134,35.70001],[139.7713,35.69966],[139.77119,35.69967],[139.77119,35.69972],[139.77064,35.69975],[139.77038,35.69977],[139.7697,35.69982],[139.76915,35.69986],[139.76917,35.70011],[139.76919,35.70035],[139.76921,35.70064],[139.76921,35.70073],[139.76924,35.70092],[139.76926,35.70122],[139.7693,35.70149],[139.76931,35.70179],[139.76934,35.70202],[139.76939,35.70225],[139.76959,35.70296]]]}},{"type":"Feature","properties":{"name":"外神田四丁目","setai":536,"jinko":949,"key":"13101034004","units":1},"geometry":{"type":"Polygon","coordinates":[[[139.77287,35.69894],[139.77231,35.69859],[139.77189,35.69863],[139.77169,35.69864],[139.77174,35.69924],[139.77179,35.69958],[139.7718,35.69963],[139.77136,35.69966],[139.7713,35.69966],[139.77134,35.70001],[139.77136,35.70018],[139.77138,35.70031],[139.77143,35.7008],[139.77145,35.70097],[139.77149,35.70139],[139.7715,35.70145],[139.77155,35.70187],[139.77159,35.70231],[139.77166,35.70295],[139.77175,35.70295],[139.77245,35.7029],[139.77289,35.70286],[139.77302,35.70286],[139.77318,35.70284],[139.7734,35.70282],[139.77372,35.7028],[139.77371,35.70278],[139.77349,35.70212],[139.77338,35.70175],[139.77338,35.70174],[139.7732,35.70071],[139.77316,35.70036],[139.77308,35.69988],[139.77301,35.69954],[139.77299,35.69945],[139.77293,35.69921],[139.77287,35.69894]]]}},{"type":"Feature","properties":{"name":"外神田五丁目","setai":171,"jinko":308,"key":"13101034005","units":1},"geometry":{"type":"Polygon","coordinates":[[[139.77309,35.70342],[139.77302,35.70286],[139.77289,35.70286],[139.77245,35.7029],[139.77175,35.70295],[139.77166,35.70295],[139.77173,35.70362],[139.77175,35.7038],[139.77182,35.70449],[139.77188,35.70509],[139.772,35.70508],[139.772,35.70508],[139.77242,35.70505],[139.7727,35.70503],[139.77298,35.70501],[139.77325,35.70499],[139.77325,35.70498],[139.77319,35.70439],[139.77319,35.70438],[139.77314,35.70393],[139.77312,35.7037],[139.77309,35.70342]]]}},{"type":"Feature","properties":{"name":"外神田六丁目","setai":528,"jinko":852,"key":"13101034006","units":1},"geometry":{"type":"Polygon","coordinates":[[[139.77175,35.7038],[139.77173,35.70362],[139.77166,35.70295],[139.77111,35.70294],[139.77062,35.70294],[139.77025,35.70296],[139.77012,35.70296],[139.76959,35.70296],[139.76933,35.70295],[139.76899,35.70292],[139.76852,35.70289],[139.76814,35.70286],[139.76806,35.70286],[139.76806,35.70289],[139.76799,35.70329],[139.76799,35.70332],[139.76813,35.70333],[139.76827,35.70334],[139.76845,35.70335],[139.76846,35.70335],[139.76875,35.70332],[139.76906,35.70329],[139.76908,35.70329],[139.76923,35.70327],[139.76932,35.70328],[139.76935,35.70339],[139.76942,35.70369],[139.76966,35.70362],[139.76974,35.70367],[139.76981,35.7037],[139.76983,35.70382],[139.76986,35.70414],[139.76987,35.70427],[139.7699,35.70465],[139.7699,35.70469],[139.76992,35.7052],[139.76994,35.70522],[139.77039,35.70519],[139.7704,35.70519],[139.77089,35.70516],[139.7709,35.70516],[139.77136,35.70512],[139.77137,35.70512],[139.77188,35.70509],[139.77182,35.70449],[139.77175,35.7038]]]}},{"type":"Feature","properties":{"name":"鍛冶町一丁目","setai":66,"jinko":108,"key":"13101035001","units":1},"geometry":{"type":"Polygon","coordinates":[[[139.77017,35.68929],[139.76965,35.68915],[139.76975,35.68939],[139.76976,35.6894],[139.76977,35.68942],[139.77015,35.69036],[139.77017,35.69039],[139.77065,35.69051],[139.77073,35.69053],[139.77156,35.69076],[139.77201,35.69089],[139.77262,35.69107],[139.7735,35.69132],[139.77362,35.69103],[139.77363,35.691],[139.77374,35.69072],[139.77383,35.69049],[139.77312,35.69025],[139.77238,35.69002],[139.77237,35.69001],[139.77156,35.68975],[139.77105,35.68957],[139.77104,35.68957],[139.77032,35.68934],[139.77017,35.68929]]]}},{"type":"Feature","properties":{"name":"鍛冶町二丁目","setai":113,"jinko":179,"key":"13101035002","units":1},"geometry":{"type":"Polygon","coordinates":[[[139.77065,35.69051],[139.77017,35.69039],[139.77019,35.69048],[139.7703,35.69083],[139.77037,35.69115],[139.77037,35.69122],[139.77053,35.69161],[139.77064,35.6919],[139.77092,35.69244],[139.77118,35.69289],[139.77133,35.69316],[139.77134,35.69317],[139.77146,35.69348],[139.7715,35.69367],[139.77153,35.69396],[139.77156,35.69439],[139.77157,35.69452],[139.77157,35.69453],[139.77209,35.69466],[139.77225,35.69427],[139.77233,35.69411],[139.77246,35.69377],[139.77256,35.69351],[139.77278,35.69298],[139.77285,35.69281],[139.77301,35.69244],[139.77317,35.69204],[139.7735,35.69132],[139.77262,35.69107],[139.77201,35.69089],[139.77156,35.69076],[139.77073,35.69053],[139.77065,35.69051]]]}},{"type":"Feature","properties":{"name":"神田鍛冶町","setai":56,"jinko":103,"key":"131010360","units":1},"geometry":{"type":"Polygon","coordinates":[[[139.77157,35.69452],[139.77156,35.69439],[139.77153,35.69396],[139.7715,35.69367],[139.77146,35.69348],[139.77134,35.69317],[139.77133,35.69316],[139.77108,35.69309],[139.77065,35.69298],[139.77024,35.69288],[139.76995,35.69357],[139.76991,35.69368],[139.76978,35.69402],[139.76977,35.69403],[139.77018,35.69415],[139.77018,35.69414],[139.77064,35.69426],[139.77065,35.69428],[139.77125,35.69444],[139.77126,35.69443],[139.77157,35.69452]]]}},{"type":"Feature","properties":{"name":"神田紺屋町","setai":111,"jinko":173,"key":"131010370","units":1},"geometry":{"type":"MultiPolygon","coordinates":[[[[139.77454,35.69286],[139.77301,35.69244],[139.77285,35.69281],[139.77278,35.69298],[139.7743,35.69339],[139.77436,35.69331],[139.77454,35.69286]]],[[[139.77491,35.69173],[139.7735,35.69132],[139.77317,35.69204],[139.77469,35.69246],[139.77474,35.69234],[139.77475,35.69233],[139.77478,35.69226],[139.77475,35.69216],[139.77491,35.69173]]]]}},{"type":"Feature","properties":{"name":"神田北乗物町","setai":34,"jinko":58,"key":"131010380","units":1},"geometry":{"type":"Polygon","coordinates":[[[139.77469,35.69246],[139.77317,35.69204],[139.77301,35.69244],[139.77454,35.69286],[139.77469,35.69246]]]}},{"type":"Feature","properties":{"name":"神田富山町","setai":95,"jinko":144,"key":"131010390","units":1},"geometry":{"type":"Polygon","coordinates":[[[139.7743,35.69339],[139.77278,35.69298],[139.77256,35.69351],[139.77246,35.69377],[139.77341,35.69403],[139.77398,35.69419],[139.77409,35.69393],[139.7743,35.69339]]]}},{"type":"Feature","properties":{"name":"神田美倉町","setai":61,"jinko":65,"key":"131010400","units":1},"geometry":{"type":"Polygon","coordinates":[[[139.77508,35.69093],[139.77383,35.69049],[139.77374,35.69072],[139.77363,35.691],[139.77476,35.69136],[139.77501,35.69149],[139.77502,35.69148],[139.77513,35.69119],[139.77522,35.69097],[139.77508,35.69093]]]}},{"type":"Feature","properties":{"name":"岩本町一丁目","setai":585,"jinko":1009,"key":"13101041001","units":1},"geometry":{"type":"Polygon","coordinates":[[[139.77659,35.69145],[139.77522,35.69097],[139.77513,35.69119],[139.77502,35.69148],[139.77501,35.69149],[139.77492,35.69171],[139.77626,35.69224],[139.77628,35.69225],[139.77715,35.69261],[139.77718,35.69262],[139.77809,35.693],[139.77812,35.69301],[139.77883,35.69353],[139.77911,35.69375],[139.77926,35.69386],[139.77979,35.69336],[139.77995,35.69319],[139.77979,35.69308],[139.77977,35.69306],[139.77955,35.69291],[139.77877,35.69235],[139.7787,35.69233],[139.7784,35.69221],[139.77757,35.69186],[139.77753,35.69185],[139.77661,35.69145],[139.77659,35.69145]]]}},{"type":"Feature","properties":{"name":"岩本町二丁目","setai":1386,"jinko":2077,"key":"13101041002","units":1},"geometry":{"type":"Polygon","coordinates":[[[139.77626,35.69224],[139.77492,35.69171],[139.77491,35.69173],[139.77475,35.69216],[139.77478,35.69226],[139.77475,35.69233],[139.77474,35.69234],[139.77484,35.69295],[139.77492,35.69347],[139.77494,35.69347],[139.77506,35.69419],[139.77573,35.69437],[139.77631,35.69453],[139.77696,35.69471],[139.77745,35.69485],[139.77799,35.695],[139.77841,35.69512],[139.77857,35.69516],[139.77867,35.69489],[139.77893,35.69439],[139.77903,35.69413],[139.77904,35.6941],[139.77926,35.69386],[139.77911,35.69375],[139.77883,35.69353],[139.77812,35.69301],[139.77809,35.693],[139.77718,35.69262],[139.77715,35.69261],[139.77628,35.69225],[139.77626,35.69224]]]}},{"type":"Feature","properties":{"name":"岩本町三丁目","setai":537,"jinko":677,"key":"13101041003","units":1},"geometry":{"type":"Polygon","coordinates":[[[139.77536,35.69691],[139.77622,35.69689],[139.77661,35.69689],[139.77671,35.69689],[139.7774,35.69686],[139.77771,35.69686],[139.77803,35.69686],[139.77831,35.69685],[139.77829,35.69647],[139.77814,35.69647],[139.77833,35.69604],[139.7785,35.69567],[139.77862,35.69541],[139.77845,35.69541],[139.77857,35.69516],[139.77841,35.69512],[139.77799,35.695],[139.77745,35.69485],[139.77696,35.69471],[139.77631,35.69453],[139.77573,35.69437],[139.77506,35.69419],[139.77506,35.6942],[139.77512,35.69478],[139.77515,35.69487],[139.77523,35.69552],[139.77535,35.69653],[139.77536,35.69691]]]}},{"type":"Feature","properties":{"name":"神田西福田町","setai":74,"jinko":83,"key":"131010420","units":1},"geometry":{"type":"Polygon","coordinates":[[[139.77492,35.69171],[139.77501,35.69149],[139.77476,35.69136],[139.77363,35.691],[139.77362,35.69103],[139.7735,35.69132],[139.77491,35.69173],[139.77492,35.69171]]]}},{"type":"Feature","properties":{"name":"神田東松下町","setai":512,"jinko":1093,"key":"131010430","units":1},"geometry":{"type":"Polygon","coordinates":[[[139.77444,35.69467],[139.77466,35.69409],[139.77469,35.6941],[139.77506,35.6942],[139.77506,35.69419],[139.77494,35.69347],[139.77492,35.69347],[139.77436,35.69331],[139.7743,35.69339],[139.77409,35.69393],[139.77398,35.69419],[139.77341,35.69403],[139.77246,35.69377],[139.77233,35.69411],[139.77225,35.69427],[139.77209,35.69466],[139.77247,35.69477],[139.77302,35.69492],[139.77358,35.69507],[139.77364,35.69508],[139.77465,35.69535],[139.77488,35.6948],[139.77444,35.69467]]]}},{"type":"Feature","properties":{"name":"神田東紺屋町","setai":51,"jinko":61,"key":"131010440","units":1},"geometry":{"type":"Polygon","coordinates":[[[139.77492,35.69347],[139.77484,35.69295],[139.77474,35.69234],[139.77469,35.69246],[139.77454,35.69286],[139.77436,35.69331],[139.77492,35.69347]]]}},{"type":"Feature","properties":{"name":"神田岩本町","setai":29,"jinko":47,"key":"131010450","units":1},"geometry":{"type":"Polygon","coordinates":[[[139.77469,35.6941],[139.77466,35.69409],[139.77444,35.69467],[139.77488,35.6948],[139.77465,35.69535],[139.77467,35.69556],[139.77467,35.69559],[139.77469,35.69611],[139.7747,35.69652],[139.77471,35.69654],[139.77471,35.69657],[139.77479,35.69658],[139.77481,35.69691],[139.77536,35.69691],[139.77535,35.69653],[139.77523,35.69552],[139.77515,35.69487],[139.77512,35.69478],[139.77506,35.6942],[139.77469,35.6941]]]}},{"type":"Feature","properties":{"name":"東神田一丁目","setai":1037,"jinko":1652,"key":"13101046001","units":1},"geometry":{"type":"Polygon","coordinates":[[[139.78039,35.69293],[139.78029,35.69286],[139.78027,35.69288],[139.77997,35.69317],[139.77995,35.69319],[139.77979,35.69336],[139.77926,35.69386],[139.77904,35.6941],[139.77903,35.69413],[139.77893,35.69439],[139.77867,35.69489],[139.77857,35.69516],[139.77845,35.69541],[139.77862,35.69541],[139.77916,35.69539],[139.78001,35.69535],[139.7806,35.6953],[139.78112,35.69526],[139.78166,35.69523],[139.78224,35.69519],[139.78257,35.69516],[139.78278,35.69515],[139.78288,35.69514],[139.78287,35.6951],[139.78281,35.69469],[139.78275,35.69465],[139.78221,35.69426],[139.7822,35.69426],[139.78118,35.69351],[139.78116,35.6935],[139.78043,35.69296],[139.78039,35.69293]]]}},{"type":"Feature","properties":{"name":"東神田二丁目","setai":757,"jinko":1091,"key":"13101046002","units":1},"geometry":{"type":"Polygon","coordinates":[[[139.78273,35.69664],[139.78268,35.69618],[139.78175,35.6963],[139.78171,35.69582],[139.78171,35.69579],[139.78166,35.69523],[139.78112,35.69526],[139.7806,35.6953],[139.78001,35.69535],[139.77916,35.69539],[139.77862,35.69541],[139.7785,35.69567],[139.77833,35.69604],[139.77814,35.69647],[139.77829,35.69647],[139.77831,35.69685],[139.77889,35.69685],[139.77896,35.69685],[139.78005,35.69684],[139.78006,35.69684],[139.78273,35.69664]]]}},{"type":"Feature","properties":{"name":"東神田三丁目","setai":526,"jinko":907,"key":"13101046003","units":1},"geometry":{"type":"Polygon","coordinates":[[[139.78277,35.69697],[139.78273,35.69664],[139.78006,35.69684],[139.78005,35.69684],[139.78006,35.69713],[139.78013,35.6977],[139.78014,35.69778],[139.78017,35.69789],[139.78073,35.69783],[139.78125,35.69778],[139.78175,35.69772],[139.78232,35.69768],[139.78283,35.69764],[139.78281,35.69748],[139.78281,35.69746],[139.78279,35.69723],[139.78279,35.69722],[139.78277,35.69699],[139.78277,35.69697]]]}},{"type":"Feature","properties":{"name":"神田和泉町","setai":392,"jinko":726,"key":"131010470","units":1},"geometry":{"type":"Polygon","coordinates":[[[139.78032,35.69873],[139.78031,35.69867],[139.77961,35.69869],[139.77955,35.69869],[139.77749,35.69874],[139.77719,35.69875],[139.7754,35.69879],[139.77539,35.69891],[139.77541,35.69963],[139.77544,35.70058],[139.77549,35.70057],[139.77617,35.70052],[139.77657,35.7005],[139.77666,35.70049],[139.77695,35.70047],[139.77696,35.70047],[139.77753,35.70042],[139.77804,35.70038],[139.77869,35.70033],[139.77881,35.70032],[139.77909,35.7003],[139.7795,35.70027],[139.77959,35.70027],[139.78016,35.70022],[139.78054,35.70019],[139.78052,35.7001],[139.78046,35.69966],[139.78038,35.69915],[139.78032,35.69873]]]}},{"type":"Feature","properties":{"name":"神田佐久間町一丁目","setai":17,"jinko":22,"key":"13101048001","units":1},"geometry":{"type":"Polygon","coordinates":[[[139.77539,35.69891],[139.7754,35.69879],[139.77539,35.69852],[139.77538,35.69817],[139.77537,35.69759],[139.77537,35.69726],[139.77536,35.69691],[139.77481,35.69691],[139.77443,35.69693],[139.77369,35.69694],[139.77281,35.69695],[139.77269,35.69695],[139.77269,35.69697],[139.77271,35.69696],[139.7727,35.69753],[139.77277,35.69811],[139.77499,35.69804],[139.77501,35.69892],[139.77539,35.69891]]]}},{"type":"Feature","properties":{"name":"神田佐久間町二丁目","setai":74,"jinko":135,"key":"13101048002","units":1},"geometry":{"type":"Polygon","coordinates":[[[139.77719,35.69875],[139.77718,35.69849],[139.77685,35.6985],[139.77683,35.69821],[139.77689,35.6982],[139.77688,35.69807],[139.77684,35.69756],[139.77673,35.69755],[139.77672,35.69723],[139.77663,35.69723],[139.77537,35.69726],[139.77537,35.69759],[139.7759,35.69759],[139.77592,35.69814],[139.77593,35.6985],[139.77539,35.69852],[139.7754,35.69879],[139.77719,35.69875]]]}},{"type":"Feature","properties":{"name":"神田佐久間町三丁目","setai":534,"jinko":841,"key":"13101048003","units":1},"geometry":{"type":"Polygon","coordinates":[[[139.77961,35.69869],[139.77959,35.69838],[139.77955,35.69783],[139.77955,35.69756],[139.77892,35.69757],[139.7789,35.69713],[139.77809,35.69716],[139.77806,35.69716],[139.77806,35.69721],[139.77672,35.69723],[139.77673,35.69755],[139.77684,35.69756],[139.77688,35.69807],[139.77689,35.6982],[139.77683,35.69821],[139.77685,35.6985],[139.77718,35.69849],[139.77719,35.69875],[139.77749,35.69874],[139.77955,35.69869],[139.77961,35.69869]]]}},{"type":"Feature","properties":{"name":"神田佐久間町四丁目","setai":357,"jinko":634,"key":"13101048004","units":1},"geometry":{"type":"Polygon","coordinates":[[[139.78013,35.6977],[139.78006,35.69713],[139.77896,35.69713],[139.7789,35.69713],[139.77892,35.69757],[139.77955,35.69756],[139.77955,35.69783],[139.77959,35.69838],[139.77961,35.69869],[139.78031,35.69867],[139.78026,35.69842],[139.78022,35.69814],[139.78017,35.69789],[139.78014,35.69778],[139.78013,35.6977]]]}},{"type":"Feature","properties":{"name":"神田平河町","setai":5,"jinko":10,"key":"131010490","units":1},"geometry":{"type":"Polygon","coordinates":[[[139.7759,35.69759],[139.77537,35.69759],[139.77538,35.69817],[139.77539,35.69852],[139.77593,35.6985],[139.77592,35.69814],[139.7759,35.69759]]]}},{"type":"Feature","properties":{"name":"神田松永町","setai":26,"jinko":57,"key":"131010500","units":1},"geometry":{"type":"Polygon","coordinates":[[[139.7751,35.70163],[139.77559,35.70159],[139.77553,35.70098],[139.77549,35.70057],[139.77544,35.70058],[139.77541,35.69963],[139.77539,35.69891],[139.77501,35.69892],[139.77501,35.69914],[139.77422,35.69916],[139.77425,35.69941],[139.77428,35.69972],[139.77448,35.69971],[139.77489,35.69967],[139.77492,35.69991],[139.77511,35.69991],[139.77512,35.70001],[139.77506,35.70001],[139.77494,35.70002],[139.77495,35.70011],[139.77506,35.70011],[139.77509,35.70011],[139.77509,35.70012],[139.7751,35.70021],[139.77494,35.70022],[139.77507,35.70164],[139.7751,35.70163]]]}},{"type":"Feature","properties":{"name":"神田花岡町","setai":2,"jinko":2,"key":"131010510","units":1},"geometry":{"type":"Polygon","coordinates":[[[139.77422,35.69916],[139.77501,35.69914],[139.77501,35.69892],[139.77499,35.69804],[139.77277,35.69811],[139.77284,35.69872],[139.77287,35.69894],[139.77293,35.69921],[139.77422,35.69916]]]}},{"type":"Feature","properties":{"name":"神田佐久間河岸","setai":72,"jinko":91,"key":"131010520","units":1},"geometry":{"type":"Polygon","coordinates":[[[139.77809,35.69716],[139.7789,35.69713],[139.77896,35.69713],[139.78006,35.69713],[139.78005,35.69684],[139.77896,35.69685],[139.77889,35.69685],[139.77831,35.69685],[139.77803,35.69686],[139.77771,35.69686],[139.7774,35.69686],[139.77671,35.69689],[139.77661,35.69689],[139.77622,35.69689],[139.77536,35.69691],[139.77537,35.69726],[139.77663,35.69723],[139.77672,35.69723],[139.77806,35.69721],[139.77806,35.69716],[139.77809,35.69716]]]}},{"type":"Feature","properties":{"name":"神田練塀町","setai":203,"jinko":373,"key":"131010530","units":1},"geometry":{"type":"Polygon","coordinates":[[[139.77509,35.70012],[139.77509,35.70011],[139.77506,35.70011],[139.77495,35.70011],[139.77494,35.70002],[139.77506,35.70001],[139.77512,35.70001],[139.77511,35.69991],[139.77492,35.69991],[139.77489,35.69967],[139.77448,35.69971],[139.77428,35.69972],[139.77429,35.69974],[139.7738,35.69981],[139.77339,35.69986],[139.77308,35.69988],[139.77316,35.70036],[139.7732,35.70071],[139.77338,35.70174],[139.7745,35.70166],[139.77454,35.70166],[139.77507,35.70164],[139.77494,35.70022],[139.7751,35.70021],[139.77509,35.70012]]]}},{"type":"Feature","properties":{"name":"神田相生町","setai":0,"jinko":0,"key":"131010540","units":1},"geometry":{"type":"Polygon","coordinates":[[[139.7738,35.69981],[139.77429,35.69974],[139.77428,35.69972],[139.77425,35.69941],[139.77422,35.69916],[139.77293,35.69921],[139.77299,35.69945],[139.77301,35.69954],[139.77308,35.69988],[139.77339,35.69986],[139.7738,35.69981]]]}},{"type":"Feature","properties":{"name":"二番町","setai":770,"jinko":1701,"key":"131010550","units":1},"geometry":{"type":"Polygon","coordinates":[[[139.73792,35.68513],[139.73726,35.68495],[139.73726,35.68497],[139.73653,35.68479],[139.7359,35.68464],[139.73581,35.68461],[139.73578,35.68467],[139.73513,35.68458],[139.73511,35.68463],[139.7351,35.68466],[139.73501,35.68483],[139.73499,35.68487],[139.73494,35.68486],[139.73454,35.68484],[139.73449,35.68484],[139.73391,35.68513],[139.7339,35.68515],[139.73384,35.6852],[139.73349,35.68555],[139.73376,35.68573],[139.73342,35.68627],[139.73379,35.68643],[139.73385,35.68646],[139.73389,35.68647],[139.73494,35.68682],[139.73627,35.68727],[139.73726,35.68764],[139.7375,35.68774],[139.73759,35.68777],[139.73765,35.68779],[139.73787,35.68788],[139.73841,35.68688],[139.73843,35.68684],[139.73861,35.68656],[139.73864,35.68651],[139.73867,35.68647],[139.73891,35.68605],[139.73806,35.68516],[139.73798,35.68514],[139.73792,35.68513]]]}},{"type":"Feature","properties":{"name":"三番町","setai":1710,"jinko":3645,"key":"131010560","units":1},"geometry":{"type":"Polygon","coordinates":[[[139.7462,35.69287],[139.74591,35.69146],[139.74609,35.69143],[139.74714,35.69128],[139.74718,35.69126],[139.74723,35.69111],[139.74734,35.69101],[139.74742,35.69089],[139.74757,35.69052],[139.74767,35.69031],[139.74796,35.68988],[139.74773,35.68955],[139.74704,35.68942],[139.74678,35.68936],[139.74642,35.68929],[139.74593,35.68919],[139.74558,35.68904],[139.74538,35.68902],[139.74519,35.68902],[139.7448,35.68893],[139.74445,35.68885],[139.7437,35.68865],[139.74226,35.68824],[139.74251,35.68886],[139.74277,35.6895],[139.74158,35.68917],[139.741,35.68902],[139.74037,35.68879],[139.74016,35.68937],[139.74015,35.6894],[139.73999,35.68977],[139.73998,35.68979],[139.73975,35.69032],[139.73949,35.69089],[139.74026,35.69112],[139.74029,35.69113],[139.74051,35.69121],[139.74094,35.69133],[139.74132,35.69145],[139.74246,35.69179],[139.74341,35.69208],[139.74368,35.69214],[139.74416,35.69228],[139.74462,35.69242],[139.74489,35.69251],[139.74494,35.6925],[139.7462,35.69287]]]}},{"type":"Feature","properties":{"name":"四番町","setai":1188,"jinko":2674,"key":"131010570","units":1},"geometry":{"type":"Polygon","coordinates":[[[139.73726,35.68764],[139.73627,35.68727],[139.73606,35.68777],[139.73604,35.68782],[139.73583,35.68828],[139.73582,35.68831],[139.73563,35.68876],[139.7356,35.68883],[139.73559,35.6889],[139.7354,35.68933],[139.73539,35.68937],[139.7359,35.68955],[139.73629,35.6897],[139.73645,35.68976],[139.73663,35.68982],[139.73705,35.68998],[139.73718,35.69007],[139.73864,35.6906],[139.73867,35.69061],[139.73882,35.69067],[139.73949,35.69089],[139.73975,35.69032],[139.73998,35.68979],[139.73999,35.68977],[139.74015,35.6894],[139.74016,35.68937],[139.74037,35.68879],[139.73874,35.68822],[139.73787,35.68788],[139.73765,35.68779],[139.73759,35.68777],[139.7375,35.68774],[139.73726,35.68764]]]}},{"type":"Feature","properties":{"name":"五番町","setai":422,"jinko":1108,"key":"131010580","units":1},"geometry":{"type":"Polygon","coordinates":[[[139.73605,35.69112],[139.73615,35.69111],[139.73621,35.69113],[139.7364,35.69118],[139.73672,35.69061],[139.73705,35.68998],[139.73663,35.68982],[139.73645,35.68976],[139.73629,35.6897],[139.7359,35.68955],[139.73539,35.68937],[139.73523,35.6893],[139.73515,35.68927],[139.73458,35.68907],[139.73416,35.68893],[139.73402,35.68887],[139.73336,35.6886],[139.73205,35.68806],[139.73205,35.68803],[139.73201,35.68795],[139.73125,35.68769],[139.73072,35.68752],[139.73093,35.68802],[139.73071,35.68807],[139.73073,35.68814],[139.7308,35.68829],[139.73081,35.6883],[139.73087,35.68843],[139.73129,35.68932],[139.73264,35.69012],[139.73318,35.69044],[139.7332,35.69045],[139.73429,35.6911],[139.73545,35.69177],[139.7358,35.69128],[139.73594,35.69115],[139.73605,35.69112]]]}},{"type":"Feature","properties":{"name":"六番町","setai":670,"jinko":1701,"key":"131010590","units":1},"geometry":{"type":"Polygon","coordinates":[[[139.73339,35.68625],[139.73324,35.68616],[139.73299,35.68601],[139.73253,35.68575],[139.73242,35.68567],[139.73203,35.68584],[139.73165,35.68602],[139.73137,35.68618],[139.73126,35.68603],[139.73118,35.68606],[139.73047,35.68635],[139.73058,35.68682],[139.73059,35.68702],[139.73072,35.68752],[139.73125,35.68769],[139.73201,35.68795],[139.73205,35.68803],[139.73205,35.68806],[139.73336,35.6886],[139.73402,35.68887],[139.73416,35.68893],[139.73458,35.68907],[139.73515,35.68927],[139.73523,35.6893],[139.73539,35.68937],[139.7354,35.68933],[139.73559,35.6889],[139.7356,35.68883],[139.73563,35.68876],[139.73582,35.68831],[139.73583,35.68828],[139.73604,35.68782],[139.73606,35.68777],[139.73627,35.68727],[139.73494,35.68682],[139.73389,35.68647],[139.73385,35.68646],[139.73379,35.68643],[139.73342,35.68627],[139.73339,35.68625]]]}}]}