{"type":"FeatureCollection","features":[{"type":"Feature","properties":{"name":"上清戸一丁目","setai":841,"jinko":1627,"key":"13221001001","units":1},"geometry":{"type":"Polygon","coordinates":[[[139.52822,35.77311],[139.52727,35.77241],[139.52709,35.77245],[139.52663,35.77214],[139.52627,35.772],[139.52612,35.77228],[139.52611,35.77228],[139.52546,35.77209],[139.52546,35.77209],[139.5249,35.77193],[139.52481,35.77191],[139.52405,35.77195],[139.52355,35.77198],[139.52317,35.77199],[139.52264,35.77202],[139.52282,35.77233],[139.52286,35.77248],[139.52289,35.77258],[139.5229,35.77296],[139.5229,35.77323],[139.52304,35.7733],[139.52294,35.77352],[139.52277,35.77374],[139.52256,35.77397],[139.52251,35.77402],[139.52237,35.77412],[139.52229,35.77416],[139.52169,35.77432],[139.52106,35.77448],[139.52069,35.77466],[139.5205,35.77476],[139.5205,35.77477],[139.52058,35.77502],[139.51986,35.77626],[139.51998,35.77659],[139.51998,35.77659],[139.52073,35.77691],[139.52118,35.7771],[139.52192,35.77742],[139.52197,35.77744],[139.52203,35.77747],[139.52238,35.77762],[139.52347,35.77809],[139.52399,35.77837],[139.52415,35.77844],[139.52475,35.77872],[139.52486,35.77877],[139.52546,35.77788],[139.52559,35.77767],[139.52563,35.7775],[139.52564,35.77748],[139.52564,35.77738],[139.52568,35.77718],[139.52574,35.77696],[139.5258,35.77688],[139.52584,35.77673],[139.52594,35.77645],[139.52603,35.77629],[139.52609,35.77611],[139.52609,35.776],[139.52612,35.77596],[139.52618,35.77568],[139.52618,35.77567],[139.52623,35.77555],[139.52638,35.77521],[139.52671,35.77459],[139.52671,35.77452],[139.52779,35.77348],[139.52822,35.77311]]]}},{"type":"Feature","properties":{"name":"上清戸二丁目","setai":803,"jinko":1736,"key":"13221001002","units":1},"geometry":{"type":"Polygon","coordinates":[[[139.52445,35.78359],[139.52468,35.7828],[139.52468,35.7828],[139.5249,35.78196],[139.5249,35.78195],[139.52495,35.78171],[139.52495,35.78158],[139.5249,35.78143],[139.52493,35.78129],[139.52503,35.781],[139.52504,35.78097],[139.52515,35.78076],[139.52526,35.78062],[139.5255,35.78031],[139.52566,35.78007],[139.52574,35.77992],[139.52585,35.77966],[139.52607,35.77926],[139.52574,35.77913],[139.52487,35.77877],[139.52486,35.77877],[139.52475,35.77872],[139.52415,35.77844],[139.52399,35.77837],[139.52347,35.77809],[139.52238,35.77762],[139.52203,35.77747],[139.52197,35.77744],[139.52192,35.77742],[139.52118,35.7771],[139.52073,35.77691],[139.51998,35.77659],[139.51998,35.77659],[139.51971,35.77658],[139.51921,35.77746],[139.51906,35.77772],[139.51897,35.77789],[139.51886,35.77813],[139.51878,35.77848],[139.51865,35.77876],[139.51858,35.77894],[139.51856,35.779],[139.51837,35.7796],[139.51833,35.77965],[139.51831,35.77965],[139.51818,35.77989],[139.51807,35.7801],[139.51807,35.78012],[139.51812,35.78016],[139.51837,35.78026],[139.51865,35.78033],[139.51887,35.7804],[139.51922,35.78055],[139.5199,35.78093],[139.51994,35.78098],[139.51992,35.78102],[139.51989,35.78111],[139.51999,35.78121],[139.52029,35.78139],[139.52059,35.78157],[139.52059,35.78158],[139.52077,35.78165],[139.52114,35.78181],[139.52151,35.78196],[139.52192,35.78216],[139.52192,35.78217],[139.52218,35.7823],[139.52254,35.78249],[139.52257,35.78249],[139.5227,35.78247],[139.52287,35.7827],[139.52292,35.78276],[139.52294,35.78278],[139.52296,35.7828],[139.52296,35.78281],[139.52305,35.78289],[139.52311,35.78292],[139.52313,35.78293],[139.5234,35.78304],[139.5234,35.78303],[139.52361,35.78316],[139.52371,35.78321],[139.52379,35.78326],[139.52396,35.78335],[139.52424,35.78347],[139.52445,35.78359]]]}},{"type":"Feature","properties":{"name":"元町一丁目","setai":2017,"jinko":3586,"key":"13221002001","units":1},"geometry":{"type":"Polygon","coordinates":[[[139.52218,35.77154],[139.522,35.77139],[139.52028,35.77184],[139.51978,35.77198],[139.51956,35.77203],[139.51896,35.77221],[139.51801,35.77257],[139.51803,35.77269],[139.51801,35.7727],[139.51774,35.77277],[139.51704,35.77296],[139.51675,35.77304],[139.51589,35.77327],[139.51573,35.77332],[139.51482,35.77353],[139.51476,35.77355],[139.51443,35.77362],[139.51592,35.77423],[139.51595,35.77425],[139.51685,35.77466],[139.51719,35.77484],[139.51736,35.77495],[139.51768,35.77513],[139.51806,35.77532],[139.51839,35.77549],[139.51868,35.77564],[139.51872,35.77566],[139.51986,35.77626],[139.52058,35.77502],[139.5205,35.77477],[139.5205,35.77476],[139.52069,35.77466],[139.52106,35.77448],[139.52169,35.77432],[139.52229,35.77416],[139.52237,35.77412],[139.52251,35.77402],[139.52256,35.77397],[139.52277,35.77374],[139.52294,35.77352],[139.52304,35.7733],[139.5229,35.77323],[139.5229,35.77296],[139.52289,35.77258],[139.52286,35.77248],[139.52282,35.77233],[139.52264,35.77202],[139.52263,35.772],[139.52223,35.7716],[139.52218,35.77154]]]}},{"type":"Feature","properties":{"name":"元町二丁目","setai":1614,"jinko":3137,"key":"13221002002","units":1},"geometry":{"type":"Polygon","coordinates":[[[139.51921,35.77746],[139.51971,35.77658],[139.51998,35.77659],[139.51986,35.77626],[139.51872,35.77566],[139.51868,35.77564],[139.51839,35.77549],[139.51806,35.77532],[139.51768,35.77513],[139.51736,35.77495],[139.51719,35.77484],[139.51685,35.77466],[139.51595,35.77425],[139.51592,35.77423],[139.51443,35.77362],[139.51438,35.77364],[139.51398,35.77374],[139.51393,35.77375],[139.51337,35.7739],[139.51333,35.77391],[139.51297,35.77402],[139.51218,35.77423],[139.51216,35.77423],[139.51123,35.77449],[139.51079,35.77461],[139.50994,35.77485],[139.50935,35.77501],[139.50938,35.77503],[139.50982,35.77531],[139.51003,35.77544],[139.51031,35.7756],[139.51118,35.77598],[139.51145,35.77611],[139.51181,35.77628],[139.51228,35.77652],[139.51266,35.77672],[139.51278,35.77678],[139.5128,35.77679],[139.51302,35.7769],[139.5138,35.77736],[139.51395,35.77745],[139.51436,35.77769],[139.51439,35.77771],[139.51484,35.77801],[139.51506,35.77813],[139.51537,35.77824],[139.51565,35.77835],[139.51581,35.77842],[139.51609,35.77855],[139.51638,35.77874],[139.51639,35.77875],[139.51656,35.77885],[139.51698,35.77904],[139.51723,35.77914],[139.51758,35.77929],[139.5176,35.7793],[139.51831,35.77965],[139.51833,35.77965],[139.51837,35.7796],[139.51856,35.779],[139.51858,35.77894],[139.51865,35.77876],[139.51878,35.77848],[139.51886,35.77813],[139.51897,35.77789],[139.51906,35.77772],[139.51921,35.77746]]]}},{"type":"Feature","properties":{"name":"中清戸一丁目","setai":742,"jinko":1743,"key":"13221003001","units":1},"geometry":{"type":"Polygon","coordinates":[[[139.53042,35.77335],[139.5302,35.77333],[139.52958,35.77336],[139.52853,35.77344],[139.52779,35.77348],[139.52671,35.77452],[139.52671,35.77459],[139.52638,35.77521],[139.52623,35.77555],[139.52618,35.77567],[139.52618,35.77568],[139.52612,35.77596],[139.52609,35.776],[139.52609,35.77611],[139.52603,35.77629],[139.52594,35.77645],[139.52584,35.77673],[139.5258,35.77688],[139.52574,35.77696],[139.52568,35.77718],[139.52564,35.77738],[139.52564,35.77748],[139.52563,35.7775],[139.52559,35.77767],[139.52546,35.77788],[139.52486,35.77877],[139.52487,35.77877],[139.52574,35.77913],[139.52607,35.77926],[139.52701,35.7797],[139.52782,35.78008],[139.52792,35.77988],[139.52822,35.77912],[139.52841,35.77857],[139.52847,35.77837],[139.52853,35.77817],[139.52862,35.77791],[139.5287,35.77778],[139.52871,35.77777],[139.52886,35.77757],[139.5289,35.77753],[139.52894,35.77748],[139.52905,35.77738],[139.52915,35.77726],[139.52933,35.77709],[139.52943,35.77701],[139.52965,35.77686],[139.52976,35.77676],[139.52976,35.77676],[139.52964,35.77644],[139.52963,35.77641],[139.52962,35.77633],[139.52963,35.77626],[139.52968,35.77617],[139.52984,35.77597],[139.53042,35.77519],[139.53089,35.7744],[139.53087,35.77439],[139.53089,35.77435],[139.53086,35.77434],[139.53116,35.77397],[139.53124,35.77389],[139.53153,35.77347],[139.53126,35.77345],[139.53084,35.77343],[139.53063,35.7734],[139.53042,35.77335]]]}},{"type":"Feature","properties":{"name":"中清戸二丁目","setai":490,"jinko":1242,"key":"13221003002","units":1},"geometry":{"type":"Polygon","coordinates":[[[139.52812,35.78397],[139.52882,35.78308],[139.5289,35.78298],[139.52964,35.78198],[139.52973,35.78177],[139.52978,35.78168],[139.53015,35.78113],[139.52947,35.78082],[139.52897,35.78061],[139.52843,35.78036],[139.52802,35.78017],[139.52782,35.78008],[139.52701,35.7797],[139.52607,35.77926],[139.52585,35.77966],[139.52574,35.77992],[139.52566,35.78007],[139.5255,35.78031],[139.52526,35.78062],[139.52515,35.78076],[139.52504,35.78097],[139.52503,35.781],[139.52493,35.78129],[139.5249,35.78143],[139.52495,35.78158],[139.52495,35.78171],[139.5249,35.78195],[139.5249,35.78196],[139.52468,35.7828],[139.52468,35.7828],[139.52445,35.78359],[139.52453,35.78365],[139.52489,35.78394],[139.52489,35.78394],[139.52489,35.78394],[139.52585,35.78433],[139.52589,35.78434],[139.5265,35.78459],[139.52656,35.78461],[139.52684,35.78479],[139.52715,35.78459],[139.52723,35.78455],[139.52772,35.78428],[139.52778,35.78424],[139.52797,35.78413],[139.52812,35.78397]]]}},{"type":"Feature","properties":{"name":"中清戸三丁目","setai":635,"jinko":1676,"key":"13221003003","units":1},"geometry":{"type":"Polygon","coordinates":[[[139.53162,35.77348],[139.53153,35.77347],[139.53124,35.77389],[139.53116,35.77397],[139.53086,35.77434],[139.53089,35.77435],[139.53087,35.77439],[139.53089,35.7744],[139.53042,35.77519],[139.52984,35.77597],[139.52968,35.77617],[139.52963,35.77626],[139.52962,35.77633],[139.52963,35.77641],[139.52964,35.77644],[139.52976,35.77676],[139.52976,35.77676],[139.52965,35.77686],[139.52943,35.77701],[139.52933,35.77709],[139.52915,35.77726],[139.52905,35.77738],[139.52894,35.77748],[139.5289,35.77753],[139.52886,35.77757],[139.52871,35.77777],[139.5287,35.77778],[139.52862,35.77791],[139.52853,35.77817],[139.52847,35.77837],[139.52841,35.77857],[139.52822,35.77912],[139.52792,35.77988],[139.52782,35.78008],[139.52802,35.78017],[139.52843,35.78036],[139.52897,35.78061],[139.52947,35.78082],[139.53015,35.78113],[139.5305,35.78129],[139.53078,35.78089],[139.53091,35.78062],[139.53101,35.7804],[139.53136,35.77991],[139.53138,35.77988],[139.53193,35.77899],[139.53204,35.77882],[139.53222,35.77848],[139.53229,35.77838],[139.53252,35.77811],[139.53293,35.77758],[139.53297,35.77754],[139.53313,35.77735],[139.53317,35.7773],[139.53333,35.77707],[139.53345,35.77693],[139.53361,35.77674],[139.53369,35.77668],[139.53371,35.77666],[139.53376,35.77662],[139.53399,35.7764],[139.53407,35.77634],[139.53423,35.77625],[139.53439,35.77613],[139.53455,35.77595],[139.53465,35.77584],[139.53495,35.77558],[139.53526,35.77528],[139.53545,35.77511],[139.53504,35.77488],[139.53487,35.77478],[139.53475,35.77471],[139.53455,35.77463],[139.53457,35.77455],[139.53457,35.77455],[139.53455,35.77455],[139.53399,35.77432],[139.53324,35.77401],[139.53217,35.77352],[139.53214,35.77351],[139.53162,35.77348]]]}},{"type":"Feature","properties":{"name":"中清戸四丁目","setai":744,"jinko":1599,"key":"13221003004","units":1},"geometry":{"type":"Polygon","coordinates":[[[139.52939,35.78734],[139.52947,35.78726],[139.5298,35.78746],[139.52989,35.78737],[139.52994,35.78732],[139.52994,35.78731],[139.53004,35.78718],[139.53013,35.7871],[139.53012,35.78703],[139.53044,35.78657],[139.53059,35.78636],[139.53066,35.78625],[139.53118,35.78643],[139.53124,35.78645],[139.53141,35.78612],[139.53167,35.78531],[139.53168,35.78531],[139.53168,35.78531],[139.53171,35.78531],[139.53201,35.78528],[139.5326,35.78535],[139.53282,35.78525],[139.53302,35.78516],[139.53328,35.78502],[139.5333,35.78501],[139.53332,35.78501],[139.53334,35.78501],[139.53336,35.78501],[139.53337,35.78501],[139.53339,35.78501],[139.53344,35.78503],[139.53347,35.78504],[139.53361,35.78512],[139.53362,35.78512],[139.53364,35.78512],[139.53365,35.78512],[139.53367,35.78512],[139.53368,35.78511],[139.5337,35.7851],[139.53371,35.78509],[139.53371,35.78508],[139.53374,35.78496],[139.53377,35.78487],[139.53382,35.78476],[139.53391,35.78455],[139.53396,35.78444],[139.53405,35.78425],[139.53428,35.7838],[139.53465,35.78308],[139.5343,35.78293],[139.53359,35.78263],[139.53356,35.78262],[139.53182,35.78187],[139.53148,35.78171],[139.53053,35.7813],[139.5305,35.78129],[139.53015,35.78113],[139.52978,35.78168],[139.52973,35.78177],[139.52964,35.78198],[139.5289,35.78298],[139.52882,35.78308],[139.52812,35.78397],[139.52797,35.78413],[139.52778,35.78424],[139.52772,35.78428],[139.52723,35.78455],[139.52715,35.78459],[139.52684,35.78479],[139.52682,35.78481],[139.52737,35.78517],[139.52725,35.78532],[139.52768,35.78559],[139.52771,35.78562],[139.52715,35.78608],[139.5271,35.7861],[139.52704,35.78611],[139.52696,35.78611],[139.52689,35.78609],[139.52681,35.78607],[139.52675,35.78616],[139.52712,35.78635],[139.52735,35.78645],[139.52735,35.78645],[139.52744,35.7865],[139.52776,35.78667],[139.52785,35.78664],[139.52807,35.78675],[139.52805,35.78677],[139.52789,35.78703],[139.52799,35.78706],[139.52817,35.78714],[139.52824,35.78718],[139.52847,35.78734],[139.52856,35.78728],[139.52914,35.78765],[139.52939,35.78734]]]}},{"type":"Feature","properties":{"name":"中清戸五丁目","setai":982,"jinko":2487,"key":"13221003005","units":1},"geometry":{"type":"Polygon","coordinates":[[[139.53557,35.77885],[139.53592,35.77836],[139.53648,35.77867],[139.53649,35.77867],[139.53664,35.77821],[139.53667,35.77811],[139.53674,35.77799],[139.53674,35.77799],[139.53675,35.778],[139.53683,35.77787],[139.53684,35.77785],[139.53699,35.7775],[139.53714,35.77723],[139.53727,35.77695],[139.53724,35.77693],[139.53735,35.77671],[139.53746,35.77647],[139.53747,35.77645],[139.53754,35.77634],[139.53751,35.77632],[139.53742,35.77628],[139.53732,35.77623],[139.53723,35.77636],[139.53717,35.77645],[139.53708,35.77658],[139.53706,35.77657],[139.53696,35.77653],[139.53691,35.77646],[139.53696,35.77635],[139.53683,35.7763],[139.53654,35.77617],[139.53619,35.77601],[139.53635,35.77571],[139.5362,35.77558],[139.53622,35.77553],[139.53613,35.77549],[139.53617,35.77541],[139.53574,35.77526],[139.53545,35.77511],[139.53526,35.77528],[139.53495,35.77558],[139.53465,35.77584],[139.53455,35.77595],[139.53439,35.77613],[139.53423,35.77625],[139.53407,35.77634],[139.53399,35.7764],[139.53376,35.77662],[139.53371,35.77666],[139.53369,35.77668],[139.53361,35.77674],[139.53345,35.77693],[139.53333,35.77707],[139.53317,35.7773],[139.53313,35.77735],[139.53297,35.77754],[139.53293,35.77758],[139.53252,35.77811],[139.53229,35.77838],[139.53222,35.77848],[139.53204,35.77882],[139.53193,35.77899],[139.53138,35.77988],[139.53136,35.77991],[139.53101,35.7804],[139.53091,35.78062],[139.53078,35.78089],[139.5305,35.78129],[139.53053,35.7813],[139.53148,35.78171],[139.53182,35.78187],[139.53356,35.78262],[139.53359,35.78263],[139.53359,35.78258],[139.53387,35.782],[139.53394,35.78192],[139.53414,35.78154],[139.53426,35.78129],[139.53428,35.78107],[139.53445,35.78075],[139.53464,35.78036],[139.53441,35.78029],[139.53441,35.78028],[139.53462,35.78001],[139.53475,35.77984],[139.53484,35.77972],[139.5349,35.77963],[139.53503,35.77946],[139.5351,35.77939],[139.53534,35.77925],[139.53548,35.77921],[139.53559,35.77918],[139.53581,35.77915],[139.53551,35.77893],[139.53557,35.77885]]]}},{"type":"Feature","properties":{"name":"下清戸一丁目","setai":828,"jinko":2135,"key":"13221004001","units":1},"geometry":{"type":"Polygon","coordinates":[[[139.54095,35.77901],[139.54118,35.77866],[139.54125,35.77862],[139.54112,35.77855],[139.54066,35.77834],[139.54024,35.77816],[139.54004,35.77804],[139.54004,35.77797],[139.53971,35.7779],[139.53922,35.7777],[139.53883,35.77756],[139.53864,35.77749],[139.53794,35.77725],[139.53783,35.77722],[139.53786,35.77713],[139.53727,35.77695],[139.53714,35.77723],[139.53699,35.7775],[139.53684,35.77785],[139.53683,35.77787],[139.53675,35.778],[139.53674,35.77799],[139.53674,35.77799],[139.53667,35.77811],[139.53664,35.77821],[139.53649,35.77867],[139.53648,35.77867],[139.53592,35.77836],[139.53557,35.77885],[139.53551,35.77893],[139.53581,35.77915],[139.53559,35.77918],[139.53548,35.77921],[139.53534,35.77925],[139.5351,35.77939],[139.53503,35.77946],[139.5349,35.77963],[139.53484,35.77972],[139.53475,35.77984],[139.53462,35.78001],[139.53441,35.78028],[139.53441,35.78029],[139.53464,35.78036],[139.53445,35.78075],[139.53428,35.78107],[139.53426,35.78129],[139.53414,35.78154],[139.53394,35.78192],[139.53387,35.782],[139.53359,35.78258],[139.53359,35.78263],[139.5343,35.78293],[139.53465,35.78308],[139.53497,35.78315],[139.53523,35.78318],[139.53544,35.78324],[139.5355,35.78327],[139.53569,35.78335],[139.53637,35.78371],[139.53726,35.78418],[139.53768,35.7844],[139.53805,35.7846],[139.53826,35.78431],[139.53847,35.784],[139.53862,35.78395],[139.53869,35.78385],[139.53889,35.78358],[139.53899,35.78349],[139.53932,35.78303],[139.53945,35.78284],[139.53966,35.78266],[139.53981,35.7825],[139.54027,35.78189],[139.5404,35.7817],[139.54045,35.7816],[139.54052,35.78131],[139.54071,35.78059],[139.54083,35.78005],[139.54085,35.77988],[139.54095,35.77904],[139.54095,35.77901]]]}},{"type":"Feature","properties":{"name":"下清戸二丁目","setai":351,"jinko":862,"key":"13221004002","units":1},"geometry":{"type":"Polygon","coordinates":[[[139.53418,35.78827],[139.53449,35.78779],[139.53476,35.78737],[139.53531,35.78692],[139.53548,35.78674],[139.53561,35.78659],[139.53587,35.78623],[139.53637,35.78555],[139.53672,35.78507],[139.53655,35.78496],[139.53684,35.7846],[139.53698,35.78448],[139.53726,35.78418],[139.53637,35.78371],[139.53569,35.78335],[139.5355,35.78327],[139.53544,35.78324],[139.53523,35.78318],[139.53497,35.78315],[139.53465,35.78308],[139.53428,35.7838],[139.53405,35.78425],[139.53396,35.78444],[139.53391,35.78455],[139.53382,35.78476],[139.53377,35.78487],[139.53374,35.78496],[139.53371,35.78508],[139.53371,35.78509],[139.5337,35.7851],[139.53368,35.78511],[139.53367,35.78512],[139.53365,35.78512],[139.53364,35.78512],[139.53362,35.78512],[139.53361,35.78512],[139.53347,35.78504],[139.53344,35.78503],[139.53339,35.78501],[139.53337,35.78501],[139.53336,35.78501],[139.53334,35.78501],[139.53332,35.78501],[139.5333,35.78501],[139.53328,35.78502],[139.53302,35.78516],[139.53282,35.78525],[139.5326,35.78535],[139.53201,35.78528],[139.53171,35.78531],[139.53168,35.78531],[139.53168,35.78531],[139.53167,35.78531],[139.53141,35.78612],[139.53124,35.78645],[139.53118,35.78643],[139.53066,35.78625],[139.53059,35.78636],[139.53044,35.78657],[139.53012,35.78703],[139.53013,35.7871],[139.53063,35.78752],[139.53066,35.78754],[139.53092,35.78772],[139.53132,35.78794],[139.53152,35.78802],[139.53177,35.78814],[139.53182,35.78817],[139.5318,35.7882],[139.53189,35.78824],[139.53191,35.78822],[139.53198,35.78826],[139.53208,35.78833],[139.53244,35.78854],[139.53276,35.78873],[139.53281,35.78875],[139.5329,35.78879],[139.53312,35.7889],[139.53315,35.78892],[139.53365,35.78917],[139.53376,35.78897],[139.53404,35.78851],[139.53418,35.78827]]]}},{"type":"Feature","properties":{"name":"下清戸三丁目","setai":127,"jinko":298,"key":"13221004003","units":1},"geometry":{"type":"Polygon","coordinates":[[[139.54169,35.77891],[139.54125,35.77862],[139.54118,35.77866],[139.54095,35.77901],[139.54095,35.77904],[139.54085,35.77988],[139.54083,35.78005],[139.54071,35.78059],[139.54052,35.78131],[139.54045,35.7816],[139.5404,35.7817],[139.54027,35.78189],[139.53981,35.7825],[139.53966,35.78266],[139.53945,35.78284],[139.53932,35.78303],[139.53899,35.78349],[139.53889,35.78358],[139.53869,35.78385],[139.53862,35.78395],[139.53847,35.784],[139.53826,35.78431],[139.53805,35.7846],[139.53866,35.78493],[139.53876,35.78499],[139.53914,35.78521],[139.53975,35.78556],[139.54008,35.78575],[139.54009,35.78576],[139.54078,35.78615],[139.54181,35.78673],[139.54278,35.78729],[139.54378,35.78785],[139.54379,35.7878],[139.54383,35.78612],[139.54384,35.78494],[139.54386,35.78299],[139.54324,35.78063],[139.5432,35.7798],[139.54301,35.77973],[139.54304,35.77963],[139.54265,35.77944],[139.54169,35.77891]]]}},{"type":"Feature","properties":{"name":"下清戸四丁目","setai":202,"jinko":566,"key":"13221004004","units":1},"geometry":{"type":"Polygon","coordinates":[[[139.53768,35.7844],[139.53726,35.78418],[139.53698,35.78448],[139.53684,35.7846],[139.53655,35.78496],[139.53672,35.78507],[139.53637,35.78555],[139.53587,35.78623],[139.53561,35.78659],[139.53548,35.78674],[139.53531,35.78692],[139.53476,35.78737],[139.53449,35.78779],[139.53418,35.78827],[139.53404,35.78851],[139.53376,35.78897],[139.53365,35.78917],[139.53422,35.78954],[139.53449,35.7897],[139.53472,35.78984],[139.53503,35.78999],[139.5352,35.79009],[139.5354,35.79024],[139.53536,35.79035],[139.53532,35.79036],[139.53632,35.791],[139.53649,35.79112],[139.53704,35.79151],[139.53707,35.79152],[139.53715,35.79155],[139.53717,35.79154],[139.53726,35.7913],[139.53741,35.79091],[139.53768,35.79038],[139.53799,35.78981],[139.53824,35.78937],[139.53898,35.78809],[139.539,35.78806],[139.53915,35.78774],[139.53921,35.78752],[139.53924,35.78724],[139.53927,35.78695],[139.5393,35.7868],[139.53938,35.78661],[139.53943,35.78652],[139.53952,35.78641],[139.53966,35.78622],[139.53983,35.78604],[139.54009,35.78576],[139.54008,35.78575],[139.53975,35.78556],[139.53914,35.78521],[139.53876,35.78499],[139.53866,35.78493],[139.53805,35.7846],[139.53768,35.7844]]]}},{"type":"Feature","properties":{"name":"下清戸五丁目","setai":222,"jinko":608,"key":"13221004005","units":1},"geometry":{"type":"Polygon","coordinates":[[[139.53741,35.79091],[139.53963,35.79025],[139.53966,35.79035],[139.54005,35.79023],[139.54023,35.79018],[139.54071,35.78999],[139.54094,35.78979],[139.54125,35.78951],[139.54151,35.78949],[139.54189,35.78928],[139.54205,35.78929],[139.54218,35.7892],[139.54234,35.78912],[139.54321,35.7887],[139.54361,35.78849],[139.54366,35.78846],[139.54369,35.78843],[139.54373,35.78842],[139.54375,35.7884],[139.54377,35.78839],[139.54378,35.78837],[139.54379,35.78836],[139.54379,35.78831],[139.54379,35.78813],[139.54378,35.78785],[139.54278,35.78729],[139.54181,35.78673],[139.54078,35.78615],[139.54009,35.78576],[139.53983,35.78604],[139.53966,35.78622],[139.53952,35.78641],[139.53943,35.78652],[139.53938,35.78661],[139.5393,35.7868],[139.53927,35.78695],[139.53924,35.78724],[139.53921,35.78752],[139.53915,35.78774],[139.539,35.78806],[139.53898,35.78809],[139.53824,35.78937],[139.53799,35.78981],[139.53768,35.79038],[139.53741,35.79091]]]}},{"type":"Feature","properties":{"name":"下宿一丁目","setai":929,"jinko":1593,"key":"13221005001","units":1},"geometry":{"type":"Polygon","coordinates":[[[139.53236,35.7974],[139.5325,35.79726],[139.53286,35.79729],[139.53336,35.79698],[139.53425,35.79673],[139.53446,35.7968],[139.53445,35.79679],[139.53446,35.79666],[139.53456,35.79605],[139.53459,35.79589],[139.53485,35.79553],[139.53512,35.79518],[139.53521,35.79505],[139.53571,35.79448],[139.53577,35.79444],[139.53574,35.79437],[139.53555,35.79413],[139.53542,35.79382],[139.53532,35.79359],[139.53529,35.79356],[139.53523,35.79348],[139.53497,35.79326],[139.53491,35.79321],[139.53445,35.79283],[139.53426,35.79274],[139.53411,35.79265],[139.53387,35.79243],[139.53375,35.79234],[139.53348,35.79218],[139.53268,35.79177],[139.5323,35.79153],[139.53206,35.79137],[139.53204,35.79137],[139.53178,35.79201],[139.53176,35.79213],[139.5318,35.79229],[139.53181,35.79254],[139.53177,35.79267],[139.5317,35.79276],[139.53152,35.79312],[139.5313,35.79349],[139.53119,35.79373],[139.53118,35.79373],[139.53116,35.79397],[139.53109,35.79394],[139.53082,35.79386],[139.5308,35.79382],[139.53077,35.79384],[139.53077,35.79384],[139.53065,35.79386],[139.53057,35.79389],[139.53057,35.7939],[139.53,35.79418],[139.52939,35.79395],[139.52932,35.79389],[139.52932,35.79388],[139.5291,35.79406],[139.52931,35.79423],[139.52972,35.79461],[139.53003,35.79497],[139.53017,35.79517],[139.53025,35.79537],[139.5303,35.79558],[139.53038,35.79575],[139.53053,35.79582],[139.53071,35.79587],[139.53094,35.79596],[139.53102,35.79601],[139.5312,35.79623],[139.53142,35.79655],[139.53162,35.79679],[139.53168,35.79682],[139.53218,35.79724],[139.53219,35.79724],[139.53236,35.7974]]]}},{"type":"Feature","properties":{"name":"下宿二丁目","setai":493,"jinko":1364,"key":"13221005002","units":1},"geometry":{"type":"Polygon","coordinates":[[[139.53819,35.79755],[139.53776,35.79719],[139.53767,35.79713],[139.53759,35.79703],[139.53698,35.79623],[139.53681,35.79601],[139.53638,35.79528],[139.53619,35.79496],[139.5361,35.79482],[139.53577,35.79444],[139.53571,35.79448],[139.53521,35.79505],[139.53512,35.79518],[139.53485,35.79553],[139.53459,35.79589],[139.53456,35.79605],[139.53446,35.79666],[139.53445,35.79679],[139.53446,35.7968],[139.53425,35.79673],[139.53336,35.79698],[139.53286,35.79729],[139.5325,35.79726],[139.53236,35.7974],[139.53269,35.79774],[139.53283,35.79789],[139.53292,35.79804],[139.5332,35.79842],[139.53345,35.79876],[139.53361,35.79903],[139.53369,35.7992],[139.53385,35.79947],[139.53404,35.79983],[139.53432,35.80024],[139.53452,35.80049],[139.53472,35.8008],[139.53489,35.80101],[139.53535,35.80158],[139.53548,35.80168],[139.53549,35.8017],[139.53629,35.80254],[139.53665,35.80222],[139.53785,35.8012],[139.53848,35.80062],[139.53871,35.80041],[139.53881,35.80033],[139.53891,35.80024],[139.53916,35.79996],[139.5395,35.79961],[139.5399,35.79912],[139.53914,35.79843],[139.53819,35.79755]]]}},{"type":"Feature","properties":{"name":"下宿三丁目","setai":209,"jinko":554,"key":"13221005003","units":1},"geometry":{"type":"Polygon","coordinates":[[[139.5437,35.80654],[139.54395,35.80624],[139.5442,35.80632],[139.54432,35.80603],[139.54448,35.80599],[139.54442,35.80583],[139.54457,35.8057],[139.5448,35.8055],[139.54492,35.80533],[139.54492,35.80532],[139.54521,35.80498],[139.54549,35.80468],[139.54554,35.80463],[139.5455,35.80458],[139.5454,35.8045],[139.54537,35.80447],[139.54454,35.80372],[139.54448,35.8036],[139.54439,35.80329],[139.54428,35.80292],[139.5442,35.80285],[139.54417,35.80283],[139.54384,35.80255],[139.54304,35.80201],[139.54259,35.80174],[139.54244,35.80161],[139.54186,35.80101],[139.54139,35.80052],[139.54131,35.80041],[139.54117,35.80016],[139.54108,35.80004],[139.54092,35.79989],[139.54065,35.79965],[139.54055,35.79958],[139.54042,35.79951],[139.54035,35.79941],[139.53997,35.79907],[139.53996,35.79906],[139.5399,35.79912],[139.5395,35.79961],[139.53916,35.79996],[139.53891,35.80024],[139.53881,35.80033],[139.53871,35.80041],[139.53848,35.80062],[139.53785,35.8012],[139.53665,35.80222],[139.53629,35.80254],[139.53628,35.80255],[139.53715,35.80356],[139.5372,35.80363],[139.53732,35.80389],[139.53744,35.80408],[139.53759,35.80426],[139.53768,35.80434],[139.53793,35.80465],[139.53808,35.80477],[139.53816,35.80481],[139.53836,35.80489],[139.53865,35.805],[139.53903,35.80514],[139.53942,35.80531],[139.53973,35.80546],[139.54006,35.80566],[139.54037,35.80594],[139.54056,35.80618],[139.54109,35.80669],[139.54149,35.80701],[139.54167,35.80714],[139.54177,35.80719],[139.54201,35.80725],[139.54222,35.80727],[139.54251,35.80719],[139.54288,35.80705],[139.54355,35.80673],[139.54361,35.80668],[139.5437,35.80664],[139.5437,35.80654]]]}},{"type":"Feature","properties":{"name":"旭が丘一丁目","setai":435,"jinko":1090,"key":"13221006001","units":1},"geometry":{"type":"Polygon","coordinates":[[[139.53422,35.78954],[139.53365,35.78917],[139.53355,35.78928],[139.53343,35.78949],[139.53316,35.78983],[139.53305,35.78997],[139.53279,35.79029],[139.53263,35.79048],[139.5325,35.79068],[139.53247,35.79074],[139.53206,35.79137],[139.5323,35.79153],[139.53268,35.79177],[139.53348,35.79218],[139.53375,35.79234],[139.53387,35.79243],[139.53411,35.79265],[139.53426,35.79274],[139.53445,35.79283],[139.53491,35.79321],[139.53497,35.79326],[139.53523,35.79348],[139.53529,35.79356],[139.53532,35.79359],[139.53542,35.79382],[139.53555,35.79413],[139.53574,35.79437],[139.53577,35.79444],[139.53611,35.79419],[139.53645,35.79392],[139.53669,35.79359],[139.53678,35.79341],[139.53684,35.79329],[139.53693,35.79281],[139.53695,35.79255],[139.537,35.79227],[139.53707,35.79189],[139.53708,35.79183],[139.53714,35.79161],[139.53715,35.79155],[139.53707,35.79152],[139.53704,35.79151],[139.53649,35.79112],[139.53632,35.791],[139.53532,35.79036],[139.53536,35.79035],[139.5354,35.79024],[139.5352,35.79009],[139.53503,35.78999],[139.53472,35.78984],[139.53449,35.7897],[139.53422,35.78954]]]}},{"type":"Feature","properties":{"name":"旭が丘二丁目","setai":1374,"jinko":2262,"key":"13221006002","units":1},"geometry":{"type":"Polygon","coordinates":[[[139.54178,35.79519],[139.54105,35.79477],[139.54065,35.79454],[139.54034,35.79434],[139.54011,35.79414],[139.53989,35.7939],[139.53968,35.79363],[139.53943,35.79334],[139.53915,35.79303],[139.53885,35.7927],[139.53881,35.79266],[139.53872,35.79255],[139.53868,35.79248],[139.53867,35.79242],[139.53857,35.79224],[139.5381,35.79168],[139.53807,35.79164],[139.53787,35.79193],[139.53785,35.79197],[139.53715,35.79161],[139.53714,35.79161],[139.53708,35.79183],[139.53707,35.79189],[139.537,35.79227],[139.53695,35.79255],[139.53693,35.79281],[139.53684,35.79329],[139.53678,35.79341],[139.53669,35.79359],[139.53645,35.79392],[139.53611,35.79419],[139.53577,35.79444],[139.5361,35.79482],[139.53632,35.79476],[139.53662,35.79485],[139.53665,35.79491],[139.53684,35.79495],[139.53688,35.79489],[139.53766,35.79504],[139.53812,35.7952],[139.53823,35.79526],[139.53828,35.79528],[139.53865,35.79549],[139.53865,35.79557],[139.53863,35.79569],[139.5385,35.79591],[139.53832,35.79615],[139.53853,35.79627],[139.53877,35.79642],[139.53885,35.79649],[139.53888,35.79651],[139.53905,35.79663],[139.53974,35.79702],[139.5399,35.79709],[139.54032,35.79719],[139.54053,35.79723],[139.54054,35.79728],[139.54056,35.79729],[139.5406,35.79731],[139.54064,35.79732],[139.54069,35.79734],[139.54073,35.79735],[139.54078,35.79735],[139.54082,35.79736],[139.54087,35.79737],[139.54091,35.79737],[139.54096,35.79737],[139.541,35.79737],[139.54105,35.79737],[139.54109,35.79736],[139.54114,35.79736],[139.54118,35.79735],[139.54123,35.79734],[139.54124,35.79733],[139.54126,35.79729],[139.54136,35.79715],[139.54143,35.79709],[139.5416,35.79686],[139.54178,35.79659],[139.54193,35.79636],[139.5421,35.79611],[139.54227,35.79585],[139.54245,35.79559],[139.54178,35.79519]]]}},{"type":"Feature","properties":{"name":"旭が丘三丁目","setai":213,"jinko":674,"key":"13221006003","units":1},"geometry":{"type":"Polygon","coordinates":[[[139.5399,35.79912],[139.53996,35.79906],[139.53997,35.79907],[139.54067,35.79818],[139.54057,35.79769],[139.54057,35.79744],[139.54054,35.79728],[139.54053,35.79723],[139.54032,35.79719],[139.5399,35.79709],[139.53974,35.79702],[139.53905,35.79663],[139.53888,35.79651],[139.53885,35.79649],[139.53877,35.79642],[139.53853,35.79627],[139.53832,35.79615],[139.5385,35.79591],[139.53863,35.79569],[139.53865,35.79557],[139.53865,35.79549],[139.53828,35.79528],[139.53823,35.79526],[139.53812,35.7952],[139.53766,35.79504],[139.53688,35.79489],[139.53684,35.79495],[139.53665,35.79491],[139.53662,35.79485],[139.53632,35.79476],[139.5361,35.79482],[139.53619,35.79496],[139.53638,35.79528],[139.53681,35.79601],[139.53698,35.79623],[139.53759,35.79703],[139.53767,35.79713],[139.53776,35.79719],[139.53819,35.79755],[139.53914,35.79843],[139.5399,35.79912]]]}},{"type":"Feature","properties":{"name":"旭が丘四丁目","setai":41,"jinko":112,"key":"13221006004","units":1},"geometry":{"type":"Polygon","coordinates":[[[139.54289,35.79923],[139.54295,35.79914],[139.54304,35.79891],[139.54312,35.79861],[139.54312,35.79853],[139.54309,35.79847],[139.54067,35.79818],[139.53997,35.79907],[139.54035,35.79941],[139.54042,35.79951],[139.54055,35.79958],[139.54065,35.79965],[139.54092,35.79989],[139.54108,35.80004],[139.54117,35.80016],[139.54131,35.80041],[139.54167,35.80023],[139.54192,35.80014],[139.54206,35.80006],[139.54226,35.79991],[139.54279,35.79941],[139.54289,35.79923]]]}},{"type":"Feature","properties":{"name":"旭が丘五丁目","setai":567,"jinko":993,"key":"13221006005","units":1},"geometry":{"type":"Polygon","coordinates":[[[139.54491,35.79917],[139.54525,35.79904],[139.54523,35.7988],[139.54523,35.79869],[139.54496,35.7986],[139.54495,35.7986],[139.54495,35.79859],[139.54496,35.79852],[139.54501,35.79809],[139.54502,35.79784],[139.54503,35.7977],[139.54516,35.79764],[139.54524,35.7976],[139.54527,35.79759],[139.54526,35.79757],[139.54483,35.79707],[139.54461,35.79687],[139.54435,35.7967],[139.54404,35.79652],[139.54351,35.7962],[139.54295,35.79586],[139.54251,35.79559],[139.54245,35.79559],[139.54227,35.79585],[139.5421,35.79611],[139.54193,35.79636],[139.54178,35.79659],[139.5416,35.79686],[139.54143,35.79709],[139.54136,35.79715],[139.54126,35.79729],[139.54124,35.79733],[139.54123,35.79734],[139.54118,35.79735],[139.54114,35.79736],[139.54109,35.79736],[139.54105,35.79737],[139.541,35.79737],[139.54096,35.79737],[139.54091,35.79737],[139.54087,35.79737],[139.54082,35.79736],[139.54078,35.79735],[139.54073,35.79735],[139.54069,35.79734],[139.54064,35.79732],[139.5406,35.79731],[139.54056,35.79729],[139.54054,35.79728],[139.54057,35.79744],[139.54057,35.79769],[139.54067,35.79818],[139.54309,35.79847],[139.54312,35.79853],[139.54312,35.79861],[139.54304,35.79891],[139.54295,35.79914],[139.54289,35.79923],[139.54314,35.79918],[139.54324,35.79915],[139.54333,35.79915],[139.54364,35.79924],[139.54377,35.79923],[139.54439,35.79919],[139.54491,35.79917]]]}},{"type":"Feature","properties":{"name":"旭が丘六丁目","setai":239,"jinko":683,"key":"13221006006","units":1},"geometry":{"type":"Polygon","coordinates":[[[139.54585,35.80444],[139.54588,35.80442],[139.54592,35.8044],[139.54595,35.80438],[139.54587,35.80403],[139.54612,35.80394],[139.54616,35.80381],[139.54665,35.80314],[139.54667,35.80311],[139.54689,35.80287],[139.54726,35.80249],[139.54737,35.8024],[139.54747,35.80229],[139.54765,35.80242],[139.54772,35.80236],[139.54755,35.8019],[139.5475,35.80175],[139.54731,35.80127],[139.54715,35.80073],[139.5468,35.79965],[139.54676,35.79952],[139.54667,35.79935],[139.54657,35.79921],[139.54607,35.79862],[139.54605,35.79859],[139.54568,35.79813],[139.54527,35.79759],[139.54524,35.7976],[139.54516,35.79764],[139.54503,35.7977],[139.54502,35.79784],[139.54501,35.79809],[139.54496,35.79852],[139.54495,35.79859],[139.54495,35.7986],[139.54496,35.7986],[139.54523,35.79869],[139.54523,35.7988],[139.54525,35.79904],[139.54491,35.79917],[139.54439,35.79919],[139.54377,35.79923],[139.54364,35.79924],[139.54333,35.79915],[139.54324,35.79915],[139.54314,35.79918],[139.54289,35.79923],[139.54279,35.79941],[139.54226,35.79991],[139.54206,35.80006],[139.54192,35.80014],[139.54167,35.80023],[139.54131,35.80041],[139.54139,35.80052],[139.54186,35.80101],[139.54244,35.80161],[139.54259,35.80174],[139.54304,35.80201],[139.54384,35.80255],[139.54417,35.80283],[139.5442,35.80285],[139.54428,35.80292],[139.54439,35.80329],[139.54448,35.8036],[139.54454,35.80372],[139.54537,35.80447],[139.5454,35.8045],[139.54552,35.80442],[139.54569,35.80452],[139.54578,35.80447],[139.54585,35.80444]]]}},{"type":"Feature","properties":{"name":"中里一丁目","setai":844,"jinko":1871,"key":"13221007001","units":1},"geometry":{"type":"Polygon","coordinates":[[[139.51118,35.77598],[139.51031,35.7756],[139.51039,35.77609],[139.51037,35.77625],[139.51022,35.77663],[139.50997,35.77743],[139.50991,35.77759],[139.50973,35.77812],[139.5097,35.77825],[139.50964,35.77875],[139.50962,35.77899],[139.50948,35.77955],[139.50997,35.7798],[139.51067,35.78017],[139.51156,35.78078],[139.51249,35.78131],[139.51306,35.78166],[139.51306,35.78167],[139.51317,35.78175],[139.51362,35.7821],[139.51391,35.78236],[139.514,35.78241],[139.51442,35.7826],[139.51527,35.78299],[139.51541,35.78305],[139.51547,35.78282],[139.51555,35.78253],[139.5157,35.78215],[139.51586,35.7816],[139.51588,35.78152],[139.51592,35.78136],[139.51598,35.78115],[139.51601,35.78082],[139.51609,35.77989],[139.5161,35.7797],[139.51616,35.77925],[139.51624,35.779],[139.51638,35.77874],[139.51609,35.77855],[139.51581,35.77842],[139.51565,35.77835],[139.51537,35.77824],[139.51506,35.77813],[139.51484,35.77801],[139.51439,35.77771],[139.51436,35.77769],[139.51395,35.77745],[139.5138,35.77736],[139.51302,35.7769],[139.5128,35.77679],[139.51278,35.77678],[139.51266,35.77672],[139.51228,35.77652],[139.51181,35.77628],[139.51145,35.77611],[139.51118,35.77598]]]}},{"type":"Feature","properties":{"name":"中里二丁目","setai":693,"jinko":1608,"key":"13221007002","units":1},"geometry":{"type":"Polygon","coordinates":[[[139.51346,35.78527],[139.51379,35.78513],[139.51395,35.78504],[139.51402,35.78499],[139.51422,35.78479],[139.51445,35.78454],[139.51475,35.78422],[139.51506,35.78381],[139.51521,35.7836],[139.51531,35.78338],[139.5154,35.78307],[139.51541,35.78305],[139.51527,35.78299],[139.51442,35.7826],[139.514,35.78241],[139.51391,35.78236],[139.51362,35.7821],[139.51317,35.78175],[139.51306,35.78167],[139.51306,35.78166],[139.51249,35.78131],[139.51156,35.78078],[139.51067,35.78017],[139.50997,35.7798],[139.50948,35.77955],[139.50948,35.77956],[139.50943,35.77958],[139.50908,35.77945],[139.50887,35.77944],[139.5083,35.77943],[139.50795,35.77941],[139.5077,35.77939],[139.50728,35.77932],[139.5071,35.77926],[139.5068,35.77911],[139.50668,35.77911],[139.50665,35.77913],[139.50677,35.77922],[139.50689,35.77933],[139.50697,35.77945],[139.50702,35.77971],[139.50696,35.78003],[139.50698,35.78012],[139.50702,35.7802],[139.50725,35.78051],[139.50736,35.78073],[139.50747,35.78099],[139.50748,35.7811],[139.50756,35.78158],[139.50768,35.78215],[139.507,35.78286],[139.50688,35.78299],[139.50712,35.78325],[139.50728,35.78331],[139.50756,35.78345],[139.50765,35.78352],[139.50775,35.78365],[139.50783,35.78378],[139.50784,35.78394],[139.50785,35.78398],[139.50781,35.78415],[139.50794,35.78423],[139.50816,35.78433],[139.50882,35.78457],[139.50896,35.78462],[139.50898,35.78463],[139.50902,35.78479],[139.50942,35.78478],[139.50961,35.78484],[139.50993,35.78489],[139.51004,35.78492],[139.51018,35.78498],[139.5104,35.78504],[139.51061,35.7851],[139.51082,35.78514],[139.51111,35.78516],[139.51155,35.78521],[139.51166,35.78524],[139.51183,35.78531],[139.51193,35.78527],[139.51201,35.78526],[139.51227,35.78531],[139.51258,35.78542],[139.51273,35.78553],[139.51293,35.78545],[139.51346,35.78527]]]}},{"type":"Feature","properties":{"name":"中里三丁目","setai":1317,"jinko":3310,"key":"13221007003","units":1},"geometry":{"type":"Polygon","coordinates":[[[139.52468,35.78425],[139.52486,35.78398],[139.52489,35.78394],[139.52489,35.78394],[139.52453,35.78365],[139.52445,35.78359],[139.52424,35.78347],[139.52396,35.78335],[139.52379,35.78326],[139.52371,35.78321],[139.52361,35.78316],[139.5234,35.78303],[139.5234,35.78304],[139.52313,35.78293],[139.52311,35.78292],[139.52305,35.78289],[139.52296,35.78281],[139.52296,35.7828],[139.52294,35.78278],[139.52292,35.78276],[139.52287,35.7827],[139.5227,35.78247],[139.52257,35.78249],[139.52254,35.78249],[139.52218,35.7823],[139.52192,35.78217],[139.52192,35.78216],[139.52151,35.78196],[139.52114,35.78181],[139.52077,35.78165],[139.52059,35.78158],[139.52059,35.78157],[139.52029,35.78139],[139.51999,35.78121],[139.51989,35.78111],[139.51992,35.78102],[139.51994,35.78098],[139.5199,35.78093],[139.51922,35.78055],[139.51887,35.7804],[139.51865,35.78033],[139.51837,35.78026],[139.51812,35.78016],[139.51807,35.78012],[139.51807,35.7801],[139.51818,35.77989],[139.51831,35.77965],[139.5176,35.7793],[139.51758,35.77929],[139.51723,35.77914],[139.51698,35.77904],[139.51656,35.77885],[139.51639,35.77875],[139.51638,35.77874],[139.51624,35.779],[139.51616,35.77925],[139.5161,35.7797],[139.51609,35.77989],[139.51601,35.78082],[139.51598,35.78115],[139.51592,35.78136],[139.51588,35.78152],[139.51586,35.7816],[139.5157,35.78215],[139.51555,35.78253],[139.51547,35.78282],[139.51541,35.78305],[139.5154,35.78307],[139.51547,35.78321],[139.51547,35.78322],[139.51563,35.78342],[139.51577,35.78353],[139.51604,35.78364],[139.51611,35.78365],[139.51612,35.78369],[139.51622,35.78378],[139.51627,35.78388],[139.51636,35.78393],[139.51634,35.78397],[139.51638,35.78408],[139.5164,35.78407],[139.51641,35.78427],[139.51638,35.78465],[139.5164,35.78466],[139.51662,35.78471],[139.51691,35.78489],[139.51722,35.78499],[139.51737,35.78502],[139.51761,35.78507],[139.51778,35.78516],[139.518,35.7852],[139.51836,35.78521],[139.51864,35.78523],[139.51888,35.78527],[139.51901,35.7853],[139.51917,35.78535],[139.51963,35.7856],[139.5197,35.78568],[139.52,35.78579],[139.52014,35.78582],[139.52011,35.78593],[139.52008,35.78605],[139.52014,35.78609],[139.52057,35.7863],[139.52096,35.78649],[139.521,35.78652],[139.52108,35.7867],[139.52114,35.78679],[139.52134,35.78691],[139.52179,35.78703],[139.52279,35.78722],[139.52279,35.78721],[139.52284,35.78705],[139.52284,35.78688],[139.52295,35.78654],[139.52309,35.78627],[139.52319,35.78609],[139.5234,35.7858],[139.52342,35.78579],[139.52352,35.78564],[139.52358,35.78554],[139.52383,35.78529],[139.52421,35.7849],[139.52431,35.78474],[139.52448,35.78453],[139.52468,35.78426],[139.52468,35.78425]]]}},{"type":"Feature","properties":{"name":"中里四丁目","setai":752,"jinko":1720,"key":"13221007004","units":1},"geometry":{"type":"Polygon","coordinates":[[[139.52296,35.78809],[139.52289,35.78798],[139.5231,35.78735],[139.52279,35.78721],[139.52279,35.78722],[139.52179,35.78703],[139.52134,35.78691],[139.52114,35.78679],[139.52108,35.7867],[139.521,35.78652],[139.52096,35.78649],[139.52057,35.7863],[139.52014,35.78609],[139.52008,35.78605],[139.52011,35.78593],[139.52014,35.78582],[139.52,35.78579],[139.5197,35.78568],[139.51963,35.7856],[139.51917,35.78535],[139.51901,35.7853],[139.51888,35.78527],[139.51864,35.78523],[139.51836,35.78521],[139.518,35.7852],[139.51778,35.78516],[139.51761,35.78507],[139.51737,35.78502],[139.51722,35.78499],[139.51691,35.78489],[139.51662,35.78471],[139.5164,35.78466],[139.51638,35.78465],[139.51641,35.78427],[139.5164,35.78407],[139.51638,35.78408],[139.51634,35.78397],[139.51636,35.78393],[139.51627,35.78388],[139.51622,35.78378],[139.51612,35.78369],[139.51611,35.78365],[139.51604,35.78364],[139.51577,35.78353],[139.51563,35.78342],[139.51547,35.78322],[139.51547,35.78321],[139.5154,35.78307],[139.51531,35.78338],[139.51521,35.7836],[139.51506,35.78381],[139.51475,35.78422],[139.51445,35.78454],[139.51422,35.78479],[139.51402,35.78499],[139.51395,35.78504],[139.51379,35.78513],[139.51346,35.78527],[139.51293,35.78545],[139.51273,35.78553],[139.51287,35.7857],[139.51299,35.78592],[139.51312,35.78621],[139.5132,35.78643],[139.51321,35.78653],[139.51321,35.78686],[139.51323,35.78704],[139.51324,35.78743],[139.51325,35.78748],[139.51353,35.78785],[139.51371,35.78816],[139.51379,35.78832],[139.51386,35.78832],[139.51401,35.78832],[139.51417,35.78834],[139.51427,35.78837],[139.51482,35.7885],[139.51507,35.78856],[139.51552,35.78862],[139.51559,35.78863],[139.51592,35.78869],[139.51616,35.78867],[139.51673,35.78866],[139.51704,35.78851],[139.51708,35.78849],[139.51728,35.78838],[139.51731,35.78838],[139.51751,35.78832],[139.51759,35.7883],[139.51818,35.78819],[139.51856,35.78813],[139.51896,35.78809],[139.5193,35.78803],[139.51948,35.78814],[139.51977,35.78825],[139.51989,35.78826],[139.52041,35.78837],[139.52099,35.78851],[139.52118,35.78859],[139.5222,35.78916],[139.5225,35.78934],[139.52254,35.7893],[139.52337,35.78854],[139.52329,35.78839],[139.52327,35.78839],[139.52314,35.78821],[139.52296,35.78809]]]}},{"type":"Feature","properties":{"name":"中里五丁目","setai":955,"jinko":2490,"key":"13221007005","units":1},"geometry":{"type":"Polygon","coordinates":[[[139.53198,35.78826],[139.53191,35.78822],[139.53189,35.78824],[139.5318,35.7882],[139.53182,35.78817],[139.53177,35.78814],[139.53152,35.78802],[139.53132,35.78794],[139.53092,35.78772],[139.53066,35.78754],[139.53063,35.78752],[139.53013,35.7871],[139.53004,35.78718],[139.52994,35.78731],[139.52994,35.78732],[139.52989,35.78737],[139.5298,35.78746],[139.52947,35.78726],[139.52939,35.78734],[139.52914,35.78765],[139.52856,35.78728],[139.52847,35.78734],[139.52824,35.78718],[139.52817,35.78714],[139.52799,35.78706],[139.52789,35.78703],[139.52805,35.78677],[139.52807,35.78675],[139.52785,35.78664],[139.52776,35.78667],[139.52744,35.7865],[139.52735,35.78645],[139.52735,35.78645],[139.52712,35.78635],[139.52675,35.78616],[139.52681,35.78607],[139.52689,35.78609],[139.52696,35.78611],[139.52704,35.78611],[139.5271,35.7861],[139.52715,35.78608],[139.52771,35.78562],[139.52768,35.78559],[139.52725,35.78532],[139.52737,35.78517],[139.52682,35.78481],[139.52684,35.78479],[139.52656,35.78461],[139.5265,35.78459],[139.52589,35.78434],[139.52585,35.78433],[139.52489,35.78394],[139.52489,35.78394],[139.52486,35.78398],[139.52468,35.78425],[139.52468,35.78426],[139.52448,35.78453],[139.52431,35.78474],[139.52421,35.7849],[139.52383,35.78529],[139.52358,35.78554],[139.52352,35.78564],[139.52342,35.78579],[139.5234,35.7858],[139.52319,35.78609],[139.52309,35.78627],[139.52295,35.78654],[139.52284,35.78688],[139.52284,35.78705],[139.52279,35.78721],[139.5231,35.78735],[139.52376,35.78759],[139.52378,35.7876],[139.52391,35.78765],[139.5241,35.78771],[139.52463,35.7879],[139.52475,35.78795],[139.52484,35.78802],[139.52513,35.78836],[139.52518,35.7884],[139.52556,35.78856],[139.52593,35.78869],[139.52596,35.78869],[139.5261,35.78872],[139.5265,35.7889],[139.52691,35.78907],[139.52765,35.78936],[139.52821,35.78958],[139.52829,35.78961],[139.52886,35.78991],[139.5293,35.79015],[139.52934,35.79018],[139.53037,35.79066],[139.53053,35.79073],[139.53092,35.79091],[139.53131,35.79105],[139.53132,35.79106],[139.53184,35.79127],[139.53204,35.79137],[139.53206,35.79137],[139.53247,35.79074],[139.5325,35.79068],[139.53263,35.79048],[139.53279,35.79029],[139.53305,35.78997],[139.53316,35.78983],[139.53343,35.78949],[139.53355,35.78928],[139.53365,35.78917],[139.53315,35.78892],[139.53312,35.7889],[139.5329,35.78879],[139.53281,35.78875],[139.53276,35.78873],[139.53244,35.78854],[139.53208,35.78833],[139.53198,35.78826]]]}},{"type":"Feature","properties":{"name":"中里六丁目","setai":833,"jinko":1539,"key":"13221007006","units":1},"geometry":{"type":"Polygon","coordinates":[[[139.53057,35.79389],[139.53065,35.79386],[139.53077,35.79384],[139.53077,35.79384],[139.5308,35.79382],[139.53082,35.79386],[139.53109,35.79394],[139.53116,35.79397],[139.53118,35.79373],[139.53119,35.79373],[139.5313,35.79349],[139.53152,35.79312],[139.5317,35.79276],[139.53177,35.79267],[139.53181,35.79254],[139.5318,35.79229],[139.53176,35.79213],[139.53178,35.79201],[139.53204,35.79137],[139.53184,35.79127],[139.53132,35.79106],[139.53131,35.79105],[139.53092,35.79091],[139.53053,35.79073],[139.53037,35.79066],[139.52934,35.79018],[139.5293,35.79015],[139.52886,35.78991],[139.52829,35.78961],[139.52821,35.78958],[139.52765,35.78936],[139.52691,35.78907],[139.5265,35.7889],[139.5261,35.78872],[139.52596,35.78869],[139.52593,35.78869],[139.52556,35.78856],[139.52518,35.7884],[139.52513,35.78836],[139.52484,35.78802],[139.52475,35.78795],[139.52463,35.7879],[139.5241,35.78771],[139.52391,35.78765],[139.52378,35.7876],[139.52376,35.78759],[139.5231,35.78735],[139.52289,35.78798],[139.52296,35.78809],[139.52314,35.78821],[139.52327,35.78839],[139.52329,35.78839],[139.52337,35.78854],[139.52254,35.7893],[139.52268,35.78942],[139.52267,35.78947],[139.52265,35.78962],[139.5231,35.78993],[139.52339,35.79012],[139.52348,35.79027],[139.5236,35.79046],[139.52358,35.7905],[139.5232,35.79098],[139.52307,35.79111],[139.52291,35.79124],[139.52285,35.79141],[139.52282,35.79153],[139.52283,35.79161],[139.52284,35.79162],[139.52287,35.7917],[139.52298,35.79176],[139.52306,35.79178],[139.52351,35.79176],[139.52393,35.79162],[139.52415,35.79151],[139.52481,35.79155],[139.52506,35.79159],[139.52515,35.7916],[139.52537,35.79164],[139.5256,35.79168],[139.52563,35.79168],[139.52566,35.79176],[139.52567,35.79177],[139.52567,35.79178],[139.52592,35.79194],[139.526,35.79199],[139.52635,35.79232],[139.5264,35.79237],[139.5267,35.79262],[139.52693,35.79282],[139.52697,35.79286],[139.5271,35.79297],[139.52737,35.79303],[139.5275,35.79305],[139.52785,35.79309],[139.52815,35.79334],[139.52844,35.79358],[139.52883,35.79386],[139.5291,35.79406],[139.52932,35.79388],[139.52932,35.79389],[139.52939,35.79395],[139.53,35.79418],[139.53057,35.7939],[139.53057,35.79389]]]}},{"type":"Feature","properties":{"name":"野塩一丁目","setai":1428,"jinko":2780,"key":"13221008001","units":1},"geometry":{"type":"Polygon","coordinates":[[[139.50571,35.78031],[139.50564,35.78],[139.50566,35.77988],[139.50577,35.77965],[139.50605,35.7796],[139.50624,35.77954],[139.50634,35.77945],[139.50664,35.77913],[139.50651,35.77906],[139.50631,35.77896],[139.50619,35.77888],[139.50607,35.77873],[139.50603,35.77858],[139.50603,35.77841],[139.50579,35.77816],[139.50568,35.77802],[139.50563,35.7779],[139.50557,35.77765],[139.50558,35.77754],[139.50556,35.77743],[139.50556,35.77742],[139.50559,35.77692],[139.50558,35.77678],[139.50556,35.77663],[139.5055,35.77652],[139.50542,35.77647],[139.505,35.77633],[139.50487,35.77626],[139.5047,35.77631],[139.50218,35.77701],[139.50072,35.77741],[139.50038,35.7775],[139.49989,35.77763],[139.49972,35.77768],[139.49873,35.77795],[139.49873,35.77802],[139.49854,35.77813],[139.49804,35.7783],[139.49766,35.7784],[139.49758,35.77842],[139.49734,35.77851],[139.49704,35.77866],[139.49717,35.77892],[139.4969,35.77891],[139.49688,35.77892],[139.49685,35.77905],[139.49723,35.77911],[139.49729,35.77925],[139.49737,35.77933],[139.49748,35.77963],[139.49751,35.77973],[139.49755,35.77983],[139.49762,35.78],[139.49775,35.78031],[139.49803,35.78035],[139.49806,35.7804],[139.49824,35.78052],[139.49833,35.78054],[139.49845,35.78053],[139.49847,35.78062],[139.49851,35.78064],[139.49889,35.78072],[139.49905,35.78063],[139.49927,35.78058],[139.49963,35.78054],[139.49985,35.78046],[139.50005,35.78043],[139.50027,35.7804],[139.50041,35.7804],[139.50053,35.78041],[139.50063,35.78044],[139.50111,35.78066],[139.50124,35.78072],[139.50143,35.78073],[139.50147,35.78073],[139.50174,35.78037],[139.50189,35.7803],[139.5021,35.78024],[139.50232,35.78019],[139.50263,35.78019],[139.50293,35.78021],[139.50309,35.78028],[139.50323,35.78027],[139.50341,35.78037],[139.50359,35.78042],[139.50377,35.78058],[139.50384,35.78058],[139.50396,35.78069],[139.50411,35.78079],[139.50421,35.78081],[139.5043,35.78084],[139.50468,35.78088],[139.50493,35.7809],[139.50515,35.78088],[139.50544,35.78073],[139.50555,35.78065],[139.50562,35.78057],[139.50571,35.78031]]]}},{"type":"Feature","properties":{"name":"野塩二丁目","setai":640,"jinko":1222,"key":"13221008002","units":1},"geometry":{"type":"Polygon","coordinates":[[[139.50518,35.78287],[139.50533,35.78287],[139.50585,35.783],[139.50602,35.78303],[139.50622,35.783],[139.50647,35.78291],[139.50663,35.78289],[139.50683,35.78295],[139.50688,35.78299],[139.507,35.78286],[139.50768,35.78215],[139.50756,35.78158],[139.50748,35.7811],[139.50747,35.78099],[139.50736,35.78073],[139.50725,35.78051],[139.50702,35.7802],[139.50698,35.78012],[139.50696,35.78003],[139.50702,35.77971],[139.50697,35.77945],[139.50689,35.77933],[139.50677,35.77922],[139.50665,35.77913],[139.50664,35.77913],[139.50634,35.77945],[139.50624,35.77954],[139.50605,35.7796],[139.50577,35.77965],[139.50566,35.77988],[139.50564,35.78],[139.50571,35.78031],[139.50562,35.78057],[139.50555,35.78065],[139.50544,35.78073],[139.50515,35.78088],[139.50493,35.7809],[139.50468,35.78088],[139.5043,35.78084],[139.50421,35.78081],[139.50411,35.78079],[139.50396,35.78069],[139.50384,35.78058],[139.50377,35.78058],[139.50359,35.78042],[139.50341,35.78037],[139.50323,35.78027],[139.50309,35.78028],[139.50293,35.78021],[139.50263,35.78019],[139.50232,35.78019],[139.5021,35.78024],[139.50189,35.7803],[139.50174,35.78037],[139.50147,35.78073],[139.50143,35.78073],[139.50124,35.78072],[139.50111,35.78066],[139.50063,35.78044],[139.50053,35.78041],[139.50041,35.7804],[139.50027,35.7804],[139.50005,35.78043],[139.49985,35.78046],[139.49963,35.78054],[139.49927,35.78058],[139.49905,35.78063],[139.49889,35.78072],[139.49851,35.78064],[139.49847,35.78062],[139.49845,35.78053],[139.49833,35.78054],[139.49824,35.78052],[139.49806,35.7804],[139.49803,35.78035],[139.49775,35.78031],[139.49784,35.78052],[139.49807,35.78098],[139.49815,35.78138],[139.49829,35.78141],[139.49846,35.78144],[139.49868,35.7816],[139.49876,35.78172],[139.49882,35.78194],[139.49886,35.78205],[139.499,35.78214],[139.49906,35.78215],[139.49951,35.78225],[139.49999,35.78229],[139.50027,35.78229],[139.50087,35.78233],[139.50112,35.78236],[139.5012,35.7824],[139.5013,35.78245],[139.50177,35.78262],[139.50183,35.78263],[139.50201,35.78265],[139.50233,35.78273],[139.50247,35.78276],[139.5026,35.78279],[139.50312,35.78282],[139.50356,35.78291],[139.50379,35.78298],[139.50415,35.78318],[139.50426,35.78326],[139.50435,35.78329],[139.5045,35.78332],[139.50465,35.78332],[139.50484,35.78325],[139.50501,35.78305],[139.50509,35.78292],[139.50518,35.78287]]]}},{"type":"Feature","properties":{"name":"野塩三丁目","setai":422,"jinko":993,"key":"13221008003","units":1},"geometry":{"type":"Polygon","coordinates":[[[139.50948,35.77955],[139.50962,35.77899],[139.50964,35.77875],[139.5097,35.77825],[139.50973,35.77812],[139.50991,35.77759],[139.50997,35.77743],[139.51022,35.77663],[139.51037,35.77625],[139.51039,35.77609],[139.51031,35.7756],[139.51003,35.77544],[139.50982,35.77531],[139.50938,35.77503],[139.50935,35.77504],[139.50848,35.7753],[139.50844,35.7753],[139.50841,35.7753],[139.50744,35.77557],[139.50741,35.77557],[139.50598,35.77595],[139.50487,35.77626],[139.505,35.77633],[139.50542,35.77647],[139.5055,35.77652],[139.50556,35.77663],[139.50558,35.77678],[139.50559,35.77692],[139.50556,35.77742],[139.50556,35.77743],[139.50558,35.77754],[139.50557,35.77765],[139.50563,35.7779],[139.50568,35.77802],[139.50579,35.77816],[139.50603,35.77841],[139.50603,35.77858],[139.50607,35.77873],[139.50619,35.77888],[139.50631,35.77896],[139.50651,35.77906],[139.50664,35.77913],[139.50665,35.77913],[139.50668,35.77911],[139.5068,35.77911],[139.5071,35.77926],[139.50728,35.77932],[139.5077,35.77939],[139.50795,35.77941],[139.5083,35.77943],[139.50887,35.77944],[139.50908,35.77945],[139.50943,35.77958],[139.50948,35.77956],[139.50948,35.77955]]]}},{"type":"Feature","properties":{"name":"野塩四丁目","setai":654,"jinko":1537,"key":"13221008004","units":1},"geometry":{"type":"Polygon","coordinates":[[[139.50428,35.77623],[139.50464,35.77619],[139.5047,35.77631],[139.50487,35.77626],[139.50598,35.77595],[139.50741,35.77557],[139.50744,35.77557],[139.50841,35.7753],[139.50844,35.7753],[139.50848,35.7753],[139.50935,35.77504],[139.50916,35.77487],[139.50901,35.77479],[139.50845,35.77458],[139.50819,35.77448],[139.50807,35.77444],[139.50783,35.77438],[139.50761,35.77435],[139.50729,35.77431],[139.50728,35.7743],[139.50654,35.77423],[139.50653,35.77423],[139.50642,35.77421],[139.50622,35.7742],[139.50584,35.77416],[139.50541,35.77415],[139.50521,35.77415],[139.50457,35.7742],[139.50439,35.77422],[139.50396,35.77428],[139.50388,35.77428],[139.50332,35.77435],[139.50277,35.77442],[139.50247,35.77447],[139.50216,35.77451],[139.5012,35.77454],[139.50089,35.77454],[139.50076,35.77455],[139.50069,35.77455],[139.50031,35.77454],[139.50014,35.77454],[139.50003,35.77452],[139.49975,35.77444],[139.49962,35.77439],[139.49946,35.77435],[139.49951,35.77456],[139.49973,35.77506],[139.4999,35.77532],[139.50007,35.77553],[139.50019,35.77566],[139.50033,35.77573],[139.50046,35.77575],[139.50059,35.77581],[139.50073,35.7759],[139.50091,35.77601],[139.50139,35.77618],[139.50163,35.77626],[139.502,35.77629],[139.50216,35.77625],[139.50253,35.77612],[139.50269,35.77615],[139.50303,35.77629],[139.50338,35.77631],[139.50378,35.77627],[139.50428,35.77623]]]}},{"type":"Feature","properties":{"name":"野塩五丁目","setai":1185,"jinko":2156,"key":"13221008005","units":1},"geometry":{"type":"Polygon","coordinates":[[[139.49734,35.77851],[139.49758,35.77842],[139.49766,35.7784],[139.49804,35.7783],[139.49854,35.77813],[139.49873,35.77802],[139.49873,35.77795],[139.49972,35.77768],[139.49989,35.77763],[139.50038,35.7775],[139.50072,35.77741],[139.50218,35.77701],[139.5047,35.77631],[139.50464,35.77619],[139.50428,35.77623],[139.50378,35.77627],[139.50338,35.77631],[139.50303,35.77629],[139.50269,35.77615],[139.50253,35.77612],[139.50216,35.77625],[139.502,35.77629],[139.50163,35.77626],[139.50139,35.77618],[139.50091,35.77601],[139.50073,35.7759],[139.50059,35.77581],[139.50046,35.77575],[139.50033,35.77573],[139.50019,35.77566],[139.50007,35.77553],[139.4999,35.77532],[139.49973,35.77506],[139.49951,35.77456],[139.49946,35.77435],[139.49941,35.77431],[139.49874,35.77407],[139.49869,35.77406],[139.49834,35.77393],[139.49831,35.77391],[139.49826,35.77389],[139.49816,35.77385],[139.49799,35.77379],[139.49739,35.77367],[139.49724,35.77403],[139.4972,35.77416],[139.4972,35.7743],[139.49718,35.7745],[139.49715,35.77462],[139.49704,35.77489],[139.49694,35.77508],[139.49684,35.77523],[139.49676,35.77535],[139.49665,35.77551],[139.49659,35.77573],[139.49651,35.77611],[139.49639,35.77636],[139.49639,35.77652],[139.4964,35.77664],[139.49641,35.7767],[139.49639,35.77705],[139.4964,35.7771],[139.4964,35.77711],[139.49648,35.7774],[139.49658,35.77766],[139.4966,35.77774],[139.49668,35.7779],[139.4968,35.77818],[139.49683,35.77818],[139.49688,35.77835],[139.49693,35.77845],[139.49697,35.77852],[139.49705,35.7785],[139.49707,35.77855],[139.497,35.77857],[139.49703,35.77864],[139.49704,35.77866],[139.49734,35.77851]]]}},{"type":"Feature","properties":{"name":"松山一丁目","setai":1890,"jinko":3376,"key":"13221009001","units":1},"geometry":{"type":"Polygon","coordinates":[[[139.51629,35.76563],[139.51623,35.7656],[139.5162,35.76579],[139.51611,35.76658],[139.51605,35.7672],[139.51605,35.76723],[139.51611,35.76788],[139.51618,35.76824],[139.51617,35.76831],[139.51659,35.76922],[139.51661,35.76926],[139.51674,35.76957],[139.51692,35.77002],[139.51705,35.77034],[139.51714,35.77052],[139.51732,35.77094],[139.51734,35.77098],[139.5174,35.77114],[139.5175,35.77136],[139.51759,35.77157],[139.51797,35.77248],[139.518,35.77254],[139.51801,35.77257],[139.51896,35.77221],[139.51956,35.77203],[139.51978,35.77198],[139.52028,35.77184],[139.522,35.77139],[139.52129,35.77081],[139.52101,35.77059],[139.52081,35.77041],[139.52063,35.77024],[139.52048,35.77012],[139.52031,35.76996],[139.52004,35.76968],[139.51973,35.76934],[139.51963,35.76923],[139.51952,35.76912],[139.51929,35.76893],[139.51907,35.76873],[139.51868,35.76832],[139.5184,35.76807],[139.51798,35.76768],[139.51762,35.76729],[139.51722,35.76685],[139.51683,35.76638],[139.51669,35.76621],[139.51658,35.76609],[139.51636,35.76596],[139.51627,35.76593],[139.51629,35.76566],[139.51629,35.76563]]]}},{"type":"Feature","properties":{"name":"松山二丁目","setai":1595,"jinko":2664,"key":"13221009002","units":1},"geometry":{"type":"Polygon","coordinates":[[[139.51661,35.76926],[139.51659,35.76922],[139.51655,35.76924],[139.51628,35.76947],[139.51617,35.76957],[139.51592,35.76978],[139.51576,35.76991],[139.51562,35.77003],[139.51525,35.77035],[139.51499,35.77058],[139.51454,35.77097],[139.5141,35.77134],[139.5139,35.77151],[139.51378,35.77163],[139.5131,35.77219],[139.51274,35.7725],[139.51274,35.7725],[139.51249,35.77272],[139.51243,35.77275],[139.51206,35.77306],[139.51144,35.77358],[139.5114,35.77361],[139.51077,35.77412],[139.5104,35.77442],[139.51037,35.77447],[139.50994,35.77485],[139.51079,35.77461],[139.51123,35.77449],[139.51216,35.77423],[139.51218,35.77423],[139.51297,35.77402],[139.51333,35.77391],[139.51337,35.7739],[139.51393,35.77375],[139.51398,35.77374],[139.51438,35.77364],[139.51443,35.77362],[139.51476,35.77355],[139.51482,35.77353],[139.51573,35.77332],[139.51589,35.77327],[139.51675,35.77304],[139.51704,35.77296],[139.51774,35.77277],[139.51801,35.7727],[139.51803,35.77269],[139.51801,35.77257],[139.518,35.77254],[139.51797,35.77248],[139.51759,35.77157],[139.5175,35.77136],[139.5174,35.77114],[139.51734,35.77098],[139.51732,35.77094],[139.51714,35.77052],[139.51705,35.77034],[139.51692,35.77002],[139.51674,35.76957],[139.51661,35.76926]]]}},{"type":"Feature","properties":{"name":"松山三丁目","setai":873,"jinko":1664,"key":"13221009003","units":1},"geometry":{"type":"Polygon","coordinates":[[[139.51528,35.76516],[139.51519,35.76512],[139.51505,35.76523],[139.51491,35.76535],[139.51473,35.76549],[139.51483,35.76557],[139.51468,35.7657],[139.51453,35.76582],[139.5145,35.76585],[139.51435,35.76591],[139.51425,35.76595],[139.51396,35.76596],[139.51387,35.76599],[139.5135,35.76633],[139.51321,35.7666],[139.51297,35.76681],[139.51262,35.76712],[139.51253,35.7672],[139.5125,35.76722],[139.51209,35.76759],[139.51197,35.7677],[139.51043,35.76906],[139.5103,35.76918],[139.50979,35.76963],[139.50957,35.76983],[139.50932,35.77005],[139.50926,35.7701],[139.50915,35.7702],[139.50892,35.7704],[139.50848,35.77078],[139.50844,35.77081],[139.50889,35.77098],[139.50909,35.77108],[139.50929,35.77117],[139.50932,35.77118],[139.50947,35.77125],[139.50979,35.7714],[139.51021,35.77161],[139.51022,35.77161],[139.51062,35.77181],[139.51105,35.77202],[139.51135,35.77217],[139.5117,35.77233],[139.51186,35.77241],[139.51233,35.77264],[139.51233,35.77264],[139.51249,35.77271],[139.51249,35.77272],[139.51274,35.7725],[139.51274,35.7725],[139.5131,35.77219],[139.51378,35.77163],[139.5139,35.77151],[139.5141,35.77134],[139.51454,35.77097],[139.51499,35.77058],[139.51525,35.77035],[139.51562,35.77003],[139.51576,35.76991],[139.51592,35.76978],[139.51617,35.76957],[139.51628,35.76947],[139.51655,35.76924],[139.51659,35.76922],[139.51617,35.76831],[139.51618,35.76824],[139.51611,35.76788],[139.51605,35.76723],[139.51605,35.7672],[139.51611,35.76658],[139.5162,35.76579],[139.51623,35.7656],[139.51596,35.76548],[139.51528,35.76516]]]}},{"type":"Feature","properties":{"name":"竹丘一丁目","setai":1564,"jinko":3726,"key":"13221010001","units":1},"geometry":{"type":"Polygon","coordinates":[[[139.51405,35.76462],[139.51218,35.76375],[139.51214,35.76379],[139.51211,35.76387],[139.51199,35.76426],[139.51192,35.76456],[139.51178,35.7648],[139.51178,35.7648],[139.51175,35.76485],[139.51153,35.76506],[139.5113,35.76524],[139.5111,35.76543],[139.51101,35.76551],[139.51073,35.76578],[139.51059,35.76591],[139.51038,35.76613],[139.51034,35.76616],[139.51028,35.76622],[139.51023,35.76626],[139.51006,35.7664],[139.50997,35.76647],[139.50963,35.76677],[139.50932,35.76704],[139.50925,35.7671],[139.50905,35.7673],[139.50885,35.76745],[139.50859,35.76767],[139.50854,35.76772],[139.50822,35.768],[139.50778,35.76838],[139.50753,35.7686],[139.50721,35.76888],[139.50575,35.77014],[139.50577,35.77014],[139.50711,35.77047],[139.50733,35.77052],[139.50755,35.77056],[139.50756,35.77057],[139.50816,35.77074],[139.50844,35.77081],[139.50848,35.77078],[139.50892,35.7704],[139.50915,35.7702],[139.50926,35.7701],[139.50932,35.77005],[139.50957,35.76983],[139.50979,35.76963],[139.5103,35.76918],[139.51043,35.76906],[139.51197,35.7677],[139.51209,35.76759],[139.5125,35.76722],[139.51253,35.7672],[139.51262,35.76712],[139.51297,35.76681],[139.51321,35.7666],[139.5135,35.76633],[139.51387,35.76599],[139.51396,35.76596],[139.51425,35.76595],[139.51435,35.76591],[139.5145,35.76585],[139.51453,35.76582],[139.51468,35.7657],[139.51483,35.76557],[139.51473,35.76549],[139.51491,35.76535],[139.51505,35.76523],[139.51519,35.76512],[139.51405,35.76462]]]}},{"type":"Feature","properties":{"name":"竹丘二丁目","setai":1483,"jinko":3402,"key":"13221010002","units":1},"geometry":{"type":"Polygon","coordinates":[[[139.50614,35.76158],[139.50516,35.76134],[139.50476,35.76235],[139.50475,35.76237],[139.50442,35.7632],[139.50409,35.76396],[139.50463,35.76416],[139.50468,35.76416],[139.5051,35.76422],[139.50546,35.76437],[139.50566,35.76446],[139.50572,35.76448],[139.50614,35.76468],[139.50668,35.76523],[139.50709,35.76564],[139.50796,35.76645],[139.50857,35.76709],[139.50885,35.76745],[139.50905,35.7673],[139.50925,35.7671],[139.50932,35.76704],[139.50963,35.76677],[139.50997,35.76647],[139.51006,35.7664],[139.51023,35.76626],[139.51028,35.76622],[139.51034,35.76616],[139.51038,35.76613],[139.51059,35.76591],[139.51073,35.76578],[139.51101,35.76551],[139.5111,35.76543],[139.5113,35.76524],[139.51153,35.76506],[139.51175,35.76485],[139.51178,35.7648],[139.51178,35.7648],[139.51192,35.76456],[139.51199,35.76426],[139.51211,35.76387],[139.51214,35.76379],[139.51218,35.76375],[139.5113,35.76339],[139.51079,35.76318],[139.50967,35.76271],[139.50931,35.76256],[139.50909,35.76248],[139.50876,35.76235],[139.50837,35.7622],[139.50827,35.76216],[139.50825,35.76215],[139.50769,35.76198],[139.50737,35.7619],[139.50714,35.76185],[139.50662,35.76171],[139.50627,35.76162],[139.50614,35.76158]]]}},{"type":"Feature","properties":{"name":"竹丘三丁目","setai":1369,"jinko":3528,"key":"13221010003","units":1},"geometry":{"type":"Polygon","coordinates":[[[139.50516,35.76134],[139.50487,35.76126],[139.50452,35.76132],[139.50398,35.76142],[139.50378,35.76145],[139.50363,35.76147],[139.50313,35.76153],[139.50232,35.76165],[139.50221,35.76167],[139.50159,35.76176],[139.50101,35.76185],[139.50069,35.76189],[139.50064,35.7619],[139.50031,35.76195],[139.49938,35.76207],[139.49898,35.76213],[139.49848,35.76221],[139.49786,35.76231],[139.49721,35.76241],[139.49687,35.76247],[139.4976,35.76296],[139.49866,35.76367],[139.49924,35.76406],[139.49936,35.76414],[139.49946,35.7642],[139.49961,35.7643],[139.49964,35.76432],[139.49979,35.76442],[139.50025,35.76472],[139.50094,35.76517],[139.50097,35.76519],[139.50133,35.76545],[139.5014,35.76555],[139.50142,35.76558],[139.50139,35.76576],[139.50132,35.76603],[139.50129,35.76619],[139.50126,35.76633],[139.50126,35.76634],[139.50119,35.76662],[139.50112,35.76688],[139.50102,35.76728],[139.50095,35.76753],[139.50087,35.76784],[139.50079,35.76817],[139.50095,35.76823],[139.50192,35.76867],[139.50202,35.76877],[139.50206,35.76888],[139.50289,35.76924],[139.50318,35.76938],[139.5034,35.76949],[139.50346,35.76951],[139.50403,35.76966],[139.50551,35.77007],[139.50575,35.77014],[139.50721,35.76888],[139.50753,35.7686],[139.50778,35.76838],[139.50822,35.768],[139.50854,35.76772],[139.50859,35.76767],[139.50885,35.76745],[139.50857,35.76709],[139.50796,35.76645],[139.50709,35.76564],[139.50668,35.76523],[139.50614,35.76468],[139.50572,35.76448],[139.50566,35.76446],[139.50546,35.76437],[139.5051,35.76422],[139.50468,35.76416],[139.50463,35.76416],[139.50409,35.76396],[139.50442,35.7632],[139.50475,35.76237],[139.50476,35.76235],[139.50516,35.76134]]]}},{"type":"Feature","properties":{"name":"梅園一丁目","setai":33,"jinko":310,"key":"13221011001","units":1},"geometry":{"type":"Polygon","coordinates":[[[139.50403,35.76966],[139.50346,35.76951],[139.50341,35.76959],[139.50338,35.76973],[139.50341,35.76987],[139.50347,35.77001],[139.50362,35.77026],[139.50446,35.7711],[139.50553,35.77212],[139.50555,35.77215],[139.50571,35.77229],[139.50608,35.77262],[139.5061,35.77264],[139.50614,35.77267],[139.50643,35.77292],[139.50655,35.77362],[139.50642,35.77421],[139.50653,35.77423],[139.50654,35.77423],[139.50728,35.7743],[139.50729,35.77431],[139.50761,35.77435],[139.50783,35.77438],[139.50807,35.77444],[139.50819,35.77448],[139.50845,35.77458],[139.50901,35.77479],[139.50916,35.77487],[139.50935,35.77504],[139.50938,35.77503],[139.50935,35.77501],[139.50994,35.77485],[139.51037,35.77447],[139.5104,35.77442],[139.51077,35.77412],[139.5114,35.77361],[139.51144,35.77358],[139.51206,35.77306],[139.51243,35.77275],[139.51249,35.77272],[139.51249,35.77271],[139.51233,35.77264],[139.51233,35.77264],[139.51186,35.77241],[139.5117,35.77233],[139.51135,35.77217],[139.51105,35.77202],[139.51062,35.77181],[139.51022,35.77161],[139.51021,35.77161],[139.50979,35.7714],[139.50947,35.77125],[139.50932,35.77118],[139.50929,35.77117],[139.50909,35.77108],[139.50889,35.77098],[139.50844,35.77081],[139.50816,35.77074],[139.50756,35.77057],[139.50755,35.77056],[139.50733,35.77052],[139.50711,35.77047],[139.50577,35.77014],[139.50575,35.77014],[139.50551,35.77007],[139.50403,35.76966]]]}},{"type":"Feature","properties":{"name":"梅園二丁目","setai":422,"jinko":1168,"key":"13221011002","units":1},"geometry":{"type":"Polygon","coordinates":[[[139.50332,35.77435],[139.50388,35.77428],[139.50396,35.77428],[139.50439,35.77422],[139.50457,35.7742],[139.50521,35.77415],[139.50541,35.77415],[139.50584,35.77416],[139.50622,35.7742],[139.50642,35.77421],[139.50655,35.77362],[139.50643,35.77292],[139.50614,35.77267],[139.5061,35.77264],[139.50608,35.77262],[139.50571,35.77229],[139.50555,35.77215],[139.50553,35.77212],[139.50446,35.7711],[139.50362,35.77026],[139.50347,35.77001],[139.50341,35.76987],[139.50338,35.76973],[139.50322,35.76992],[139.50317,35.76996],[139.50307,35.77009],[139.50304,35.77013],[139.50278,35.77066],[139.50307,35.7708],[139.503,35.77132],[139.50295,35.77192],[139.50293,35.77211],[139.5029,35.7724],[139.5029,35.77246],[139.50286,35.77288],[139.50285,35.77292],[139.50277,35.77442],[139.50332,35.77435]]]}},{"type":"Feature","properties":{"name":"梅園三丁目","setai":953,"jinko":2517,"key":"13221011003","units":1},"geometry":{"type":"Polygon","coordinates":[[[139.50286,35.77288],[139.5029,35.77246],[139.5029,35.7724],[139.50293,35.77211],[139.50295,35.77192],[139.503,35.77132],[139.50307,35.7708],[139.50278,35.77066],[139.50304,35.77013],[139.50307,35.77009],[139.50317,35.76996],[139.50322,35.76992],[139.50338,35.76973],[139.50341,35.76959],[139.50346,35.76951],[139.5034,35.76949],[139.50318,35.76938],[139.50289,35.76924],[139.50206,35.76888],[139.50202,35.76877],[139.50192,35.76867],[139.50095,35.76823],[139.50079,35.76817],[139.5007,35.76853],[139.50062,35.7688],[139.50055,35.76903],[139.50042,35.7694],[139.50023,35.76993],[139.50019,35.77004],[139.49999,35.77044],[139.49967,35.77104],[139.49954,35.77118],[139.49932,35.77143],[139.49932,35.77142],[139.49923,35.77152],[139.49908,35.77174],[139.49897,35.77192],[139.49874,35.77229],[139.49883,35.77234],[139.49884,35.77234],[139.49874,35.77248],[139.49865,35.77258],[139.49858,35.7725],[139.49853,35.77233],[139.49842,35.77221],[139.4982,35.77211],[139.49806,35.77201],[139.49799,35.7721],[139.49795,35.77216],[139.49792,35.77221],[139.49778,35.77246],[139.49767,35.77271],[139.49763,35.77285],[139.4976,35.77302],[139.49764,35.77319],[139.49739,35.77367],[139.49799,35.77379],[139.49816,35.77385],[139.49826,35.77389],[139.49831,35.77391],[139.49834,35.77393],[139.49869,35.77406],[139.49874,35.77407],[139.49941,35.77431],[139.49946,35.77435],[139.49962,35.77439],[139.49975,35.77444],[139.50003,35.77452],[139.50014,35.77454],[139.50031,35.77454],[139.50069,35.77455],[139.50076,35.77455],[139.50089,35.77454],[139.5012,35.77454],[139.50216,35.77451],[139.50247,35.77447],[139.50277,35.77442],[139.50285,35.77292],[139.50286,35.77288]]]}}]}