{"type":"FeatureCollection","features":[{"type":"Feature","properties":{"name":"大宮一丁目","setai":1005,"jinko":1674,"key":"27117001001","units":1,"m":829,"f":845,"gk":37,"a0":115,"a1":1004,"a2":547,"a75":297,"ag":[51,35,29,43,101,108,107,94,91,133,109,118,100,120,130,108,90,65,25,8,1],"nf":8},"geometry":{"type":"Polygon","coordinates":[[[135.54846,34.72169],[135.54839,34.72149],[135.54839,34.72148],[135.54834,34.7213],[135.54824,34.721],[135.54823,34.72097],[135.54803,34.7203],[135.54802,34.72029],[135.54792,34.71996],[135.5478,34.71956],[135.54777,34.71956],[135.54748,34.7197],[135.54725,34.71978],[135.54724,34.71978],[135.54724,34.71978],[135.54675,34.7199],[135.54645,34.71996],[135.54618,34.72001],[135.54613,34.72002],[135.545,34.72016],[135.54391,34.7203],[135.54311,34.7204],[135.54312,34.72042],[135.54312,34.72046],[135.54321,34.72089],[135.54321,34.72092],[135.54335,34.72126],[135.5435,34.72158],[135.5435,34.72158],[135.54358,34.72175],[135.54365,34.72191],[135.54367,34.72194],[135.54372,34.72207],[135.54381,34.72226],[135.54383,34.72229],[135.54397,34.72261],[135.54542,34.72243],[135.54661,34.72229],[135.54716,34.72222],[135.54724,34.72221],[135.54768,34.72215],[135.54769,34.72215],[135.54798,34.72212],[135.54856,34.72205],[135.54846,34.72169]]]}},{"type":"Feature","properties":{"name":"大宮二丁目","setai":1093,"jinko":2117,"key":"27117001002","units":1,"m":1009,"f":1108,"gk":42,"a0":215,"a1":1177,"a2":683,"a75":418,"ag":[70,74,71,72,100,88,130,106,147,152,125,130,127,118,147,147,129,88,45,8,1],"nf":42},"geometry":{"type":"Polygon","coordinates":[[[135.54872,34.72419],[135.54917,34.7241],[135.5492,34.7241],[135.54915,34.72395],[135.54911,34.72381],[135.54888,34.72307],[135.54877,34.72271],[135.54872,34.72257],[135.54872,34.72255],[135.54856,34.72205],[135.54856,34.72205],[135.54798,34.72212],[135.54769,34.72215],[135.54768,34.72215],[135.54724,34.72221],[135.54716,34.72222],[135.54661,34.72229],[135.54542,34.72243],[135.54397,34.72261],[135.5436,34.72266],[135.5436,34.72267],[135.54367,34.72302],[135.54371,34.7232],[135.54373,34.72319],[135.54374,34.72336],[135.54381,34.7237],[135.54382,34.7237],[135.54397,34.72404],[135.54404,34.7242],[135.5441,34.72433],[135.54434,34.72485],[135.54493,34.72474],[135.54495,34.72474],[135.54529,34.72462],[135.5456,34.72454],[135.54581,34.72451],[135.54592,34.7245],[135.54633,34.72444],[135.54647,34.72443],[135.54713,34.7244],[135.54718,34.7244],[135.54755,34.72438],[135.54785,34.72438],[135.54799,34.72435],[135.54811,34.72433],[135.54835,34.72427],[135.54867,34.7242],[135.54872,34.72419]]]}},{"type":"Feature","properties":{"name":"大宮三丁目","setai":1009,"jinko":1880,"key":"27117001003","units":1,"m":874,"f":1006,"gk":35,"a0":151,"a1":1155,"a2":573,"a75":318,"ag":[53,52,46,65,93,148,115,114,110,146,122,123,119,113,142,114,88,74,35,7,0],"nf":1},"geometry":{"type":"Polygon","coordinates":[[[135.54969,34.72557],[135.5496,34.72529],[135.54952,34.72506],[135.54945,34.72489],[135.54942,34.7248],[135.54935,34.72458],[135.54921,34.72414],[135.5492,34.7241],[135.54917,34.7241],[135.54872,34.72419],[135.54867,34.7242],[135.54835,34.72427],[135.54811,34.72433],[135.54799,34.72435],[135.54785,34.72438],[135.54755,34.72438],[135.54718,34.7244],[135.54713,34.7244],[135.54647,34.72443],[135.54633,34.72444],[135.54592,34.7245],[135.54581,34.72451],[135.5456,34.72454],[135.54529,34.72462],[135.54495,34.72474],[135.54493,34.72474],[135.54434,34.72485],[135.54445,34.72513],[135.5446,34.7255],[135.54461,34.72549],[135.54467,34.72561],[135.54466,34.726],[135.54464,34.72633],[135.54598,34.72647],[135.54736,34.72661],[135.54864,34.72674],[135.5494,34.72682],[135.54945,34.72681],[135.55012,34.72664],[135.55006,34.72649],[135.55001,34.72637],[135.54989,34.72612],[135.54988,34.7261],[135.54983,34.72595],[135.54977,34.7258],[135.54971,34.72563],[135.54969,34.72557]]]}},{"type":"Feature","properties":{"name":"大宮四丁目","setai":1709,"jinko":3152,"key":"27117001004","units":1,"m":1549,"f":1603,"gk":91,"a0":315,"a1":2063,"a2":772,"a75":389,"ag":[98,115,102,127,221,209,237,239,211,228,211,197,183,175,208,136,127,80,35,10,1],"nf":2},"geometry":{"type":"Polygon","coordinates":[[[135.55023,34.72691],[135.55012,34.72664],[135.54945,34.72681],[135.5494,34.72682],[135.54864,34.72674],[135.54736,34.72661],[135.54598,34.72647],[135.54464,34.72633],[135.54464,34.72634],[135.54456,34.72679],[135.54456,34.7268],[135.54449,34.72724],[135.54448,34.72726],[135.54442,34.72764],[135.54441,34.72773],[135.5444,34.72774],[135.54436,34.72797],[135.54433,34.7282],[135.54433,34.72821],[135.54429,34.72846],[135.54424,34.72882],[135.54455,34.72885],[135.5454,34.72894],[135.5456,34.72896],[135.54566,34.72897],[135.54625,34.72904],[135.54697,34.72911],[135.54836,34.72925],[135.54957,34.72937],[135.54964,34.72938],[135.54987,34.7294],[135.55008,34.72942],[135.55047,34.72946],[135.5507,34.72948],[135.55073,34.72948],[135.55106,34.72952],[135.55214,34.72963],[135.55247,34.72966],[135.55198,34.72927],[135.55189,34.72919],[135.55101,34.7285],[135.5509,34.7284],[135.55078,34.72819],[135.55054,34.72762],[135.55036,34.72721],[135.55034,34.72717],[135.55032,34.7271],[135.5503,34.72706],[135.55028,34.72702],[135.55023,34.72691]]]}},{"type":"Feature","properties":{"name":"大宮五丁目","setai":1134,"jinko":2103,"key":"27117001005","units":1,"m":865,"f":1238,"gk":54,"a0":194,"a1":892,"a2":1017,"a75":606,"ag":[55,73,66,49,58,61,55,95,134,124,111,103,102,168,243,232,192,129,41,11,1]},"geometry":{"type":"Polygon","coordinates":[[[135.54625,34.72904],[135.54566,34.72897],[135.54562,34.72915],[135.54556,34.72949],[135.54556,34.7295],[135.54552,34.72973],[135.54548,34.72997],[135.54548,34.72997],[135.54544,34.73023],[135.54543,34.73027],[135.5454,34.73047],[135.54539,34.73057],[135.54531,34.73101],[135.54524,34.73128],[135.5452,34.73146],[135.54449,34.73416],[135.54623,34.73462],[135.547,34.7349],[135.5472,34.73497],[135.548,34.73529],[135.54852,34.73548],[135.54892,34.73565],[135.54992,34.73285],[135.54991,34.73285],[135.55004,34.73246],[135.55018,34.73206],[135.55032,34.73167],[135.55036,34.73144],[135.5504,34.7313],[135.55042,34.73116],[135.55042,34.73115],[135.55044,34.73106],[135.55052,34.73075],[135.55052,34.73075],[135.55058,34.73048],[135.55058,34.73048],[135.55065,34.73002],[135.55065,34.73],[135.55073,34.72948],[135.5507,34.72948],[135.55047,34.72946],[135.55008,34.72942],[135.54987,34.7294],[135.54964,34.72938],[135.54957,34.72937],[135.54836,34.72925],[135.54697,34.72911],[135.54625,34.72904]]]}},{"type":"Feature","properties":{"name":"中宮一丁目","setai":699,"jinko":1258,"key":"27117002001","units":1,"m":604,"f":654,"gk":19,"a0":81,"a1":670,"a2":458,"a75":255,"ag":[37,17,27,35,68,52,69,56,69,80,94,93,54,84,119,109,77,46,13,10,0],"nf":49},"geometry":{"type":"Polygon","coordinates":[[[135.53991,34.7228],[135.54049,34.72258],[135.54069,34.72308],[135.54069,34.72309],[135.54101,34.72302],[135.54101,34.72303],[135.54239,34.72284],[135.5436,34.72267],[135.5436,34.72266],[135.54397,34.72261],[135.54383,34.72229],[135.54381,34.72226],[135.54372,34.72207],[135.54367,34.72194],[135.54365,34.72191],[135.54358,34.72175],[135.5435,34.72158],[135.5435,34.72158],[135.54335,34.72126],[135.54321,34.72092],[135.54321,34.72089],[135.54312,34.72046],[135.54312,34.72042],[135.54288,34.72048],[135.54268,34.72051],[135.54245,34.7205],[135.54183,34.72058],[135.54059,34.72073],[135.54058,34.72073],[135.5399,34.72082],[135.53923,34.72089],[135.53918,34.7209],[135.5385,34.72099],[135.5385,34.72097],[135.53847,34.72098],[135.5385,34.72132],[135.53853,34.72174],[135.53857,34.72219],[135.53857,34.72219],[135.53856,34.72242],[135.53855,34.72337],[135.53945,34.72324],[135.53939,34.72289],[135.53989,34.72281],[135.53991,34.7228]]]}},{"type":"Feature","properties":{"name":"中宮二丁目","setai":1182,"jinko":2331,"key":"27117002002","units":1,"m":1155,"f":1176,"gk":63,"a0":230,"a1":1302,"a2":722,"a75":374,"ag":[59,71,100,85,140,117,111,114,142,147,177,139,130,143,205,131,105,90,38,7,3],"nf":77},"geometry":{"type":"Polygon","coordinates":[[[135.54397,34.72404],[135.54382,34.7237],[135.54381,34.7237],[135.54374,34.72336],[135.54373,34.72319],[135.54371,34.7232],[135.54367,34.72302],[135.5436,34.72267],[135.54239,34.72284],[135.54101,34.72303],[135.54101,34.72302],[135.54069,34.72309],[135.54069,34.72308],[135.54049,34.72258],[135.53991,34.7228],[135.53989,34.72281],[135.53939,34.72289],[135.53945,34.72324],[135.53855,34.72337],[135.53855,34.72338],[135.53856,34.72338],[135.53857,34.72391],[135.53857,34.72415],[135.53857,34.72429],[135.53857,34.7243],[135.53857,34.72472],[135.53856,34.72507],[135.53857,34.72532],[135.53858,34.72554],[135.53859,34.72555],[135.53968,34.72559],[135.54029,34.72558],[135.54119,34.72544],[135.5412,34.72544],[135.54148,34.72539],[135.54289,34.72512],[135.54368,34.72498],[135.54432,34.72487],[135.54434,34.72485],[135.5441,34.72433],[135.54404,34.7242],[135.54397,34.72404]]]}},{"type":"Feature","properties":{"name":"中宮三丁目","setai":963,"jinko":1830,"key":"27117002003","units":1,"m":930,"f":900,"gk":42,"a0":195,"a1":1078,"a2":502,"a75":270,"ag":[65,55,75,68,95,103,110,115,110,126,136,110,105,124,108,105,85,56,18,5,1],"nf":55},"geometry":{"type":"Polygon","coordinates":[[[135.54456,34.72679],[135.54464,34.72634],[135.54464,34.72633],[135.54466,34.726],[135.54467,34.72561],[135.54461,34.72549],[135.5446,34.7255],[135.54445,34.72513],[135.54434,34.72485],[135.54432,34.72487],[135.54368,34.72498],[135.54289,34.72512],[135.54148,34.72539],[135.5412,34.72544],[135.54119,34.72544],[135.54029,34.72558],[135.53968,34.72559],[135.53859,34.72555],[135.53858,34.72604],[135.53857,34.72607],[135.53858,34.72664],[135.53875,34.72666],[135.53971,34.72676],[135.54049,34.72683],[135.54044,34.72645],[135.54171,34.72656],[135.54236,34.72661],[135.5423,34.72703],[135.54316,34.72711],[135.54374,34.72717],[135.54398,34.72719],[135.54449,34.72724],[135.54456,34.7268],[135.54456,34.72679]]]}},{"type":"Feature","properties":{"name":"中宮四丁目","setai":962,"jinko":1637,"key":"27117002004","units":1,"m":822,"f":815,"gk":35,"a0":155,"a1":993,"a2":414,"a75":238,"ag":[48,48,59,65,139,139,96,100,87,107,85,90,85,83,93,73,66,58,28,12,1],"nf":75},"geometry":{"type":"Polygon","coordinates":[[[135.5423,34.72703],[135.54236,34.72661],[135.54171,34.72656],[135.54044,34.72645],[135.54049,34.72683],[135.53971,34.72676],[135.53875,34.72666],[135.53858,34.72664],[135.53858,34.72681],[135.53858,34.72713],[135.53858,34.72751],[135.53859,34.7276],[135.53855,34.72822],[135.53947,34.72832],[135.5403,34.72841],[135.54036,34.72843],[135.54155,34.72852],[135.54157,34.72853],[135.54188,34.72856],[135.542,34.72857],[135.54213,34.72858],[135.54284,34.72866],[135.54297,34.72868],[135.54362,34.72875],[135.54424,34.72882],[135.54429,34.72846],[135.54433,34.72821],[135.54433,34.7282],[135.54436,34.72797],[135.5444,34.72774],[135.54441,34.72773],[135.54442,34.72764],[135.54448,34.72726],[135.54449,34.72724],[135.54398,34.72719],[135.54374,34.72717],[135.54316,34.72711],[135.5423,34.72703]]]}},{"type":"Feature","properties":{"name":"中宮五丁目","setai":1240,"jinko":2035,"key":"27117002005","units":1,"m":994,"f":1041,"gk":106,"a0":209,"a1":1208,"a2":407,"a75":193,"ag":[55,71,83,140,190,111,98,93,126,169,119,96,66,94,120,78,51,44,15,4,1],"nf":211},"geometry":{"type":"Polygon","coordinates":[[[135.54155,34.72852],[135.54036,34.72843],[135.54027,34.72894],[135.5402,34.72943],[135.54013,34.72988],[135.54009,34.73011],[135.54,34.73066],[135.5399,34.73126],[135.53965,34.73269],[135.5401,34.73283],[135.54097,34.73309],[135.54163,34.73329],[135.54204,34.73341],[135.54301,34.73371],[135.54365,34.73391],[135.54449,34.73416],[135.5452,34.73146],[135.54524,34.73128],[135.54531,34.73101],[135.54539,34.73057],[135.5454,34.73047],[135.54543,34.73027],[135.54544,34.73023],[135.54548,34.72997],[135.54548,34.72997],[135.54552,34.72973],[135.54556,34.7295],[135.54556,34.72949],[135.54562,34.72915],[135.54566,34.72897],[135.5456,34.72896],[135.5454,34.72894],[135.54455,34.72885],[135.54424,34.72882],[135.54362,34.72875],[135.54297,34.72868],[135.54284,34.72866],[135.54213,34.72858],[135.542,34.72857],[135.54188,34.72856],[135.54157,34.72853],[135.54155,34.72852]]]}},{"type":"Feature","properties":{"name":"生江一丁目","setai":610,"jinko":1343,"key":"27117003001","units":1,"m":652,"f":691,"gk":18,"a0":92,"a1":658,"a2":558,"a75":360,"ag":[28,27,37,45,61,42,53,58,80,83,98,82,56,75,123,127,90,75,51,14,3],"nf":35},"geometry":{"type":"Polygon","coordinates":[[[135.53783,34.72337],[135.5381,34.72337],[135.53855,34.72338],[135.53855,34.72337],[135.53856,34.72242],[135.53857,34.72219],[135.53857,34.72219],[135.53853,34.72174],[135.5385,34.72132],[135.53847,34.72098],[135.53777,34.72103],[135.53773,34.72103],[135.53635,34.72114],[135.53633,34.72114],[135.53581,34.72119],[135.5358,34.72119],[135.53532,34.72123],[135.53528,34.72123],[135.53451,34.72129],[135.53457,34.72195],[135.53462,34.7225],[135.53462,34.72251],[135.53468,34.72308],[135.53468,34.72309],[135.53473,34.72362],[135.53602,34.72352],[135.53603,34.72352],[135.53656,34.72348],[135.53657,34.72348],[135.53783,34.72337]]]}},{"type":"Feature","properties":{"name":"生江二丁目","setai":587,"jinko":1307,"key":"27117003002","units":1,"m":606,"f":701,"gk":21,"a0":125,"a1":622,"a2":495,"a75":333,"ag":[35,55,35,35,45,59,52,66,70,77,81,73,64,65,97,109,89,76,35,16,8],"nf":65},"geometry":{"type":"Polygon","coordinates":[[[135.53719,34.72551],[135.5373,34.72549],[135.53775,34.72551],[135.53858,34.72554],[135.53857,34.72532],[135.53856,34.72507],[135.53857,34.72472],[135.53857,34.7243],[135.53857,34.72429],[135.53857,34.72415],[135.53857,34.72391],[135.53856,34.72338],[135.53855,34.72338],[135.5381,34.72337],[135.53783,34.72337],[135.53657,34.72348],[135.53656,34.72348],[135.53603,34.72352],[135.53602,34.72352],[135.53473,34.72362],[135.53473,34.72364],[135.53478,34.7241],[135.53476,34.7241],[135.5348,34.72454],[135.5348,34.72455],[135.53484,34.725],[135.53484,34.72501],[135.53491,34.72578],[135.53508,34.72628],[135.53509,34.72628],[135.53548,34.72614],[135.53659,34.72571],[135.53662,34.72571],[135.5369,34.72562],[135.53691,34.72561],[135.53719,34.72551]]]}},{"type":"Feature","properties":{"name":"生江三丁目","setai":950,"jinko":1779,"key":"27117003003","units":1,"m":855,"f":924,"gk":109,"a0":124,"a1":933,"a2":715,"a75":456,"ag":[40,46,38,71,87,94,93,86,78,112,127,86,99,114,145,161,116,119,43,14,3],"nf":7},"geometry":{"type":"Polygon","coordinates":[[[135.53775,34.72551],[135.5373,34.72549],[135.53719,34.72551],[135.53691,34.72561],[135.5369,34.72562],[135.53662,34.72571],[135.53659,34.72571],[135.53548,34.72614],[135.53509,34.72628],[135.53508,34.72628],[135.53506,34.72629],[135.53455,34.7272],[135.53452,34.72725],[135.5343,34.72762],[135.53419,34.72765],[135.53362,34.72787],[135.53317,34.72804],[135.53333,34.72835],[135.53353,34.72872],[135.53365,34.72896],[135.53375,34.72915],[135.53378,34.7292],[135.53389,34.72955],[135.53401,34.7299],[135.53407,34.73006],[135.53421,34.73038],[135.53429,34.73055],[135.53467,34.73124],[135.53536,34.7325],[135.5382,34.73261],[135.5391,34.73266],[135.53965,34.73269],[135.5399,34.73126],[135.54,34.73066],[135.54009,34.73011],[135.54013,34.72988],[135.5402,34.72943],[135.54027,34.72894],[135.54036,34.72843],[135.5403,34.72841],[135.53947,34.72832],[135.53855,34.72822],[135.53859,34.7276],[135.53858,34.72751],[135.53858,34.72713],[135.53858,34.72681],[135.53858,34.72664],[135.53857,34.72607],[135.53858,34.72604],[135.53859,34.72555],[135.53858,34.72554],[135.53775,34.72551]]]}},{"type":"Feature","properties":{"name":"赤川一丁目","setai":469,"jinko":845,"key":"27117004001","units":1,"m":434,"f":411,"gk":12,"a0":81,"a1":457,"a2":270,"a75":167,"ag":[31,25,25,30,50,54,53,60,30,48,49,34,49,54,49,56,46,45,13,7,0],"nf":37},"geometry":{"type":"Polygon","coordinates":[[[135.53457,34.72195],[135.53451,34.72129],[135.53448,34.72129],[135.53401,34.72133],[135.53329,34.72139],[135.53217,34.72149],[135.53193,34.7218],[135.53135,34.72256],[135.53124,34.72272],[135.5312,34.72279],[135.53078,34.72348],[135.53049,34.72401],[135.53129,34.72393],[135.53211,34.72387],[135.53212,34.72387],[135.53352,34.72374],[135.53353,34.72374],[135.53473,34.72364],[135.53473,34.72362],[135.53468,34.72309],[135.53468,34.72308],[135.53462,34.72251],[135.53462,34.7225],[135.53457,34.72195]]]}},{"type":"Feature","properties":{"name":"赤川二丁目","setai":1088,"jinko":2219,"key":"27117004002","units":1,"m":1102,"f":1117,"gk":76,"a0":218,"a1":1330,"a2":671,"a75":407,"ag":[89,64,65,77,98,138,172,147,157,175,138,126,102,112,152,107,143,92,39,21,5]},"geometry":{"type":"Polygon","coordinates":[[[135.53478,34.7241],[135.53473,34.72364],[135.53353,34.72374],[135.53352,34.72374],[135.53212,34.72387],[135.53211,34.72387],[135.53129,34.72393],[135.53049,34.72401],[135.53022,34.72451],[135.53008,34.72478],[135.53001,34.72494],[135.53057,34.7254],[135.5307,34.7255],[135.5309,34.72566],[135.53126,34.72593],[135.53141,34.72599],[135.53145,34.726],[135.53202,34.72623],[135.53294,34.72661],[135.53375,34.72694],[135.53384,34.72697],[135.53452,34.72725],[135.53455,34.7272],[135.53506,34.72629],[135.53508,34.72628],[135.53491,34.72578],[135.53484,34.72501],[135.53484,34.725],[135.5348,34.72455],[135.5348,34.72454],[135.53476,34.7241],[135.53478,34.7241]]]}},{"type":"Feature","properties":{"name":"赤川三丁目","setai":517,"jinko":1111,"key":"27117004003","units":1,"m":545,"f":566,"gk":45,"a0":114,"a1":622,"a2":375,"a75":211,"ag":[42,35,37,48,45,50,62,82,70,76,61,71,57,65,99,62,60,60,24,4,1]},"geometry":{"type":"Polygon","coordinates":[[[135.53088,34.72776],[135.53091,34.72773],[135.53122,34.72777],[135.53177,34.72755],[135.53184,34.72752],[135.53224,34.72735],[135.53268,34.72717],[135.53267,34.72705],[135.53267,34.72705],[135.53294,34.72661],[135.53202,34.72623],[135.53145,34.726],[135.53141,34.72599],[135.53126,34.72593],[135.5309,34.72566],[135.5307,34.7255],[135.53057,34.7254],[135.53001,34.72494],[135.52983,34.72526],[135.52969,34.72551],[135.52966,34.72556],[135.52938,34.72608],[135.52932,34.7262],[135.52909,34.72673],[135.52869,34.72743],[135.52836,34.72804],[135.52828,34.72821],[135.52825,34.72825],[135.52797,34.72883],[135.5284,34.72871],[135.52846,34.72869],[135.52889,34.72854],[135.52949,34.72833],[135.52951,34.72832],[135.52979,34.72822],[135.53002,34.72814],[135.53024,34.72806],[135.53063,34.72789],[135.53089,34.72777],[135.53088,34.72776]]]}},{"type":"Feature","properties":{"name":"赤川四丁目","setai":979,"jinko":2094,"key":"27117004004","units":1,"m":1045,"f":1049,"gk":44,"a0":227,"a1":1213,"a2":642,"a75":358,"ag":[66,82,79,69,115,110,105,127,101,165,154,152,115,130,154,131,118,79,24,6,0],"nf":12},"geometry":{"type":"Polygon","coordinates":[[[135.53362,34.72787],[135.53419,34.72765],[135.5343,34.72762],[135.53452,34.72725],[135.53384,34.72697],[135.53375,34.72694],[135.53294,34.72661],[135.53267,34.72705],[135.53267,34.72705],[135.53268,34.72717],[135.53224,34.72735],[135.53184,34.72752],[135.53177,34.72755],[135.53122,34.72777],[135.53091,34.72773],[135.53088,34.72776],[135.53089,34.72777],[135.53063,34.72789],[135.53024,34.72806],[135.53002,34.72814],[135.52979,34.72822],[135.52951,34.72832],[135.52949,34.72833],[135.52889,34.72854],[135.52846,34.72869],[135.5284,34.72871],[135.52797,34.72883],[135.52763,34.72939],[135.5272,34.73016],[135.52717,34.73121],[135.52716,34.73244],[135.52747,34.73244],[135.52916,34.73245],[135.53055,34.73246],[135.53351,34.73248],[135.53464,34.73249],[135.53513,34.73249],[135.53536,34.7325],[135.53467,34.73124],[135.53429,34.73055],[135.53421,34.73038],[135.53407,34.73006],[135.53401,34.7299],[135.53389,34.72955],[135.53378,34.7292],[135.53375,34.72915],[135.53365,34.72896],[135.53353,34.72872],[135.53333,34.72835],[135.53317,34.72804],[135.53362,34.72787]]]}},{"type":"Feature","properties":{"name":"太子橋一丁目","setai":1321,"jinko":2614,"key":"27117005001","units":1,"m":1262,"f":1352,"gk":41,"a0":364,"a1":1582,"a2":550,"a75":281,"ag":[136,110,118,119,155,178,181,196,167,160,147,154,125,125,144,111,79,60,22,8,1],"nf":118},"geometry":{"type":"Polygon","coordinates":[[[135.55113,34.73681],[135.55121,34.73671],[135.55127,34.73676],[135.55315,34.73461],[135.55337,34.73436],[135.55361,34.73408],[135.55384,34.73383],[135.55389,34.73378],[135.55407,34.73357],[135.55409,34.73355],[135.5541,34.73353],[135.55341,34.73316],[135.55356,34.73298],[135.55358,34.73298],[135.55367,34.73286],[135.55355,34.73279],[135.55362,34.73269],[135.55372,34.73254],[135.55393,34.73212],[135.55415,34.73168],[135.55419,34.73164],[135.5542,34.73157],[135.55427,34.73149],[135.55438,34.73135],[135.55444,34.73129],[135.55448,34.73121],[135.5544,34.73117],[135.55439,34.73116],[135.55436,34.73115],[135.55437,34.73113],[135.55441,34.73105],[135.55441,34.73105],[135.55432,34.73101],[135.55433,34.73099],[135.55414,34.7309],[135.55397,34.73081],[135.55385,34.73072],[135.55328,34.73028],[135.55322,34.73024],[135.55308,34.73012],[135.55289,34.72999],[135.55261,34.72977],[135.55247,34.72966],[135.55214,34.72963],[135.55106,34.72952],[135.55073,34.72948],[135.55065,34.73],[135.55065,34.73002],[135.55058,34.73048],[135.55058,34.73048],[135.55052,34.73075],[135.55052,34.73075],[135.55044,34.73106],[135.55042,34.73115],[135.55042,34.73116],[135.5504,34.7313],[135.55036,34.73144],[135.55032,34.73167],[135.55018,34.73206],[135.55004,34.73246],[135.54991,34.73285],[135.54992,34.73285],[135.54892,34.73565],[135.54926,34.7358],[135.54966,34.736],[135.55047,34.73643],[135.55074,34.73659],[135.55113,34.73681]]]}},{"type":"Feature","properties":{"name":"太子橋二丁目","setai":470,"jinko":979,"key":"27117005002","units":1,"m":496,"f":483,"gk":12,"a0":116,"a1":581,"a2":258,"a75":126,"ag":[33,42,41,33,44,54,51,63,69,72,61,71,63,63,69,53,33,30,10,0,0],"nf":24},"geometry":{"type":"Polygon","coordinates":[[[135.55915,34.74163],[135.55886,34.74076],[135.55884,34.74069],[135.55861,34.74025],[135.5584,34.7399],[135.55833,34.73977],[135.55806,34.73937],[135.55775,34.73893],[135.55745,34.73849],[135.55735,34.73836],[135.55715,34.73812],[135.55687,34.73779],[135.55648,34.7374],[135.55621,34.73712],[135.55626,34.73709],[135.55658,34.73681],[135.55675,34.73666],[135.55676,34.73665],[135.55705,34.73639],[135.55713,34.73632],[135.55754,34.73595],[135.5579,34.73563],[135.55774,34.73549],[135.55754,34.73534],[135.5575,34.73531],[135.55687,34.73484],[135.55675,34.73474],[135.55655,34.73461],[135.55654,34.73462],[135.55652,34.73464],[135.55626,34.73489],[135.55613,34.73481],[135.55612,34.73482],[135.55604,34.73477],[135.55604,34.73477],[135.55604,34.73477],[135.55605,34.73477],[135.55605,34.73476],[135.55605,34.73476],[135.55606,34.73476],[135.55606,34.73476],[135.55606,34.73475],[135.55606,34.73475],[135.55607,34.73475],[135.55607,34.73474],[135.55607,34.73474],[135.55608,34.73474],[135.55608,34.73473],[135.55608,34.73473],[135.55609,34.73473],[135.55609,34.73473],[135.55609,34.73473],[135.5561,34.73472],[135.55611,34.73471],[135.55611,34.73471],[135.55612,34.7347],[135.55612,34.7347],[135.55612,34.73469],[135.55613,34.73469],[135.55614,34.73468],[135.55608,34.73464],[135.55606,34.73465],[135.55605,34.73466],[135.55602,34.73469],[135.556,34.73472],[135.55598,34.73473],[135.55598,34.73473],[135.55588,34.73466],[135.55592,34.73463],[135.55594,34.73461],[135.55579,34.7345],[135.55572,34.73445],[135.55528,34.7342],[135.55527,34.73419],[135.55526,34.73419],[135.55524,34.7342],[135.55523,34.73422],[135.55522,34.73423],[135.55521,34.73423],[135.55521,34.73424],[135.55521,34.73424],[135.55521,34.73424],[135.55521,34.73424],[135.55521,34.73424],[135.5552,34.73423],[135.55514,34.73419],[135.5551,34.73417],[135.55466,34.73398],[135.55469,34.73393],[135.55468,34.73392],[135.55464,34.7339],[135.55457,34.73385],[135.55456,34.73385],[135.55455,34.73386],[135.55441,34.73378],[135.55439,34.73381],[135.55409,34.73361],[135.55412,34.73356],[135.55411,34.73356],[135.55409,34.73355],[135.55409,34.73355],[135.55407,34.73357],[135.55389,34.73378],[135.55384,34.73383],[135.55361,34.73408],[135.55337,34.73436],[135.55315,34.73461],[135.55127,34.73676],[135.55119,34.73684],[135.55127,34.73688],[135.55151,34.73703],[135.55153,34.73704],[135.55161,34.73709],[135.5517,34.73714],[135.55179,34.7372],[135.55179,34.7372],[135.55188,34.73726],[135.55189,34.73726],[135.55196,34.7373],[135.55197,34.73731],[135.55203,34.73734],[135.55206,34.73736],[135.55209,34.73738],[135.5521,34.73739],[135.55218,34.73743],[135.55219,34.73745],[135.55234,34.73754],[135.55248,34.73762],[135.55249,34.73763],[135.55276,34.7378],[135.55283,34.73784],[135.55283,34.73784],[135.55298,34.73794],[135.55304,34.73797],[135.55304,34.73798],[135.55316,34.73805],[135.55318,34.73807],[135.55332,34.73816],[135.5534,34.7382],[135.55345,34.73824],[135.55357,34.73834],[135.55369,34.73842],[135.55374,34.73846],[135.55378,34.73849],[135.55378,34.73849],[135.55389,34.73857],[135.55397,34.73864],[135.55397,34.73864],[135.554,34.73866],[135.55408,34.73875],[135.55409,34.73876],[135.5541,34.73877],[135.55413,34.73879],[135.55418,34.73884],[135.55422,34.73888],[135.55436,34.73903],[135.55446,34.73912],[135.5545,34.73917],[135.55453,34.73921],[135.5546,34.73929],[135.55467,34.73938],[135.55473,34.73947],[135.55474,34.73948],[135.5548,34.73956],[135.55481,34.73957],[135.55482,34.73959],[135.55485,34.73962],[135.55485,34.73963],[135.55488,34.73966],[135.55491,34.73971],[135.55493,34.73976],[135.55497,34.73984],[135.55499,34.73989],[135.55499,34.73991],[135.55504,34.74002],[135.55507,34.74011],[135.55509,34.74016],[135.5551,34.7402],[135.55514,34.74029],[135.55516,34.74037],[135.55517,34.74038],[135.55519,34.74046],[135.5552,34.74047],[135.55522,34.74054],[135.55523,34.74058],[135.55525,34.74062],[135.55528,34.7407],[135.55528,34.74072],[135.55532,34.74082],[135.55535,34.74091],[135.55538,34.74099],[135.5554,34.74109],[135.55542,34.74112],[135.55544,34.74122],[135.55547,34.74131],[135.5555,34.7414],[135.5555,34.74139],[135.5556,34.7417],[135.55573,34.74237],[135.55573,34.7429],[135.5557,34.74361],[135.55567,34.74391],[135.55559,34.74463],[135.55556,34.74485],[135.5556,34.74498],[135.55563,34.74516],[135.55568,34.74529],[135.55577,34.74513],[135.55608,34.74469],[135.5569,34.74391],[135.55754,34.74339],[135.55837,34.74277],[135.55885,34.74247],[135.55908,34.74233],[135.55926,34.74222],[135.55915,34.74163]]]}},{"type":"Feature","properties":{"name":"太子橋三丁目","setai":1598,"jinko":3546,"key":"27117005003","units":1,"m":1620,"f":1926,"gk":22,"a0":394,"a1":1866,"a2":1232,"a75":693,"ag":[122,130,142,154,143,125,138,198,204,258,219,230,197,231,308,276,208,134,61,10,4],"nf":54},"geometry":{"type":"Polygon","coordinates":[[[135.561,34.73826],[135.56091,34.73819],[135.56084,34.73824],[135.56081,34.73808],[135.56075,34.73775],[135.56061,34.73752],[135.56058,34.73747],[135.56041,34.73711],[135.5591,34.7362],[135.55894,34.73611],[135.55888,34.73608],[135.55815,34.73567],[135.55793,34.73558],[135.55784,34.73555],[135.55774,34.73549],[135.5579,34.73563],[135.55754,34.73595],[135.55713,34.73632],[135.55705,34.73639],[135.55676,34.73665],[135.55675,34.73666],[135.55658,34.73681],[135.55626,34.73709],[135.55621,34.73712],[135.55648,34.7374],[135.55687,34.73779],[135.55715,34.73812],[135.55735,34.73836],[135.55745,34.73849],[135.55775,34.73893],[135.55806,34.73937],[135.55833,34.73977],[135.5584,34.7399],[135.55861,34.74025],[135.55884,34.74069],[135.55886,34.74076],[135.55915,34.74163],[135.55926,34.74222],[135.55935,34.74223],[135.55948,34.74224],[135.55963,34.74219],[135.55956,34.74202],[135.5601,34.74186],[135.56007,34.74181],[135.56021,34.74177],[135.56014,34.74162],[135.56028,34.74158],[135.56023,34.74148],[135.56025,34.74147],[135.56045,34.74141],[135.56063,34.74135],[135.56062,34.74133],[135.56054,34.74116],[135.56067,34.74111],[135.5606,34.74096],[135.56076,34.74091],[135.56074,34.74086],[135.56074,34.74086],[135.56078,34.74085],[135.56083,34.74083],[135.56081,34.74079],[135.56089,34.74076],[135.56088,34.74075],[135.56092,34.74073],[135.56089,34.74066],[135.56102,34.74062],[135.56099,34.74055],[135.56108,34.74051],[135.56096,34.74042],[135.56102,34.74037],[135.56104,34.74035],[135.56104,34.74035],[135.56099,34.74031],[135.56108,34.74023],[135.56096,34.74014],[135.56104,34.74007],[135.56093,34.73998],[135.56102,34.7399],[135.56111,34.73983],[135.56111,34.73982],[135.56097,34.73971],[135.56101,34.73968],[135.56104,34.73965],[135.56107,34.73963],[135.56107,34.73962],[135.56108,34.73962],[135.56109,34.73961],[135.56109,34.73961],[135.56111,34.7396],[135.56112,34.73959],[135.56112,34.73959],[135.56112,34.73958],[135.56114,34.73957],[135.56115,34.73956],[135.56116,34.73955],[135.56115,34.73955],[135.56109,34.7395],[135.56109,34.7395],[135.56111,34.73949],[135.56107,34.73946],[135.56115,34.73938],[135.56103,34.73929],[135.56104,34.73928],[135.56113,34.7392],[135.56102,34.73911],[135.56103,34.73911],[135.56101,34.73909],[135.56097,34.73906],[135.56095,34.73905],[135.56095,34.73905],[135.56103,34.73898],[135.56097,34.73893],[135.56106,34.73886],[135.56093,34.73876],[135.56103,34.73866],[135.56101,34.73865],[135.56088,34.73855],[135.56095,34.73849],[135.56103,34.73843],[135.56096,34.73838],[135.56092,34.73835],[135.561,34.73826]]]}},{"type":"Feature","properties":{"name":"今市一丁目","setai":1276,"jinko":2156,"key":"27117006001","units":1,"m":1071,"f":1085,"gk":57,"a0":222,"a1":1386,"a2":525,"a75":268,"ag":[63,67,92,88,116,140,143,159,154,181,158,126,121,113,144,104,81,55,24,4,0],"nf":23},"geometry":{"type":"Polygon","coordinates":[[[135.55296,34.72676],[135.55287,34.72621],[135.55285,34.72621],[135.55281,34.72596],[135.5528,34.72588],[135.55273,34.72547],[135.55207,34.72557],[135.55174,34.72565],[135.55169,34.72548],[135.55109,34.72556],[135.55106,34.72553],[135.55084,34.72554],[135.55085,34.72558],[135.54977,34.7258],[135.54983,34.72595],[135.54988,34.7261],[135.54989,34.72612],[135.55001,34.72637],[135.55006,34.72649],[135.55012,34.72664],[135.55023,34.72691],[135.55028,34.72702],[135.5503,34.72706],[135.55032,34.7271],[135.55034,34.72717],[135.55036,34.72721],[135.55054,34.72762],[135.55078,34.72819],[135.5509,34.7284],[135.55101,34.7285],[135.55189,34.72919],[135.55198,34.72927],[135.55247,34.72966],[135.55261,34.72977],[135.55278,34.72942],[135.55289,34.72915],[135.55306,34.72866],[135.55306,34.72866],[135.55306,34.72802],[135.55306,34.728],[135.55305,34.72761],[135.55304,34.7273],[135.55304,34.7273],[135.55296,34.72676]]]}},{"type":"Feature","properties":{"name":"今市二丁目","setai":1253,"jinko":2290,"key":"27117006002","units":1,"m":1085,"f":1205,"gk":37,"a0":195,"a1":1440,"a2":625,"a75":314,"ag":[73,58,64,89,136,145,150,136,169,175,167,141,132,141,170,122,92,68,27,4,1],"nf":30},"geometry":{"type":"Polygon","coordinates":[[[135.55455,34.73087],[135.55445,34.73081],[135.55445,34.73081],[135.55443,34.7308],[135.55443,34.7308],[135.55443,34.73075],[135.55443,34.73073],[135.55443,34.73073],[135.55444,34.73068],[135.55444,34.73068],[135.55446,34.73064],[135.55447,34.73063],[135.55453,34.73052],[135.55457,34.73043],[135.55459,34.73039],[135.55459,34.73031],[135.5546,34.73029],[135.5546,34.73022],[135.5546,34.73017],[135.55461,34.73009],[135.55461,34.73001],[135.55461,34.73001],[135.55461,34.72999],[135.55461,34.72994],[135.55462,34.72987],[135.55462,34.72975],[135.55462,34.72971],[135.55462,34.72964],[135.55463,34.72957],[135.55463,34.72953],[135.55462,34.7295],[135.55462,34.72943],[135.55463,34.7289],[135.55465,34.72874],[135.55465,34.72859],[135.55464,34.72838],[135.55464,34.72837],[135.5546,34.72834],[135.55459,34.72817],[135.55461,34.72794],[135.55464,34.72769],[135.55465,34.72764],[135.55468,34.72765],[135.5547,34.72747],[135.55471,34.72736],[135.55471,34.72734],[135.55472,34.72711],[135.55473,34.7271],[135.55474,34.72691],[135.55472,34.72667],[135.55468,34.72619],[135.55469,34.72612],[135.55471,34.72606],[135.55472,34.72604],[135.55475,34.72588],[135.55476,34.72583],[135.5548,34.72564],[135.55453,34.72562],[135.55452,34.72564],[135.55416,34.72561],[135.55413,34.72558],[135.55409,34.7253],[135.55345,34.72525],[135.55345,34.72525],[135.55271,34.72524],[135.55273,34.72547],[135.5528,34.72588],[135.55281,34.72596],[135.55285,34.72621],[135.55287,34.72621],[135.55296,34.72676],[135.55304,34.7273],[135.55304,34.7273],[135.55305,34.72761],[135.55306,34.728],[135.55306,34.72802],[135.55306,34.72866],[135.55306,34.72866],[135.55289,34.72915],[135.55278,34.72942],[135.55261,34.72977],[135.55289,34.72999],[135.55308,34.73012],[135.55322,34.73024],[135.55328,34.73028],[135.55385,34.73072],[135.55397,34.73081],[135.55414,34.7309],[135.55433,34.73099],[135.55432,34.73101],[135.55441,34.73105],[135.55441,34.73105],[135.55441,34.73105],[135.55442,34.73103],[135.55455,34.73087]]]}},{"type":"Feature","properties":{"name":"千林一丁目","setai":397,"jinko":676,"key":"27117007001","units":1,"m":328,"f":348,"gk":7,"a0":39,"a1":399,"a2":230,"a75":115,"ag":[11,13,15,16,27,49,45,33,44,44,46,45,50,51,64,45,33,23,11,3,0],"nf":8},"geometry":{"type":"Polygon","coordinates":[[[135.55488,34.72421],[135.55429,34.72334],[135.55432,34.72334],[135.55416,34.72311],[135.5536,34.72228],[135.55352,34.72218],[135.55336,34.72196],[135.55319,34.72169],[135.55318,34.72168],[135.55311,34.72159],[135.55278,34.72177],[135.5524,34.72198],[135.55229,34.72211],[135.55214,34.72224],[135.55213,34.72225],[135.55192,34.72239],[135.55187,34.72244],[135.5518,34.72271],[135.55176,34.72303],[135.55179,34.72318],[135.55169,34.72335],[135.55164,34.72341],[135.55148,34.7236],[135.55143,34.72371],[135.55142,34.72395],[135.55143,34.72395],[135.55164,34.72396],[135.55191,34.72397],[135.55252,34.72399],[135.55273,34.72399],[135.55314,34.72399],[135.55374,34.72411],[135.55375,34.72411],[135.55419,34.72419],[135.55472,34.72429],[135.55481,34.72442],[135.55486,34.72458],[135.55496,34.72466],[135.555,34.72467],[135.55508,34.72469],[135.55523,34.72472],[135.5553,34.72475],[135.55504,34.72438],[135.55488,34.72421]]]}},{"type":"Feature","properties":{"name":"千林二丁目","setai":660,"jinko":1262,"key":"27117007002","units":1,"m":575,"f":687,"gk":16,"a0":137,"a1":758,"a2":351,"a75":199,"ag":[41,46,50,58,61,52,71,68,96,104,90,90,68,72,80,84,53,39,20,3,0],"nf":16},"geometry":{"type":"Polygon","coordinates":[[[135.55084,34.72554],[135.55106,34.72553],[135.55109,34.72556],[135.55169,34.72548],[135.55174,34.72565],[135.55207,34.72557],[135.55273,34.72547],[135.55271,34.72524],[135.55345,34.72525],[135.55345,34.72525],[135.55409,34.7253],[135.55413,34.72558],[135.55416,34.72561],[135.55452,34.72564],[135.55453,34.72562],[135.5548,34.72564],[135.55482,34.72558],[135.55482,34.72555],[135.55488,34.72527],[135.55489,34.72525],[135.55495,34.72498],[135.55496,34.72496],[135.55497,34.72493],[135.555,34.72467],[135.55496,34.72466],[135.55486,34.72458],[135.55481,34.72442],[135.55472,34.72429],[135.55419,34.72419],[135.55375,34.72411],[135.55374,34.72411],[135.55314,34.72399],[135.55273,34.72399],[135.55252,34.72399],[135.55191,34.72397],[135.55164,34.72396],[135.55143,34.72395],[135.55142,34.72397],[135.5509,34.72394],[135.55091,34.72399],[135.55086,34.72415],[135.55045,34.72411],[135.5503,34.7241],[135.54995,34.72411],[135.54921,34.72414],[135.54935,34.72458],[135.54942,34.7248],[135.54945,34.72489],[135.54952,34.72506],[135.5496,34.72529],[135.54969,34.72557],[135.54971,34.72563],[135.54977,34.7258],[135.55085,34.72558],[135.55084,34.72554]]]}},{"type":"Feature","properties":{"name":"森小路一丁目","setai":876,"jinko":1731,"key":"27117008001","units":1,"m":825,"f":906,"gk":56,"a0":214,"a1":1112,"a2":396,"a75":204,"ag":[73,83,58,80,106,112,113,126,99,144,122,123,87,101,91,72,66,44,16,5,1],"nf":9},"geometry":{"type":"Polygon","coordinates":[[[135.55073,34.71809],[135.55072,34.71808],[135.54991,34.71851],[135.54909,34.71894],[135.54883,34.71907],[135.54857,34.7192],[135.54831,34.71933],[135.54796,34.71949],[135.5478,34.71956],[135.54792,34.71996],[135.54802,34.72029],[135.54803,34.7203],[135.54823,34.72097],[135.54824,34.721],[135.54834,34.7213],[135.54839,34.72148],[135.54839,34.72149],[135.54846,34.72169],[135.54856,34.72205],[135.54856,34.72205],[135.54899,34.722],[135.54901,34.72199],[135.54946,34.72194],[135.54972,34.7219],[135.54984,34.72189],[135.55043,34.72181],[135.55042,34.7217],[135.55036,34.72139],[135.55033,34.72112],[135.5503,34.72095],[135.55023,34.72072],[135.55023,34.72069],[135.55037,34.72057],[135.55065,34.72038],[135.55101,34.72013],[135.5512,34.71999],[135.55123,34.71997],[135.55135,34.71989],[135.55177,34.7196],[135.55104,34.71851],[135.55103,34.7185],[135.55073,34.71809]]]}},{"type":"Feature","properties":{"name":"森小路二丁目","setai":753,"jinko":1475,"key":"27117008002","units":1,"m":662,"f":813,"gk":14,"a0":155,"a1":808,"a2":489,"a75":275,"ag":[43,54,58,50,64,81,96,82,85,102,91,76,81,84,130,84,83,72,30,5,1],"nf":23},"geometry":{"type":"Polygon","coordinates":[[[135.55086,34.72415],[135.55091,34.72399],[135.5509,34.72394],[135.55142,34.72397],[135.55143,34.72395],[135.55142,34.72395],[135.55143,34.72371],[135.55148,34.7236],[135.55164,34.72341],[135.55169,34.72335],[135.55179,34.72318],[135.55176,34.72303],[135.5518,34.72271],[135.55187,34.72244],[135.55192,34.72239],[135.55213,34.72225],[135.55214,34.72224],[135.55229,34.72211],[135.5524,34.72198],[135.55278,34.72177],[135.55311,34.72159],[135.55268,34.72093],[135.55241,34.72053],[135.55237,34.72048],[135.55232,34.72041],[135.55177,34.7196],[135.55135,34.71989],[135.55123,34.71997],[135.5512,34.71999],[135.55101,34.72013],[135.55065,34.72038],[135.55037,34.72057],[135.55023,34.72069],[135.55023,34.72072],[135.5503,34.72095],[135.55033,34.72112],[135.55036,34.72139],[135.55042,34.7217],[135.55043,34.72181],[135.54984,34.72189],[135.54972,34.7219],[135.54946,34.72194],[135.54901,34.72199],[135.54899,34.722],[135.54856,34.72205],[135.54872,34.72255],[135.54872,34.72257],[135.54877,34.72271],[135.54888,34.72307],[135.54911,34.72381],[135.54915,34.72395],[135.5492,34.7241],[135.54921,34.72414],[135.54995,34.72411],[135.5503,34.7241],[135.55045,34.72411],[135.55086,34.72415]]]}},{"type":"Feature","properties":{"name":"清水一丁目","setai":785,"jinko":1584,"key":"27117009001","units":1,"m":774,"f":810,"gk":22,"a0":168,"a1":933,"a2":477,"a75":279,"ag":[46,65,57,64,78,77,81,88,102,118,115,118,92,88,110,105,83,68,17,5,1],"nf":6},"geometry":{"type":"Polygon","coordinates":[[[135.55606,34.72317],[135.55611,34.723],[135.55622,34.72301],[135.55621,34.72239],[135.5562,34.72202],[135.55618,34.72163],[135.55617,34.72126],[135.55616,34.72088],[135.55615,34.72049],[135.55567,34.72048],[135.55566,34.72048],[135.55555,34.72048],[135.55479,34.71995],[135.55475,34.71996],[135.55451,34.72019],[135.55428,34.72041],[135.55427,34.72042],[135.55397,34.72073],[135.55362,34.72106],[135.55319,34.72149],[135.5532,34.72164],[135.55319,34.72169],[135.55336,34.72196],[135.55352,34.72218],[135.5536,34.72228],[135.55416,34.72311],[135.55432,34.72334],[135.55429,34.72334],[135.55488,34.72421],[135.55504,34.72438],[135.55523,34.7243],[135.55554,34.72417],[135.55565,34.72413],[135.55569,34.72411],[135.55588,34.72404],[135.55599,34.724],[135.55603,34.72397],[135.556,34.72371],[135.556,34.72344],[135.55606,34.72317]]]}},{"type":"Feature","properties":{"name":"清水二丁目","setai":931,"jinko":2045,"key":"27117009002","units":1,"m":970,"f":1075,"gk":34,"a0":236,"a1":1212,"a2":593,"a75":331,"ag":[72,85,79,83,106,106,95,108,152,174,129,146,113,109,153,117,104,64,34,9,3],"nf":4},"geometry":{"type":"Polygon","coordinates":[[[135.55611,34.72391],[135.55643,34.72363],[135.5569,34.72364],[135.55691,34.72363],[135.55719,34.72351],[135.55728,34.7234],[135.55729,34.72339],[135.5576,34.72325],[135.55761,34.72325],[135.55782,34.72314],[135.55797,34.72306],[135.55822,34.72293],[135.55844,34.72282],[135.55856,34.72271],[135.55866,34.72262],[135.55924,34.7224],[135.55926,34.72238],[135.5593,34.72233],[135.55981,34.72207],[135.56027,34.72184],[135.56079,34.7216],[135.56077,34.72114],[135.56075,34.72044],[135.56075,34.72038],[135.56,34.72039],[135.55872,34.72042],[135.55871,34.72042],[135.55844,34.72043],[135.55811,34.72043],[135.55744,34.72045],[135.55742,34.72046],[135.55615,34.72049],[135.55616,34.72088],[135.55617,34.72126],[135.55618,34.72163],[135.5562,34.72202],[135.55621,34.72239],[135.55622,34.72301],[135.55611,34.723],[135.55606,34.72317],[135.556,34.72344],[135.556,34.72371],[135.55603,34.72397],[135.55611,34.72391]]]}},{"type":"Feature","properties":{"name":"清水三丁目","setai":1240,"jinko":2491,"key":"27117009003","units":1,"m":1137,"f":1354,"gk":59,"a0":226,"a1":1401,"a2":847,"a75":549,"ag":[84,67,75,82,115,149,158,124,146,196,172,146,113,136,162,161,153,123,83,20,9],"nf":17},"geometry":{"type":"Polygon","coordinates":[[[135.56086,34.72409],[135.56085,34.72335],[135.56082,34.72255],[135.5608,34.72177],[135.56079,34.7216],[135.56027,34.72184],[135.55981,34.72207],[135.5593,34.72233],[135.55926,34.72238],[135.55924,34.7224],[135.55866,34.72262],[135.55856,34.72271],[135.55844,34.72282],[135.55822,34.72293],[135.55797,34.72306],[135.55782,34.72314],[135.55761,34.72325],[135.5576,34.72325],[135.55729,34.72339],[135.55728,34.7234],[135.55719,34.72351],[135.55691,34.72363],[135.5569,34.72364],[135.55643,34.72363],[135.55611,34.72391],[135.55603,34.72397],[135.55599,34.724],[135.55588,34.72404],[135.55569,34.72411],[135.55565,34.72413],[135.55554,34.72417],[135.55523,34.7243],[135.55504,34.72438],[135.5553,34.72475],[135.55556,34.72481],[135.5559,34.72489],[135.55605,34.72494],[135.55607,34.72495],[135.55643,34.72508],[135.55643,34.72509],[135.55674,34.72517],[135.55675,34.72518],[135.55682,34.72519],[135.55711,34.72528],[135.55719,34.7253],[135.55741,34.72537],[135.55741,34.72537],[135.55749,34.72539],[135.55772,34.72544],[135.55781,34.72546],[135.55784,34.72547],[135.55833,34.72559],[135.5584,34.72559],[135.55848,34.72559],[135.55875,34.72561],[135.55894,34.72562],[135.55903,34.72563],[135.55912,34.72564],[135.55952,34.72585],[135.55963,34.7259],[135.55964,34.72591],[135.55986,34.72601],[135.55991,34.72599],[135.56005,34.72579],[135.56014,34.72567],[135.56027,34.72559],[135.56055,34.72551],[135.5606,34.72533],[135.56067,34.72517],[135.56071,34.72511],[135.56087,34.72508],[135.56088,34.72508],[135.56087,34.72457],[135.56086,34.72409]]]}},{"type":"Feature","properties":{"name":"清水四丁目","setai":1090,"jinko":2049,"key":"27117009004","units":1,"m":1018,"f":1031,"gk":81,"a0":263,"a1":1322,"a2":462,"a75":240,"ag":[97,80,86,97,138,140,142,132,154,167,139,122,91,101,121,101,77,38,19,5,0],"nf":2},"geometry":{"type":"Polygon","coordinates":[[[135.56324,34.72232],[135.56339,34.7223],[135.56377,34.72232],[135.56377,34.72233],[135.56386,34.72233],[135.5644,34.72237],[135.56449,34.72238],[135.56515,34.72241],[135.56516,34.72251],[135.56529,34.72253],[135.56532,34.72235],[135.56533,34.72233],[135.56539,34.72205],[135.56543,34.72195],[135.56546,34.72188],[135.56549,34.72184],[135.56551,34.72182],[135.56555,34.72177],[135.56558,34.72173],[135.56541,34.72167],[135.56538,34.72165],[135.56548,34.72141],[135.56555,34.72123],[135.5656,34.72106],[135.56561,34.72103],[135.56564,34.7209],[135.56566,34.72078],[135.56568,34.72066],[135.5657,34.72053],[135.5657,34.72047],[135.56538,34.72047],[135.56439,34.72047],[135.56438,34.72047],[135.56293,34.72046],[135.5629,34.72045],[135.56289,34.72045],[135.56149,34.72044],[135.56146,34.72042],[135.56142,34.72042],[135.56075,34.72044],[135.56077,34.72114],[135.56079,34.7216],[135.5608,34.72177],[135.56082,34.72255],[135.56221,34.72246],[135.56279,34.72237],[135.56285,34.72236],[135.56324,34.72232]]]}},{"type":"Feature","properties":{"name":"清水五丁目","setai":797,"jinko":1523,"key":"27117009005","units":1,"m":732,"f":791,"gk":71,"a0":169,"a1":929,"a2":415,"a75":200,"ag":[62,54,53,64,86,116,126,97,91,109,90,75,75,94,121,80,66,36,14,4,0],"nf":10},"geometry":{"type":"Polygon","coordinates":[[[135.56185,34.72518],[135.56184,34.72511],[135.56182,34.72499],[135.56182,34.72496],[135.56215,34.72493],[135.56216,34.72495],[135.56216,34.72495],[135.56216,34.72495],[135.56221,34.7251],[135.56241,34.72506],[135.56244,34.725],[135.56261,34.72498],[135.56259,34.72489],[135.5627,34.72488],[135.56272,34.72504],[135.56281,34.72503],[135.56281,34.72503],[135.5628,34.72503],[135.5628,34.72502],[135.5628,34.72502],[135.5628,34.72502],[135.5628,34.72501],[135.5628,34.72501],[135.5628,34.725],[135.5628,34.72498],[135.5628,34.72497],[135.5628,34.72496],[135.56279,34.72494],[135.56279,34.72493],[135.56279,34.72492],[135.56279,34.72491],[135.56279,34.7249],[135.56279,34.7249],[135.56279,34.72489],[135.56279,34.72489],[135.56279,34.72488],[135.56279,34.72488],[135.56279,34.72487],[135.56279,34.72487],[135.56278,34.72487],[135.56278,34.72486],[135.56278,34.72486],[135.56278,34.72485],[135.56278,34.72485],[135.56278,34.72485],[135.56278,34.72484],[135.56278,34.72484],[135.56278,34.72484],[135.56279,34.72484],[135.56279,34.72484],[135.5628,34.72484],[135.5628,34.72484],[135.56281,34.72484],[135.56281,34.72483],[135.56282,34.72483],[135.56283,34.72483],[135.56284,34.72483],[135.56285,34.72483],[135.56287,34.72483],[135.56289,34.72482],[135.56291,34.72482],[135.56293,34.72482],[135.56294,34.72482],[135.56295,34.72482],[135.56296,34.72482],[135.56298,34.72481],[135.563,34.72481],[135.56305,34.7248],[135.56312,34.72479],[135.56312,34.72479],[135.56313,34.72478],[135.56317,34.72476],[135.56322,34.72474],[135.56324,34.72472],[135.56326,34.72472],[135.56326,34.72472],[135.56329,34.7247],[135.56329,34.7247],[135.56344,34.72462],[135.56364,34.72451],[135.56368,34.72448],[135.56393,34.72449],[135.56395,34.72437],[135.56414,34.72439],[135.56415,34.72433],[135.56396,34.72431],[135.56398,34.72422],[135.56407,34.72414],[135.56408,34.72413],[135.56438,34.72385],[135.56442,34.72382],[135.56452,34.72369],[135.56467,34.72343],[135.56472,34.7233],[135.56482,34.72306],[135.56488,34.72303],[135.56505,34.72301],[135.56508,34.72296],[135.56513,34.72287],[135.56513,34.72286],[135.56513,34.72274],[135.56513,34.72269],[135.56513,34.72262],[135.56513,34.72258],[135.56512,34.72255],[135.56512,34.72251],[135.56516,34.72251],[135.56515,34.72241],[135.56449,34.72238],[135.5644,34.72237],[135.56386,34.72233],[135.56377,34.72233],[135.56377,34.72232],[135.56339,34.7223],[135.56324,34.72232],[135.56285,34.72236],[135.56279,34.72237],[135.56221,34.72246],[135.56082,34.72255],[135.56085,34.72335],[135.56086,34.72409],[135.56087,34.72457],[135.56088,34.72508],[135.56129,34.72503],[135.56132,34.72519],[135.56139,34.72518],[135.56166,34.72515],[135.56167,34.72515],[135.56169,34.7252],[135.56185,34.72518]]]}},{"type":"Feature","properties":{"name":"新森一丁目","setai":1762,"jinko":3611,"key":"27117010001","units":1,"m":1652,"f":1959,"gk":47,"a0":315,"a1":2086,"a2":1191,"a75":575,"ag":[94,104,117,126,163,177,173,181,215,278,279,244,250,292,324,266,146,108,40,14,1],"nf":19},"geometry":{"type":"Polygon","coordinates":[[[135.5544,34.71543],[135.55438,34.71526],[135.55315,34.71528],[135.55302,34.71528],[135.55226,34.7153],[135.55197,34.71531],[135.55193,34.71531],[135.55159,34.71532],[135.5514,34.71532],[135.55114,34.71533],[135.55104,34.71533],[135.55085,34.71533],[135.55079,34.71534],[135.55062,34.71534],[135.55024,34.71536],[135.55016,34.71537],[135.54971,34.71539],[135.54958,34.7154],[135.54891,34.71543],[135.54892,34.71545],[135.54897,34.71548],[135.54923,34.71591],[135.54935,34.7161],[135.54952,34.71633],[135.55004,34.71703],[135.55005,34.71705],[135.55061,34.71785],[135.55072,34.71808],[135.55073,34.71809],[135.55086,34.71801],[135.55143,34.71771],[135.55186,34.71748],[135.5526,34.71709],[135.55266,34.71705],[135.55269,34.71704],[135.55277,34.71699],[135.55289,34.71693],[135.55329,34.71671],[135.5534,34.71665],[135.55359,34.71655],[135.55382,34.71643],[135.55392,34.71636],[135.55399,34.71632],[135.55412,34.71622],[135.55419,34.71614],[135.55423,34.7161],[135.55431,34.71596],[135.55432,34.71591],[135.55437,34.71581],[135.55438,34.71572],[135.5544,34.71557],[135.5544,34.71543]]]}},{"type":"Feature","properties":{"name":"新森二丁目","setai":1036,"jinko":2128,"key":"27117010002","units":1,"m":1026,"f":1102,"gk":57,"a0":198,"a1":1256,"a2":652,"a75":378,"ag":[67,60,71,79,128,123,112,120,116,175,158,127,118,126,148,114,112,77,56,13,6],"nf":22},"geometry":{"type":"Polygon","coordinates":[[[135.55322,34.71896],[135.55385,34.71887],[135.55385,34.71889],[135.55409,34.71885],[135.55446,34.71876],[135.555,34.71863],[135.55516,34.71861],[135.55515,34.7186],[135.55595,34.71857],[135.55595,34.71856],[135.55594,34.71828],[135.55594,34.71825],[135.55607,34.71818],[135.55606,34.71779],[135.55606,34.71771],[135.55605,34.71742],[135.55605,34.71739],[135.55604,34.71703],[135.55603,34.71664],[135.55601,34.71625],[135.556,34.71588],[135.55596,34.71522],[135.55566,34.71523],[135.55532,34.71524],[135.55452,34.71525],[135.55438,34.71526],[135.5544,34.71543],[135.5544,34.71557],[135.55438,34.71572],[135.55437,34.71581],[135.55432,34.71591],[135.55431,34.71596],[135.55423,34.7161],[135.55419,34.71614],[135.55412,34.71622],[135.55399,34.71632],[135.55392,34.71636],[135.55382,34.71643],[135.55359,34.71655],[135.5534,34.71665],[135.55329,34.71671],[135.55289,34.71693],[135.55277,34.71699],[135.55269,34.71704],[135.55266,34.71705],[135.5526,34.71709],[135.55186,34.71748],[135.55143,34.71771],[135.55086,34.71801],[135.55073,34.71809],[135.55103,34.7185],[135.55104,34.71851],[135.55177,34.7196],[135.55212,34.71943],[135.55197,34.7192],[135.55196,34.71911],[135.55217,34.7191],[135.55234,34.71908],[135.55247,34.71906],[135.55322,34.71896]]]}},{"type":"Feature","properties":{"name":"新森三丁目","setai":513,"jinko":1084,"key":"27117010003","units":1,"m":499,"f":585,"gk":11,"a0":99,"a1":624,"a2":361,"a75":210,"ag":[35,34,30,40,47,68,52,55,62,93,82,76,49,56,95,63,53,53,30,10,1]},"geometry":{"type":"Polygon","coordinates":[[[135.55475,34.71996],[135.55479,34.71995],[135.55555,34.72048],[135.55566,34.72048],[135.55567,34.72048],[135.55615,34.72049],[135.55614,34.72011],[135.55613,34.71972],[135.55612,34.71934],[135.55611,34.71898],[135.55597,34.71885],[135.55595,34.71857],[135.55515,34.7186],[135.55516,34.71861],[135.555,34.71863],[135.55446,34.71876],[135.55409,34.71885],[135.55385,34.71889],[135.55385,34.71887],[135.55322,34.71896],[135.55247,34.71906],[135.55234,34.71908],[135.55217,34.7191],[135.55196,34.71911],[135.55197,34.7192],[135.55212,34.71943],[135.55177,34.7196],[135.55232,34.72041],[135.55237,34.72048],[135.55241,34.72053],[135.55268,34.72093],[135.55311,34.72159],[135.55318,34.72168],[135.55319,34.72169],[135.5532,34.72164],[135.55319,34.72149],[135.55362,34.72106],[135.55397,34.72073],[135.55427,34.72042],[135.55428,34.72041],[135.55451,34.72019],[135.55475,34.71996]]]}},{"type":"Feature","properties":{"name":"新森四丁目","setai":1231,"jinko":2621,"key":"27117010004","units":1,"m":1299,"f":1322,"gk":60,"a0":361,"a1":1628,"a2":610,"a75":339,"ag":[119,126,116,121,134,152,155,165,168,214,188,176,155,105,166,114,100,83,30,9,3],"nf":22},"geometry":{"type":"Polygon","coordinates":[[[135.56054,34.71577],[135.56053,34.71511],[135.56047,34.71511],[135.5604,34.71512],[135.56011,34.71513],[135.55983,34.71513],[135.55927,34.71515],[135.55853,34.71516],[135.55814,34.71517],[135.55726,34.7152],[135.55596,34.71522],[135.556,34.71588],[135.55601,34.71625],[135.55603,34.71664],[135.55604,34.71703],[135.55605,34.71739],[135.55605,34.71742],[135.55606,34.71771],[135.55606,34.71779],[135.55607,34.71818],[135.55594,34.71825],[135.55594,34.71828],[135.55595,34.71856],[135.55737,34.71854],[135.55866,34.71851],[135.55993,34.71848],[135.56066,34.71847],[135.56065,34.71818],[135.56061,34.71748],[135.56061,34.71729],[135.56061,34.71714],[135.56061,34.71709],[135.56059,34.71682],[135.56058,34.71652],[135.56054,34.71577]]]}},{"type":"Feature","properties":{"name":"新森五丁目","setai":751,"jinko":1519,"key":"27117010005","units":1,"m":721,"f":798,"gk":33,"a0":154,"a1":894,"a2":450,"a75":259,"ag":[54,48,52,55,86,70,81,73,105,114,124,105,81,75,116,92,80,54,22,11,0],"nf":21},"geometry":{"type":"Polygon","coordinates":[[[135.55744,34.72045],[135.55811,34.72043],[135.55844,34.72043],[135.55871,34.72042],[135.55872,34.72042],[135.56,34.72039],[135.56075,34.72038],[135.56074,34.72015],[135.56073,34.72014],[135.56071,34.7199],[135.5607,34.71955],[135.56069,34.71948],[135.56068,34.71921],[135.56066,34.71847],[135.55993,34.71848],[135.55866,34.71851],[135.55737,34.71854],[135.55595,34.71856],[135.55595,34.71857],[135.55597,34.71885],[135.55611,34.71898],[135.55612,34.71934],[135.55613,34.71972],[135.55614,34.72011],[135.55615,34.72049],[135.55742,34.72046],[135.55744,34.72045]]]}},{"type":"Feature","properties":{"name":"新森六丁目","setai":645,"jinko":1437,"key":"27117010006","units":1,"m":661,"f":776,"gk":53,"a0":192,"a1":918,"a2":311,"a75":164,"ag":[73,48,71,81,87,73,85,63,95,142,116,112,64,56,91,68,53,25,13,5,0],"nf":16},"geometry":{"type":"Polygon","coordinates":[[[135.56708,34.71851],[135.56722,34.71828],[135.56725,34.71819],[135.56726,34.71817],[135.56732,34.718],[135.56741,34.71787],[135.56745,34.71781],[135.56762,34.71734],[135.56741,34.7172],[135.56734,34.71721],[135.56645,34.71725],[135.56638,34.71728],[135.56591,34.71732],[135.5652,34.71733],[135.56516,34.71733],[135.56472,34.71735],[135.56449,34.71735],[135.56428,34.71736],[135.56414,34.71737],[135.56383,34.71742],[135.56349,34.71746],[135.56342,34.71751],[135.56277,34.71752],[135.5627,34.71751],[135.5627,34.71747],[135.56273,34.71724],[135.56273,34.71705],[135.56284,34.71687],[135.56288,34.71679],[135.56311,34.71646],[135.56331,34.71606],[135.56324,34.71565],[135.56323,34.71518],[135.56323,34.71512],[135.56315,34.71511],[135.56296,34.71508],[135.56276,34.71507],[135.56252,34.71507],[135.56128,34.71508],[135.56053,34.71511],[135.56054,34.71577],[135.56058,34.71652],[135.56059,34.71682],[135.56061,34.71709],[135.56061,34.71714],[135.56061,34.71729],[135.56061,34.71748],[135.56065,34.71818],[135.56066,34.71847],[135.5614,34.71845],[135.56256,34.71842],[135.56257,34.71842],[135.5626,34.71838],[135.56315,34.71839],[135.56428,34.71841],[135.56439,34.71841],[135.56474,34.71843],[135.56517,34.71843],[135.56591,34.71845],[135.56631,34.71846],[135.56647,34.71853],[135.56656,34.71861],[135.56662,34.71865],[135.56666,34.71876],[135.5667,34.71899],[135.56677,34.71893],[135.56698,34.71863],[135.567,34.7186],[135.56708,34.71851]]]}},{"type":"Feature","properties":{"name":"新森七丁目","setai":1015,"jinko":2325,"key":"27117010007","units":1,"m":1100,"f":1225,"gk":67,"a0":341,"a1":1452,"a2":510,"a75":272,"ag":[110,105,126,114,113,139,139,150,145,244,171,117,120,99,139,129,82,46,12,3,0],"nf":22},"geometry":{"type":"Polygon","coordinates":[[[135.5657,34.72047],[135.56573,34.72028],[135.56574,34.72023],[135.56575,34.72013],[135.56586,34.71987],[135.56588,34.71982],[135.5659,34.71978],[135.56596,34.71969],[135.56602,34.71961],[135.56612,34.71952],[135.56624,34.7194],[135.56632,34.71934],[135.56663,34.71905],[135.56667,34.71902],[135.5667,34.71899],[135.56666,34.71876],[135.56662,34.71865],[135.56656,34.71861],[135.56647,34.71853],[135.56631,34.71846],[135.56591,34.71845],[135.56517,34.71843],[135.56474,34.71843],[135.56439,34.71841],[135.56428,34.71841],[135.56315,34.71839],[135.5626,34.71838],[135.56257,34.71842],[135.56256,34.71842],[135.5614,34.71845],[135.56066,34.71847],[135.56068,34.71921],[135.56069,34.71948],[135.5607,34.71955],[135.56071,34.7199],[135.56073,34.72014],[135.56074,34.72015],[135.56075,34.72038],[135.56075,34.72044],[135.56142,34.72042],[135.56146,34.72042],[135.56149,34.72044],[135.56289,34.72045],[135.5629,34.72045],[135.56293,34.72046],[135.56438,34.72047],[135.56439,34.72047],[135.56538,34.72047],[135.5657,34.72047]]]}},{"type":"Feature","properties":{"name":"高殿一丁目","setai":588,"jinko":1473,"key":"27117011001","units":1,"m":699,"f":774,"gk":25,"a0":244,"a1":1031,"a2":196,"a75":88,"ag":[108,81,55,85,120,98,118,124,97,105,132,93,59,60,48,37,26,19,6,0,0],"nf":2},"geometry":{"type":"Polygon","coordinates":[[[135.5355,34.71833],[135.53541,34.71756],[135.53512,34.71791],[135.53489,34.71818],[135.53463,34.71849],[135.53425,34.71896],[135.53392,34.71936],[135.53327,34.72013],[135.53315,34.72029],[135.53278,34.72074],[135.53217,34.72149],[135.53329,34.72139],[135.53401,34.72133],[135.53448,34.72129],[135.53451,34.72129],[135.53528,34.72123],[135.53532,34.72123],[135.5358,34.72119],[135.53581,34.72119],[135.53575,34.72072],[135.53575,34.72067],[135.53573,34.72048],[135.53571,34.72031],[135.53567,34.71993],[135.53567,34.71993],[135.53561,34.71926],[135.5355,34.71833]]]}},{"type":"Feature","properties":{"name":"高殿二丁目","setai":1577,"jinko":3387,"key":"27117011002","units":1,"m":1597,"f":1790,"gk":52,"a0":355,"a1":2117,"a2":908,"a75":411,"ag":[101,117,137,153,166,177,176,177,232,271,252,262,251,240,257,175,123,79,30,4,0],"nf":7},"geometry":{"type":"Polygon","coordinates":[[[135.53825,34.71748],[135.53821,34.71705],[135.53816,34.71706],[135.53812,34.7163],[135.5381,34.71602],[135.53809,34.71577],[135.53808,34.7154],[135.53802,34.71458],[135.53735,34.71537],[135.53729,34.71531],[135.53727,34.71535],[135.5372,34.71542],[135.5368,34.71593],[135.5364,34.7164],[135.5362,34.71663],[135.53558,34.71737],[135.53541,34.71756],[135.5355,34.71833],[135.53561,34.71926],[135.53567,34.71993],[135.53567,34.71993],[135.53571,34.72031],[135.53573,34.72048],[135.53575,34.72067],[135.53575,34.72072],[135.53581,34.72119],[135.53633,34.72114],[135.53635,34.72114],[135.53773,34.72103],[135.53777,34.72103],[135.53847,34.72098],[135.5385,34.72097],[135.53841,34.71971],[135.53841,34.71971],[135.53834,34.71883],[135.53834,34.71875],[135.53829,34.71814],[135.53825,34.71748]]]}},{"type":"Feature","properties":{"name":"高殿三丁目","setai":1189,"jinko":2527,"key":"27117011003","units":1,"m":1162,"f":1365,"gk":28,"a0":255,"a1":1338,"a2":933,"a75":511,"ag":[79,98,78,106,92,89,105,134,132,195,178,168,139,176,246,194,156,105,48,8,0],"nf":1},"geometry":{"type":"Polygon","coordinates":[[[135.53821,34.71705],[135.53888,34.71698],[135.53892,34.71699],[135.54012,34.7168],[135.54014,34.7168],[135.5413,34.71663],[135.54128,34.71641],[135.54126,34.71614],[135.54124,34.716],[135.54121,34.71582],[135.54118,34.71553],[135.54114,34.71525],[135.5411,34.7149],[135.54106,34.71456],[135.54104,34.71426],[135.541,34.71388],[135.54096,34.71355],[135.54092,34.71323],[135.54088,34.71318],[135.54081,34.71289],[135.5408,34.71285],[135.54076,34.71264],[135.54075,34.7126],[135.54068,34.71231],[135.5406,34.71202],[135.541,34.71174],[135.54077,34.71148],[135.54069,34.7114],[135.54045,34.71168],[135.54016,34.71205],[135.54013,34.71208],[135.53985,34.71243],[135.53974,34.71256],[135.53922,34.71314],[135.53889,34.71351],[135.53881,34.71359],[135.53856,34.71388],[135.53821,34.71429],[135.53819,34.7144],[135.53802,34.71458],[135.53808,34.7154],[135.53809,34.71577],[135.5381,34.71602],[135.53812,34.7163],[135.53816,34.71706],[135.53821,34.71705]]]}},{"type":"Feature","properties":{"name":"高殿四丁目","setai":1203,"jinko":2398,"key":"27117011004","units":1,"m":1195,"f":1203,"gk":35,"a0":309,"a1":1515,"a2":565,"a75":275,"ag":[96,95,118,109,102,143,118,158,196,241,174,149,125,122,168,111,78,53,27,5,1],"nf":9},"geometry":{"type":"Polygon","coordinates":[[[135.54107,34.71182],[135.541,34.71174],[135.5406,34.71202],[135.54068,34.71231],[135.54075,34.7126],[135.54076,34.71264],[135.5408,34.71285],[135.54081,34.71289],[135.54088,34.71318],[135.54092,34.71323],[135.54096,34.71355],[135.541,34.71388],[135.54104,34.71426],[135.54106,34.71456],[135.5411,34.7149],[135.54114,34.71525],[135.54118,34.71553],[135.54121,34.71582],[135.54124,34.716],[135.54126,34.71614],[135.54128,34.71641],[135.5413,34.71663],[135.54132,34.71663],[135.54265,34.71644],[135.54265,34.71644],[135.54287,34.71641],[135.54295,34.7164],[135.54424,34.71621],[135.54425,34.71621],[135.54454,34.71617],[135.54505,34.7161],[135.54542,34.71605],[135.54667,34.71589],[135.54657,34.71554],[135.54652,34.71538],[135.54593,34.71517],[135.54575,34.71511],[135.54554,34.71502],[135.54488,34.71476],[135.54456,34.71463],[135.54396,34.71435],[135.54372,34.71422],[135.54333,34.71396],[135.54328,34.71393],[135.54288,34.71365],[135.54271,34.71352],[135.54214,34.71296],[135.54207,34.7129],[135.54181,34.71262],[135.54165,34.71244],[135.54122,34.71198],[135.54107,34.71182]]]}},{"type":"Feature","properties":{"name":"高殿五丁目","setai":1223,"jinko":2294,"key":"27117011005","units":1,"m":1000,"f":1294,"gk":38,"a0":176,"a1":1065,"a2":1047,"a75":613,"ag":[46,62,68,68,74,51,70,85,141,164,153,122,137,187,247,231,161,118,75,23,5],"nf":6},"geometry":{"type":"Polygon","coordinates":[[[135.54183,34.72058],[135.54245,34.7205],[135.54268,34.72051],[135.54288,34.72048],[135.54312,34.72042],[135.54311,34.7204],[135.54308,34.72017],[135.54307,34.72009],[135.54304,34.71985],[135.543,34.71954],[135.54295,34.71917],[135.54294,34.71903],[135.54287,34.71851],[135.54286,34.71831],[135.54272,34.71714],[135.54272,34.71711],[135.5427,34.71693],[135.54269,34.71677],[135.54265,34.71644],[135.54265,34.71644],[135.54132,34.71663],[135.5413,34.71663],[135.54014,34.7168],[135.54012,34.7168],[135.53892,34.71699],[135.53888,34.71698],[135.53821,34.71705],[135.53825,34.71748],[135.53829,34.71814],[135.53834,34.71875],[135.53834,34.71883],[135.53841,34.71971],[135.53841,34.71971],[135.5385,34.72097],[135.5385,34.72099],[135.53918,34.7209],[135.53923,34.72089],[135.5399,34.72082],[135.54058,34.72073],[135.54059,34.72073],[135.54183,34.72058]]]}},{"type":"Feature","properties":{"name":"高殿六丁目","setai":1896,"jinko":3966,"key":"27117011006","units":1,"m":1787,"f":2179,"gk":103,"a0":409,"a1":2256,"a2":1180,"a75":661,"ag":[136,150,123,160,208,166,206,243,218,290,282,279,204,249,270,228,197,145,68,23,0],"nf":121},"geometry":{"type":"Polygon","coordinates":[[[135.54675,34.7199],[135.54724,34.71978],[135.54724,34.71978],[135.54725,34.71978],[135.54748,34.7197],[135.54777,34.71956],[135.54778,34.71955],[135.54761,34.71896],[135.5476,34.71895],[135.54744,34.71842],[135.54729,34.71792],[135.54714,34.71743],[135.54713,34.7174],[135.54709,34.71724],[135.54698,34.71691],[135.54689,34.71657],[135.54678,34.71623],[135.54667,34.71589],[135.54542,34.71605],[135.54505,34.7161],[135.54454,34.71617],[135.54425,34.71621],[135.54424,34.71621],[135.54295,34.7164],[135.54287,34.71641],[135.54265,34.71644],[135.54269,34.71677],[135.5427,34.71693],[135.54272,34.71711],[135.54272,34.71714],[135.54286,34.71831],[135.54287,34.71851],[135.54294,34.71903],[135.54295,34.71917],[135.543,34.71954],[135.54304,34.71985],[135.54307,34.72009],[135.54308,34.72017],[135.54311,34.7204],[135.54391,34.7203],[135.545,34.72016],[135.54613,34.72002],[135.54618,34.72001],[135.54645,34.71996],[135.54675,34.7199]]]}},{"type":"Feature","properties":{"name":"高殿七丁目","setai":1031,"jinko":1764,"key":"27117011007","units":1,"m":853,"f":911,"gk":56,"a0":143,"a1":1182,"a2":436,"a75":218,"ag":[50,60,33,62,123,138,134,143,119,128,148,90,97,98,120,82,73,41,19,3,0],"nf":3},"geometry":{"type":"Polygon","coordinates":[[[135.54677,34.71544],[135.54652,34.71538],[135.54657,34.71554],[135.54667,34.71589],[135.54678,34.71623],[135.54689,34.71657],[135.54698,34.71691],[135.54709,34.71724],[135.54713,34.7174],[135.54714,34.71743],[135.54729,34.71792],[135.54744,34.71842],[135.5476,34.71895],[135.54761,34.71896],[135.54778,34.71955],[135.54777,34.71956],[135.5478,34.71956],[135.54796,34.71949],[135.54831,34.71933],[135.54857,34.7192],[135.54883,34.71907],[135.54909,34.71894],[135.54991,34.71851],[135.55072,34.71808],[135.55061,34.71785],[135.55005,34.71705],[135.55004,34.71703],[135.54952,34.71633],[135.54935,34.7161],[135.54923,34.71591],[135.54897,34.71548],[135.54892,34.71545],[135.54867,34.71545],[135.54827,34.71545],[135.54815,34.71544],[135.54768,34.71544],[135.54725,34.71544],[135.54677,34.71544]]]}}]}