{"type":"FeatureCollection","features":[{"type":"Feature","properties":{"name":"緑一丁目","setai":1178,"jinko":2593,"key":"27124001001","units":1,"m":1236,"f":1357,"gk":50,"a0":371,"a1":1540,"a2":626,"a75":317,"ag":[117,132,122,110,121,147,137,163,162,183,181,167,169,143,166,129,107,55,20,6,0],"nf":56},"geometry":{"type":"Polygon","coordinates":[[[135.56128,34.71508],[135.56252,34.71507],[135.56276,34.71507],[135.56296,34.71508],[135.56315,34.71511],[135.56323,34.71512],[135.56322,34.71495],[135.56317,34.71452],[135.56311,34.71406],[135.56311,34.71404],[135.56307,34.71361],[135.56303,34.71337],[135.56298,34.71317],[135.56296,34.71314],[135.56294,34.71289],[135.56293,34.7127],[135.56292,34.71252],[135.56289,34.71221],[135.56288,34.71205],[135.56282,34.71174],[135.56282,34.71172],[135.5628,34.71146],[135.56278,34.71132],[135.56272,34.71079],[135.56269,34.71051],[135.56266,34.71034],[135.5626,34.70989],[135.56253,34.70942],[135.56247,34.70896],[135.56245,34.70896],[135.56194,34.70896],[135.56106,34.70898],[135.56022,34.709],[135.56024,34.70947],[135.56024,34.70976],[135.56024,34.70996],[135.56026,34.71051],[135.56027,34.71086],[135.5603,34.7118],[135.56031,34.71214],[135.56034,34.71274],[135.56038,34.71366],[135.56039,34.71457],[135.56039,34.71458],[135.5604,34.71512],[135.56047,34.71511],[135.56053,34.71511],[135.56128,34.71508]]]}},{"type":"Feature","properties":{"name":"緑二丁目","setai":626,"jinko":1733,"key":"27124001002","units":1,"m":837,"f":896,"gk":24,"a0":401,"a1":1186,"a2":126,"a75":67,"ag":[122,163,116,111,73,73,137,179,194,188,125,71,35,28,31,28,28,10,1,0,0],"nf":20},"geometry":{"type":"Polygon","coordinates":[[[135.56837,34.71063],[135.56832,34.70925],[135.5683,34.7088],[135.56695,34.70882],[135.56561,34.70885],[135.56559,34.70886],[135.56512,34.70888],[135.56477,34.70889],[135.564,34.70892],[135.56397,34.70892],[135.56247,34.70896],[135.56253,34.70942],[135.5626,34.70989],[135.56266,34.71034],[135.56269,34.71051],[135.56302,34.71062],[135.56356,34.71061],[135.56362,34.71065],[135.56375,34.71062],[135.56452,34.7106],[135.56471,34.71058],[135.56485,34.71059],[135.56526,34.71069],[135.56549,34.71071],[135.56565,34.71069],[135.56601,34.71064],[135.56628,34.71058],[135.56645,34.71059],[135.56728,34.71064],[135.56837,34.71076],[135.56837,34.71063]]]}},{"type":"Feature","properties":{"name":"緑三丁目","setai":613,"jinko":1693,"key":"27124001003","units":1,"m":761,"f":932,"gk":36,"a0":226,"a1":925,"a2":519,"a75":365,"ag":[67,91,68,99,85,48,81,83,97,151,142,76,63,66,88,123,110,71,42,17,2],"nf":23},"geometry":{"type":"Polygon","coordinates":[[[135.56762,34.71734],[135.568,34.71643],[135.56807,34.71623],[135.56811,34.71615],[135.56818,34.71594],[135.56842,34.71537],[135.56848,34.71516],[135.56861,34.71468],[135.56889,34.71361],[135.56902,34.71318],[135.56906,34.71305],[135.5692,34.71256],[135.56923,34.71249],[135.56909,34.71238],[135.56897,34.71232],[135.56886,34.71219],[135.56878,34.71202],[135.56872,34.71186],[135.56873,34.71171],[135.56881,34.71156],[135.56895,34.71146],[135.56926,34.7113],[135.56942,34.71125],[135.56948,34.71115],[135.56936,34.71059],[135.56837,34.71063],[135.56837,34.71076],[135.56728,34.71064],[135.56645,34.71059],[135.56628,34.71058],[135.56601,34.71064],[135.56565,34.71069],[135.56549,34.71071],[135.56526,34.71069],[135.56485,34.71059],[135.56471,34.71058],[135.56452,34.7106],[135.56375,34.71062],[135.56362,34.71065],[135.56356,34.71061],[135.56302,34.71062],[135.56269,34.71051],[135.56272,34.71079],[135.56278,34.71132],[135.5628,34.71146],[135.56282,34.71172],[135.56282,34.71174],[135.56288,34.71205],[135.56289,34.71221],[135.56292,34.71252],[135.56293,34.7127],[135.56294,34.71289],[135.56296,34.71314],[135.56298,34.71317],[135.56303,34.71337],[135.56307,34.71361],[135.56311,34.71404],[135.56311,34.71406],[135.56317,34.71452],[135.56322,34.71495],[135.56323,34.71512],[135.56323,34.71518],[135.56352,34.71524],[135.56395,34.71537],[135.56418,34.71546],[135.56491,34.71586],[135.56582,34.71635],[135.56611,34.71651],[135.56734,34.71721],[135.56741,34.7172],[135.56762,34.71734]]]}},{"type":"Feature","properties":{"name":"緑四丁目","setai":206,"jinko":453,"key":"27124001004","units":1,"m":215,"f":238,"gk":12,"a0":75,"a1":280,"a2":92,"a75":50,"ag":[29,30,16,10,19,35,42,39,29,37,31,20,18,18,24,25,15,8,2,0,0],"nf":6},"geometry":{"type":"Polygon","coordinates":[[[135.56352,34.71524],[135.56323,34.71518],[135.56324,34.71565],[135.56331,34.71606],[135.56311,34.71646],[135.56288,34.71679],[135.56284,34.71687],[135.56273,34.71705],[135.56273,34.71724],[135.5627,34.71747],[135.5627,34.71751],[135.56277,34.71752],[135.56342,34.71751],[135.56349,34.71746],[135.56383,34.71742],[135.56414,34.71737],[135.56428,34.71736],[135.56449,34.71735],[135.56472,34.71735],[135.56516,34.71733],[135.5652,34.71733],[135.56591,34.71732],[135.56638,34.71728],[135.56645,34.71725],[135.56734,34.71721],[135.56611,34.71651],[135.56582,34.71635],[135.56491,34.71586],[135.56418,34.71546],[135.56395,34.71537],[135.56352,34.71524]]]}},{"type":"Feature","properties":{"name":"鶴見一丁目","setai":1497,"jinko":4388,"key":"27124002001","units":1,"m":2088,"f":2300,"gk":51,"a0":1001,"a1":2663,"a2":711,"a75":365,"ag":[154,322,525,341,129,67,127,277,568,545,291,187,131,148,198,127,120,72,37,5,4],"nf":13},"geometry":{"type":"Polygon","coordinates":[[[135.56696,34.69901],[135.56757,34.69893],[135.56766,34.69894],[135.56799,34.69895],[135.56806,34.69895],[135.56805,34.69892],[135.56809,34.6989],[135.56802,34.69841],[135.56814,34.69834],[135.5682,34.69823],[135.56822,34.69818],[135.56826,34.69809],[135.56827,34.69807],[135.5687,34.69795],[135.56895,34.69792],[135.56907,34.6979],[135.56896,34.69762],[135.56835,34.69626],[135.56799,34.69625],[135.56767,34.69624],[135.56751,34.69624],[135.56725,34.69624],[135.56701,34.69622],[135.56696,34.69622],[135.56613,34.69618],[135.56593,34.69617],[135.56437,34.6961],[135.56358,34.69607],[135.5615,34.696],[135.56084,34.69598],[135.55969,34.69593],[135.55962,34.69592],[135.55964,34.69636],[135.55967,34.6966],[135.55972,34.69731],[135.55972,34.69748],[135.55974,34.69772],[135.55974,34.69776],[135.55977,34.69826],[135.55978,34.69829],[135.5598,34.69861],[135.55981,34.69881],[135.5606,34.6988],[135.56069,34.6988],[135.56126,34.69879],[135.5612,34.69826],[135.56118,34.69809],[135.56185,34.69809],[135.56254,34.6981],[135.56277,34.6981],[135.56297,34.6981],[135.56341,34.6981],[135.56361,34.69821],[135.5638,34.69833],[135.56407,34.69843],[135.56437,34.69853],[135.56478,34.69864],[135.56536,34.69874],[135.56643,34.69893],[135.56681,34.699],[135.56696,34.69901]]]}},{"type":"Feature","properties":{"name":"鶴見二丁目","setai":1208,"jinko":2371,"key":"27124002002","units":1,"m":1010,"f":1361,"gk":49,"a0":230,"a1":1204,"a2":898,"a75":484,"ag":[64,75,91,115,93,82,104,104,135,156,156,124,135,206,208,161,148,107,52,12,4],"nf":39},"geometry":{"type":"Polygon","coordinates":[[[135.56713,34.69956],[135.56707,34.69943],[135.56705,34.69944],[135.56701,34.69938],[135.5668,34.6992],[135.56681,34.699],[135.56643,34.69893],[135.56536,34.69874],[135.56478,34.69864],[135.56437,34.69853],[135.56407,34.69843],[135.5638,34.69833],[135.56361,34.69821],[135.56341,34.6981],[135.56297,34.6981],[135.56277,34.6981],[135.56254,34.6981],[135.56185,34.69809],[135.56118,34.69809],[135.5612,34.69826],[135.56126,34.69879],[135.56069,34.6988],[135.5606,34.6988],[135.55981,34.69881],[135.55986,34.69969],[135.55994,34.69992],[135.56086,34.70007],[135.56138,34.70016],[135.56142,34.70017],[135.56174,34.70024],[135.5622,34.7003],[135.5625,34.70034],[135.56301,34.70042],[135.56381,34.70056],[135.56384,34.70057],[135.56494,34.70077],[135.56534,34.70083],[135.56644,34.70103],[135.56648,34.70116],[135.56668,34.70105],[135.56688,34.70094],[135.56676,34.7007],[135.56675,34.70069],[135.56698,34.70057],[135.56713,34.70042],[135.56722,34.70029],[135.56724,34.70023],[135.56728,34.70007],[135.56727,34.69984],[135.56713,34.69956]]]}},{"type":"Feature","properties":{"name":"鶴見三丁目","setai":1663,"jinko":3612,"key":"27124002003","units":1,"m":1685,"f":1927,"gk":43,"a0":452,"a1":2247,"a2":816,"a75":372,"ag":[143,130,179,175,165,165,200,187,246,326,270,269,244,235,209,147,116,75,25,7,2],"nf":97},"geometry":{"type":"Polygon","coordinates":[[[135.5674,34.70282],[135.56699,34.70219],[135.56688,34.70201],[135.56673,34.70176],[135.56661,34.70153],[135.56653,34.70133],[135.56648,34.70116],[135.56644,34.70103],[135.56534,34.70083],[135.56494,34.70077],[135.56384,34.70057],[135.56381,34.70056],[135.56301,34.70042],[135.5625,34.70034],[135.5622,34.7003],[135.56174,34.70024],[135.56142,34.70017],[135.56138,34.70016],[135.56086,34.70007],[135.55994,34.69992],[135.55995,34.70014],[135.55996,34.70039],[135.55996,34.70052],[135.55999,34.70096],[135.55999,34.70122],[135.56,34.70138],[135.56,34.70149],[135.56001,34.70161],[135.56001,34.70163],[135.56002,34.70188],[135.56046,34.702],[135.56082,34.7021],[135.56098,34.70215],[135.56136,34.70226],[135.56169,34.70235],[135.56174,34.70237],[135.56275,34.70266],[135.56278,34.70266],[135.56358,34.70271],[135.56382,34.70272],[135.56385,34.70272],[135.56415,34.70274],[135.56419,34.70274],[135.5644,34.70276],[135.56447,34.70276],[135.56448,34.70276],[135.5654,34.70282],[135.56577,34.70284],[135.56588,34.70285],[135.56608,34.70286],[135.56627,34.70288],[135.56632,34.70288],[135.56637,34.70288],[135.56668,34.7029],[135.56675,34.7029],[135.56675,34.7029],[135.56746,34.70294],[135.5674,34.70282]]]}},{"type":"Feature","properties":{"name":"鶴見四丁目","setai":1493,"jinko":3229,"key":"27124002004","units":1,"m":1535,"f":1694,"gk":54,"a0":468,"a1":2212,"a2":473,"a75":239,"ag":[130,139,199,182,177,217,237,188,263,366,260,194,128,108,126,92,61,66,19,1,0],"nf":76},"geometry":{"type":"Polygon","coordinates":[[[135.56387,34.70564],[135.56386,34.70558],[135.56441,34.70577],[135.56462,34.7058],[135.56497,34.70579],[135.56548,34.70578],[135.566,34.70572],[135.56606,34.70573],[135.56656,34.70574],[135.56707,34.70575],[135.56819,34.7057],[135.56808,34.70506],[135.56804,34.7048],[135.568,34.70458],[135.568,34.70455],[135.56789,34.70415],[135.56767,34.7034],[135.56746,34.70294],[135.56675,34.7029],[135.56675,34.7029],[135.56668,34.7029],[135.56637,34.70288],[135.56632,34.70288],[135.56627,34.70288],[135.56608,34.70286],[135.56588,34.70285],[135.56577,34.70284],[135.5654,34.70282],[135.56448,34.70276],[135.56447,34.70276],[135.5644,34.70276],[135.56419,34.70274],[135.56415,34.70274],[135.56385,34.70272],[135.56382,34.70272],[135.56358,34.70271],[135.56278,34.70266],[135.56275,34.70266],[135.56174,34.70237],[135.56169,34.70235],[135.56136,34.70226],[135.56098,34.70215],[135.56082,34.7021],[135.56046,34.702],[135.56002,34.70188],[135.56002,34.70195],[135.56003,34.70237],[135.56007,34.70339],[135.56007,34.7034],[135.56008,34.70383],[135.56009,34.70413],[135.56009,34.70433],[135.56011,34.70483],[135.56011,34.705],[135.56012,34.70517],[135.56013,34.70526],[135.56014,34.7057],[135.56014,34.70574],[135.56015,34.70593],[135.56015,34.7062],[135.5607,34.70619],[135.561,34.70618],[135.56227,34.70614],[135.5623,34.70596],[135.56237,34.70574],[135.56292,34.70569],[135.56318,34.70567],[135.56387,34.70564]]]}},{"type":"Feature","properties":{"name":"鶴見五丁目","setai":1318,"jinko":2755,"key":"27124002005","units":1,"m":1270,"f":1485,"gk":41,"a0":323,"a1":1670,"a2":705,"a75":349,"ag":[97,94,132,111,123,153,173,152,174,193,204,212,175,170,186,136,113,63,27,8,2],"nf":57},"geometry":{"type":"Polygon","coordinates":[[[135.56019,34.70806],[135.56108,34.70803],[135.56108,34.70804],[135.56174,34.70803],[135.56174,34.70803],[135.56187,34.70803],[135.5619,34.70803],[135.56235,34.70802],[135.56237,34.70774],[135.56237,34.70767],[135.56238,34.70754],[135.56239,34.70739],[135.5624,34.70732],[135.56393,34.70729],[135.56505,34.70727],[135.56554,34.70726],[135.5663,34.70733],[135.56687,34.70737],[135.56827,34.70751],[135.56827,34.70744],[135.56825,34.70693],[135.56823,34.70646],[135.56821,34.70605],[135.56819,34.7057],[135.56707,34.70575],[135.56656,34.70574],[135.56606,34.70573],[135.566,34.70572],[135.56548,34.70578],[135.56497,34.70579],[135.56462,34.7058],[135.56441,34.70577],[135.56386,34.70558],[135.56387,34.70564],[135.56318,34.70567],[135.56292,34.70569],[135.56237,34.70574],[135.5623,34.70596],[135.56227,34.70614],[135.561,34.70618],[135.5607,34.70619],[135.56015,34.7062],[135.56015,34.70647],[135.56016,34.70714],[135.56016,34.70738],[135.56017,34.70763],[135.56018,34.70787],[135.56019,34.70806]]]}},{"type":"Feature","properties":{"name":"鶴見六丁目","setai":634,"jinko":1788,"key":"27124002006","units":1,"m":886,"f":902,"gk":18,"a0":529,"a1":1066,"a2":183,"a75":100,"ag":[197,233,99,54,46,80,150,243,180,132,78,64,39,42,41,38,27,24,9,2,0],"nf":10},"geometry":{"type":"Polygon","coordinates":[[[135.56831,34.70831],[135.56828,34.70787],[135.56827,34.70751],[135.56687,34.70737],[135.5663,34.70733],[135.56554,34.70726],[135.56505,34.70727],[135.56393,34.70729],[135.5624,34.70732],[135.56239,34.70739],[135.56238,34.70754],[135.56237,34.70767],[135.56237,34.70774],[135.56235,34.70802],[135.5619,34.70803],[135.56187,34.70803],[135.56174,34.70803],[135.56174,34.70803],[135.56108,34.70804],[135.56108,34.70803],[135.56019,34.70806],[135.56022,34.709],[135.56106,34.70898],[135.56194,34.70896],[135.56245,34.70896],[135.56247,34.70896],[135.56397,34.70892],[135.564,34.70892],[135.56477,34.70889],[135.56512,34.70888],[135.56559,34.70886],[135.56561,34.70885],[135.56695,34.70882],[135.5683,34.7088],[135.56833,34.7088],[135.56831,34.70831]]]}},{"type":"Feature","properties":{"name":"放出東一丁目","setai":973,"jinko":2087,"key":"27124003001","units":1,"m":993,"f":1094,"gk":45,"a0":288,"a1":1312,"a2":427,"a75":245,"ag":[122,86,80,80,99,166,183,162,146,148,131,99,98,86,96,87,73,58,21,4,2],"nf":60},"geometry":{"type":"Polygon","coordinates":[[[135.56605,34.69326],[135.56536,34.69312],[135.56471,34.69299],[135.5647,34.69315],[135.5647,34.69319],[135.5647,34.69319],[135.5647,34.69319],[135.56447,34.69319],[135.56405,34.69319],[135.56405,34.69313],[135.56401,34.69284],[135.56308,34.69288],[135.56282,34.69289],[135.56229,34.69291],[135.56119,34.69296],[135.56015,34.69301],[135.55952,34.69303],[135.55955,34.69355],[135.55956,34.69368],[135.55958,34.69415],[135.55966,34.69546],[135.55969,34.69593],[135.56084,34.69598],[135.5615,34.696],[135.56358,34.69607],[135.56437,34.6961],[135.56593,34.69617],[135.56613,34.69618],[135.56613,34.69617],[135.56616,34.69575],[135.56596,34.69575],[135.56599,34.69529],[135.56599,34.69528],[135.56601,34.69493],[135.56602,34.69461],[135.56603,34.69415],[135.56604,34.69371],[135.56605,34.69326]]]}},{"type":"Feature","properties":{"name":"放出東二丁目","setai":1336,"jinko":2813,"key":"27124003002","units":1,"m":1331,"f":1482,"gk":75,"a0":366,"a1":1618,"a2":760,"a75":423,"ag":[125,123,118,88,117,162,185,227,170,152,176,173,168,155,182,157,150,75,35,3,3],"nf":69},"geometry":{"type":"Polygon","coordinates":[[[135.56605,34.69325],[135.56606,34.6928],[135.56607,34.69237],[135.56607,34.69236],[135.56608,34.69221],[135.56608,34.69186],[135.56609,34.69141],[135.56609,34.69131],[135.5661,34.6909],[135.56611,34.69044],[135.5655,34.69043],[135.5654,34.69043],[135.56522,34.69035],[135.56542,34.69006],[135.56514,34.68997],[135.5651,34.69003],[135.56494,34.69],[135.56489,34.69016],[135.56481,34.69032],[135.56471,34.69042],[135.56447,34.69083],[135.56439,34.69099],[135.56436,34.69101],[135.5643,34.69106],[135.56416,34.69108],[135.56396,34.69115],[135.56386,34.69121],[135.56379,34.69128],[135.56368,34.6913],[135.56325,34.69137],[135.56307,34.69138],[135.56267,34.69138],[135.5626,34.69091],[135.56258,34.69081],[135.56253,34.69054],[135.56103,34.6906],[135.56032,34.69067],[135.56025,34.69068],[135.55937,34.69075],[135.55937,34.69096],[135.55937,34.69112],[135.55937,34.69131],[135.55937,34.69133],[135.55938,34.69143],[135.55944,34.69178],[135.55944,34.69181],[135.55952,34.69303],[135.56015,34.69301],[135.56119,34.69296],[135.56229,34.69291],[135.56282,34.69289],[135.56308,34.69288],[135.56401,34.69284],[135.56405,34.69313],[135.56405,34.69319],[135.56447,34.69319],[135.5647,34.69319],[135.5647,34.69319],[135.5647,34.69319],[135.5647,34.69315],[135.56471,34.69299],[135.56536,34.69312],[135.56605,34.69326],[135.56605,34.69325]]]}},{"type":"Feature","properties":{"name":"放出東三丁目","setai":3055,"jinko":6085,"key":"27124003003","units":1,"m":2848,"f":3237,"gk":97,"a0":860,"a1":3857,"a2":1193,"a75":616,"ag":[245,268,347,249,225,344,359,370,558,667,454,373,258,244,333,245,210,108,42,11,0],"nf":175},"geometry":{"type":"Polygon","coordinates":[[[135.56447,34.69083],[135.56471,34.69042],[135.56481,34.69032],[135.56489,34.69016],[135.56494,34.69],[135.5651,34.69003],[135.56514,34.68997],[135.56542,34.69006],[135.56522,34.69035],[135.5654,34.69043],[135.5655,34.69043],[135.56611,34.69044],[135.56611,34.68996],[135.56613,34.68951],[135.56613,34.68946],[135.56613,34.68927],[135.56614,34.68855],[135.56604,34.68853],[135.56559,34.68845],[135.56541,34.6884],[135.56535,34.68798],[135.56532,34.68775],[135.56521,34.68774],[135.5651,34.68772],[135.56496,34.68764],[135.56496,34.68764],[135.56476,34.6875],[135.56467,34.68742],[135.56459,34.68735],[135.5644,34.68721],[135.56435,34.68718],[135.56415,34.68707],[135.56398,34.68701],[135.56378,34.687],[135.56359,34.68701],[135.56336,34.68704],[135.56236,34.68717],[135.56225,34.68718],[135.56189,34.68723],[135.56152,34.68728],[135.56084,34.68736],[135.56074,34.68738],[135.56012,34.68746],[135.55984,34.68749],[135.55981,34.6875],[135.55946,34.68755],[135.55939,34.68757],[135.55928,34.68758],[135.55908,34.68761],[135.55915,34.68831],[135.55918,34.68858],[135.55915,34.68858],[135.55916,34.68866],[135.55919,34.689],[135.55921,34.68921],[135.55924,34.68948],[135.55925,34.68959],[135.55927,34.6898],[135.55928,34.68994],[135.55929,34.69],[135.5593,34.69006],[135.55932,34.6903],[135.55932,34.69033],[135.55933,34.69036],[135.55937,34.69075],[135.56025,34.69068],[135.56032,34.69067],[135.56103,34.6906],[135.56253,34.69054],[135.56258,34.69081],[135.5626,34.69091],[135.56267,34.69138],[135.56307,34.69138],[135.56325,34.69137],[135.56368,34.6913],[135.56379,34.69128],[135.56386,34.69121],[135.56396,34.69115],[135.56416,34.69108],[135.5643,34.69106],[135.56436,34.69101],[135.56439,34.69099],[135.56447,34.69083]]]}},{"type":"Feature","properties":{"name":"今津北一丁目","setai":593,"jinko":1716,"key":"27124004001","units":1,"m":793,"f":923,"gk":17,"a0":313,"a1":1059,"a2":332,"a75":213,"ag":[76,118,119,94,68,72,96,113,158,147,108,117,86,61,58,55,66,52,30,8,2],"nf":12},"geometry":{"type":"Polygon","coordinates":[[[135.5694,34.69629],[135.56942,34.69587],[135.56949,34.69588],[135.56951,34.69551],[135.56952,34.6953],[135.56952,34.69527],[135.56952,34.69489],[135.56953,34.69464],[135.56954,34.69418],[135.56956,34.69374],[135.56956,34.69329],[135.56887,34.69329],[135.56866,34.69328],[135.56828,34.69328],[135.5678,34.69327],[135.56605,34.69325],[135.56605,34.69326],[135.56604,34.69371],[135.56603,34.69415],[135.56602,34.69461],[135.56601,34.69493],[135.56599,34.69528],[135.56599,34.69529],[135.56596,34.69575],[135.56616,34.69575],[135.56613,34.69617],[135.56613,34.69618],[135.56696,34.69622],[135.56701,34.69622],[135.56725,34.69624],[135.56751,34.69624],[135.56767,34.69624],[135.56799,34.69625],[135.56835,34.69626],[135.56836,34.69626],[135.56845,34.69625],[135.5694,34.69629]]]}},{"type":"Feature","properties":{"name":"今津北二丁目","setai":604,"jinko":1535,"key":"27124004002","units":1,"m":722,"f":813,"gk":29,"a0":252,"a1":933,"a2":330,"a75":181,"ag":[61,89,102,85,92,68,77,101,108,142,98,92,70,69,80,80,59,32,9,1,0],"nf":20},"geometry":{"type":"Polygon","coordinates":[[[135.57306,34.69598],[135.57306,34.69532],[135.57306,34.69512],[135.57307,34.69469],[135.57307,34.69423],[135.57307,34.69378],[135.57308,34.69333],[135.57129,34.69331],[135.57128,34.69375],[135.57034,34.69375],[135.56956,34.69374],[135.56954,34.69418],[135.56953,34.69464],[135.56952,34.69489],[135.56952,34.69527],[135.56952,34.6953],[135.56951,34.69551],[135.56949,34.69588],[135.56942,34.69587],[135.5694,34.69629],[135.56948,34.6963],[135.56955,34.6963],[135.57055,34.69634],[135.57099,34.69636],[135.57109,34.69636],[135.57118,34.69636],[135.57118,34.69638],[135.57175,34.6964],[135.57257,34.69644],[135.57309,34.69647],[135.57309,34.69598],[135.57306,34.69598]]]}},{"type":"Feature","properties":{"name":"今津北三丁目","setai":168,"jinko":511,"key":"27124004003","units":1,"m":241,"f":270,"gk":2,"a0":33,"a1":345,"a2":123,"a75":95,"ag":[13,7,13,32,52,23,23,23,29,46,62,41,14,14,14,11,18,32,24,9,1],"nf":10},"geometry":{"type":"Polygon","coordinates":[[[135.57579,34.69336],[135.57507,34.69335],[135.57483,34.69334],[135.57483,34.69335],[135.57397,34.69334],[135.57356,34.69333],[135.57308,34.69333],[135.57307,34.69378],[135.57307,34.69423],[135.57307,34.69469],[135.57306,34.69512],[135.57306,34.69532],[135.57306,34.69598],[135.57309,34.69598],[135.57309,34.69647],[135.57368,34.6965],[135.5737,34.6965],[135.57449,34.69653],[135.57476,34.69654],[135.57479,34.69654],[135.57606,34.6966],[135.57665,34.69662],[135.5767,34.69663],[135.5767,34.69661],[135.57674,34.69614],[135.57674,34.69612],[135.57667,34.69612],[135.57659,34.69611],[135.5766,34.69533],[135.5766,34.69516],[135.57662,34.69472],[135.57663,34.69427],[135.57663,34.69425],[135.57664,34.69382],[135.57664,34.69337],[135.57579,34.69336]]]}},{"type":"Feature","properties":{"name":"今津北四丁目","setai":613,"jinko":1361,"key":"27124004004","units":1,"m":671,"f":690,"gk":34,"a0":166,"a1":890,"a2":271,"a75":147,"ag":[55,57,54,56,109,91,84,81,103,108,98,98,62,61,63,81,39,17,8,2,0],"nf":34},"geometry":{"type":"Polygon","coordinates":[[[135.57991,34.69628],[135.57991,34.69626],[135.58009,34.69627],[135.58011,34.69627],[135.5801,34.69558],[135.58011,34.69534],[135.58011,34.6952],[135.58011,34.69475],[135.58011,34.69461],[135.57962,34.69428],[135.57958,34.69423],[135.57952,34.69403],[135.57955,34.69391],[135.57979,34.69353],[135.5795,34.6934],[135.57945,34.69339],[135.57911,34.69337],[135.57904,34.69336],[135.57904,34.6934],[135.57849,34.69339],[135.57664,34.69337],[135.57664,34.69382],[135.57663,34.69425],[135.57663,34.69427],[135.57662,34.69472],[135.5766,34.69516],[135.5766,34.69533],[135.57659,34.69611],[135.57667,34.69612],[135.57674,34.69612],[135.57674,34.69614],[135.5767,34.69661],[135.5767,34.69663],[135.57848,34.69671],[135.57988,34.69676],[135.57988,34.69672],[135.57991,34.69628]]]}},{"type":"Feature","properties":{"name":"今津北五丁目","setai":686,"jinko":1564,"key":"27124004005","units":1,"m":775,"f":789,"gk":14,"a0":240,"a1":983,"a2":331,"a75":158,"ag":[56,83,101,91,77,72,68,108,133,161,132,82,59,63,110,72,41,28,15,2,0],"nf":10},"geometry":{"type":"Polygon","coordinates":[[[135.58273,34.69647],[135.58272,34.69645],[135.58275,34.69645],[135.58255,34.69597],[135.58255,34.69596],[135.58247,34.69579],[135.58229,34.69535],[135.58197,34.69461],[135.58194,34.69455],[135.58182,34.69425],[135.58181,34.69423],[135.58175,34.69408],[135.58174,34.69406],[135.58159,34.69373],[135.58148,34.69353],[135.58145,34.69346],[135.58144,34.69345],[135.58131,34.69323],[135.58119,34.69304],[135.58119,34.69304],[135.58101,34.69275],[135.58088,34.69281],[135.58057,34.69304],[135.58041,34.69318],[135.58021,34.6934],[135.58013,34.69356],[135.58007,34.69362],[135.57979,34.69353],[135.57955,34.69391],[135.57952,34.69403],[135.57958,34.69423],[135.57962,34.69428],[135.58011,34.69461],[135.58011,34.69475],[135.58011,34.6952],[135.58011,34.69534],[135.5801,34.69558],[135.58011,34.69627],[135.58009,34.69627],[135.57991,34.69626],[135.57991,34.69628],[135.57988,34.69672],[135.57988,34.69676],[135.58009,34.69677],[135.58082,34.6968],[135.5822,34.69683],[135.58239,34.69683],[135.58259,34.69695],[135.58267,34.69699],[135.58268,34.69698],[135.58282,34.6969],[135.5828,34.69681],[135.58276,34.69662],[135.58273,34.69647]]]}},{"type":"Feature","properties":{"name":"今津中一丁目","setai":972,"jinko":1930,"key":"27124005001","units":1,"m":915,"f":1015,"gk":57,"a0":212,"a1":1134,"a2":514,"a75":289,"ag":[72,87,53,63,87,116,136,112,125,142,137,113,103,110,115,130,92,48,16,2,1],"nf":70},"geometry":{"type":"Polygon","coordinates":[[[135.56723,34.69045],[135.56611,34.69044],[135.5661,34.6909],[135.56609,34.69131],[135.56609,34.69141],[135.56608,34.69186],[135.56608,34.69221],[135.56607,34.69236],[135.56607,34.69237],[135.56606,34.6928],[135.56605,34.69325],[135.5678,34.69327],[135.56828,34.69328],[135.56866,34.69328],[135.56887,34.69329],[135.56956,34.69329],[135.56958,34.69243],[135.5696,34.6919],[135.5696,34.6919],[135.5696,34.69143],[135.56961,34.69118],[135.56961,34.69094],[135.56962,34.69047],[135.56873,34.69046],[135.56783,34.69046],[135.56723,34.69045]]]}},{"type":"Feature","properties":{"name":"今津中二丁目","setai":209,"jinko":558,"key":"27124005002","units":1,"m":279,"f":279,"gk":15,"a0":96,"a1":385,"a2":74,"a75":27,"ag":[34,30,32,30,41,42,39,37,34,48,41,44,29,23,24,15,8,2,2,0,0],"nf":3},"geometry":{"type":"Polygon","coordinates":[[[135.57128,34.69375],[135.57129,34.69331],[135.57308,34.69333],[135.57309,34.69285],[135.57309,34.69242],[135.57309,34.69194],[135.5731,34.69144],[135.57311,34.69098],[135.57312,34.69052],[135.57217,34.69051],[135.57131,34.6905],[135.57054,34.69049],[135.56962,34.69047],[135.56961,34.69094],[135.56961,34.69118],[135.5696,34.69143],[135.5696,34.6919],[135.5696,34.6919],[135.56958,34.69243],[135.56956,34.69329],[135.56956,34.69374],[135.57034,34.69375],[135.57128,34.69375]]]}},{"type":"Feature","properties":{"name":"今津中三丁目","setai":1059,"jinko":2343,"key":"27124005003","units":1,"m":1076,"f":1267,"gk":23,"a0":294,"a1":1357,"a2":680,"a75":368,"ag":[107,107,80,121,115,128,141,122,132,179,150,148,121,133,179,137,132,76,16,6,1],"nf":12},"geometry":{"type":"Polygon","coordinates":[[[135.57664,34.69337],[135.57665,34.69293],[135.57666,34.69248],[135.57666,34.692],[135.57665,34.69174],[135.57666,34.69149],[135.57667,34.69126],[135.57667,34.69103],[135.57666,34.69056],[135.57488,34.69055],[135.57488,34.69054],[135.57425,34.69054],[135.57401,34.69053],[135.57367,34.69053],[135.57312,34.69052],[135.57311,34.69098],[135.5731,34.69144],[135.57309,34.69194],[135.57309,34.69242],[135.57309,34.69285],[135.57308,34.69333],[135.57356,34.69333],[135.57397,34.69334],[135.57483,34.69335],[135.57483,34.69334],[135.57507,34.69335],[135.57579,34.69336],[135.57664,34.69337]]]}},{"type":"Feature","properties":{"name":"今津中四丁目","setai":552,"jinko":1075,"key":"27124005004","units":1,"m":515,"f":560,"gk":24,"a0":128,"a1":690,"a2":230,"a75":98,"ag":[44,39,45,56,61,76,75,85,83,82,69,61,42,59,73,50,31,11,5,1,0],"nf":27},"geometry":{"type":"Polygon","coordinates":[[[135.57852,34.69152],[135.57853,34.69105],[135.57849,34.69106],[135.57777,34.69057],[135.57769,34.69057],[135.57696,34.69057],[135.57666,34.69056],[135.57667,34.69103],[135.57667,34.69126],[135.57666,34.69149],[135.57665,34.69174],[135.57666,34.692],[135.57666,34.69248],[135.57665,34.69293],[135.57664,34.69337],[135.57849,34.69339],[135.5785,34.6925],[135.57851,34.69205],[135.57852,34.69152]]]}},{"type":"Feature","properties":{"name":"今津中五丁目","setai":350,"jinko":756,"key":"27124005005","units":1,"m":342,"f":414,"gk":8,"a0":76,"a1":463,"a2":211,"a75":118,"ag":[17,24,35,34,37,43,52,33,69,55,59,44,37,39,54,51,35,15,14,3,0],"nf":6},"geometry":{"type":"Polygon","coordinates":[[[135.58021,34.6934],[135.58041,34.69318],[135.58057,34.69304],[135.58088,34.69281],[135.58101,34.69275],[135.58071,34.69205],[135.58063,34.69183],[135.58061,34.69178],[135.58057,34.69167],[135.58039,34.69132],[135.58018,34.69104],[135.58026,34.69095],[135.57986,34.69046],[135.57972,34.69053],[135.5791,34.69085],[135.57887,34.69097],[135.57853,34.69105],[135.57852,34.69152],[135.57851,34.69205],[135.5785,34.6925],[135.57849,34.69339],[135.57904,34.6934],[135.57904,34.69336],[135.57911,34.69337],[135.57945,34.69339],[135.5795,34.6934],[135.57979,34.69353],[135.58007,34.69362],[135.58013,34.69356],[135.58021,34.6934]]]}},{"type":"Feature","properties":{"name":"今津南一丁目","setai":921,"jinko":1839,"key":"27124006001","units":1,"m":897,"f":942,"gk":67,"a0":184,"a1":1103,"a2":479,"a75":248,"ag":[53,72,59,74,101,123,114,114,107,153,135,95,87,114,117,91,75,54,23,5,0],"nf":73},"geometry":{"type":"Polygon","coordinates":[[[135.56966,34.68832],[135.56966,34.68765],[135.56934,34.68768],[135.56878,34.68772],[135.56862,34.68773],[135.56839,34.68775],[135.56833,34.68775],[135.5679,34.68778],[135.56766,34.68779],[135.56712,34.68778],[135.56694,34.68776],[135.56684,34.68774],[135.56663,34.68774],[135.56585,34.68775],[135.56532,34.68775],[135.56535,34.68798],[135.56541,34.6884],[135.56559,34.68845],[135.56604,34.68853],[135.56614,34.68855],[135.56613,34.68927],[135.56613,34.68946],[135.56613,34.68951],[135.56611,34.68996],[135.56611,34.69044],[135.56723,34.69045],[135.56783,34.69046],[135.56873,34.69046],[135.56962,34.69047],[135.56963,34.69],[135.56963,34.68999],[135.56964,34.6895],[135.56965,34.68892],[135.56965,34.68892],[135.56966,34.68851],[135.56966,34.68832]]]}},{"type":"Feature","properties":{"name":"今津南二丁目","setai":694,"jinko":1506,"key":"27124006002","units":1,"m":724,"f":782,"gk":35,"a0":175,"a1":993,"a2":309,"a75":160,"ag":[60,55,60,93,106,79,98,83,72,152,127,100,83,66,83,68,55,27,8,1,1],"nf":29},"geometry":{"type":"Polygon","coordinates":[[[135.57315,34.689],[135.57313,34.68856],[135.57271,34.68855],[135.57269,34.68856],[135.57269,34.68856],[135.57255,34.68856],[135.57254,34.68856],[135.57254,34.68856],[135.57254,34.68856],[135.57255,34.68855],[135.57301,34.68826],[135.5731,34.68826],[135.5731,34.68822],[135.57314,34.68819],[135.57326,34.68811],[135.57338,34.68811],[135.57338,34.68801],[135.57339,34.688],[135.5734,34.688],[135.5734,34.68799],[135.5734,34.68799],[135.5734,34.68799],[135.5734,34.68799],[135.57341,34.68799],[135.57341,34.68799],[135.57341,34.68799],[135.57341,34.68799],[135.57342,34.68798],[135.57343,34.68798],[135.57343,34.68797],[135.57343,34.68797],[135.57343,34.68797],[135.57344,34.68797],[135.57344,34.68797],[135.57344,34.68797],[135.57344,34.68796],[135.57345,34.68796],[135.57345,34.68796],[135.57345,34.68796],[135.57345,34.68796],[135.57345,34.68796],[135.57345,34.68796],[135.57345,34.68796],[135.57345,34.68796],[135.57345,34.68796],[135.57346,34.68796],[135.57346,34.68796],[135.57346,34.68796],[135.57346,34.68795],[135.57346,34.68795],[135.57346,34.68795],[135.57346,34.68795],[135.57346,34.68795],[135.57346,34.68795],[135.5735,34.68793],[135.57357,34.68788],[135.5736,34.68785],[135.57366,34.68779],[135.57368,34.68768],[135.57361,34.68767],[135.57341,34.68771],[135.57302,34.68782],[135.57301,34.68776],[135.57286,34.68776],[135.57273,34.68778],[135.57273,34.68786],[135.57273,34.68788],[135.5725,34.68794],[135.57222,34.68795],[135.57222,34.68795],[135.57221,34.68795],[135.57219,34.68796],[135.57217,34.68796],[135.5721,34.68797],[135.57209,34.68797],[135.57172,34.68802],[135.57172,34.68802],[135.57168,34.68802],[135.57167,34.68802],[135.57165,34.68802],[135.57163,34.68802],[135.57161,34.68802],[135.57159,34.68802],[135.57158,34.68802],[135.57154,34.68802],[135.57152,34.68802],[135.57151,34.68802],[135.57151,34.68802],[135.57146,34.68802],[135.57141,34.68802],[135.57134,34.68803],[135.57106,34.68803],[135.57106,34.68812],[135.57094,34.68813],[135.57094,34.68816],[135.57094,34.68816],[135.57094,34.68816],[135.57094,34.68816],[135.57094,34.68816],[135.57094,34.68816],[135.57093,34.68816],[135.57068,34.68816],[135.57067,34.6882],[135.57045,34.6882],[135.57042,34.6882],[135.57042,34.68814],[135.57029,34.68815],[135.5703,34.68811],[135.5703,34.68811],[135.5703,34.6881],[135.5703,34.6881],[135.5703,34.68808],[135.57029,34.68806],[135.57029,34.68804],[135.57029,34.68803],[135.57029,34.68802],[135.57029,34.68802],[135.57029,34.68801],[135.57029,34.68801],[135.57029,34.688],[135.57029,34.688],[135.57029,34.688],[135.57029,34.68799],[135.57029,34.68799],[135.57029,34.68799],[135.57029,34.68799],[135.57029,34.68799],[135.57029,34.68799],[135.57045,34.68797],[135.57045,34.68795],[135.57054,34.68795],[135.57054,34.68794],[135.57053,34.68776],[135.57052,34.68768],[135.57052,34.68766],[135.57052,34.68765],[135.57052,34.68763],[135.57052,34.68761],[135.57052,34.6876],[135.57052,34.6876],[135.57052,34.68758],[135.57052,34.68757],[135.57052,34.68757],[135.57052,34.68756],[135.57051,34.68755],[135.57051,34.68755],[135.57051,34.68754],[135.57051,34.68754],[135.57051,34.68754],[135.5705,34.68754],[135.57046,34.68755],[135.57044,34.68755],[135.57039,34.68756],[135.5703,34.68757],[135.57027,34.68758],[135.56966,34.68765],[135.56966,34.68832],[135.56966,34.68851],[135.56965,34.68892],[135.56965,34.68892],[135.56964,34.6895],[135.56963,34.68999],[135.56963,34.69],[135.56962,34.69047],[135.57054,34.69049],[135.57131,34.6905],[135.57217,34.69051],[135.57312,34.69052],[135.57314,34.69003],[135.57315,34.68954],[135.57316,34.68905],[135.57315,34.689]]]}},{"type":"Feature","properties":{"name":"今津南三丁目","setai":454,"jinko":1088,"key":"27124006003","units":1,"m":476,"f":612,"gk":27,"a0":103,"a1":562,"a2":417,"a75":241,"ag":[34,36,33,34,46,43,44,53,70,60,64,80,68,86,90,88,64,47,24,16,2],"nf":6},"geometry":{"type":"Polygon","coordinates":[[[135.57491,34.68905],[135.57491,34.68904],[135.57419,34.68904],[135.57419,34.68883],[135.5742,34.68857],[135.5742,34.68808],[135.57408,34.68808],[135.57407,34.68812],[135.57407,34.68812],[135.57399,34.68815],[135.57387,34.68819],[135.57387,34.68819],[135.57387,34.68816],[135.57387,34.68816],[135.57387,34.68816],[135.57373,34.68816],[135.57373,34.6882],[135.57373,34.68823],[135.57364,34.68826],[135.57362,34.68826],[135.5736,34.68827],[135.5736,34.68827],[135.57359,34.68827],[135.57359,34.68826],[135.57359,34.68825],[135.57359,34.68823],[135.57359,34.68823],[135.57358,34.68822],[135.57358,34.68822],[135.57358,34.68822],[135.57358,34.6882],[135.57349,34.68821],[135.57348,34.6883],[135.57348,34.68838],[135.57326,34.68838],[135.57325,34.68838],[135.57319,34.6884],[135.57314,34.68842],[135.57312,34.68842],[135.57306,34.68844],[135.573,34.68846],[135.57299,34.68846],[135.57298,34.68846],[135.57297,34.68846],[135.57291,34.68846],[135.57291,34.68846],[135.57291,34.68848],[135.57285,34.68848],[135.57285,34.68851],[135.57271,34.68855],[135.57313,34.68856],[135.57315,34.689],[135.57316,34.68905],[135.57315,34.68954],[135.57314,34.69003],[135.57312,34.69052],[135.57367,34.69053],[135.57401,34.69053],[135.57425,34.69054],[135.57488,34.69054],[135.57488,34.69055],[135.57666,34.69056],[135.57667,34.69051],[135.57644,34.69006],[135.57594,34.68931],[135.57561,34.68917],[135.57491,34.68905]]]}},{"type":"Feature","properties":{"name":"今津南四丁目","setai":456,"jinko":1013,"key":"27124006004","units":1,"m":488,"f":525,"gk":10,"a0":121,"a1":555,"a2":327,"a75":169,"ag":[44,45,32,29,39,56,62,68,61,61,68,50,61,65,93,74,47,31,15,2,0],"nf":10},"geometry":{"type":"Polygon","coordinates":[[[135.57815,34.68907],[135.57767,34.68879],[135.57765,34.68878],[135.57756,34.68868],[135.57755,34.68867],[135.57753,34.68865],[135.57737,34.68852],[135.57737,34.68852],[135.57704,34.68837],[135.57687,34.68824],[135.57679,34.68819],[135.57652,34.68813],[135.57648,34.68812],[135.57619,34.68806],[135.5761,34.68816],[135.57602,34.68814],[135.57598,34.68813],[135.57551,34.68802],[135.5753,34.68797],[135.57494,34.68791],[135.5745,34.6879],[135.5745,34.68796],[135.57443,34.68796],[135.57436,34.68796],[135.57421,34.68796],[135.5742,34.68808],[135.5742,34.68857],[135.57419,34.68883],[135.57419,34.68904],[135.57491,34.68904],[135.57491,34.68905],[135.57561,34.68917],[135.57594,34.68931],[135.57644,34.69006],[135.57667,34.69051],[135.57666,34.69056],[135.57696,34.69057],[135.57769,34.69057],[135.57777,34.69057],[135.57849,34.69106],[135.57853,34.69105],[135.57887,34.69097],[135.5791,34.69085],[135.57972,34.69053],[135.57986,34.69046],[135.57977,34.69035],[135.57954,34.69004],[135.57935,34.68985],[135.57921,34.68974],[135.57907,34.68964],[135.57894,34.68956],[135.57862,34.68934],[135.57858,34.68932],[135.57819,34.68909],[135.57815,34.68907]]]}},{"type":"Feature","properties":{"name":"諸口一丁目","setai":1379,"jinko":2981,"key":"27124007001","units":1,"m":1380,"f":1601,"gk":52,"a0":383,"a1":1715,"a2":865,"a75":487,"ag":[120,145,118,138,133,137,174,176,156,197,217,202,185,171,207,164,173,100,44,5,1],"nf":18},"geometry":{"type":"Polygon","coordinates":[[[135.57836,34.70168],[135.57839,34.70136],[135.57838,34.70131],[135.57836,34.70105],[135.57838,34.70092],[135.57837,34.70075],[135.57837,34.70071],[135.57839,34.70036],[135.57841,34.70019],[135.57848,34.6999],[135.57855,34.6995],[135.57856,34.69945],[135.57852,34.69911],[135.57851,34.69902],[135.5785,34.69898],[135.57849,34.69858],[135.57849,34.69839],[135.5785,34.69829],[135.57849,34.69793],[135.57851,34.69777],[135.57852,34.69762],[135.57854,34.69747],[135.57856,34.69725],[135.57856,34.6972],[135.57857,34.69718],[135.57849,34.69699],[135.57848,34.69671],[135.5767,34.69663],[135.57665,34.69662],[135.57606,34.6966],[135.57479,34.69654],[135.57476,34.69654],[135.57476,34.6966],[135.57472,34.69802],[135.5747,34.69877],[135.5747,34.69887],[135.57469,34.69929],[135.57468,34.69965],[135.57468,34.69967],[135.57467,34.7001],[135.57464,34.70104],[135.57464,34.70134],[135.57493,34.7014],[135.57525,34.70147],[135.57525,34.70147],[135.57548,34.70152],[135.57578,34.70148],[135.57587,34.70148],[135.57622,34.70148],[135.57663,34.70152],[135.57723,34.70159],[135.5777,34.70165],[135.57787,34.70169],[135.57837,34.70173],[135.57836,34.70168]]]}},{"type":"Feature","properties":{"name":"諸口二丁目","setai":1245,"jinko":2924,"key":"27124007002","units":1,"m":1361,"f":1563,"gk":53,"a0":346,"a1":1922,"a2":641,"a75":343,"ag":[124,112,110,192,188,162,142,133,162,208,306,257,172,152,146,150,109,65,15,3,1],"nf":15},"geometry":{"type":"Polygon","coordinates":[[[135.58258,34.70176],[135.58262,34.70176],[135.58312,34.70176],[135.58317,34.70176],[135.58371,34.70169],[135.58357,34.70155],[135.58348,34.70141],[135.58335,34.70117],[135.58323,34.70097],[135.58323,34.70096],[135.58304,34.70105],[135.58299,34.70112],[135.58298,34.7011],[135.58251,34.70095],[135.58234,34.70068],[135.58229,34.70061],[135.58211,34.70034],[135.5821,34.7003],[135.58203,34.7002],[135.58196,34.70009],[135.58183,34.69985],[135.58167,34.69958],[135.58155,34.69937],[135.58149,34.69926],[135.58134,34.699],[135.58114,34.6987],[135.5811,34.69859],[135.58102,34.69844],[135.58101,34.69843],[135.58099,34.69838],[135.58084,34.69818],[135.58065,34.69804],[135.58058,34.698],[135.58047,34.69799],[135.58027,34.69798],[135.57977,34.69806],[135.57959,34.69807],[135.57941,34.69806],[135.57923,34.69805],[135.57903,34.69804],[135.57879,34.69797],[135.57849,34.69793],[135.5785,34.69829],[135.57849,34.69839],[135.57849,34.69858],[135.5785,34.69898],[135.57851,34.69902],[135.57852,34.69911],[135.57856,34.69945],[135.57855,34.6995],[135.57848,34.6999],[135.57841,34.70019],[135.57839,34.70036],[135.57837,34.70071],[135.57837,34.70075],[135.57838,34.70092],[135.57836,34.70105],[135.57838,34.70131],[135.57839,34.70136],[135.57836,34.70168],[135.57837,34.70173],[135.57837,34.70174],[135.57861,34.70174],[135.57895,34.70169],[135.57927,34.70165],[135.57952,34.70164],[135.57977,34.70166],[135.58009,34.70167],[135.58066,34.70171],[135.58068,34.70171],[135.58092,34.70169],[135.58111,34.70172],[135.58163,34.70179],[135.58196,34.70182],[135.58219,34.70181],[135.58235,34.7018],[135.58258,34.70176]]]}},{"type":"Feature","properties":{"name":"諸口三丁目","setai":1028,"jinko":2185,"key":"27124007003","units":1,"m":999,"f":1186,"gk":38,"a0":267,"a1":1325,"a2":563,"a75":272,"ag":[113,77,77,87,96,144,151,114,122,170,149,159,133,139,152,109,95,52,13,3,0],"nf":30},"geometry":{"type":"Polygon","coordinates":[[[135.57723,34.70159],[135.57663,34.70152],[135.57622,34.70148],[135.57587,34.70148],[135.57578,34.70148],[135.57548,34.70152],[135.57525,34.70147],[135.57525,34.70147],[135.57493,34.7014],[135.57464,34.70134],[135.57462,34.70211],[135.57461,34.70232],[135.5746,34.7026],[135.57459,34.70279],[135.57459,34.70292],[135.57453,34.70381],[135.57513,34.70387],[135.57516,34.70387],[135.5757,34.70394],[135.57588,34.70396],[135.57648,34.70402],[135.57651,34.70402],[135.57721,34.70411],[135.57826,34.70422],[135.57832,34.70423],[135.57834,34.70389],[135.57838,34.70349],[135.5784,34.70329],[135.5784,34.70326],[135.57841,34.70311],[135.5784,34.70307],[135.5784,34.70306],[135.5784,34.70287],[135.5784,34.70253],[135.57839,34.70207],[135.57837,34.70174],[135.57837,34.70173],[135.57787,34.70169],[135.5777,34.70165],[135.57723,34.70159]]]}},{"type":"Feature","properties":{"name":"諸口四丁目","setai":953,"jinko":2143,"key":"27124007004","units":1,"m":1030,"f":1113,"gk":32,"a0":284,"a1":1328,"a2":504,"a75":273,"ag":[111,100,73,114,97,117,177,137,111,160,173,143,99,104,127,114,86,55,16,2,0],"nf":27},"geometry":{"type":"Polygon","coordinates":[[[135.5823,34.70222],[135.58235,34.7018],[135.58219,34.70181],[135.58196,34.70182],[135.58163,34.70179],[135.58111,34.70172],[135.58092,34.70169],[135.58068,34.70171],[135.58066,34.70171],[135.58009,34.70167],[135.57977,34.70166],[135.57952,34.70164],[135.57927,34.70165],[135.57895,34.70169],[135.57861,34.70174],[135.57837,34.70174],[135.57839,34.70207],[135.5784,34.70253],[135.5784,34.70287],[135.5784,34.70306],[135.5784,34.70307],[135.57841,34.70311],[135.5784,34.70326],[135.5784,34.70329],[135.57838,34.70349],[135.57834,34.70389],[135.57832,34.70423],[135.57905,34.70433],[135.57941,34.70436],[135.57966,34.70441],[135.58085,34.70457],[135.58127,34.70464],[135.58181,34.70472],[135.58203,34.70475],[135.58212,34.70417],[135.58214,34.70389],[135.58216,34.70367],[135.58219,34.70341],[135.58222,34.70302],[135.58222,34.70296],[135.58227,34.70262],[135.58229,34.70242],[135.5823,34.70222]]]}},{"type":"Feature","properties":{"name":"諸口五丁目","setai":304,"jinko":751,"key":"27124007005","units":1,"m":355,"f":396,"gk":30,"a0":80,"a1":435,"a2":231,"a75":138,"ag":[20,26,34,45,38,29,29,33,59,62,72,41,27,34,59,46,48,25,15,3,1],"nf":5},"geometry":{"type":"Polygon","coordinates":[[[135.58393,34.70187],[135.58371,34.70169],[135.58317,34.70176],[135.58312,34.70176],[135.58262,34.70176],[135.58258,34.70176],[135.58235,34.7018],[135.5823,34.70222],[135.58229,34.70242],[135.58227,34.70262],[135.58222,34.70296],[135.58222,34.70302],[135.58219,34.70341],[135.58216,34.70367],[135.58214,34.70389],[135.58212,34.70417],[135.58203,34.70475],[135.5826,34.70483],[135.58315,34.7049],[135.58386,34.70498],[135.58386,34.70499],[135.58418,34.70503],[135.58463,34.7051],[135.58498,34.70514],[135.58515,34.70516],[135.5852,34.70517],[135.58544,34.7052],[135.58546,34.7052],[135.58614,34.7053],[135.5862,34.70532],[135.58618,34.70527],[135.58611,34.70513],[135.58581,34.70445],[135.5857,34.70421],[135.58527,34.70352],[135.585,34.7031],[135.58462,34.70251],[135.58453,34.70239],[135.58427,34.70212],[135.58393,34.70187]]]}},{"type":"Feature","properties":{"name":"諸口六丁目","setai":1710,"jinko":4337,"key":"27124007006","units":1,"m":1969,"f":2368,"gk":72,"a0":757,"a1":2630,"a2":925,"a75":561,"ag":[254,273,230,190,183,193,289,316,351,365,294,267,182,177,187,160,166,138,77,13,7],"nf":25},"geometry":{"type":"Polygon","coordinates":[[[135.57701,34.70896],[135.57709,34.70893],[135.57784,34.7089],[135.57833,34.70892],[135.57849,34.70889],[135.57858,34.70826],[135.57861,34.70817],[135.57864,34.70792],[135.57869,34.70774],[135.57874,34.70755],[135.57876,34.70745],[135.57884,34.7072],[135.57886,34.70695],[135.5789,34.70661],[135.57888,34.70651],[135.57884,34.70616],[135.57879,34.70592],[135.57878,34.7059],[135.57873,34.70567],[135.57869,34.70549],[135.57863,34.70532],[135.57826,34.70422],[135.57721,34.70411],[135.57651,34.70402],[135.57648,34.70402],[135.57588,34.70396],[135.5757,34.70394],[135.57516,34.70387],[135.57513,34.70387],[135.57453,34.70381],[135.57451,34.70473],[135.57451,34.70521],[135.57451,34.70543],[135.57451,34.70549],[135.57452,34.70568],[135.57451,34.70578],[135.57452,34.70596],[135.57454,34.70614],[135.57453,34.70629],[135.57454,34.70719],[135.57454,34.70724],[135.57455,34.70768],[135.57456,34.7082],[135.57458,34.70889],[135.57472,34.70895],[135.575,34.70896],[135.57528,34.70896],[135.57547,34.70894],[135.57569,34.70894],[135.57573,34.70897],[135.57615,34.70898],[135.57642,34.70898],[135.57654,34.70901],[135.57678,34.70901],[135.57689,34.709],[135.57701,34.70896],[135.57701,34.70896],[135.57701,34.70896]]]}},{"type":"Feature","properties":{"name":"徳庵一丁目","setai":495,"jinko":1422,"key":"27124008001","units":1,"m":682,"f":740,"gk":9,"a0":212,"a1":959,"a2":246,"a75":143,"ag":[50,63,99,116,81,58,75,57,94,163,143,105,67,42,61,52,40,36,11,4,0],"nf":5},"geometry":{"type":"Polygon","coordinates":[[[135.58156,34.69803],[135.58127,34.69757],[135.58082,34.6968],[135.58009,34.69677],[135.57988,34.69676],[135.57848,34.69671],[135.57849,34.69699],[135.57857,34.69718],[135.57856,34.6972],[135.57856,34.69725],[135.57854,34.69747],[135.57852,34.69762],[135.57851,34.69777],[135.57849,34.69793],[135.57879,34.69797],[135.57903,34.69804],[135.57923,34.69805],[135.57941,34.69806],[135.57959,34.69807],[135.57977,34.69806],[135.58027,34.69798],[135.58047,34.69799],[135.58058,34.698],[135.58065,34.69804],[135.58084,34.69818],[135.58099,34.69838],[135.58101,34.69843],[135.58102,34.69844],[135.5811,34.69859],[135.58114,34.6987],[135.58134,34.699],[135.58149,34.69926],[135.58155,34.69937],[135.58167,34.69958],[135.58183,34.69985],[135.58196,34.70009],[135.58203,34.7002],[135.5821,34.7003],[135.58211,34.70034],[135.58229,34.70061],[135.58234,34.70068],[135.58251,34.70095],[135.58298,34.7011],[135.58299,34.70112],[135.58304,34.70105],[135.58323,34.70096],[135.5831,34.70072],[135.58298,34.70049],[135.58276,34.70003],[135.58253,34.69964],[135.58243,34.69947],[135.58238,34.6994],[135.58218,34.69909],[135.58206,34.69889],[135.58193,34.69867],[135.58169,34.69827],[135.58156,34.69803]]]}},{"type":"Feature","properties":{"name":"徳庵二丁目","setai":288,"jinko":619,"key":"27124008002","units":1,"m":285,"f":334,"gk":2,"a0":75,"a1":353,"a2":170,"a75":95,"ag":[18,21,36,23,31,22,25,31,48,42,59,40,32,35,40,35,32,19,7,2,0],"nf":21},"geometry":{"type":"Polygon","coordinates":[[[135.58362,34.70001],[135.584,34.69925],[135.58409,34.69906],[135.58412,34.69901],[135.58421,34.69882],[135.58422,34.6988],[135.5843,34.69864],[135.5844,34.69845],[135.58415,34.69833],[135.58372,34.69805],[135.58349,34.69792],[135.58336,34.69784],[135.58314,34.69767],[135.583,34.69753],[135.5829,34.6974],[135.58279,34.69721],[135.58267,34.69699],[135.58259,34.69695],[135.58239,34.69683],[135.5822,34.69683],[135.58082,34.6968],[135.58127,34.69757],[135.58156,34.69803],[135.58169,34.69827],[135.58193,34.69867],[135.58206,34.69889],[135.58218,34.69909],[135.58238,34.6994],[135.58243,34.69947],[135.58253,34.69964],[135.58276,34.69954],[135.5827,34.69944],[135.58289,34.69939],[135.5829,34.69939],[135.58295,34.69954],[135.58308,34.69978],[135.58326,34.70005],[135.58341,34.70023],[135.5835,34.7003],[135.58361,34.70005],[135.58362,34.70001]]]}},{"type":"Feature","properties":{"name":"中茶屋一丁目","setai":620,"jinko":1584,"key":"27124009001","units":1,"m":777,"f":807,"gk":18,"a0":226,"a1":889,"a2":449,"a75":263,"ag":[67,94,65,69,90,64,72,79,89,108,121,115,82,85,101,112,82,55,12,2,0],"nf":20},"geometry":{"type":"Polygon","coordinates":[[[135.58689,34.70067],[135.58731,34.70015],[135.58731,34.70015],[135.58775,34.69955],[135.58781,34.69947],[135.58787,34.69939],[135.58781,34.69933],[135.5877,34.69924],[135.58716,34.6987],[135.58701,34.69865],[135.58692,34.6986],[135.58678,34.69854],[135.58674,34.69852],[135.58651,34.69842],[135.58619,34.69839],[135.58597,34.6984],[135.58573,34.69843],[135.58547,34.69848],[135.58512,34.69853],[135.58501,34.69855],[135.58496,34.69855],[135.58486,34.69856],[135.58467,34.69854],[135.5844,34.69845],[135.5843,34.69864],[135.58422,34.6988],[135.58421,34.69882],[135.58412,34.69901],[135.58409,34.69906],[135.584,34.69925],[135.58362,34.70001],[135.58361,34.70005],[135.5835,34.7003],[135.58341,34.70023],[135.58326,34.70005],[135.58308,34.69978],[135.58295,34.69954],[135.5829,34.69939],[135.58289,34.69939],[135.5827,34.69944],[135.58276,34.69954],[135.58253,34.69964],[135.58276,34.70003],[135.58298,34.70049],[135.5831,34.70072],[135.58323,34.70096],[135.58323,34.70097],[135.58335,34.70117],[135.58348,34.70141],[135.58357,34.70155],[135.58371,34.70169],[135.58393,34.70187],[135.58427,34.70212],[135.58453,34.70239],[135.58462,34.70251],[135.585,34.7031],[135.58507,34.70299],[135.58524,34.70278],[135.58526,34.70276],[135.58562,34.70231],[135.58575,34.7021],[135.58595,34.70185],[135.586,34.70179],[135.58614,34.70161],[135.58642,34.70126],[135.58653,34.70114],[135.58689,34.70067]]]}},{"type":"Feature","properties":{"name":"中茶屋二丁目","setai":114,"jinko":349,"key":"27124009002","units":1,"m":172,"f":177,"gk":8,"a0":86,"a1":237,"a2":23,"a75":12,"ag":[19,22,45,32,11,10,19,31,45,35,32,15,7,4,7,7,4,1,0,0,0],"nf":3},"geometry":{"type":"Polygon","coordinates":[[[135.58937,34.70247],[135.5895,34.70246],[135.58969,34.70246],[135.58968,34.70251],[135.58982,34.70239],[135.59,34.70214],[135.5902,34.70206],[135.59027,34.70206],[135.59032,34.70165],[135.59017,34.70164],[135.59021,34.70132],[135.59027,34.701],[135.59034,34.70051],[135.59008,34.70043],[135.58975,34.70033],[135.58953,34.70028],[135.58903,34.70013],[135.58882,34.70003],[135.58863,34.6999],[135.58847,34.69981],[135.58846,34.69981],[135.58811,34.69957],[135.58796,34.69945],[135.58787,34.69939],[135.58781,34.69947],[135.58775,34.69955],[135.58731,34.70015],[135.58731,34.70015],[135.58689,34.70067],[135.58653,34.70114],[135.58642,34.70126],[135.58614,34.70161],[135.586,34.70179],[135.58654,34.7018],[135.58663,34.7018],[135.58687,34.7018],[135.58698,34.70184],[135.58713,34.70195],[135.58737,34.70206],[135.5878,34.7022],[135.58863,34.70252],[135.58885,34.70256],[135.58912,34.70254],[135.58931,34.70248],[135.58937,34.70247]]]}},{"type":"Feature","properties":{"name":"茨田大宮一丁目","setai":729,"jinko":1952,"key":"27124010001","units":1,"m":964,"f":988,"gk":28,"a0":367,"a1":1262,"a2":315,"a75":166,"ag":[98,130,139,113,121,100,119,109,153,191,156,113,87,70,79,62,59,26,17,1,1],"nf":8},"geometry":{"type":"Polygon","coordinates":[[[135.59054,34.71377],[135.59007,34.71368],[135.59034,34.71322],[135.59047,34.71298],[135.59051,34.71292],[135.59053,34.71288],[135.59104,34.71199],[135.59112,34.71184],[135.59172,34.71171],[135.59177,34.71161],[135.59193,34.71118],[135.59197,34.71111],[135.5921,34.71069],[135.59212,34.7106],[135.59217,34.71037],[135.59226,34.70981],[135.59227,34.70922],[135.59227,34.70915],[135.59226,34.70863],[135.59225,34.70843],[135.59225,34.70816],[135.59223,34.70791],[135.59132,34.70813],[135.59059,34.7085],[135.59053,34.70852],[135.59023,34.7086],[135.58997,34.70863],[135.58992,34.70861],[135.58989,34.7086],[135.58965,34.70822],[135.58958,34.70818],[135.58931,34.7081],[135.58929,34.70814],[135.58919,34.70836],[135.58918,34.70844],[135.58923,34.70855],[135.58941,34.70877],[135.58943,34.70881],[135.58945,34.70884],[135.58927,34.709],[135.58916,34.70904],[135.58899,34.70907],[135.58881,34.70915],[135.58866,34.70924],[135.58865,34.70927],[135.58847,34.7093],[135.58845,34.70931],[135.58822,34.70933],[135.58806,34.70937],[135.58798,34.70954],[135.58796,34.70972],[135.58803,34.70984],[135.58776,34.70984],[135.5877,34.70984],[135.58743,34.70984],[135.58678,34.70984],[135.58682,34.71006],[135.58679,34.71036],[135.58676,34.71062],[135.58671,34.71093],[135.58672,34.71096],[135.58672,34.71096],[135.58734,34.71081],[135.58741,34.71081],[135.58748,34.71111],[135.58753,34.71134],[135.5876,34.71171],[135.58769,34.71209],[135.58775,34.7124],[135.58827,34.71296],[135.58833,34.71302],[135.58854,34.71325],[135.58868,34.71334],[135.58909,34.71357],[135.58934,34.71369],[135.58941,34.71373],[135.58956,34.71381],[135.58961,34.7137],[135.58969,34.7137],[135.59001,34.71377],[135.59002,34.71377],[135.59059,34.71383],[135.59066,34.71378],[135.59054,34.71377]]]}},{"type":"Feature","properties":{"name":"茨田大宮二丁目","setai":422,"jinko":801,"key":"27124010002","units":1,"m":420,"f":381,"gk":13,"a0":72,"a1":525,"a2":180,"a75":91,"ag":[29,27,16,27,49,54,43,48,66,77,77,48,36,39,50,53,28,8,1,1,0],"nf":24},"geometry":{"type":"Polygon","coordinates":[[[135.5915,34.7137],[135.59158,34.71369],[135.59182,34.71373],[135.592,34.71372],[135.59256,34.71359],[135.59267,34.71357],[135.59271,34.71356],[135.59291,34.71354],[135.59314,34.71352],[135.59335,34.71348],[135.59345,34.71349],[135.5939,34.71358],[135.59408,34.7136],[135.59428,34.71357],[135.59434,34.71358],[135.59438,34.71377],[135.59438,34.71385],[135.59468,34.7139],[135.59473,34.71371],[135.59476,34.71372],[135.59519,34.71381],[135.5952,34.71381],[135.59529,34.71383],[135.59521,34.71359],[135.59518,34.71353],[135.59516,34.71348],[135.595,34.71304],[135.59476,34.71232],[135.59442,34.71126],[135.59417,34.71054],[135.59405,34.71016],[135.5937,34.70911],[135.59364,34.70897],[135.59351,34.70859],[135.59324,34.70774],[135.59319,34.70755],[135.59314,34.70738],[135.5931,34.70703],[135.5928,34.70704],[135.59253,34.70704],[135.59247,34.70709],[135.59224,34.70711],[135.59223,34.70715],[135.59224,34.70773],[135.59223,34.70787],[135.59223,34.70791],[135.59225,34.70816],[135.59225,34.70843],[135.59226,34.70863],[135.59227,34.70915],[135.59227,34.70922],[135.59226,34.70981],[135.59217,34.71037],[135.59212,34.7106],[135.5921,34.71069],[135.59197,34.71111],[135.59193,34.71118],[135.59177,34.71161],[135.59172,34.71171],[135.59112,34.71184],[135.59104,34.71199],[135.59053,34.71288],[135.59051,34.71292],[135.59047,34.71298],[135.59034,34.71322],[135.59007,34.71368],[135.59054,34.71377],[135.59066,34.71378],[135.59113,34.71391],[135.59119,34.71391],[135.59123,34.7139],[135.5913,34.7139],[135.59137,34.71376],[135.5915,34.7137]]]}},{"type":"Feature","properties":{"name":"茨田大宮三丁目","setai":857,"jinko":1855,"key":"27124010003","units":1,"m":840,"f":1015,"gk":24,"a0":229,"a1":930,"a2":686,"a75":455,"ag":[65,83,81,94,71,83,68,57,100,137,137,109,74,95,136,168,155,97,28,6,1],"nf":10},"geometry":{"type":"Polygon","coordinates":[[[135.5949,34.71007],[135.59627,34.71005],[135.59659,34.71005],[135.59693,34.71001],[135.59749,34.7099],[135.59766,34.7099],[135.59786,34.70988],[135.59766,34.70919],[135.5974,34.70829],[135.59739,34.70825],[135.59734,34.70804],[135.59715,34.70737],[135.59719,34.7073],[135.59709,34.70684],[135.59708,34.70682],[135.59707,34.70679],[135.59673,34.70683],[135.59666,34.70684],[135.59511,34.7069],[135.59494,34.7069],[135.59437,34.70695],[135.59368,34.70699],[135.5931,34.70703],[135.59314,34.70738],[135.59319,34.70755],[135.59324,34.70774],[135.59351,34.70859],[135.59364,34.70897],[135.5937,34.70911],[135.59405,34.71016],[135.59482,34.71007],[135.5949,34.71007]]]}},{"type":"Feature","properties":{"name":"茨田大宮四丁目","setai":1697,"jinko":3430,"key":"27124010004","units":1,"m":1518,"f":1912,"gk":60,"a0":375,"a1":1809,"a2":1225,"a75":759,"ag":[96,132,147,169,159,122,127,109,149,262,316,214,182,196,270,312,268,146,29,3,1],"nf":21},"geometry":{"type":"Polygon","coordinates":[[[135.59805,34.71055],[135.59786,34.70988],[135.59766,34.7099],[135.59749,34.7099],[135.59693,34.71001],[135.59659,34.71005],[135.59627,34.71005],[135.5949,34.71007],[135.59482,34.71007],[135.59405,34.71016],[135.59417,34.71054],[135.59442,34.71126],[135.59476,34.71232],[135.595,34.71304],[135.59516,34.71348],[135.59518,34.71353],[135.59521,34.71359],[135.59529,34.71383],[135.59558,34.71391],[135.59587,34.71395],[135.59631,34.71402],[135.59658,34.71409],[135.59684,34.71414],[135.59712,34.71421],[135.59744,34.71428],[135.59768,34.71434],[135.59813,34.71443],[135.59819,34.71445],[135.59828,34.71447],[135.59892,34.71446],[135.59914,34.71444],[135.59918,34.71444],[135.59902,34.71389],[135.59897,34.71374],[135.59882,34.71322],[135.59869,34.71275],[135.59868,34.71271],[135.59867,34.71268],[135.5985,34.71209],[135.59844,34.71187],[135.59817,34.71095],[135.59805,34.71055]]]}},{"type":"Feature","properties":{"name":"焼野一丁目","setai":640,"jinko":1455,"key":"27124011001","units":1,"m":647,"f":808,"gk":33,"a0":241,"a1":825,"a2":364,"a75":221,"ag":[84,83,74,81,63,62,73,107,97,120,104,66,52,68,75,82,62,53,19,5,0],"nf":25},"geometry":{"type":"Polygon","coordinates":[[[135.5835,34.71876],[135.584,34.7186],[135.58407,34.71862],[135.58416,34.71819],[135.58417,34.71812],[135.58418,34.71806],[135.58426,34.71795],[135.58469,34.71765],[135.58481,34.71757],[135.58499,34.71737],[135.58502,34.71729],[135.58505,34.7172],[135.585,34.71692],[135.58469,34.7159],[135.58469,34.71586],[135.58467,34.71532],[135.58466,34.71502],[135.58465,34.7146],[135.58463,34.71413],[135.5846,34.7131],[135.58394,34.71279],[135.58371,34.71268],[135.58259,34.71216],[135.58259,34.71216],[135.5826,34.71257],[135.58259,34.71292],[135.58254,34.71291],[135.58253,34.71315],[135.58253,34.71333],[135.58251,34.71446],[135.58251,34.71474],[135.58252,34.71526],[135.58251,34.7154],[135.58251,34.71541],[135.5825,34.7162],[135.58249,34.71648],[135.58249,34.71664],[135.58248,34.71682],[135.58249,34.71698],[135.58249,34.71717],[135.58276,34.71717],[135.58288,34.71718],[135.58289,34.7172],[135.58282,34.71721],[135.58278,34.71722],[135.58282,34.71731],[135.58286,34.7173],[135.58291,34.71729],[135.58292,34.71732],[135.58293,34.71737],[135.58285,34.71738],[135.58261,34.71742],[135.58265,34.71745],[135.5828,34.71769],[135.58302,34.71801],[135.58314,34.71812],[135.58325,34.71819],[135.58352,34.71838],[135.58353,34.71843],[135.58365,34.71866],[135.58348,34.71872],[135.5835,34.71876]]]}},{"type":"Feature","properties":{"name":"焼野二丁目","setai":428,"jinko":1093,"key":"27124011002","units":1,"m":509,"f":584,"gk":1,"a0":180,"a1":618,"a2":272,"a75":180,"ag":[74,62,44,33,43,67,93,91,79,77,53,49,33,41,51,68,48,32,28,4,0],"nf":23},"geometry":{"type":"Polygon","coordinates":[[[135.58697,34.71884],[135.58711,34.7186],[135.58705,34.7186],[135.58704,34.71852],[135.58703,34.71849],[135.58703,34.71846],[135.58702,34.71839],[135.58702,34.71834],[135.58702,34.71833],[135.58716,34.71832],[135.58715,34.71805],[135.58712,34.71787],[135.58712,34.71786],[135.5871,34.71784],[135.58702,34.71769],[135.58699,34.71754],[135.58704,34.7172],[135.58705,34.71711],[135.58707,34.717],[135.58716,34.71656],[135.58716,34.71637],[135.58716,34.71637],[135.58708,34.71618],[135.58706,34.71614],[135.58685,34.71575],[135.58685,34.71568],[135.58686,34.71557],[135.58685,34.71536],[135.58679,34.71519],[135.58675,34.71504],[135.58675,34.71502],[135.58677,34.71447],[135.58678,34.71419],[135.58675,34.7141],[135.58625,34.71387],[135.58609,34.71379],[135.58573,34.71363],[135.58486,34.71322],[135.5846,34.7131],[135.58463,34.71413],[135.58465,34.7146],[135.58466,34.71502],[135.58467,34.71532],[135.58469,34.71586],[135.58469,34.7159],[135.585,34.71692],[135.58505,34.7172],[135.58502,34.71729],[135.58499,34.71737],[135.58481,34.71757],[135.58469,34.71765],[135.58426,34.71795],[135.58418,34.71806],[135.58417,34.71812],[135.58416,34.71819],[135.58407,34.71862],[135.58405,34.7187],[135.58643,34.72009],[135.58643,34.72005],[135.58709,34.72002],[135.58714,34.71996],[135.58727,34.71955],[135.58731,34.71939],[135.58729,34.71916],[135.58725,34.71896],[135.58698,34.71884],[135.58697,34.71884]]]}},{"type":"Feature","properties":{"name":"焼野三丁目","setai":21,"jinko":48,"key":"27124011003","units":1,"m":22,"f":26,"gk":0,"a0":7,"a1":39,"a2":2,"a75":1,"ag":[6,1,0,1,5,3,12,5,1,1,5,5,1,0,1,1,0,0,0,0,0]},"geometry":{"type":"Polygon","coordinates":[[[135.5824,34.72229],[135.58289,34.7222],[135.58298,34.72276],[135.5828,34.72279],[135.58293,34.72324],[135.58317,34.72302],[135.58309,34.7226],[135.58324,34.72255],[135.58318,34.72208],[135.58348,34.72205],[135.58355,34.72259],[135.58389,34.7225],[135.58397,34.7224],[135.58411,34.7223],[135.58416,34.72225],[135.58436,34.72213],[135.58454,34.72203],[135.58454,34.72203],[135.58472,34.72191],[135.58488,34.72188],[135.58522,34.72187],[135.58523,34.72187],[135.58533,34.72184],[135.58545,34.72181],[135.58583,34.72167],[135.58609,34.72156],[135.58615,34.72154],[135.58661,34.72134],[135.58685,34.72093],[135.58698,34.72042],[135.58698,34.7204],[135.587,34.72032],[135.58704,34.72017],[135.58694,34.72016],[135.58684,34.72024],[135.58662,34.72031],[135.58635,34.72035],[135.58631,34.72017],[135.58643,34.72015],[135.58643,34.72009],[135.58405,34.7187],[135.58407,34.71862],[135.584,34.7186],[135.5835,34.71876],[135.58348,34.71872],[135.58326,34.71826],[135.58305,34.71828],[135.58296,34.71829],[135.58286,34.71833],[135.58256,34.7185],[135.58252,34.7185],[135.58251,34.7188],[135.5826,34.71877],[135.58261,34.7188],[135.58273,34.71902],[135.58283,34.71926],[135.5829,34.71926],[135.58329,34.71927],[135.58332,34.71938],[135.58287,34.71941],[135.58248,34.7194],[135.58249,34.71928],[135.58248,34.71929],[135.58237,34.7193],[135.58237,34.71921],[135.58235,34.71921],[135.58234,34.71914],[135.58234,34.71912],[135.58233,34.71911],[135.58226,34.71897],[135.58226,34.71896],[135.58207,34.71856],[135.5822,34.71857],[135.5822,34.71853],[135.58217,34.71852],[135.58192,34.7185],[135.58214,34.71896],[135.58213,34.71906],[135.58213,34.71912],[135.58213,34.71913],[135.58228,34.71914],[135.58228,34.71917],[135.58226,34.71966],[135.58228,34.7197],[135.58231,34.7197],[135.58231,34.7197],[135.58229,34.71992],[135.58247,34.71992],[135.58246,34.72004],[135.5824,34.72004],[135.58228,34.72004],[135.58227,34.7202],[135.5823,34.7202],[135.5823,34.72022],[135.58247,34.72021],[135.5825,34.72021],[135.5825,34.72013],[135.58247,34.71969],[135.58296,34.71966],[135.58299,34.71987],[135.58256,34.71989],[135.58254,34.7202],[135.58268,34.72019],[135.58345,34.72017],[135.58339,34.71986],[135.58396,34.71969],[135.58399,34.71982],[135.58405,34.71981],[135.58412,34.7198],[135.58421,34.7201],[135.58413,34.72011],[135.58412,34.72012],[135.58342,34.72022],[135.58346,34.7203],[135.58346,34.72031],[135.58357,34.72054],[135.5834,34.72067],[135.58341,34.72088],[135.58333,34.72099],[135.58327,34.72099],[135.58327,34.721],[135.58245,34.72102],[135.5822,34.72103],[135.58231,34.7219],[135.58208,34.72183],[135.5819,34.72185],[135.58192,34.72196],[135.58208,34.72194],[135.58211,34.72205],[135.58238,34.72203],[135.58238,34.72206],[135.58237,34.7222],[135.58228,34.72221],[135.58239,34.72274],[135.58239,34.72276],[135.58251,34.72339],[135.58263,34.72331],[135.5825,34.72269],[135.5825,34.72264],[135.5824,34.72232],[135.5824,34.72229]]]}},{"type":"Feature","properties":{"name":"浜一丁目","setai":0,"jinko":0,"key":"27124012001","units":1,"m":0,"f":0,"gk":0,"a0":0,"a1":0,"a2":0,"a75":0,"ag":[0,0,0,0,0,0,0,0,0,0,0,0,0,0,0,0,0,0,0,0,0]},"geometry":{"type":"Polygon","coordinates":[[[135.58041,34.70886],[135.58068,34.70886],[135.58113,34.70887],[135.58153,34.70886],[135.58155,34.70866],[135.58159,34.70853],[135.58163,34.70827],[135.58165,34.70804],[135.58171,34.70786],[135.58182,34.70744],[135.58187,34.70718],[135.58188,34.70699],[135.58188,34.70693],[135.58188,34.7067],[135.58191,34.70646],[135.58195,34.70626],[135.58204,34.70587],[135.58203,34.70566],[135.58198,34.70555],[135.58197,34.70538],[135.58204,34.70507],[135.58201,34.70484],[135.58203,34.70475],[135.58181,34.70472],[135.58127,34.70464],[135.58085,34.70457],[135.57966,34.70441],[135.57941,34.70436],[135.57905,34.70433],[135.57832,34.70423],[135.57826,34.70422],[135.57863,34.70532],[135.57869,34.70549],[135.57873,34.70567],[135.57878,34.7059],[135.57879,34.70592],[135.57884,34.70616],[135.57888,34.70651],[135.5789,34.70661],[135.57886,34.70695],[135.57884,34.7072],[135.57876,34.70745],[135.57874,34.70755],[135.57869,34.70774],[135.57864,34.70792],[135.57861,34.70817],[135.57858,34.70826],[135.57849,34.70889],[135.5787,34.70886],[135.58025,34.70886],[135.58041,34.70886]]]}},{"type":"Feature","properties":{"name":"浜二丁目","setai":1021,"jinko":2825,"key":"27124012002","units":1,"m":1383,"f":1442,"gk":44,"a0":664,"a1":1951,"a2":186,"a75":94,"ag":[223,211,230,169,101,141,227,216,306,338,225,141,87,47,45,17,32,25,19,1,0],"nf":24},"geometry":{"type":"Polygon","coordinates":[[[135.5826,34.70483],[135.58203,34.70475],[135.58201,34.70484],[135.58204,34.70507],[135.58197,34.70538],[135.58198,34.70555],[135.58203,34.70566],[135.58204,34.70587],[135.58195,34.70626],[135.58191,34.70646],[135.58188,34.7067],[135.58188,34.70693],[135.58188,34.70699],[135.58187,34.70718],[135.58182,34.70744],[135.58171,34.70786],[135.58165,34.70804],[135.58163,34.70827],[135.58159,34.70853],[135.58155,34.70866],[135.58153,34.70886],[135.58152,34.70907],[135.58153,34.70932],[135.58152,34.70948],[135.58151,34.70966],[135.5815,34.70978],[135.58151,34.70986],[135.58153,34.71013],[135.58154,34.71016],[135.58161,34.71049],[135.58163,34.71055],[135.58165,34.71076],[135.58167,34.71083],[135.58171,34.71107],[135.58172,34.71121],[135.58173,34.71145],[135.58173,34.71175],[135.58217,34.71196],[135.58259,34.71216],[135.58259,34.71216],[135.5826,34.71155],[135.58259,34.7112],[135.58259,34.71086],[135.58257,34.71082],[135.58262,34.71048],[135.58262,34.71042],[135.58268,34.71016],[135.5827,34.71007],[135.58272,34.70994],[135.58274,34.70987],[135.58276,34.70979],[135.58279,34.70967],[135.58287,34.70934],[135.58301,34.70877],[135.58302,34.70873],[135.58302,34.7087],[135.58305,34.70859],[135.58315,34.70819],[135.58316,34.70817],[135.58317,34.70813],[135.58327,34.70769],[135.58339,34.70715],[135.58341,34.70708],[135.58344,34.70695],[135.58344,34.70694],[135.58356,34.70635],[135.58366,34.70595],[135.58373,34.70562],[135.58377,34.70544],[135.58378,34.70543],[135.58379,34.70525],[135.58386,34.70499],[135.58386,34.70498],[135.58315,34.7049],[135.5826,34.70483]]]}},{"type":"Feature","properties":{"name":"浜三丁目","setai":886,"jinko":2179,"key":"27124012003","units":1,"m":1087,"f":1092,"gk":36,"a0":367,"a1":1415,"a2":358,"a75":165,"ag":[110,133,124,113,94,123,136,153,172,195,189,138,102,94,99,60,62,28,13,2,0],"nf":39},"geometry":{"type":"Polygon","coordinates":[[[135.5836,34.71024],[135.58392,34.71023],[135.58407,34.71023],[135.58422,34.71029],[135.58449,34.71031],[135.58468,34.71029],[135.58471,34.71029],[135.58507,34.71023],[135.58507,34.7102],[135.58554,34.71028],[135.58566,34.71027],[135.58569,34.71027],[135.58577,34.71024],[135.58608,34.71024],[135.58645,34.71031],[135.5865,34.70995],[135.5865,34.70984],[135.58678,34.70984],[135.58673,34.70963],[135.58652,34.70925],[135.58646,34.70894],[135.58645,34.70873],[135.58645,34.70826],[135.58647,34.70805],[135.5865,34.70787],[135.58663,34.70711],[135.58665,34.70702],[135.58666,34.70695],[135.58665,34.7068],[135.58664,34.70659],[135.58657,34.70613],[135.58644,34.70581],[135.5862,34.70532],[135.58614,34.7053],[135.58546,34.7052],[135.58544,34.7052],[135.5852,34.70517],[135.58515,34.70516],[135.58498,34.70514],[135.58463,34.7051],[135.58418,34.70503],[135.58386,34.70499],[135.58379,34.70525],[135.58378,34.70543],[135.58377,34.70544],[135.58373,34.70562],[135.58366,34.70595],[135.58356,34.70635],[135.58344,34.70694],[135.58344,34.70695],[135.58341,34.70708],[135.58339,34.70715],[135.58327,34.70769],[135.58317,34.70813],[135.58316,34.70817],[135.58315,34.70819],[135.58305,34.70859],[135.58302,34.7087],[135.58302,34.70873],[135.58301,34.70877],[135.58287,34.70934],[135.58279,34.70967],[135.58276,34.70979],[135.58274,34.70987],[135.58272,34.70994],[135.5827,34.71007],[135.58268,34.71016],[135.58262,34.71042],[135.58262,34.71048],[135.58257,34.71082],[135.58259,34.71086],[135.58268,34.71085],[135.58277,34.71058],[135.58285,34.71042],[135.58309,34.71025],[135.5836,34.71024]]]}},{"type":"Feature","properties":{"name":"浜四丁目","setai":730,"jinko":1865,"key":"27124012004","units":1,"m":883,"f":982,"gk":26,"a0":363,"a1":1258,"a2":226,"a75":117,"ag":[162,99,102,98,88,120,172,139,146,173,150,100,72,57,52,59,34,16,5,3,0],"nf":18},"geometry":{"type":"Polygon","coordinates":[[[135.58615,34.71106],[135.58616,34.71105],[135.58618,34.71107],[135.58619,34.71107],[135.5862,34.71108],[135.5862,34.71108],[135.58621,34.71109],[135.58621,34.71109],[135.58622,34.71109],[135.58622,34.7111],[135.58625,34.71111],[135.58625,34.71111],[135.58626,34.71112],[135.58628,34.71113],[135.58629,34.71113],[135.5863,34.71114],[135.58631,34.71114],[135.58631,34.71114],[135.58631,34.71114],[135.58633,34.71116],[135.58637,34.71118],[135.58639,34.71119],[135.58641,34.71121],[135.58642,34.71122],[135.5865,34.71121],[135.58656,34.7112],[135.58664,34.71119],[135.58663,34.7111],[135.58661,34.71099],[135.58661,34.71098],[135.58661,34.71098],[135.58672,34.71096],[135.58671,34.71093],[135.58676,34.71062],[135.58679,34.71036],[135.58682,34.71006],[135.58678,34.70984],[135.5865,34.70984],[135.5865,34.70995],[135.58645,34.71031],[135.58608,34.71024],[135.58577,34.71024],[135.58569,34.71027],[135.58566,34.71027],[135.58554,34.71028],[135.58507,34.7102],[135.58507,34.71023],[135.58471,34.71029],[135.58468,34.71029],[135.58449,34.71031],[135.58422,34.71029],[135.58407,34.71023],[135.58392,34.71023],[135.5836,34.71024],[135.58309,34.71025],[135.58285,34.71042],[135.58277,34.71058],[135.58268,34.71085],[135.58259,34.71086],[135.58259,34.7112],[135.5826,34.71155],[135.58259,34.71216],[135.58371,34.71268],[135.58394,34.71279],[135.5846,34.7131],[135.58486,34.71322],[135.58573,34.71363],[135.58609,34.71379],[135.58625,34.71387],[135.58675,34.7141],[135.58671,34.71405],[135.58669,34.71402],[135.58662,34.71391],[135.58654,34.71377],[135.58645,34.71353],[135.58638,34.71345],[135.58625,34.71328],[135.58601,34.71292],[135.58593,34.71276],[135.58584,34.71254],[135.58575,34.71236],[135.58573,34.71227],[135.58571,34.71208],[135.58571,34.712],[135.58557,34.71148],[135.58559,34.71147],[135.58562,34.71145],[135.58563,34.71144],[135.58565,34.71143],[135.58567,34.71141],[135.58569,34.7114],[135.5857,34.71139],[135.58571,34.71139],[135.58572,34.71138],[135.58573,34.71137],[135.58573,34.71137],[135.58573,34.71137],[135.58574,34.71137],[135.58574,34.71137],[135.58574,34.71137],[135.58574,34.71137],[135.58574,34.71137],[135.58575,34.71136],[135.58575,34.71136],[135.58575,34.71136],[135.58575,34.71136],[135.58575,34.71136],[135.58575,34.71136],[135.58575,34.71136],[135.58576,34.71136],[135.58576,34.71135],[135.58576,34.71135],[135.58576,34.71135],[135.58576,34.71135],[135.58576,34.71135],[135.58577,34.71135],[135.58577,34.71135],[135.58577,34.71135],[135.58577,34.71134],[135.58577,34.71134],[135.58577,34.71134],[135.58578,34.71134],[135.58578,34.71134],[135.58578,34.71134],[135.58578,34.71134],[135.58578,34.71134],[135.58578,34.71133],[135.58579,34.71133],[135.58579,34.71133],[135.58579,34.71133],[135.58579,34.71133],[135.58579,34.71133],[135.5858,34.71133],[135.5858,34.71133],[135.5858,34.71132],[135.5858,34.71132],[135.5858,34.71132],[135.58581,34.71132],[135.58581,34.71132],[135.58581,34.71132],[135.58581,34.71132],[135.58581,34.71131],[135.58581,34.71131],[135.58581,34.71131],[135.58581,34.71131],[135.58581,34.71131],[135.58581,34.71131],[135.58581,34.71131],[135.58581,34.71131],[135.58581,34.71131],[135.58582,34.71131],[135.58582,34.71131],[135.58582,34.71131],[135.58582,34.71131],[135.58582,34.71131],[135.58582,34.71131],[135.58582,34.71131],[135.58582,34.71131],[135.58582,34.71131],[135.58582,34.71131],[135.58582,34.71131],[135.58582,34.71131],[135.58582,34.71131],[135.58582,34.71131],[135.58582,34.71131],[135.58582,34.71131],[135.58582,34.71131],[135.58582,34.71131],[135.58582,34.7113],[135.58582,34.7113],[135.58583,34.7113],[135.58583,34.7113],[135.58583,34.7113],[135.58583,34.7113],[135.58583,34.7113],[135.58583,34.7113],[135.58583,34.7113],[135.58583,34.7113],[135.58583,34.7113],[135.58583,34.7113],[135.58583,34.7113],[135.58583,34.7113],[135.58583,34.7113],[135.58583,34.7113],[135.58583,34.7113],[135.58583,34.7113],[135.58583,34.7113],[135.58583,34.7113],[135.58583,34.7113],[135.58583,34.7113],[135.58583,34.7113],[135.58583,34.7113],[135.58583,34.7113],[135.58584,34.7113],[135.58584,34.7113],[135.58584,34.7113],[135.58584,34.7113],[135.58584,34.7113],[135.58584,34.7113],[135.58584,34.71129],[135.58584,34.71129],[135.58584,34.71129],[135.58584,34.71129],[135.58584,34.71129],[135.58584,34.71129],[135.58584,34.71129],[135.58584,34.71129],[135.58584,34.71129],[135.58585,34.71129],[135.58585,34.71129],[135.58585,34.71129],[135.58585,34.71129],[135.58586,34.71128],[135.58586,34.71128],[135.58587,34.71127],[135.58587,34.71127],[135.58587,34.71127],[135.58588,34.71127],[135.58589,34.71126],[135.58589,34.71126],[135.5859,34.71125],[135.5859,34.71125],[135.58592,34.71124],[135.58592,34.71123],[135.58592,34.71123],[135.58593,34.71122],[135.58593,34.71122],[135.58594,34.71122],[135.58595,34.71121],[135.58596,34.71121],[135.58596,34.7112],[135.58597,34.7112],[135.58598,34.71119],[135.58598,34.71119],[135.58599,34.71118],[135.58599,34.71118],[135.586,34.71117],[135.586,34.71117],[135.58601,34.71117],[135.58602,34.71116],[135.58602,34.71116],[135.58603,34.71116],[135.58603,34.71115],[135.58604,34.71115],[135.58605,34.71114],[135.58606,34.71113],[135.58607,34.71113],[135.58609,34.71111],[135.58609,34.71111],[135.58609,34.71111],[135.5861,34.7111],[135.58612,34.71109],[135.58612,34.71109],[135.58612,34.71108],[135.58615,34.71106]]]}},{"type":"Feature","properties":{"name":"浜五丁目","setai":335,"jinko":840,"key":"27124012005","units":1,"m":395,"f":445,"gk":20,"a0":102,"a1":491,"a2":233,"a75":155,"ag":[45,27,30,38,41,43,52,53,58,80,64,43,19,34,44,39,32,37,34,10,3],"nf":14},"geometry":{"type":"Polygon","coordinates":[[[135.58167,34.71711],[135.58217,34.71707],[135.58216,34.71701],[135.58249,34.71698],[135.58248,34.71682],[135.58249,34.71664],[135.58249,34.71648],[135.5825,34.7162],[135.58251,34.71541],[135.58251,34.7154],[135.58252,34.71526],[135.58251,34.71474],[135.58251,34.71446],[135.58253,34.71333],[135.58253,34.71315],[135.58254,34.71291],[135.58259,34.71292],[135.5826,34.71257],[135.58259,34.71216],[135.58217,34.71196],[135.58173,34.71175],[135.58174,34.71191],[135.58176,34.7126],[135.58175,34.71292],[135.58168,34.71293],[135.58167,34.71334],[135.58166,34.71364],[135.58165,34.7138],[135.58157,34.71462],[135.58157,34.71487],[135.58153,34.71523],[135.58148,34.71553],[135.58142,34.71599],[135.58143,34.71606],[135.58143,34.71612],[135.5815,34.71662],[135.58151,34.71676],[135.58153,34.71687],[135.58154,34.71704],[135.5815,34.71711],[135.58153,34.7171],[135.58167,34.7171],[135.58167,34.71711]]]}},{"type":"Feature","properties":{"name":"安田一丁目","setai":501,"jinko":1174,"key":"27124013001","units":1,"m":581,"f":593,"gk":19,"a0":135,"a1":720,"a2":286,"a75":145,"ag":[46,49,40,58,66,62,61,69,94,77,82,85,66,64,77,75,45,16,5,4,0],"nf":33},"geometry":{"type":"Polygon","coordinates":[[[135.58958,34.70295],[135.58965,34.70253],[135.58968,34.70251],[135.58969,34.70246],[135.5895,34.70246],[135.58937,34.70247],[135.58931,34.70248],[135.58912,34.70254],[135.58885,34.70256],[135.58863,34.70252],[135.5878,34.7022],[135.58737,34.70206],[135.58713,34.70195],[135.58698,34.70184],[135.58687,34.7018],[135.58663,34.7018],[135.58654,34.7018],[135.586,34.70179],[135.58595,34.70185],[135.58575,34.7021],[135.58562,34.70231],[135.58526,34.70276],[135.58524,34.70278],[135.58507,34.70299],[135.585,34.7031],[135.58527,34.70352],[135.5857,34.70421],[135.58581,34.70445],[135.58611,34.70513],[135.58618,34.70527],[135.58632,34.70528],[135.58641,34.70529],[135.58751,34.70544],[135.58774,34.70548],[135.58778,34.70548],[135.58822,34.70554],[135.58877,34.7056],[135.5891,34.70564],[135.58921,34.70506],[135.58921,34.70505],[135.5893,34.70453],[135.58932,34.70448],[135.58932,34.70446],[135.58945,34.70374],[135.58955,34.70316],[135.58958,34.70295]]]}},{"type":"Feature","properties":{"name":"安田二丁目","setai":169,"jinko":494,"key":"27124013002","units":1,"m":221,"f":273,"gk":9,"a0":71,"a1":246,"a2":160,"a75":129,"ag":[29,29,13,19,20,33,34,34,28,31,22,18,7,14,17,23,40,29,25,11,1],"nf":17},"geometry":{"type":"Polygon","coordinates":[[[135.59044,34.70208],[135.59027,34.70206],[135.5902,34.70206],[135.59,34.70214],[135.58982,34.70239],[135.58968,34.70251],[135.58965,34.70253],[135.58958,34.70295],[135.58955,34.70316],[135.58945,34.70374],[135.58932,34.70446],[135.58932,34.70448],[135.5893,34.70453],[135.58921,34.70505],[135.58921,34.70506],[135.5891,34.70564],[135.58911,34.70564],[135.59043,34.7058],[135.59114,34.70588],[135.59208,34.70599],[135.59212,34.70598],[135.59218,34.70595],[135.59218,34.70594],[135.59262,34.70557],[135.59333,34.70498],[135.5935,34.70487],[135.59369,34.70478],[135.59386,34.70466],[135.59416,34.70445],[135.59418,34.70443],[135.5944,34.70422],[135.59488,34.70374],[135.59489,34.70374],[135.59486,34.70373],[135.59455,34.70368],[135.59449,34.70367],[135.59433,34.70364],[135.5943,34.70364],[135.59421,34.70362],[135.5942,34.70362],[135.5941,34.7036],[135.59404,34.70359],[135.59399,34.70358],[135.59391,34.70357],[135.59391,34.70357],[135.59385,34.70356],[135.59379,34.70355],[135.59378,34.70355],[135.59377,34.70355],[135.59375,34.70354],[135.59373,34.70354],[135.59371,34.70354],[135.59366,34.70353],[135.59363,34.70353],[135.59358,34.70353],[135.59355,34.70353],[135.59353,34.70353],[135.59349,34.70353],[135.59344,34.70352],[135.5934,34.70352],[135.59337,34.70351],[135.59335,34.7035],[135.5933,34.70348],[135.59328,34.70347],[135.59323,34.70345],[135.59293,34.70341],[135.59293,34.70326],[135.5929,34.70324],[135.59287,34.70322],[135.59285,34.70321],[135.59279,34.70318],[135.59276,34.70316],[135.5927,34.70313],[135.59269,34.70313],[135.59268,34.70312],[135.59268,34.70312],[135.59268,34.70312],[135.59247,34.70301],[135.59239,34.70297],[135.59235,34.70294],[135.59229,34.70291],[135.5921,34.70281],[135.59198,34.70274],[135.59186,34.70268],[135.59168,34.70258],[135.59168,34.70258],[135.59166,34.70257],[135.59161,34.70254],[135.59156,34.70251],[135.59144,34.70245],[135.59141,34.70244],[135.59141,34.70244],[135.5912,34.70233],[135.59116,34.7023],[135.59097,34.70223],[135.59091,34.70221],[135.59044,34.70208]]]}},{"type":"Feature","properties":{"name":"安田三丁目","setai":537,"jinko":1175,"key":"27124013003","units":1,"m":579,"f":596,"gk":13,"a0":139,"a1":673,"a2":339,"a75":196,"ag":[45,53,41,51,70,59,58,53,67,84,101,81,49,53,90,79,67,37,10,3,0],"nf":24},"geometry":{"type":"Polygon","coordinates":[[[135.58743,34.70984],[135.5877,34.70984],[135.58776,34.70984],[135.58803,34.70984],[135.58796,34.70972],[135.58798,34.70954],[135.58806,34.70937],[135.58822,34.70933],[135.58845,34.70931],[135.58847,34.7093],[135.58865,34.70927],[135.58866,34.70924],[135.58862,34.7092],[135.5886,34.70907],[135.58857,34.70895],[135.5886,34.70875],[135.58863,34.70867],[135.58872,34.70839],[135.58873,34.70835],[135.58885,34.70808],[135.58887,34.70799],[135.5889,34.7079],[135.58894,34.70761],[135.58892,34.7072],[135.58894,34.70721],[135.58894,34.70704],[135.58893,34.70654],[135.58895,34.70636],[135.589,34.70616],[135.58905,34.70591],[135.58911,34.70564],[135.5891,34.70564],[135.58877,34.7056],[135.58822,34.70554],[135.58778,34.70548],[135.58774,34.70548],[135.58751,34.70544],[135.58641,34.70529],[135.58632,34.70528],[135.58618,34.70527],[135.5862,34.70532],[135.58644,34.70581],[135.58657,34.70613],[135.58664,34.70659],[135.58665,34.7068],[135.58666,34.70695],[135.58665,34.70702],[135.58663,34.70711],[135.5865,34.70787],[135.58647,34.70805],[135.58645,34.70826],[135.58645,34.70873],[135.58646,34.70894],[135.58652,34.70925],[135.58673,34.70963],[135.58678,34.70984],[135.58743,34.70984]]]}},{"type":"Feature","properties":{"name":"安田四丁目","setai":409,"jinko":945,"key":"27124013004","units":1,"m":478,"f":467,"gk":12,"a0":121,"a1":573,"a2":231,"a75":115,"ag":[43,43,35,44,55,52,57,55,74,74,70,50,42,45,71,58,41,8,5,3,0],"nf":20},"geometry":{"type":"Polygon","coordinates":[[[135.58929,34.70814],[135.58931,34.7081],[135.58958,34.70818],[135.58965,34.70822],[135.58989,34.7086],[135.58992,34.70861],[135.58997,34.70863],[135.59023,34.7086],[135.59053,34.70852],[135.59059,34.7085],[135.59132,34.70813],[135.59223,34.70791],[135.59223,34.70787],[135.59224,34.70773],[135.59223,34.70715],[135.59131,34.70723],[135.59115,34.70726],[135.59108,34.70727],[135.59098,34.70727],[135.59097,34.70729],[135.59087,34.70742],[135.59077,34.7075],[135.59066,34.70742],[135.5906,34.70749],[135.5907,34.70755],[135.59059,34.70764],[135.59042,34.70759],[135.59077,34.70731],[135.59099,34.70713],[135.59133,34.70677],[135.59166,34.70644],[135.59212,34.70598],[135.59208,34.70599],[135.59114,34.70588],[135.59043,34.7058],[135.58911,34.70564],[135.58905,34.70591],[135.589,34.70616],[135.58895,34.70636],[135.58893,34.70654],[135.58894,34.70704],[135.58894,34.70721],[135.58892,34.7072],[135.58894,34.70761],[135.5889,34.7079],[135.58887,34.70799],[135.58885,34.70808],[135.58873,34.70835],[135.58872,34.70839],[135.58863,34.70867],[135.5886,34.70875],[135.58857,34.70895],[135.5886,34.70907],[135.58862,34.7092],[135.58866,34.70924],[135.58881,34.70915],[135.58899,34.70907],[135.58916,34.70904],[135.58927,34.709],[135.58945,34.70884],[135.58943,34.70881],[135.58941,34.70877],[135.58923,34.70855],[135.58918,34.70844],[135.58919,34.70836],[135.58929,34.70814]]]}},{"type":"Feature","properties":{"name":"横堤一丁目","setai":1197,"jinko":2628,"key":"27124014001","units":1,"m":1258,"f":1370,"gk":45,"a0":260,"a1":1617,"a2":726,"a75":402,"ag":[86,88,86,113,153,138,128,161,149,202,220,191,162,156,168,154,148,69,25,6,0],"nf":25},"geometry":{"type":"Polygon","coordinates":[[[135.57141,34.70316],[135.57124,34.70276],[135.57107,34.70237],[135.57099,34.70217],[135.57053,34.70113],[135.57041,34.70088],[135.57023,34.70046],[135.57004,34.70006],[135.56968,34.69924],[135.56968,34.69924],[135.56928,34.69838],[135.56912,34.69801],[135.56907,34.6979],[135.56895,34.69792],[135.5687,34.69795],[135.56827,34.69807],[135.56826,34.69809],[135.56822,34.69818],[135.5682,34.69823],[135.56814,34.69834],[135.56802,34.69841],[135.56809,34.6989],[135.56805,34.69892],[135.56806,34.69895],[135.56799,34.69895],[135.56766,34.69894],[135.56757,34.69893],[135.56696,34.69901],[135.56681,34.699],[135.5668,34.6992],[135.56701,34.69938],[135.56705,34.69944],[135.56707,34.69943],[135.56713,34.69956],[135.56727,34.69984],[135.56728,34.70007],[135.56724,34.70023],[135.56722,34.70029],[135.56713,34.70042],[135.56698,34.70057],[135.56675,34.70069],[135.56676,34.7007],[135.56688,34.70094],[135.56668,34.70105],[135.56648,34.70116],[135.56653,34.70133],[135.56661,34.70153],[135.56673,34.70176],[135.56688,34.70201],[135.56699,34.70219],[135.5674,34.70282],[135.56746,34.70294],[135.56756,34.70292],[135.56877,34.70307],[135.56885,34.70308],[135.56951,34.70318],[135.57145,34.70341],[135.57142,34.7032],[135.57142,34.70319],[135.57141,34.70316]]]}},{"type":"Feature","properties":{"name":"横堤二丁目","setai":1983,"jinko":5053,"key":"27124014002","units":1,"m":2487,"f":2566,"gk":54,"a0":861,"a1":3329,"a2":836,"a75":437,"ag":[213,307,341,393,253,188,222,327,421,569,462,293,201,193,206,201,138,75,16,6,1],"nf":27},"geometry":{"type":"Polygon","coordinates":[[[135.57295,34.69825],[135.57306,34.69799],[135.57334,34.69805],[135.57363,34.69808],[135.5737,34.69809],[135.57388,34.69814],[135.57395,34.69815],[135.57416,34.69818],[135.57427,34.69817],[135.57439,34.69814],[135.57472,34.69802],[135.57476,34.6966],[135.57476,34.69654],[135.57449,34.69653],[135.5737,34.6965],[135.57368,34.6965],[135.57309,34.69647],[135.57257,34.69644],[135.57175,34.6964],[135.57118,34.69638],[135.57118,34.69636],[135.57109,34.69636],[135.57099,34.69636],[135.57055,34.69634],[135.56955,34.6963],[135.56948,34.6963],[135.5694,34.69629],[135.56845,34.69625],[135.56836,34.69626],[135.56835,34.69626],[135.56896,34.69762],[135.56907,34.6979],[135.56912,34.69801],[135.56928,34.69838],[135.56968,34.69924],[135.56968,34.69924],[135.57004,34.70006],[135.57023,34.70046],[135.57041,34.70088],[135.57053,34.70113],[135.57099,34.70217],[135.57107,34.70237],[135.57124,34.70276],[135.57141,34.70316],[135.57142,34.70319],[135.57142,34.7032],[135.57145,34.70341],[135.57227,34.70352],[135.5723,34.70353],[135.57227,34.70314],[135.57226,34.70306],[135.57227,34.70258],[135.57228,34.70166],[135.57228,34.70163],[135.57229,34.70138],[135.57229,34.70114],[135.5723,34.70083],[135.5723,34.70065],[135.5723,34.7005],[135.5723,34.70039],[135.57231,34.70004],[135.57231,34.69981],[135.57232,34.69967],[135.57233,34.6993],[135.57233,34.69908],[135.57238,34.69906],[135.57268,34.69897],[135.57273,34.69888],[135.57275,34.6988],[135.57287,34.69832],[135.57291,34.69829],[135.57295,34.69825]]]}},{"type":"Feature","properties":{"name":"横堤三丁目","setai":1264,"jinko":2815,"key":"27124014003","units":1,"m":1299,"f":1516,"gk":36,"a0":347,"a1":1777,"a2":663,"a75":328,"ag":[118,118,111,140,161,146,168,157,188,259,244,196,118,152,183,141,110,52,21,3,1],"nf":28},"geometry":{"type":"Polygon","coordinates":[[[135.5747,34.69877],[135.57472,34.69802],[135.57439,34.69814],[135.57427,34.69817],[135.57416,34.69818],[135.57395,34.69815],[135.57388,34.69814],[135.5737,34.69809],[135.57363,34.69808],[135.57334,34.69805],[135.57306,34.69799],[135.57295,34.69825],[135.57291,34.69829],[135.57287,34.69832],[135.57275,34.6988],[135.57273,34.69888],[135.57268,34.69897],[135.57238,34.69906],[135.57233,34.69908],[135.57233,34.6993],[135.57232,34.69967],[135.57231,34.69981],[135.57231,34.70004],[135.5723,34.70039],[135.5723,34.7005],[135.5723,34.70065],[135.5723,34.70083],[135.57229,34.70114],[135.57229,34.70138],[135.57228,34.70163],[135.57228,34.70166],[135.57227,34.70258],[135.57226,34.70306],[135.57227,34.70314],[135.5723,34.70353],[135.57252,34.70356],[135.57287,34.70361],[135.57301,34.70363],[135.57326,34.70366],[135.57358,34.70371],[135.57371,34.70373],[135.57392,34.70376],[135.57453,34.70381],[135.57459,34.70292],[135.57459,34.70279],[135.5746,34.7026],[135.57461,34.70232],[135.57462,34.70211],[135.57464,34.70134],[135.57464,34.70104],[135.57467,34.7001],[135.57468,34.69967],[135.57468,34.69965],[135.57469,34.69929],[135.5747,34.69887],[135.5747,34.69877]]]}},{"type":"Feature","properties":{"name":"横堤四丁目","setai":1711,"jinko":4034,"key":"27124014004","units":1,"m":1873,"f":2161,"gk":89,"a0":662,"a1":2534,"a2":781,"a75":475,"ag":[227,214,221,196,218,226,258,279,312,353,309,229,154,116,190,180,148,100,30,15,2],"nf":57},"geometry":{"type":"Polygon","coordinates":[[[135.56877,34.70307],[135.56756,34.70292],[135.56746,34.70294],[135.56767,34.7034],[135.56789,34.70415],[135.568,34.70455],[135.568,34.70458],[135.56804,34.7048],[135.56808,34.70506],[135.56819,34.7057],[135.56821,34.70605],[135.56823,34.70646],[135.56825,34.70693],[135.56827,34.70744],[135.56827,34.70751],[135.56828,34.70787],[135.56831,34.70831],[135.56833,34.7088],[135.5683,34.7088],[135.56832,34.70925],[135.56837,34.71063],[135.56936,34.71059],[135.56931,34.7102],[135.56937,34.71014],[135.56998,34.71011],[135.56998,34.70938],[135.56997,34.70922],[135.57005,34.70884],[135.5701,34.70884],[135.57037,34.70884],[135.57055,34.70881],[135.57081,34.70876],[135.57181,34.70864],[135.572,34.70863],[135.57195,34.70835],[135.57186,34.70777],[135.57177,34.70729],[135.57177,34.70727],[135.5717,34.70685],[135.57163,34.70641],[135.57163,34.70639],[135.57155,34.70593],[135.57155,34.70593],[135.57154,34.70588],[135.57145,34.70541],[135.57145,34.7054],[135.57141,34.70518],[135.57138,34.70497],[135.57138,34.70495],[135.57141,34.70451],[135.57142,34.70406],[135.57145,34.70341],[135.56951,34.70318],[135.56885,34.70308],[135.56877,34.70307]]]}},{"type":"Feature","properties":{"name":"横堤五丁目","setai":1076,"jinko":2336,"key":"27124014005","units":1,"m":1099,"f":1237,"gk":46,"a0":282,"a1":1447,"a2":554,"a75":272,"ag":[90,98,94,111,132,139,131,147,163,189,187,145,103,111,171,110,89,53,13,7,0],"nf":53},"geometry":{"type":"Polygon","coordinates":[[[135.57458,34.70889],[135.57456,34.7082],[135.57455,34.70768],[135.57454,34.70724],[135.57454,34.70719],[135.57453,34.70629],[135.57454,34.70614],[135.57452,34.70596],[135.57451,34.70578],[135.57452,34.70568],[135.57451,34.70549],[135.57451,34.70543],[135.57451,34.70521],[135.57451,34.70473],[135.57453,34.70381],[135.57392,34.70376],[135.57371,34.70373],[135.57358,34.70371],[135.57326,34.70366],[135.57301,34.70363],[135.57287,34.70361],[135.57252,34.70356],[135.5723,34.70353],[135.57227,34.70352],[135.57145,34.70341],[135.57142,34.70406],[135.57141,34.70451],[135.57138,34.70495],[135.57138,34.70497],[135.57141,34.70518],[135.57145,34.7054],[135.57145,34.70541],[135.57154,34.70588],[135.57155,34.70593],[135.57155,34.70593],[135.57163,34.70639],[135.57163,34.70641],[135.5717,34.70685],[135.57177,34.70727],[135.57177,34.70729],[135.57186,34.70777],[135.57195,34.70835],[135.572,34.70863],[135.57226,34.7086],[135.57263,34.70863],[135.57303,34.70871],[135.57316,34.70867],[135.57371,34.70868],[135.57408,34.70869],[135.57416,34.70873],[135.57428,34.70892],[135.57433,34.70892],[135.57433,34.7089],[135.57458,34.70889]]]}},{"type":"Feature","properties":{"name":"緑地公園","setai":4,"jinko":4,"key":"271240150","units":1,"m":4,"f":0,"gk":0,"a0":0,"a1":0,"a2":0,"a75":0,"ag":[0,0,0,0,0,0,0,0,0,0,0,0,0,0,0,0,0,0,0,0,0],"nf":4},"geometry":{"type":"Polygon","coordinates":[[[135.57589,34.71729],[135.57613,34.71725],[135.57657,34.71725],[135.57658,34.71725],[135.57675,34.71725],[135.57739,34.71726],[135.57772,34.71727],[135.57785,34.71726],[135.57831,34.71726],[135.5791,34.71724],[135.58,34.71723],[135.58037,34.71722],[135.581,34.71721],[135.58128,34.71716],[135.58149,34.71713],[135.5815,34.71711],[135.58154,34.71704],[135.58153,34.71687],[135.58151,34.71676],[135.5815,34.71662],[135.58143,34.71612],[135.58143,34.71606],[135.58142,34.71599],[135.58148,34.71553],[135.58153,34.71523],[135.58157,34.71487],[135.58157,34.71462],[135.58165,34.7138],[135.58166,34.71364],[135.58167,34.71334],[135.58168,34.71293],[135.58175,34.71292],[135.58176,34.7126],[135.58174,34.71191],[135.58173,34.71175],[135.58173,34.71145],[135.58172,34.71121],[135.58171,34.71107],[135.58167,34.71083],[135.58165,34.71076],[135.58163,34.71055],[135.58161,34.71049],[135.58154,34.71016],[135.58153,34.71013],[135.58151,34.70986],[135.5815,34.70978],[135.58151,34.70966],[135.58152,34.70948],[135.58153,34.70932],[135.58152,34.70907],[135.58153,34.70886],[135.58113,34.70887],[135.58068,34.70886],[135.58041,34.70886],[135.58025,34.70886],[135.5787,34.70886],[135.57849,34.70889],[135.57833,34.70892],[135.57784,34.7089],[135.57709,34.70893],[135.57701,34.70896],[135.57701,34.70896],[135.57701,34.70896],[135.57689,34.709],[135.57678,34.70901],[135.57654,34.70901],[135.57642,34.70898],[135.57615,34.70898],[135.57573,34.70897],[135.57569,34.70894],[135.57547,34.70894],[135.57528,34.70896],[135.575,34.70896],[135.57472,34.70895],[135.57458,34.70889],[135.57433,34.7089],[135.57433,34.70892],[135.57471,34.71293],[135.57554,34.71293],[135.5759,34.71294],[135.57625,34.71298],[135.57663,34.71298],[135.57696,34.71296],[135.57717,34.71297],[135.57717,34.71303],[135.57699,34.71349],[135.57696,34.71358],[135.57668,34.71432],[135.57663,34.71447],[135.57638,34.71501],[135.57625,34.71527],[135.57599,34.71566],[135.57554,34.71632],[135.57542,34.71657],[135.57509,34.71721],[135.57507,34.71726],[135.57529,34.71729],[135.57531,34.71729],[135.57544,34.71729],[135.57589,34.71729]]]}}]}