{"type":"FeatureCollection","features":[{"type":"Feature","properties":{"name":"葵一丁目","setai":62,"jinko":90,"key":"23106001091","units":1,"m":39,"f":51,"gk":4,"a0":2,"a1":29,"a2":35,"a75":17,"ag":[0,1,1,0,1,1,4,1,2,3,3,10,4,6,12,7,3,5,2,0,0],"nf":24},"geometry":{"type":"Polygon","coordinates":[[[136.92299,35.17048],[136.92299,35.1703],[136.92299,35.17025],[136.92328,35.17023],[136.92332,35.17023],[136.92361,35.17023],[136.92359,35.16999],[136.9237,35.16997],[136.92374,35.16997],[136.92374,35.17003],[136.92375,35.17017],[136.92376,35.1703],[136.92395,35.1703],[136.92394,35.17023],[136.92394,35.17013],[136.92404,35.17014],[136.92426,35.17013],[136.92429,35.17013],[136.92425,35.17008],[136.92426,35.16981],[136.92366,35.16985],[136.92282,35.1699],[136.92248,35.16991],[136.92207,35.16989],[136.92144,35.16986],[136.92099,35.16983],[136.92094,35.16982],[136.92022,35.16978],[136.92021,35.16978],[136.9193,35.16972],[136.91925,35.17018],[136.91927,35.17024],[136.91932,35.17023],[136.91951,35.17018],[136.91951,35.17017],[136.92013,35.17019],[136.92012,35.1701],[136.92027,35.17007],[136.92031,35.17016],[136.92034,35.17018],[136.92054,35.17013],[136.92064,35.17032],[136.92081,35.17029],[136.9208,35.1701],[136.92114,35.17011],[136.92114,35.17015],[136.92098,35.17014],[136.92096,35.17028],[136.92113,35.17029],[136.92114,35.17024],[136.92116,35.17024],[136.92116,35.17018],[136.92134,35.17019],[136.92135,35.17011],[136.9214,35.17011],[136.92143,35.17011],[136.92142,35.17021],[136.92144,35.17024],[136.92168,35.17026],[136.92167,35.17042],[136.92188,35.17043],[136.92189,35.17031],[136.92185,35.17031],[136.92186,35.17029],[136.92186,35.17029],[136.92202,35.17029],[136.92211,35.17029],[136.92234,35.1703],[136.92235,35.17016],[136.92251,35.17017],[136.92254,35.17017],[136.92253,35.17029],[136.92256,35.17029],[136.92256,35.17032],[136.92257,35.17036],[136.92257,35.17046],[136.92257,35.17048],[136.92266,35.17048],[136.92266,35.17048],[136.92275,35.17048],[136.92276,35.17048],[136.92278,35.17048],[136.92279,35.17048],[136.92299,35.17048]]]}},{"type":"Feature","properties":{"name":"葵二丁目","setai":241,"jinko":268,"key":"23106001092","units":1,"m":138,"f":130,"gk":2,"a0":4,"a1":209,"a2":15,"a75":5,"ag":[2,0,2,0,26,61,32,16,13,17,24,16,4,3,7,2,2,0,1,0,0],"nf":40},"geometry":{"type":"Polygon","coordinates":[[[136.92521,35.17048],[136.92521,35.17012],[136.92546,35.17011],[136.92564,35.1701],[136.92565,35.1701],[136.92565,35.1701],[136.92566,35.17014],[136.92568,35.1702],[136.92599,35.17014],[136.92598,35.17008],[136.92597,35.17004],[136.92619,35.16998],[136.92608,35.16966],[136.92562,35.16972],[136.92505,35.16975],[136.92426,35.16981],[136.92425,35.17008],[136.92429,35.17013],[136.92435,35.17013],[136.92467,35.17012],[136.92488,35.17012],[136.92499,35.17011],[136.92499,35.17019],[136.92499,35.17019],[136.92499,35.17027],[136.92499,35.17048],[136.92501,35.17048],[136.92507,35.17048],[136.92521,35.17048]]]}},{"type":"Feature","properties":{"name":"葵三丁目","setai":57,"jinko":58,"key":"23106001093","units":1,"m":28,"f":30,"gk":2,"a0":0,"a1":47,"a2":0,"a75":0,"ag":[0,0,0,1,10,10,6,4,6,4,4,0,2,0,0,0,0,0,0,0,0],"nf":11},"geometry":{"type":"Polygon","coordinates":[[[136.92655,35.16991],[136.92692,35.16983],[136.92747,35.16972],[136.9274,35.16949],[136.92737,35.16934],[136.9273,35.16935],[136.92662,35.1695],[136.92605,35.16962],[136.92608,35.16966],[136.92619,35.16998],[136.92655,35.16991],[136.92655,35.16991]]]}},{"type":"Feature","properties":{"name":"伊勢山一丁目","setai":834,"jinko":1268,"key":"23106004091","units":1,"m":612,"f":656,"gk":25,"a0":101,"a1":858,"a2":196,"a75":90,"ag":[36,33,32,33,75,118,110,79,82,116,106,71,68,43,63,37,24,20,7,2,0],"nf":113},"geometry":{"type":"Polygon","coordinates":[[[136.90053,35.15116],[136.90109,35.15093],[136.9016,35.15074],[136.90189,35.15062],[136.90244,35.15041],[136.90248,35.15039],[136.90304,35.15017],[136.90362,35.14994],[136.90364,35.14998],[136.90374,35.14995],[136.90374,35.14992],[136.90361,35.14937],[136.90359,35.14922],[136.9035,35.14884],[136.90292,35.14895],[136.90255,35.14902],[136.90255,35.14899],[136.9014,35.1492],[136.901,35.14927],[136.90083,35.1493],[136.90058,35.14934],[136.90051,35.14935],[136.90003,35.14933],[136.89977,35.14931],[136.89975,35.14953],[136.89972,35.14978],[136.89961,35.14978],[136.89959,35.15009],[136.89955,35.15069],[136.89957,35.15069],[136.89971,35.15068],[136.89969,35.15091],[136.89959,35.15091],[136.89949,35.15091],[136.89949,35.15095],[136.89949,35.15095],[136.89941,35.15095],[136.89934,35.15114],[136.89922,35.15116],[136.89925,35.15135],[136.89962,35.15131],[136.90004,35.15126],[136.90033,35.15123],[136.90053,35.15116]]]}},{"type":"Feature","properties":{"name":"伊勢山二丁目","setai":728,"jinko":1113,"key":"23106004092","units":1,"m":564,"f":549,"gk":31,"a0":68,"a1":676,"a2":219,"a75":103,"ag":[30,18,20,29,53,111,92,68,69,65,70,55,64,55,61,41,29,18,10,5,0],"nf":150},"geometry":{"type":"Polygon","coordinates":[[[136.9014,35.1492],[136.90255,35.14899],[136.90255,35.14902],[136.90292,35.14895],[136.9035,35.14884],[136.90339,35.14834],[136.90333,35.14799],[136.90331,35.14792],[136.90318,35.1473],[136.90308,35.14685],[136.9023,35.14694],[136.90218,35.14696],[136.9013,35.14707],[136.90084,35.14712],[136.90017,35.1472],[136.90012,35.14776],[136.90009,35.14829],[136.90012,35.14831],[136.90011,35.14844],[136.90008,35.14844],[136.90008,35.14851],[136.89969,35.1485],[136.89966,35.14882],[136.89965,35.14898],[136.89971,35.14898],[136.8997,35.14907],[136.89961,35.14907],[136.89961,35.14904],[136.89952,35.14905],[136.89952,35.1493],[136.89977,35.14931],[136.90003,35.14933],[136.90051,35.14935],[136.90058,35.14934],[136.90083,35.1493],[136.901,35.14927],[136.9014,35.1492]]]}},{"type":"Feature","properties":{"name":"大井町","setai":631,"jinko":1139,"key":"231060060","units":1,"m":518,"f":621,"gk":59,"a0":139,"a1":734,"a2":216,"a75":103,"ag":[56,51,32,21,46,73,93,108,94,83,83,65,68,55,58,44,36,13,6,4,0],"nf":50},"geometry":{"type":"Polygon","coordinates":[[[136.90471,35.15188],[136.90553,35.15155],[136.90575,35.15146],[136.90622,35.1514],[136.90731,35.15125],[136.90792,35.15116],[136.90865,35.15107],[136.90893,35.15105],[136.90891,35.15094],[136.90896,35.15046],[136.90899,35.15029],[136.90907,35.15006],[136.90885,35.15005],[136.9076,35.15001],[136.90709,35.15],[136.90688,35.15],[136.90617,35.14998],[136.90592,35.14997],[136.90532,35.14996],[136.90475,35.14994],[136.90454,35.14993],[136.90449,35.14993],[136.90374,35.14992],[136.90374,35.14995],[136.90364,35.14998],[136.90405,35.15074],[136.90465,35.15184],[136.9047,35.15183],[136.90471,35.15188]]]}},{"type":"Feature","properties":{"name":"大須一丁目","setai":2099,"jinko":2975,"key":"23106007091","units":1,"m":1501,"f":1474,"gk":93,"a0":163,"a1":1649,"a2":448,"a75":227,"ag":[65,47,51,57,157,277,208,164,173,183,162,152,116,107,114,80,77,44,21,4,1],"nf":715},"geometry":{"type":"Polygon","coordinates":[[[136.89823,35.16269],[136.89823,35.16146],[136.89824,35.1614],[136.89825,35.16115],[136.89827,35.16089],[136.89827,35.16082],[136.89828,35.16048],[136.89832,35.16032],[136.89832,35.16024],[136.89831,35.1602],[136.89831,35.16012],[136.89836,35.15959],[136.89836,35.15953],[136.89837,35.1595],[136.89838,35.15924],[136.89841,35.15889],[136.89845,35.15821],[136.89738,35.15833],[136.89724,35.15835],[136.89654,35.15847],[136.89597,35.15858],[136.89546,35.1587],[136.89492,35.15885],[136.89434,35.15899],[136.89417,35.15902],[136.8932,35.15923],[136.89301,35.15927],[136.89291,35.15998],[136.89271,35.16156],[136.89271,35.16159],[136.89257,35.16225],[136.89278,35.16226],[136.89269,35.16259],[136.8934,35.16261],[136.89409,35.16263],[136.89547,35.16265],[136.89604,35.16266],[136.89643,35.16267],[136.8969,35.16267],[136.89694,35.16268],[136.89774,35.16268],[136.89816,35.16269],[136.89823,35.16269]]]}},{"type":"Feature","properties":{"name":"大須二丁目","setai":1862,"jinko":2527,"key":"23106007092","units":1,"m":1270,"f":1257,"gk":346,"a0":95,"a1":1327,"a2":436,"a75":235,"ag":[40,25,30,43,274,215,139,116,103,126,116,118,77,100,101,105,68,39,17,6,0],"nf":669},"geometry":{"type":"Polygon","coordinates":[[[136.90221,35.16273],[136.90221,35.16269],[136.90214,35.16209],[136.902,35.16125],[136.90198,35.1611],[136.9019,35.16059],[136.9019,35.16058],[136.90182,35.16018],[136.90177,35.1599],[136.90172,35.15964],[136.90165,35.15926],[136.90163,35.15916],[136.90154,35.1587],[136.90154,35.15869],[136.90143,35.15826],[136.90136,35.15797],[136.90128,35.15771],[136.90052,35.15778],[136.90049,35.15778],[136.89981,35.15792],[136.89941,35.15801],[136.89897,35.1581],[136.89861,35.15818],[136.89846,35.1582],[136.89845,35.15821],[136.89841,35.15889],[136.89838,35.15924],[136.89837,35.1595],[136.89836,35.15953],[136.89836,35.15959],[136.89831,35.16012],[136.89831,35.1602],[136.89832,35.16024],[136.89832,35.16032],[136.89828,35.16048],[136.89827,35.16082],[136.89827,35.16089],[136.89825,35.16115],[136.89824,35.1614],[136.89823,35.16146],[136.89823,35.16269],[136.89917,35.16272],[136.89917,35.16269],[136.90005,35.16269],[136.90092,35.16269],[136.90096,35.16269],[136.90098,35.16279],[136.90177,35.16275],[136.90221,35.16273]]]}},{"type":"Feature","properties":{"name":"大須三丁目","setai":1227,"jinko":1885,"key":"23106007093","units":1,"m":881,"f":1004,"gk":41,"a0":85,"a1":912,"a2":488,"a75":263,"ag":[27,24,34,57,82,90,90,90,100,124,111,90,78,97,128,103,85,53,18,3,1],"nf":400},"geometry":{"type":"Polygon","coordinates":[[[136.903,35.16268],[136.90398,35.16265],[136.90398,35.16266],[136.9055,35.16263],[136.90602,35.16263],[136.90676,35.16262],[136.90658,35.16196],[136.90652,35.16153],[136.90638,35.16102],[136.90636,35.16091],[136.90626,35.1606],[136.90616,35.16022],[136.90616,35.16019],[136.90614,35.16],[136.90605,35.15858],[136.90605,35.15855],[136.90602,35.15801],[136.90597,35.15737],[136.90595,35.15737],[136.90588,35.15735],[136.90504,35.15742],[136.90475,35.15744],[136.90447,35.15746],[136.90332,35.15755],[136.9033,35.15755],[136.90235,35.1576],[136.90232,35.1576],[136.90228,35.1576],[136.90193,35.15763],[136.90127,35.15767],[136.90128,35.15771],[136.90136,35.15797],[136.90143,35.15826],[136.90154,35.15869],[136.90154,35.1587],[136.90163,35.15916],[136.90165,35.15926],[136.90172,35.15964],[136.90177,35.1599],[136.90182,35.16018],[136.9019,35.16058],[136.9019,35.16059],[136.90198,35.1611],[136.902,35.16125],[136.90214,35.16209],[136.90221,35.16269],[136.90229,35.16269],[136.903,35.16268]]]}},{"type":"Feature","properties":{"name":"大須四丁目","setai":1385,"jinko":1936,"key":"23106007094","units":1,"m":916,"f":1020,"gk":124,"a0":89,"a1":1028,"a2":333,"a75":177,"ag":[44,17,28,35,94,147,126,93,107,103,131,113,79,68,88,80,55,26,9,6,1],"nf":486},"geometry":{"type":"Polygon","coordinates":[[[136.90962,35.16072],[136.90968,35.1607],[136.91003,35.1607],[136.91006,35.16065],[136.91004,35.16059],[136.90992,35.1595],[136.90977,35.15821],[136.90958,35.1568],[136.90958,35.15679],[136.90924,35.15684],[136.90923,35.15685],[136.90782,35.15707],[136.9078,35.15707],[136.90727,35.15716],[136.90682,35.15724],[136.90682,35.15724],[136.90623,35.15732],[136.90597,35.15737],[136.90602,35.15801],[136.90605,35.15855],[136.90605,35.15858],[136.90614,35.16],[136.90616,35.16019],[136.90616,35.16022],[136.90626,35.1606],[136.90636,35.16091],[136.90638,35.16102],[136.90652,35.16153],[136.90658,35.16196],[136.90676,35.16262],[136.90714,35.16258],[136.90768,35.16252],[136.90866,35.16241],[136.90965,35.1623],[136.90964,35.16225],[136.90966,35.16183],[136.90967,35.16142],[136.90962,35.16072]]]}},{"type":"Feature","properties":{"name":"金山一丁目","setai":601,"jinko":887,"key":"23106011091","units":1,"m":443,"f":444,"gk":38,"a0":41,"a1":447,"a2":182,"a75":100,"ag":[23,7,11,12,20,41,36,58,42,50,66,75,47,40,42,43,28,22,7,0,0],"nf":217},"geometry":{"type":"Polygon","coordinates":[[[136.90255,35.14306],[136.90251,35.14279],[136.9024,35.14274],[136.90168,35.14296],[136.90165,35.14297],[136.90159,35.14296],[136.90098,35.14288],[136.90094,35.14269],[136.89913,35.14336],[136.89912,35.14371],[136.89912,35.14413],[136.89912,35.14416],[136.89912,35.14449],[136.89912,35.14492],[136.89911,35.14549],[136.89911,35.14556],[136.89911,35.14609],[136.8991,35.14629],[136.8991,35.14675],[136.8991,35.14702],[136.8991,35.14729],[136.89914,35.14731],[136.90017,35.1472],[136.90084,35.14712],[136.9013,35.14707],[136.90218,35.14696],[136.9023,35.14694],[136.90308,35.14685],[136.90297,35.14621],[136.90289,35.14572],[136.9028,35.145],[136.90272,35.14434],[136.90264,35.14378],[136.90257,35.14323],[136.90255,35.14306]]]}},{"type":"Feature","properties":{"name":"金山二丁目","setai":897,"jinko":1378,"key":"23106011092","units":1,"m":684,"f":694,"gk":70,"a0":60,"a1":693,"a2":239,"a75":117,"ag":[23,18,19,31,49,96,81,69,61,91,72,74,69,44,78,38,50,16,9,3,1],"nf":386},"geometry":{"type":"Polygon","coordinates":[[[136.90395,35.14685],[136.90485,35.14684],[136.90571,35.14684],[136.9057,35.14644],[136.90565,35.14581],[136.90565,35.14575],[136.90562,35.14548],[136.90559,35.14496],[136.90558,35.14484],[136.90552,35.14416],[136.90518,35.14418],[136.90462,35.14422],[136.9037,35.14428],[136.90272,35.14434],[136.9028,35.145],[136.90289,35.14572],[136.90297,35.14621],[136.90308,35.14685],[136.90328,35.14685],[136.90393,35.14685],[136.90395,35.14685]]]}},{"type":"Feature","properties":{"name":"金山三丁目","setai":408,"jinko":615,"key":"23106011093","units":1,"m":313,"f":302,"gk":13,"a0":21,"a1":276,"a2":136,"a75":78,"ag":[8,7,6,7,25,38,30,19,29,30,35,37,26,31,27,29,28,14,5,2,0],"nf":182},"geometry":{"type":"Polygon","coordinates":[[[136.90635,35.14412],[136.90634,35.1441],[136.90597,35.14413],[136.9059,35.14414],[136.90574,35.14415],[136.90552,35.14416],[136.90558,35.14484],[136.90559,35.14496],[136.90562,35.14548],[136.90565,35.14575],[136.90565,35.14581],[136.9057,35.14644],[136.90571,35.14684],[136.90667,35.14682],[136.90718,35.14682],[136.90764,35.14681],[136.90838,35.1468],[136.90887,35.14679],[136.90812,35.14601],[136.9081,35.14598],[136.90731,35.14515],[136.90721,35.14504],[136.90651,35.14428],[136.90635,35.14412]]]}},{"type":"Feature","properties":{"name":"金山四丁目","setai":270,"jinko":300,"key":"23106011094","units":1,"m":171,"f":129,"gk":9,"a0":2,"a1":227,"a2":27,"a75":14,"ag":[0,0,2,5,38,51,30,18,18,15,25,14,13,4,9,4,0,5,4,1,0],"nf":44},"geometry":{"type":"Polygon","coordinates":[[[136.90322,35.14278],[136.90278,35.14275],[136.90251,35.14279],[136.90255,35.14306],[136.90257,35.14323],[136.90264,35.14378],[136.90272,35.14434],[136.9037,35.14428],[136.90462,35.14422],[136.90518,35.14418],[136.90552,35.14416],[136.90574,35.14415],[136.9059,35.14414],[136.90597,35.14413],[136.90634,35.1441],[136.90623,35.14399],[136.90608,35.14384],[136.90602,35.1438],[136.90599,35.14378],[136.90578,35.14363],[136.90552,35.14345],[136.90518,35.14328],[136.90502,35.1432],[136.90483,35.14312],[136.9044,35.14298],[136.90432,35.14296],[136.90411,35.14291],[136.90398,35.14288],[136.90396,35.14288],[136.90373,35.14284],[136.90344,35.14281],[136.90322,35.14278]]]}},{"type":"Feature","properties":{"name":"金山五丁目","setai":501,"jinko":870,"key":"23106011095","units":1,"m":410,"f":460,"gk":33,"a0":51,"a1":370,"a2":233,"a75":150,"ag":[14,20,17,13,19,58,45,27,48,51,46,34,29,33,50,39,25,36,33,15,2],"nf":216},"geometry":{"type":"Polygon","coordinates":[[[136.91187,35.14418],[136.91224,35.1433],[136.91204,35.14326],[136.91203,35.14317],[136.9119,35.14317],[136.90992,35.14317],[136.9089,35.14317],[136.90884,35.14319],[136.90879,35.14319],[136.90823,35.14321],[136.9082,35.14327],[136.90818,35.14327],[136.90818,35.14365],[136.90782,35.14366],[136.90782,35.14369],[136.90754,35.14374],[136.90697,35.14376],[136.90679,35.14377],[136.90677,35.14377],[136.90645,35.14378],[136.9063,35.14379],[136.90625,35.14382],[136.90615,35.14379],[136.90614,35.14379],[136.90599,35.14375],[136.90599,35.14378],[136.90602,35.1438],[136.90608,35.14384],[136.90623,35.14399],[136.90634,35.1441],[136.90635,35.14412],[136.90651,35.14428],[136.90721,35.14504],[136.90731,35.14515],[136.9081,35.14598],[136.90812,35.14601],[136.90887,35.14679],[136.90908,35.14701],[136.90984,35.14784],[136.90994,35.14794],[136.91015,35.14818],[136.91019,35.14818],[136.91016,35.14815],[136.91075,35.14681],[136.91075,35.1468],[136.91167,35.14465],[136.91185,35.14422],[136.91187,35.14418]]]}},{"type":"Feature","properties":{"name":"金山町","setai":0,"jinko":0,"key":"231060160","units":1,"m":0,"f":0,"gk":0,"a0":0,"a1":0,"a2":0,"a75":0,"ag":[0,0,0,0,0,0,0,0,0,0,0,0,0,0,0,0,0,0,0,0,0]},"geometry":{"type":"Polygon","coordinates":[[[136.90094,35.14269],[136.90087,35.14238],[136.90064,35.14247],[136.90049,35.14227],[136.90028,35.14218],[136.90016,35.14218],[136.9,35.14223],[136.89966,35.14238],[136.89913,35.1424],[136.89913,35.14319],[136.89913,35.14336],[136.90094,35.14269]]]}},{"type":"Feature","properties":{"name":"上前津一丁目","setai":783,"jinko":1170,"key":"23106017091","units":1,"m":561,"f":609,"gk":35,"a0":56,"a1":692,"a2":268,"a75":150,"ag":[24,13,19,49,82,111,85,66,80,70,48,56,45,50,68,43,43,29,21,10,4],"nf":154},"geometry":{"type":"Polygon","coordinates":[[[136.90504,35.15742],[136.90588,35.15735],[136.90595,35.15737],[136.90587,35.15692],[136.90581,35.15661],[136.90574,35.15623],[136.90563,35.1558],[136.9055,35.15517],[136.90534,35.15455],[136.90479,35.15471],[136.90432,35.15484],[136.90281,35.15527],[136.9023,35.15541],[136.90221,35.15543],[136.90187,35.15553],[136.90195,35.15578],[136.90207,35.15616],[136.90204,35.15617],[136.90206,35.15624],[136.90221,35.15673],[136.90223,35.15675],[136.90224,35.15678],[136.90225,35.15686],[136.90228,35.15744],[136.90228,35.15748],[136.90228,35.1576],[136.90232,35.1576],[136.90235,35.1576],[136.9033,35.15755],[136.90332,35.15755],[136.90447,35.15746],[136.90475,35.15744],[136.90504,35.15742]]]}},{"type":"Feature","properties":{"name":"上前津二丁目","setai":1612,"jinko":2528,"key":"23106017092","units":1,"m":1247,"f":1281,"gk":142,"a0":216,"a1":1424,"a2":416,"a75":226,"ag":[106,64,46,36,103,171,167,207,184,172,183,110,91,78,112,83,64,47,28,4,0],"nf":472},"geometry":{"type":"Polygon","coordinates":[[[136.90944,35.1556],[136.9093,35.15428],[136.90897,35.1543],[136.90843,35.15434],[136.90821,35.15435],[136.90778,35.15438],[136.90759,35.1544],[136.90759,35.15438],[136.90633,35.15448],[136.90633,35.15448],[136.90534,35.15455],[136.9055,35.15517],[136.90563,35.1558],[136.90574,35.15623],[136.90581,35.15661],[136.90587,35.15692],[136.90595,35.15737],[136.90597,35.15737],[136.90623,35.15732],[136.90682,35.15724],[136.90682,35.15724],[136.90727,35.15716],[136.9078,35.15707],[136.90782,35.15707],[136.90923,35.15685],[136.90924,35.15684],[136.90958,35.15679],[136.90954,35.15644],[136.90946,35.1557],[136.90944,35.1556]]]}},{"type":"Feature","properties":{"name":"栄一丁目","setai":3144,"jinko":4481,"key":"23106019091","units":1,"m":2402,"f":2079,"gk":245,"a0":243,"a1":2308,"a2":645,"a75":264,"ag":[99,72,72,86,173,208,234,268,254,272,287,303,223,189,192,109,83,50,20,2,0],"nf":1285},"geometry":{"type":"Polygon","coordinates":[[[136.89752,35.16823],[136.89758,35.1677],[136.89765,35.16714],[136.89768,35.16689],[136.89775,35.16622],[136.89786,35.16526],[136.89789,35.16504],[136.89794,35.16456],[136.89795,35.16444],[136.898,35.16398],[136.89816,35.16269],[136.89774,35.16268],[136.89694,35.16268],[136.8969,35.16267],[136.89643,35.16267],[136.89604,35.16266],[136.89547,35.16265],[136.89409,35.16263],[136.8934,35.16261],[136.89269,35.16259],[136.89278,35.16226],[136.89257,35.16225],[136.89239,35.16284],[136.89228,35.16455],[136.89219,35.16595],[136.89209,35.16746],[136.89211,35.16765],[136.89217,35.16788],[136.89232,35.16789],[136.89234,35.16791],[136.89348,35.16797],[136.89348,35.16797],[136.89491,35.16807],[136.89491,35.16807],[136.89629,35.16816],[136.89631,35.16816],[136.89678,35.16819],[136.8975,35.16824],[136.89752,35.16823]]]}},{"type":"Feature","properties":{"name":"栄二丁目","setai":985,"jinko":1471,"key":"23106019092","units":1,"m":771,"f":700,"gk":105,"a0":92,"a1":865,"a2":132,"a75":51,"ag":[54,22,16,18,36,82,110,94,124,126,109,99,67,40,41,27,14,8,2,0,0],"nf":382},"geometry":{"type":"Polygon","coordinates":[[[136.90218,35.16854],[136.90222,35.16822],[136.90231,35.16743],[136.90237,35.16698],[136.90242,35.16653],[136.90243,35.16651],[136.9025,35.16581],[136.90253,35.16558],[136.90253,35.16556],[136.90252,35.16551],[136.90252,35.16499],[136.90246,35.16457],[136.90245,35.16444],[136.90237,35.16387],[136.90237,35.16382],[136.90221,35.16273],[136.90177,35.16275],[136.90098,35.16279],[136.90096,35.16269],[136.90092,35.16269],[136.90005,35.16269],[136.89917,35.16269],[136.89917,35.16272],[136.89823,35.16269],[136.89816,35.16269],[136.898,35.16398],[136.89795,35.16444],[136.89794,35.16456],[136.89789,35.16504],[136.89786,35.16526],[136.89775,35.16622],[136.89768,35.16689],[136.89765,35.16714],[136.89758,35.1677],[136.89752,35.16823],[136.89869,35.1683],[136.89868,35.16831],[136.89983,35.1684],[136.89986,35.16839],[136.90102,35.16847],[136.90218,35.16854]]]}},{"type":"Feature","properties":{"name":"栄三丁目","setai":857,"jinko":1162,"key":"23106019093","units":1,"m":586,"f":576,"gk":74,"a0":37,"a1":453,"a2":227,"a75":117,"ag":[13,13,11,6,36,54,47,48,38,52,58,62,52,52,58,45,30,28,11,3,0],"nf":445},"geometry":{"type":"Polygon","coordinates":[[[136.90914,35.16901],[136.90924,35.16789],[136.90925,35.16775],[136.90931,35.16717],[136.90932,35.16699],[136.90937,35.16656],[136.90944,35.1658],[136.90945,35.16578],[136.90952,35.16507],[136.90953,35.16491],[136.90954,35.16458],[136.90956,35.16422],[136.9096,35.1635],[136.90964,35.16283],[136.90964,35.16282],[136.90965,35.16234],[136.90965,35.1623],[136.90866,35.16241],[136.90768,35.16252],[136.90714,35.16258],[136.90676,35.16262],[136.90602,35.16263],[136.9055,35.16263],[136.90398,35.16266],[136.90398,35.16265],[136.903,35.16268],[136.90229,35.16269],[136.90221,35.16269],[136.90221,35.16273],[136.90237,35.16382],[136.90237,35.16387],[136.90245,35.16444],[136.90246,35.16457],[136.90252,35.16499],[136.90252,35.16551],[136.90253,35.16556],[136.90253,35.16558],[136.9025,35.16581],[136.90243,35.16651],[136.90242,35.16653],[136.90237,35.16698],[136.90231,35.16743],[136.90222,35.16822],[136.90218,35.16854],[136.90222,35.16856],[136.90336,35.16862],[136.90339,35.16865],[136.90455,35.16873],[136.90572,35.16882],[136.90572,35.16878],[136.9069,35.16887],[136.90914,35.16901]]]}},{"type":"Feature","properties":{"name":"栄四丁目","setai":693,"jinko":877,"key":"23106019094","units":1,"m":450,"f":427,"gk":121,"a0":25,"a1":345,"a2":104,"a75":54,"ag":[10,7,8,6,38,48,44,27,38,38,48,38,20,25,25,17,18,11,7,1,0],"nf":403},"geometry":{"type":"Polygon","coordinates":[[[136.91455,35.1694],[136.91472,35.16819],[136.91472,35.16815],[136.91484,35.1672],[136.91488,35.1669],[136.9149,35.16676],[136.915,35.16608],[136.91406,35.16604],[136.91406,35.16606],[136.91334,35.16603],[136.91333,35.16603],[136.91324,35.16603],[136.91262,35.16599],[136.91189,35.16595],[136.91189,35.16591],[136.91093,35.16585],[136.90945,35.16578],[136.90944,35.1658],[136.90937,35.16656],[136.90932,35.16699],[136.90931,35.16717],[136.90925,35.16775],[136.90924,35.16789],[136.90914,35.16901],[136.90927,35.16902],[136.91061,35.16913],[136.91186,35.16921],[136.91285,35.16929],[136.9129,35.16929],[136.91455,35.1694]]]}},{"type":"Feature","properties":{"name":"栄五丁目","setai":3042,"jinko":3968,"key":"23106019095","units":1,"m":1953,"f":2015,"gk":483,"a0":183,"a1":1639,"a2":536,"a75":350,"ag":[80,56,47,60,211,264,234,168,164,151,158,126,103,97,89,99,59,83,82,24,3],"nf":1610},"geometry":{"type":"Polygon","coordinates":[[[136.915,35.16608],[136.91513,35.1651],[136.91515,35.16493],[136.9152,35.1646],[136.91523,35.16433],[136.91533,35.16353],[136.91527,35.16352],[136.91537,35.16276],[136.91541,35.16272],[136.91554,35.16165],[136.91552,35.16169],[136.91537,35.1617],[136.91459,35.16179],[136.9129,35.16198],[136.91242,35.16203],[136.91119,35.16216],[136.91041,35.16225],[136.90965,35.16234],[136.90964,35.16282],[136.90964,35.16283],[136.9096,35.1635],[136.90956,35.16422],[136.90954,35.16458],[136.90953,35.16491],[136.90952,35.16507],[136.90945,35.16578],[136.91093,35.16585],[136.91189,35.16591],[136.91189,35.16595],[136.91262,35.16599],[136.91324,35.16603],[136.91333,35.16603],[136.91334,35.16603],[136.91406,35.16606],[136.91406,35.16604],[136.915,35.16608]]]}},{"type":"Feature","properties":{"name":"三の丸一丁目","setai":52,"jinko":90,"key":"23106024091","units":1,"m":40,"f":50,"gk":0,"a0":2,"a1":51,"a2":26,"a75":13,"ag":[0,0,2,1,1,4,6,4,4,7,6,7,11,9,4,5,6,1,0,1,0],"nf":11},"geometry":{"type":"Polygon","coordinates":[[[136.89999,35.18316],[136.9002,35.18156],[136.90037,35.18011],[136.90051,35.17894],[136.90053,35.17879],[136.90087,35.1786],[136.90096,35.17854],[136.90103,35.17841],[136.90114,35.17793],[136.90008,35.17784],[136.89888,35.17775],[136.89774,35.17765],[136.89651,35.17755],[136.89651,35.17757],[136.89568,35.17753],[136.89544,35.17752],[136.89527,35.17751],[136.89509,35.17749],[136.89481,35.17748],[136.89454,35.17748],[136.89395,35.17752],[136.89378,35.17752],[136.89382,35.17785],[136.89409,35.17941],[136.89431,35.18027],[136.89452,35.1809],[136.89471,35.18146],[136.89487,35.18193],[136.89509,35.18252],[136.89504,35.18255],[136.89503,35.18263],[136.89504,35.18265],[136.89531,35.1826],[136.89548,35.18266],[136.89562,35.18273],[136.89597,35.18289],[136.89813,35.18303],[136.89999,35.18316]]]}},{"type":"Feature","properties":{"name":"三の丸二丁目","setai":0,"jinko":0,"key":"23106024092","units":1,"m":0,"f":0,"gk":0,"a0":0,"a1":0,"a2":0,"a75":0,"ag":[0,0,0,0,0,0,0,0,0,0,0,0,0,0,0,0,0,0,0,0,0]},"geometry":{"type":"Polygon","coordinates":[[[136.90122,35.17793],[136.90114,35.17793],[136.90103,35.17841],[136.90096,35.17854],[136.90087,35.1786],[136.90053,35.17879],[136.90051,35.17894],[136.90037,35.18011],[136.9002,35.18156],[136.90194,35.18168],[136.90309,35.18176],[136.90363,35.18182],[136.9039,35.18184],[136.9044,35.18193],[136.90479,35.18201],[136.90516,35.18208],[136.90526,35.1821],[136.90544,35.18046],[136.90555,35.17941],[136.90557,35.1793],[136.90567,35.17885],[136.90583,35.1782],[136.9048,35.17815],[136.90363,35.17807],[136.90243,35.178],[136.90122,35.17793]]]}},{"type":"Feature","properties":{"name":"三の丸三丁目","setai":0,"jinko":0,"key":"23106024093","units":1,"m":0,"f":0,"gk":0,"a0":0,"a1":0,"a2":0,"a75":0,"ag":[0,0,0,0,0,0,0,0,0,0,0,0,0,0,0,0,0,0,0,0,0]},"geometry":{"type":"Polygon","coordinates":[[[136.90884,35.1821],[136.90911,35.17994],[136.90933,35.17996],[136.9095,35.17847],[136.90826,35.17839],[136.90709,35.17834],[136.90709,35.17823],[136.90588,35.1782],[136.90583,35.1782],[136.90567,35.17885],[136.90557,35.1793],[136.90555,35.17941],[136.90544,35.18046],[136.90526,35.1821],[136.90702,35.18225],[136.90729,35.18228],[136.90751,35.18245],[136.90779,35.18267],[136.90818,35.18289],[136.9083,35.18292],[136.90909,35.1829],[136.90919,35.18214],[136.90884,35.1821]]]}},{"type":"Feature","properties":{"name":"三の丸四丁目","setai":186,"jinko":223,"key":"23106024094","units":1,"m":85,"f":138,"gk":0,"a0":7,"a1":193,"a2":3,"a75":2,"ag":[5,0,2,3,49,54,18,18,10,14,9,16,2,1,0,2,0,0,0,0,0],"nf":20},"geometry":{"type":"Polygon","coordinates":[[[136.9066,35.18646],[136.90663,35.18638],[136.9067,35.18638],[136.90682,35.18628],[136.90722,35.18623],[136.90743,35.18621],[136.90739,35.18586],[136.90738,35.18577],[136.90737,35.18573],[136.90844,35.18565],[136.90848,35.1854],[136.9085,35.18514],[136.90856,35.18449],[136.90859,35.18425],[136.90859,35.18422],[136.90852,35.18415],[136.90854,35.18385],[136.9086,35.183],[136.9088,35.183],[136.90908,35.18301],[136.90909,35.1829],[136.9083,35.18292],[136.90818,35.18289],[136.90779,35.18267],[136.90751,35.18245],[136.90729,35.18228],[136.90702,35.18225],[136.90526,35.1821],[136.90524,35.18229],[136.90514,35.18264],[136.90504,35.18326],[136.90491,35.18386],[136.90481,35.18456],[136.90477,35.18478],[136.90473,35.18527],[136.90472,35.18531],[136.90471,35.18548],[136.90473,35.18548],[136.90498,35.18549],[136.90497,35.18559],[136.90497,35.18559],[136.90492,35.1856],[136.90483,35.18644],[136.90613,35.18646],[136.9064,35.18646],[136.9066,35.18646]]]}},{"type":"Feature","properties":{"name":"新栄町一丁目","setai":0,"jinko":0,"key":"23106028091","units":1,"m":0,"f":0,"gk":0,"a0":0,"a1":0,"a2":0,"a75":0,"ag":[0,0,0,0,0,0,0,0,0,0,0,0,0,0,0,0,0,0,0,0,0]},"geometry":{"type":"Polygon","coordinates":[[[136.91057,35.16966],[136.91061,35.16913],[136.90927,35.16902],[136.90922,35.16965],[136.90967,35.16968],[136.90965,35.16994],[136.90992,35.16995],[136.90996,35.16962],[136.91057,35.16966]]]}},{"type":"Feature","properties":{"name":"新栄町二丁目","setai":0,"jinko":0,"key":"23106028092","units":1,"m":0,"f":0,"gk":0,"a0":0,"a1":0,"a2":0,"a75":0,"ag":[0,0,0,0,0,0,0,0,0,0,0,0,0,0,0,0,0,0,0,0,0]},"geometry":{"type":"Polygon","coordinates":[[[136.91296,35.16989],[136.91296,35.16989],[136.91285,35.16929],[136.91186,35.16921],[136.91061,35.16913],[136.91057,35.16966],[136.91054,35.17001],[136.91238,35.17012],[136.91243,35.16984],[136.91296,35.16989]]]}},{"type":"Feature","properties":{"name":"新栄町三丁目","setai":9,"jinko":11,"key":"23106028093","units":1,"m":6,"f":5,"gk":0,"a0":0,"a1":7,"a2":2,"a75":1,"ag":[0,0,0,0,0,2,1,2,1,0,0,0,1,0,1,1,0,0,0,0,0],"nf":2},"geometry":{"type":"Polygon","coordinates":[[[136.91299,35.16971],[136.91386,35.16976],[136.91387,35.16968],[136.91453,35.16971],[136.91455,35.1694],[136.9129,35.16929],[136.91285,35.16929],[136.91296,35.16989],[136.91299,35.16971]]]}},{"type":"Feature","properties":{"name":"新栄一丁目","setai":4218,"jinko":5266,"key":"23106029091","units":1,"m":2665,"f":2601,"gk":592,"a0":203,"a1":2199,"a2":725,"a75":417,"ag":[81,65,57,78,305,405,291,213,206,222,186,152,141,132,176,127,124,97,54,13,2],"nf":2139},"geometry":{"type":"Polygon","coordinates":[[[136.92033,35.1616],[136.9204,35.16119],[136.91908,35.1613],[136.91881,35.16133],[136.91849,35.16137],[136.91813,35.16141],[136.91778,35.16144],[136.91649,35.16157],[136.91554,35.16165],[136.91541,35.16272],[136.91537,35.16276],[136.91527,35.16352],[136.91533,35.16353],[136.91523,35.16433],[136.9152,35.1646],[136.91515,35.16493],[136.91513,35.1651],[136.915,35.16608],[136.9149,35.16676],[136.91488,35.1669],[136.91484,35.1672],[136.91472,35.16815],[136.91472,35.16819],[136.91455,35.1694],[136.9155,35.16946],[136.91554,35.16947],[136.91684,35.16955],[136.91696,35.16956],[136.9174,35.16959],[136.91744,35.16959],[136.91823,35.16964],[136.91831,35.16965],[136.9185,35.16966],[136.9193,35.16972],[136.91936,35.16917],[136.91942,35.16863],[136.91943,35.16851],[136.91952,35.16779],[136.91956,35.16752],[136.91956,35.1675],[136.91963,35.16699],[136.91968,35.16654],[136.91971,35.16635],[136.91971,35.16634],[136.91985,35.16523],[136.91987,35.1651],[136.91987,35.1651],[136.9199,35.16497],[136.91995,35.16461],[136.92001,35.16408],[136.92003,35.16393],[136.92012,35.16326],[136.92025,35.16224],[136.92033,35.1616]]]}},{"type":"Feature","properties":{"name":"新栄二丁目","setai":3399,"jinko":4461,"key":"23106029092","units":1,"m":2292,"f":2169,"gk":351,"a0":164,"a1":2100,"a2":555,"a75":284,"ag":[76,44,44,76,301,430,247,179,201,198,183,161,124,115,156,111,86,51,31,5,0],"nf":1642},"geometry":{"type":"Polygon","coordinates":[[[136.92432,35.16395],[136.92391,35.16351],[136.92392,35.16351],[136.92413,35.16355],[136.92423,35.16358],[136.9242,35.16355],[136.92359,35.16288],[136.92284,35.16206],[136.92224,35.16141],[136.92191,35.16105],[136.9219,35.16104],[136.9217,35.16107],[136.92073,35.16115],[136.9204,35.16119],[136.92033,35.1616],[136.92025,35.16224],[136.92012,35.16326],[136.92003,35.16393],[136.92001,35.16408],[136.91995,35.16461],[136.9199,35.16497],[136.91987,35.1651],[136.91987,35.1651],[136.91985,35.16523],[136.91971,35.16634],[136.91971,35.16635],[136.91968,35.16654],[136.91963,35.16699],[136.91956,35.1675],[136.91956,35.16752],[136.91952,35.16779],[136.91943,35.16851],[136.91942,35.16863],[136.91936,35.16917],[136.9193,35.16972],[136.9193,35.16972],[136.92021,35.16978],[136.92022,35.16978],[136.92094,35.16982],[136.92099,35.16983],[136.92144,35.16986],[136.92207,35.16989],[136.92248,35.16991],[136.92282,35.1699],[136.92366,35.16985],[136.92426,35.16981],[136.92416,35.16916],[136.92412,35.16894],[136.92387,35.16858],[136.92364,35.16828],[136.92341,35.16794],[136.92292,35.16724],[136.92266,35.16686],[136.92252,35.16668],[136.92242,35.16653],[136.9224,35.1665],[136.92197,35.16577],[136.92196,35.16565],[136.92195,35.16561],[136.92184,35.1654],[136.92182,35.16538],[136.92248,35.16514],[136.92268,35.16507],[136.92281,35.16502],[136.92324,35.16486],[136.92354,35.16461],[136.92381,35.16439],[136.92435,35.16398],[136.92432,35.16395]]]}},{"type":"Feature","properties":{"name":"新栄三丁目","setai":2594,"jinko":3864,"key":"23106029093","units":1,"m":1816,"f":2048,"gk":190,"a0":213,"a1":1749,"a2":911,"a75":582,"ag":[113,45,55,58,173,246,207,174,138,171,231,208,143,138,191,139,160,143,104,32,4],"nf":991},"geometry":{"type":"Polygon","coordinates":[[[136.9297,35.16976],[136.92918,35.16922],[136.92922,35.16919],[136.929,35.16901],[136.92882,35.16888],[136.92872,35.1688],[136.92834,35.16853],[136.92786,35.1682],[136.92774,35.1681],[136.92724,35.16754],[136.92727,35.16751],[136.92706,35.16728],[136.92687,35.16708],[136.92684,35.1671],[136.92661,35.16683],[136.92694,35.1666],[136.92628,35.16589],[136.92595,35.16555],[136.92595,35.16555],[136.92591,35.16551],[136.92599,35.16546],[136.92572,35.16519],[136.92558,35.16505],[136.92537,35.16481],[136.92519,35.16462],[136.92423,35.16358],[136.92413,35.16355],[136.92392,35.16351],[136.92391,35.16351],[136.92432,35.16395],[136.92435,35.16398],[136.92381,35.16439],[136.92354,35.16461],[136.92324,35.16486],[136.92281,35.16502],[136.92268,35.16507],[136.92248,35.16514],[136.92182,35.16538],[136.92184,35.1654],[136.92195,35.16561],[136.92196,35.16565],[136.92197,35.16577],[136.9224,35.1665],[136.92242,35.16653],[136.92252,35.16668],[136.92266,35.16686],[136.92292,35.16724],[136.92341,35.16794],[136.92364,35.16828],[136.92387,35.16858],[136.92412,35.16894],[136.92416,35.16916],[136.92426,35.16981],[136.92505,35.16975],[136.92562,35.16972],[136.92608,35.16966],[136.92605,35.16962],[136.92662,35.1695],[136.9273,35.16935],[136.92737,35.16934],[136.9274,35.16949],[136.92784,35.16942],[136.92793,35.16942],[136.92804,35.16942],[136.92836,35.16949],[136.92838,35.16952],[136.92852,35.16958],[136.92882,35.1697],[136.92914,35.16981],[136.92946,35.16987],[136.92983,35.16989],[136.9297,35.16976]]]}},{"type":"Feature","properties":{"name":"橘一丁目","setai":1500,"jinko":2366,"key":"23106032091","units":1,"m":1188,"f":1178,"gk":56,"a0":147,"a1":1221,"a2":438,"a75":230,"ag":[54,42,51,49,108,182,160,138,94,140,136,109,105,109,99,79,81,44,21,5,0],"nf":560},"geometry":{"type":"Polygon","coordinates":[[[136.90075,35.15581],[136.90155,35.15558],[136.90156,35.15561],[136.90187,35.15553],[136.90221,35.15543],[136.9023,35.15541],[136.90281,35.15527],[136.90432,35.15484],[136.90479,35.15471],[136.90534,35.15455],[136.90524,35.15412],[136.90519,35.1539],[136.90514,35.15366],[136.90507,35.15343],[136.90498,35.15303],[136.9049,35.15272],[136.90488,35.15257],[136.9048,35.1523],[136.90471,35.15188],[136.9047,35.15183],[136.9038,35.15213],[136.90355,35.15221],[136.90327,35.15231],[136.90302,35.15243],[136.90232,35.15271],[136.9018,35.15291],[136.90179,35.1529],[136.90125,35.15308],[136.90049,35.15333],[136.89969,35.15359],[136.8992,35.15375],[136.8987,35.15391],[136.89867,35.15442],[136.89865,35.15461],[136.89864,35.15485],[136.89861,35.1552],[136.89858,35.15579],[136.89858,35.15583],[136.89854,35.15651],[136.89877,35.15646],[136.89939,35.15629],[136.89951,35.15626],[136.9002,35.15607],[136.90017,35.15599],[136.90075,35.15581]]]}},{"type":"Feature","properties":{"name":"橘二丁目","setai":254,"jinko":417,"key":"23106032092","units":1,"m":221,"f":196,"gk":17,"a0":38,"a1":237,"a2":62,"a75":37,"ag":[18,9,11,11,26,34,20,29,30,33,26,15,13,12,13,10,13,10,3,1,0],"nf":80},"geometry":{"type":"Polygon","coordinates":[[[136.90125,35.15308],[136.90179,35.1529],[136.9018,35.15291],[136.90232,35.15271],[136.90302,35.15243],[136.90327,35.15231],[136.90355,35.15221],[136.9038,35.15213],[136.9047,35.15183],[136.90465,35.15184],[136.90405,35.15074],[136.90364,35.14998],[136.90362,35.14994],[136.90304,35.15017],[136.90248,35.15039],[136.90244,35.15041],[136.90189,35.15062],[136.9016,35.15074],[136.90109,35.15093],[136.90053,35.15116],[136.90033,35.15123],[136.90004,35.15126],[136.89962,35.15131],[136.89925,35.15135],[136.89888,35.15139],[136.89883,35.1514],[136.89881,35.15182],[136.8988,35.152],[136.89878,35.15217],[136.89874,35.15284],[136.89873,35.15329],[136.8987,35.15391],[136.8992,35.15375],[136.89969,35.15359],[136.90049,35.15333],[136.90125,35.15308]]]}},{"type":"Feature","properties":{"name":"千代田一丁目","setai":1080,"jinko":1483,"key":"23106034091","units":1,"m":744,"f":739,"gk":87,"a0":50,"a1":707,"a2":182,"a75":81,"ag":[26,16,8,13,76,116,84,81,67,85,71,64,50,47,54,39,20,17,2,3,0],"nf":544},"geometry":{"type":"Polygon","coordinates":[[[136.91554,35.16165],[136.91572,35.16023],[136.91572,35.16022],[136.91577,35.15979],[136.91583,35.15936],[136.91583,35.1593],[136.91584,35.15918],[136.91473,35.1591],[136.9147,35.1591],[136.91426,35.15913],[136.91425,35.15913],[136.91345,35.15921],[136.91344,35.15921],[136.91307,35.15924],[136.91296,35.15925],[136.91269,35.15928],[136.91204,35.15933],[136.91204,35.15933],[136.91159,35.15938],[136.91108,35.15943],[136.91107,35.15943],[136.91055,35.15947],[136.91053,35.15947],[136.91019,35.15949],[136.9102,35.15951],[136.91017,35.15951],[136.91016,35.15945],[136.91024,35.16023],[136.91025,35.16037],[136.91028,35.16065],[136.91026,35.16068],[136.91003,35.1607],[136.90968,35.1607],[136.90962,35.16072],[136.90967,35.16142],[136.90966,35.16183],[136.90964,35.16225],[136.90965,35.1623],[136.90965,35.16234],[136.91041,35.16225],[136.91119,35.16216],[136.91242,35.16203],[136.9129,35.16198],[136.91459,35.16179],[136.91537,35.1617],[136.91552,35.16169],[136.91554,35.16165]]]}},{"type":"Feature","properties":{"name":"千代田二丁目","setai":2724,"jinko":3968,"key":"23106034092","units":1,"m":1890,"f":2078,"gk":216,"a0":162,"a1":1958,"a2":811,"a75":465,"ag":[85,46,31,74,213,305,248,227,206,175,197,170,143,164,182,137,119,114,72,17,6],"nf":1037},"geometry":{"type":"Polygon","coordinates":[[[136.91426,35.15913],[136.9147,35.1591],[136.91473,35.1591],[136.91584,35.15918],[136.91595,35.15831],[136.91596,35.15824],[136.91603,35.15762],[136.91607,35.15736],[136.91615,35.15669],[136.91624,35.15593],[136.91479,35.1561],[136.91453,35.15613],[136.91407,35.15619],[136.91326,35.15629],[136.913,35.15632],[136.91241,35.15639],[136.91165,35.15648],[136.9109,35.15657],[136.91021,35.15664],[136.91016,35.15665],[136.90988,35.15667],[136.90986,35.15667],[136.90993,35.1574],[136.90996,35.1576],[136.91003,35.15821],[136.91016,35.15945],[136.91017,35.15951],[136.9102,35.15951],[136.91019,35.15949],[136.91053,35.15947],[136.91055,35.15947],[136.91107,35.15943],[136.91108,35.15943],[136.91159,35.15938],[136.91204,35.15933],[136.91204,35.15933],[136.91269,35.15928],[136.91296,35.15925],[136.91307,35.15924],[136.91344,35.15921],[136.91345,35.15921],[136.91425,35.15913],[136.91426,35.15913]]]}},{"type":"Feature","properties":{"name":"千代田三丁目","setai":3253,"jinko":4932,"key":"23106034093","units":1,"m":2399,"f":2533,"gk":193,"a0":279,"a1":2508,"a2":821,"a75":389,"ag":[188,58,33,43,201,376,375,329,242,239,254,249,200,214,218,141,122,94,21,9,2],"nf":1324},"geometry":{"type":"Polygon","coordinates":[[[136.917,35.1555],[136.91691,35.1554],[136.91679,35.15548],[136.9167,35.15538],[136.91638,35.15503],[136.91554,35.15412],[136.91553,35.1541],[136.91549,35.15406],[136.91463,35.15311],[136.9143,35.15275],[136.91391,35.15232],[136.91385,35.15225],[136.91364,35.15237],[136.91363,35.15235],[136.91355,35.15234],[136.91328,35.15238],[136.91302,35.15245],[136.91285,35.15253],[136.91263,35.15266],[136.91232,35.15286],[136.91196,35.1531],[136.91164,35.15329],[136.91148,35.15341],[136.91146,35.15341],[136.91111,35.15364],[136.91078,35.15386],[136.91078,35.15386],[136.91058,35.15399],[136.91026,35.15415],[136.90989,35.15427],[136.90989,35.15424],[136.9096,35.15426],[136.90966,35.15483],[136.90968,35.15495],[136.90969,35.15509],[136.90971,35.15523],[136.90981,35.15605],[136.90982,35.1562],[136.90988,35.15667],[136.91016,35.15665],[136.91021,35.15664],[136.9109,35.15657],[136.91165,35.15648],[136.91241,35.15639],[136.913,35.15632],[136.91326,35.15629],[136.91407,35.15619],[136.91453,35.15613],[136.91479,35.1561],[136.91624,35.15593],[136.91683,35.15585],[136.91726,35.15579],[136.917,35.1555]]]}},{"type":"Feature","properties":{"name":"千代田四丁目","setai":1571,"jinko":2811,"key":"23106034094","units":1,"m":1336,"f":1475,"gk":119,"a0":274,"a1":1411,"a2":394,"a75":174,"ag":[110,101,63,55,94,186,171,184,167,154,137,146,117,108,112,65,59,40,9,1,0],"nf":732},"geometry":{"type":"Polygon","coordinates":[[[136.90989,35.15427],[136.91026,35.15415],[136.91058,35.15399],[136.91078,35.15386],[136.91078,35.15386],[136.91111,35.15364],[136.91146,35.15341],[136.91148,35.15341],[136.91164,35.15329],[136.91196,35.1531],[136.91232,35.15286],[136.91263,35.15266],[136.91285,35.15253],[136.91302,35.15245],[136.91328,35.15238],[136.91355,35.15234],[136.91363,35.15235],[136.91364,35.15237],[136.91385,35.15225],[136.91347,35.15183],[136.91343,35.15179],[136.91333,35.15171],[136.9119,35.15014],[136.91189,35.15014],[136.91191,35.1501],[136.91129,35.14944],[136.91056,35.14864],[136.91031,35.14837],[136.91028,35.1482],[136.91019,35.14818],[136.91015,35.14818],[136.90994,35.14794],[136.90975,35.14837],[136.90978,35.14845],[136.91,35.14862],[136.90999,35.14864],[136.9095,35.14973],[136.90935,35.15007],[136.90932,35.15021],[136.90924,35.15064],[136.90923,35.15105],[136.90935,35.15214],[136.90939,35.15242],[136.9096,35.15426],[136.90989,35.15424],[136.90989,35.15427]]]}},{"type":"Feature","properties":{"name":"千代田五丁目","setai":1822,"jinko":2604,"key":"23106034095","units":1,"m":1290,"f":1314,"gk":253,"a0":178,"a1":1483,"a2":334,"a75":153,"ag":[85,53,40,54,200,265,222,172,93,149,113,119,96,82,99,54,41,34,21,2,1],"nf":609},"geometry":{"type":"Polygon","coordinates":[[[136.91898,35.1577],[136.91726,35.15579],[136.91683,35.15585],[136.91624,35.15593],[136.91615,35.15669],[136.91607,35.15736],[136.91603,35.15762],[136.91596,35.15824],[136.91595,35.15831],[136.91584,35.15918],[136.91583,35.1593],[136.91583,35.15936],[136.91577,35.15979],[136.91572,35.16022],[136.91572,35.16023],[136.91554,35.16165],[136.91649,35.16157],[136.91778,35.16144],[136.91813,35.16141],[136.91849,35.16137],[136.91881,35.16133],[136.91908,35.1613],[136.9204,35.16119],[136.92073,35.16115],[136.9217,35.16107],[136.9219,35.16104],[136.92129,35.16037],[136.92125,35.16032],[136.92077,35.1598],[136.92028,35.15926],[136.92034,35.15922],[136.92032,35.1592],[136.919,35.15772],[136.91898,35.1577]]]}},{"type":"Feature","properties":{"name":"錦一丁目","setai":750,"jinko":1070,"key":"23106039091","units":1,"m":542,"f":528,"gk":53,"a0":67,"a1":662,"a2":110,"a75":52,"ag":[35,17,15,18,40,60,97,73,73,95,85,77,44,35,23,23,21,6,1,1,0],"nf":231},"geometry":{"type":"Polygon","coordinates":[[[136.89698,35.17299],[136.89711,35.17199],[136.8972,35.17105],[136.89731,35.17013],[136.89739,35.16925],[136.8975,35.16824],[136.89678,35.16819],[136.89631,35.16816],[136.89629,35.16816],[136.89491,35.16807],[136.89491,35.16807],[136.89348,35.16797],[136.89348,35.16797],[136.89234,35.16791],[136.89232,35.16789],[136.89217,35.16788],[136.89216,35.16791],[136.89224,35.16826],[136.89233,35.1686],[136.89242,35.16911],[136.89246,35.16941],[136.89249,35.16942],[136.89249,35.16958],[136.89249,35.16989],[136.89253,35.17041],[136.8926,35.17089],[136.89272,35.17156],[136.89278,35.17178],[136.89276,35.17185],[136.89292,35.17253],[136.89293,35.17256],[136.89317,35.17258],[136.89412,35.17268],[136.89453,35.17273],[136.89483,35.17276],[136.89578,35.17287],[136.89579,35.17287],[136.89698,35.17299]]]}},{"type":"Feature","properties":{"name":"錦二丁目","setai":315,"jinko":393,"key":"23106039092","units":1,"m":220,"f":173,"gk":4,"a0":6,"a1":206,"a2":53,"a75":32,"ag":[0,0,6,7,11,33,15,12,26,25,38,20,19,8,13,11,10,4,6,1,0],"nf":128},"geometry":{"type":"Polygon","coordinates":[[[136.90102,35.16847],[136.89986,35.16839],[136.89983,35.1684],[136.89868,35.16831],[136.89869,35.1683],[136.89752,35.16823],[136.8975,35.16824],[136.89739,35.16925],[136.89731,35.17013],[136.8972,35.17105],[136.89711,35.17199],[136.89698,35.17299],[136.89702,35.17299],[136.89818,35.17308],[136.89933,35.17316],[136.89936,35.17319],[136.90052,35.17329],[136.90168,35.17337],[136.90179,35.17228],[136.90189,35.17136],[136.90199,35.17043],[136.90202,35.17041],[136.9021,35.16956],[136.90222,35.16856],[136.90218,35.16854],[136.90102,35.16847]]]}},{"type":"Feature","properties":{"name":"錦三丁目","setai":281,"jinko":381,"key":"23106039093","units":1,"m":199,"f":182,"gk":10,"a0":15,"a1":138,"a2":77,"a75":47,"ag":[2,7,6,4,9,11,10,26,14,20,10,20,14,11,19,14,15,12,5,1,0],"nf":151},"geometry":{"type":"Polygon","coordinates":[[[136.90879,35.1738],[136.90889,35.17279],[136.90889,35.17278],[136.90899,35.17186],[136.90908,35.17106],[136.90909,35.17089],[136.90918,35.17006],[136.90919,35.16992],[136.90922,35.16965],[136.90927,35.16902],[136.90914,35.16901],[136.9069,35.16887],[136.90572,35.16878],[136.90572,35.16882],[136.90455,35.16873],[136.90339,35.16865],[136.90336,35.16862],[136.90222,35.16856],[136.9021,35.16956],[136.90202,35.17041],[136.90199,35.17043],[136.90189,35.17136],[136.90179,35.17228],[136.90168,35.17337],[136.90285,35.17344],[136.90291,35.17341],[136.90406,35.17348],[136.90524,35.17356],[136.90525,35.1736],[136.90641,35.17368],[136.90641,35.17364],[136.90879,35.1738]]]}},{"type":"Feature","properties":{"name":"二の丸","setai":0,"jinko":0,"key":"231060420","units":1,"m":0,"f":0,"gk":0,"a0":0,"a1":0,"a2":0,"a75":0,"ag":[0,0,0,0,0,0,0,0,0,0,0,0,0,0,0,0,0,0,0,0,0]},"geometry":{"type":"Polygon","coordinates":[[[136.90471,35.18548],[136.90472,35.18531],[136.90473,35.18527],[136.90477,35.18478],[136.90481,35.18456],[136.90491,35.18386],[136.90504,35.18326],[136.90514,35.18264],[136.90524,35.18229],[136.90526,35.1821],[136.90516,35.18208],[136.90479,35.18201],[136.9044,35.18193],[136.9039,35.18184],[136.90363,35.18182],[136.90309,35.18176],[136.90194,35.18168],[136.9002,35.18156],[136.89999,35.18316],[136.90015,35.18317],[136.9001,35.18353],[136.90061,35.1836],[136.90056,35.18405],[136.90095,35.18406],[136.90088,35.18494],[136.9015,35.185],[136.90138,35.18592],[136.902,35.18605],[136.90439,35.18607],[136.90447,35.18547],[136.90471,35.18548]]]}},{"type":"Feature","properties":{"name":"東桜","setai":156,"jinko":199,"key":"231060430","units":1,"m":88,"f":111,"gk":24,"a0":6,"a1":96,"a2":50,"a75":30,"ag":[1,1,4,1,11,11,7,9,3,13,12,18,11,10,10,12,8,7,3,0,0],"nf":47},"geometry":{"type":"Polygon","coordinates":[[[136.91925,35.17018],[136.9193,35.16972],[136.9193,35.16972],[136.9185,35.16966],[136.91831,35.16965],[136.91823,35.16964],[136.91744,35.16959],[136.9174,35.16959],[136.91696,35.16956],[136.91684,35.16955],[136.91554,35.16947],[136.9155,35.16946],[136.91455,35.1694],[136.91453,35.16971],[136.91453,35.16983],[136.91476,35.16987],[136.91513,35.16989],[136.91511,35.17012],[136.91521,35.17013],[136.91521,35.17014],[136.91523,35.17018],[136.91538,35.17019],[136.91543,35.1702],[136.91544,35.17013],[136.91548,35.16985],[136.91548,35.16985],[136.91554,35.16984],[136.91565,35.16982],[136.91566,35.16982],[136.91574,35.17003],[136.91606,35.16997],[136.91611,35.16996],[136.91612,35.16996],[136.91612,35.16994],[136.91635,35.16996],[136.91636,35.16991],[136.9165,35.16993],[136.91655,35.16993],[136.91654,35.17003],[136.91653,35.17015],[136.91653,35.17021],[136.91701,35.17021],[136.91703,35.17021],[136.91703,35.17002],[136.91739,35.17002],[136.91739,35.17001],[136.91759,35.16995],[136.91767,35.17012],[136.91775,35.1703],[136.91776,35.17033],[136.91802,35.17032],[136.91814,35.17028],[136.9182,35.17024],[136.91827,35.17021],[136.91819,35.17012],[136.91811,35.17003],[136.91824,35.16995],[136.91839,35.17012],[136.91845,35.17011],[136.91858,35.1701],[136.91866,35.1701],[136.91868,35.1701],[136.91867,35.1702],[136.91867,35.17021],[136.91888,35.17023],[136.91887,35.17053],[136.91887,35.17059],[136.91916,35.17061],[136.91917,35.17027],[136.91927,35.17024],[136.91925,35.17018]]]}},{"type":"Feature","properties":{"name":"富士見町","setai":1927,"jinko":3076,"key":"231060440","units":1,"m":1461,"f":1615,"gk":117,"a0":190,"a1":1542,"a2":528,"a75":215,"ag":[72,62,56,59,134,174,130,173,181,195,177,176,143,156,157,101,62,38,11,0,3],"nf":816},"geometry":{"type":"Polygon","coordinates":[[[136.90633,35.15448],[136.90759,35.15438],[136.90759,35.1544],[136.90778,35.15438],[136.90821,35.15435],[136.90843,35.15434],[136.90897,35.1543],[136.9093,35.15428],[136.90919,35.15336],[136.90912,35.15278],[136.90912,35.15275],[136.90893,35.15105],[136.90865,35.15107],[136.90792,35.15116],[136.90731,35.15125],[136.90622,35.1514],[136.90575,35.15146],[136.90553,35.15155],[136.90471,35.15188],[136.9048,35.1523],[136.90488,35.15257],[136.9049,35.15272],[136.90498,35.15303],[136.90507,35.15343],[136.90514,35.15366],[136.90519,35.1539],[136.90524,35.15412],[136.90534,35.15455],[136.90633,35.15448],[136.90633,35.15448]]]}},{"type":"Feature","properties":{"name":"古渡町","setai":316,"jinko":581,"key":"231060450","units":1,"m":264,"f":317,"gk":18,"a0":49,"a1":338,"a2":162,"a75":91,"ag":[21,15,13,13,33,60,36,50,32,45,30,17,22,36,35,20,18,30,18,4,1],"nf":32},"geometry":{"type":"Polygon","coordinates":[[[136.89934,35.15114],[136.89941,35.15095],[136.89949,35.15095],[136.89949,35.15095],[136.89949,35.15091],[136.89959,35.15091],[136.89969,35.15091],[136.89971,35.15068],[136.89957,35.15069],[136.89955,35.15069],[136.89959,35.15009],[136.89961,35.14978],[136.89972,35.14978],[136.89975,35.14953],[136.89977,35.14931],[136.89952,35.1493],[136.89952,35.14905],[136.89961,35.14904],[136.89961,35.14907],[136.8997,35.14907],[136.89971,35.14898],[136.89965,35.14898],[136.89966,35.14882],[136.89969,35.1485],[136.90008,35.14851],[136.90008,35.14844],[136.90011,35.14844],[136.90012,35.14831],[136.90009,35.14829],[136.90012,35.14776],[136.90017,35.1472],[136.89914,35.14731],[136.8991,35.14729],[136.89858,35.14737],[136.89856,35.14738],[136.8986,35.14756],[136.89861,35.14757],[136.89864,35.14758],[136.89883,35.14758],[136.89881,35.14781],[136.89825,35.14779],[136.89819,35.14779],[136.89818,35.14783],[136.89817,35.14811],[136.89816,35.1484],[136.89821,35.1484],[136.89836,35.1484],[136.8984,35.1484],[136.8984,35.14841],[136.8984,35.14858],[136.89834,35.14858],[136.89833,35.14894],[136.89833,35.14912],[136.89835,35.14912],[136.8984,35.14912],[136.89854,35.14913],[136.89854,35.14913],[136.89854,35.14914],[136.89853,35.14921],[136.89857,35.14921],[136.89857,35.1493],[136.89881,35.14928],[136.8988,35.14945],[136.89845,35.14941],[136.89841,35.14976],[136.89839,35.14992],[136.89838,35.14999],[136.89837,35.14999],[136.89807,35.14998],[136.89806,35.15033],[136.8981,35.15075],[136.89814,35.15094],[136.89819,35.15148],[136.89883,35.1514],[136.89888,35.15139],[136.89925,35.15135],[136.89922,35.15116],[136.89934,35.15114]]]}},{"type":"Feature","properties":{"name":"平和一丁目","setai":891,"jinko":1239,"key":"23106046091","units":1,"m":601,"f":638,"gk":38,"a0":68,"a1":677,"a2":194,"a75":80,"ag":[18,29,21,30,68,103,87,64,60,83,83,51,48,61,53,31,24,17,6,2,0],"nf":300},"geometry":{"type":"Polygon","coordinates":[[[136.9067,35.14734],[136.90667,35.14682],[136.90571,35.14684],[136.90485,35.14684],[136.90395,35.14685],[136.90393,35.14685],[136.90328,35.14685],[136.90308,35.14685],[136.90318,35.1473],[136.90331,35.14792],[136.90333,35.14799],[136.90339,35.14834],[136.9035,35.14884],[136.90359,35.14922],[136.90361,35.14937],[136.90374,35.14992],[136.90449,35.14993],[136.90454,35.14993],[136.90475,35.14994],[136.90532,35.14996],[136.90592,35.14997],[136.90617,35.14998],[136.90688,35.15],[136.90686,35.14984],[136.90684,35.14946],[136.90683,35.1493],[136.90679,35.14896],[136.90677,35.14869],[136.90676,35.14858],[136.90675,35.14849],[136.90674,35.14829],[136.90674,35.14827],[136.90673,35.14794],[136.9067,35.14734]]]}},{"type":"Feature","properties":{"name":"平和二丁目","setai":1096,"jinko":1652,"key":"23106046092","units":1,"m":823,"f":829,"gk":47,"a0":96,"a1":946,"a2":287,"a75":151,"ag":[45,24,27,35,87,150,147,89,97,102,88,85,66,64,72,61,35,26,24,5,0],"nf":323},"geometry":{"type":"Polygon","coordinates":[[[136.90908,35.14701],[136.90887,35.14679],[136.90838,35.1468],[136.90764,35.14681],[136.90718,35.14682],[136.90667,35.14682],[136.9067,35.14734],[136.90673,35.14794],[136.90674,35.14827],[136.90674,35.14829],[136.90675,35.14849],[136.90676,35.14858],[136.90677,35.14869],[136.90679,35.14896],[136.90683,35.1493],[136.90684,35.14946],[136.90686,35.14984],[136.90688,35.15],[136.90709,35.15],[136.9076,35.15001],[136.90885,35.15005],[136.90907,35.15006],[136.90919,35.14973],[136.9095,35.14899],[136.90971,35.14849],[136.90975,35.14837],[136.90994,35.14794],[136.90984,35.14784],[136.90908,35.14701]]]}},{"type":"Feature","properties":{"name":"本丸","setai":0,"jinko":0,"key":"231060480","units":1,"m":0,"f":0,"gk":0,"a0":0,"a1":0,"a2":0,"a75":0,"ag":[0,0,0,0,0,0,0,0,0,0,0,0,0,0,0,0,0,0,0,0,0]},"geometry":{"type":"Polygon","coordinates":[[[136.902,35.18605],[136.90138,35.18592],[136.9015,35.185],[136.90088,35.18494],[136.90095,35.18406],[136.90056,35.18405],[136.90061,35.1836],[136.9001,35.18353],[136.90015,35.18317],[136.89999,35.18316],[136.89813,35.18303],[136.89597,35.18289],[136.89599,35.1829],[136.89592,35.1834],[136.8959,35.18362],[136.89586,35.18433],[136.89584,35.18459],[136.89591,35.18464],[136.89621,35.18469],[136.89623,35.18472],[136.89622,35.1848],[136.89613,35.18543],[136.89605,35.18613],[136.89596,35.18667],[136.89589,35.18724],[136.89738,35.18736],[136.89803,35.18741],[136.89863,35.18745],[136.89914,35.18748],[136.89914,35.18745],[136.89938,35.18746],[136.89945,35.18669],[136.90059,35.18678],[136.90192,35.18629],[136.90197,35.18624],[136.902,35.18605]]]}},{"type":"Feature","properties":{"name":"正木一丁目","setai":838,"jinko":1401,"key":"23106049091","units":1,"m":706,"f":695,"gk":39,"a0":146,"a1":874,"a2":251,"a75":119,"ag":[43,43,60,48,84,113,101,84,96,120,90,74,64,72,60,45,32,30,10,2,0],"nf":130},"geometry":{"type":"Polygon","coordinates":[[[136.8981,35.15075],[136.89806,35.15033],[136.89807,35.14998],[136.89837,35.14999],[136.89838,35.14999],[136.89839,35.14992],[136.89841,35.14976],[136.89845,35.14941],[136.8988,35.14945],[136.89881,35.14928],[136.89857,35.1493],[136.8981,35.14934],[136.89695,35.14944],[136.89606,35.14951],[136.8958,35.14953],[136.89536,35.14956],[136.89535,35.14977],[136.89535,35.14989],[136.89534,35.15007],[136.89531,35.15039],[136.89504,35.1504],[136.89493,35.15041],[136.89464,35.15042],[136.89445,35.15044],[136.89424,35.15041],[136.89422,35.1505],[136.89403,35.1505],[136.89387,35.15178],[136.89383,35.15201],[136.89402,35.15198],[136.89409,35.15197],[136.89515,35.15185],[136.89519,35.15184],[136.89565,35.15179],[136.89611,35.15173],[136.89663,35.15167],[136.8969,35.15163],[136.89705,35.15161],[136.89781,35.15152],[136.89819,35.15148],[136.89814,35.15094],[136.8981,35.15075]]]}},{"type":"Feature","properties":{"name":"正木二丁目","setai":911,"jinko":1822,"key":"23106049092","units":1,"m":932,"f":890,"gk":68,"a0":231,"a1":1184,"a2":347,"a75":151,"ag":[79,76,76,69,103,147,117,135,137,131,132,103,110,90,106,54,42,34,18,2,1],"nf":60},"geometry":{"type":"Polygon","coordinates":[[[136.89422,35.1505],[136.89424,35.15041],[136.89445,35.15044],[136.89464,35.15042],[136.89493,35.15041],[136.89504,35.1504],[136.89531,35.15039],[136.89534,35.15007],[136.89535,35.14989],[136.89535,35.14977],[136.89536,35.14956],[136.8958,35.14953],[136.89606,35.14951],[136.89695,35.14944],[136.8981,35.14934],[136.89857,35.1493],[136.89857,35.14921],[136.89853,35.14921],[136.89854,35.14914],[136.89854,35.14913],[136.89854,35.14913],[136.8984,35.14912],[136.89835,35.14912],[136.89833,35.14912],[136.89833,35.14894],[136.89834,35.14858],[136.8984,35.14858],[136.8984,35.14841],[136.8984,35.1484],[136.89836,35.1484],[136.89821,35.1484],[136.89816,35.1484],[136.89817,35.14811],[136.89818,35.14783],[136.89819,35.14779],[136.89825,35.14779],[136.89881,35.14781],[136.89883,35.14758],[136.89864,35.14758],[136.89861,35.14757],[136.8986,35.14756],[136.89856,35.14738],[136.89827,35.14743],[136.89821,35.14744],[136.89752,35.14756],[136.89724,35.1476],[136.89672,35.14769],[136.89647,35.14773],[136.89568,35.14787],[136.8955,35.1479],[136.89527,35.14786],[136.89506,35.14778],[136.8948,35.14775],[136.89456,35.14773],[136.89437,35.1477],[136.89427,35.1483],[136.89419,35.14887],[136.89413,35.14962],[136.89407,35.15012],[136.89405,35.15038],[136.89403,35.1505],[136.89422,35.1505]]]}},{"type":"Feature","properties":{"name":"正木三丁目","setai":884,"jinko":1695,"key":"23106049093","units":1,"m":851,"f":844,"gk":62,"a0":194,"a1":1083,"a2":346,"a75":167,"ag":[64,69,61,73,73,89,88,138,110,147,149,116,100,90,89,68,47,37,13,2,0],"nf":72},"geometry":{"type":"Polygon","coordinates":[[[136.89912,35.14413],[136.89912,35.14371],[136.89757,35.14417],[136.89665,35.14446],[136.89502,35.14504],[136.89495,35.14507],[136.8949,35.14521],[136.8949,35.14522],[136.89477,35.14564],[136.89471,35.14587],[136.89468,35.14601],[136.89458,35.14637],[136.89457,35.14644],[136.89454,35.14654],[136.89453,35.14663],[136.89449,35.14685],[136.89445,35.14712],[136.89437,35.1477],[136.89456,35.14773],[136.8948,35.14775],[136.89506,35.14778],[136.89527,35.14786],[136.8955,35.1479],[136.89568,35.14787],[136.89647,35.14773],[136.89672,35.14769],[136.89724,35.1476],[136.89752,35.14756],[136.89821,35.14744],[136.89827,35.14743],[136.89856,35.14738],[136.89858,35.14737],[136.8991,35.14729],[136.8991,35.14702],[136.8991,35.14675],[136.8991,35.14629],[136.89911,35.14609],[136.89911,35.14556],[136.89911,35.14549],[136.89912,35.14492],[136.89912,35.14449],[136.89912,35.14416],[136.89912,35.14413]]]}},{"type":"Feature","properties":{"name":"正木四丁目","setai":724,"jinko":905,"key":"23106049094","units":1,"m":508,"f":397,"gk":51,"a0":45,"a1":589,"a2":114,"a75":70,"ag":[22,11,12,9,65,118,96,69,72,54,49,31,26,25,19,20,19,16,14,1,0],"nf":157},"geometry":{"type":"Polygon","coordinates":[[[136.89913,35.14319],[136.89913,35.1424],[136.89868,35.14244],[136.89826,35.14247],[136.89761,35.1425],[136.89721,35.14253],[136.89683,35.14255],[136.89663,35.14256],[136.89631,35.14259],[136.89601,35.14261],[136.89584,35.14261],[136.89583,35.14261],[136.89581,35.14268],[136.89557,35.14333],[136.89541,35.14377],[136.89527,35.14418],[136.89518,35.14442],[136.89511,35.14466],[136.89505,35.14474],[136.89502,35.14483],[136.89495,35.14507],[136.89502,35.14504],[136.89665,35.14446],[136.89757,35.14417],[136.89912,35.14371],[136.89913,35.14336],[136.89913,35.14319]]]}},{"type":"Feature","properties":{"name":"松原一丁目","setai":825,"jinko":1114,"key":"23106053091","units":1,"m":586,"f":528,"gk":37,"a0":49,"a1":614,"a2":192,"a75":92,"ag":[16,16,17,24,84,110,84,59,49,54,56,54,40,48,52,42,33,13,3,1,0],"nf":259},"geometry":{"type":"Polygon","coordinates":[[[136.89847,35.15778],[136.89854,35.15651],[136.8979,35.1566],[136.89673,35.15679],[136.89633,35.15684],[136.89572,35.15693],[136.89502,35.15708],[136.89471,35.15715],[136.89419,35.15713],[136.89344,35.1571],[136.89325,35.1571],[136.89312,35.15818],[136.89304,35.15907],[136.89301,35.15927],[136.8932,35.15923],[136.89417,35.15902],[136.89434,35.15899],[136.89492,35.15885],[136.89546,35.1587],[136.89597,35.15858],[136.89654,35.15847],[136.89724,35.15835],[136.89738,35.15833],[136.89845,35.15821],[136.89846,35.1582],[136.89847,35.15778]]]}},{"type":"Feature","properties":{"name":"松原二丁目","setai":1347,"jinko":2501,"key":"23106053092","units":1,"m":1253,"f":1248,"gk":91,"a0":327,"a1":1453,"a2":372,"a75":184,"ag":[132,116,79,86,107,153,156,190,216,186,141,108,110,104,84,68,59,34,17,6,0],"nf":349},"geometry":{"type":"Polygon","coordinates":[[[136.89471,35.15715],[136.89502,35.15708],[136.89572,35.15693],[136.89633,35.15684],[136.89673,35.15679],[136.8979,35.1566],[136.89854,35.15651],[136.89858,35.15583],[136.89858,35.15579],[136.89861,35.1552],[136.89864,35.15485],[136.89865,35.15461],[136.89867,35.15442],[136.8987,35.15391],[136.89819,35.15399],[136.89784,35.15405],[136.89778,35.15406],[136.8971,35.15418],[136.896,35.15437],[136.89547,35.15447],[136.89518,35.15452],[136.8942,35.15468],[136.89371,35.15477],[136.89351,35.15475],[136.89332,35.15641],[136.89325,35.1571],[136.89344,35.1571],[136.89419,35.15713],[136.89471,35.15715]]]}},{"type":"Feature","properties":{"name":"松原三丁目","setai":806,"jinko":1468,"key":"23106053093","units":1,"m":723,"f":745,"gk":69,"a0":170,"a1":829,"a2":280,"a75":125,"ag":[68,59,43,36,55,112,101,78,122,79,98,68,80,72,83,60,38,18,6,3,0],"nf":189},"geometry":{"type":"Polygon","coordinates":[[[136.89881,35.15182],[136.89883,35.1514],[136.89819,35.15148],[136.89781,35.15152],[136.89705,35.15161],[136.8969,35.15163],[136.89663,35.15167],[136.89611,35.15173],[136.89565,35.15179],[136.89519,35.15184],[136.89515,35.15185],[136.89409,35.15197],[136.89402,35.15198],[136.89383,35.15201],[136.89365,35.15326],[136.8936,35.15376],[136.89351,35.15475],[136.89371,35.15477],[136.8942,35.15468],[136.89518,35.15452],[136.89547,35.15447],[136.896,35.15437],[136.8971,35.15418],[136.89778,35.15406],[136.89784,35.15405],[136.89819,35.15399],[136.8987,35.15391],[136.89873,35.15329],[136.89874,35.15284],[136.89878,35.15217],[136.8988,35.152],[136.89881,35.15182]]]}},{"type":"Feature","properties":{"name":"丸の内一丁目","setai":1347,"jinko":1887,"key":"23106056091","units":1,"m":952,"f":935,"gk":49,"a0":101,"a1":937,"a2":299,"a75":181,"ag":[53,26,22,35,69,107,123,111,95,134,118,83,62,54,64,64,43,39,27,6,2],"nf":550},"geometry":{"type":"Polygon","coordinates":[[[136.89651,35.17755],[136.89658,35.17695],[136.89663,35.17652],[136.89666,35.17628],[136.89666,35.17627],[136.89679,35.17494],[136.8968,35.17492],[136.8969,35.17401],[136.8969,35.174],[136.89702,35.17299],[136.89698,35.17299],[136.89579,35.17287],[136.89578,35.17287],[136.89483,35.17276],[136.89453,35.17273],[136.89412,35.17268],[136.89317,35.17258],[136.89293,35.17256],[136.89314,35.17371],[136.89356,35.17606],[136.89377,35.17746],[136.89378,35.17752],[136.89395,35.17752],[136.89454,35.17748],[136.89481,35.17748],[136.89509,35.17749],[136.89527,35.17751],[136.89544,35.17752],[136.89568,35.17753],[136.89651,35.17757],[136.89651,35.17755]]]}},{"type":"Feature","properties":{"name":"丸の内二丁目","setai":1602,"jinko":2386,"key":"23106056092","units":1,"m":1159,"f":1227,"gk":111,"a0":160,"a1":1320,"a2":369,"a75":178,"ag":[60,36,64,62,100,141,138,145,127,193,170,154,90,84,107,88,46,29,13,2,0],"nf":537},"geometry":{"type":"Polygon","coordinates":[[[136.89818,35.17308],[136.89702,35.17299],[136.8969,35.174],[136.8969,35.17401],[136.8968,35.17492],[136.89679,35.17494],[136.89666,35.17627],[136.89666,35.17628],[136.89663,35.17652],[136.89658,35.17695],[136.89651,35.17755],[136.89774,35.17765],[136.89888,35.17775],[136.90008,35.17784],[136.90114,35.17793],[136.90122,35.17793],[136.90129,35.17714],[136.90135,35.17656],[136.90142,35.1759],[136.90149,35.17524],[136.90157,35.17433],[136.90168,35.17337],[136.90052,35.17329],[136.89936,35.17319],[136.89933,35.17316],[136.89818,35.17308]]]}},{"type":"Feature","properties":{"name":"丸の内三丁目","setai":1908,"jinko":2840,"key":"23106056093","units":1,"m":1289,"f":1551,"gk":87,"a0":221,"a1":1498,"a2":410,"a75":197,"ag":[82,80,59,64,106,195,144,168,170,205,192,138,116,95,118,65,75,34,17,4,2],"nf":711},"geometry":{"type":"Polygon","coordinates":[[[136.90879,35.1738],[136.90641,35.17364],[136.90641,35.17368],[136.90525,35.1736],[136.90524,35.17356],[136.90406,35.17348],[136.90291,35.17341],[136.90285,35.17344],[136.90168,35.17337],[136.90157,35.17433],[136.90149,35.17524],[136.90142,35.1759],[136.90135,35.17656],[136.90129,35.17714],[136.90122,35.17793],[136.90243,35.178],[136.90363,35.17807],[136.9048,35.17815],[136.90583,35.1782],[136.90588,35.1782],[136.90709,35.17823],[136.90709,35.17821],[136.9083,35.17818],[136.90842,35.17708],[136.90849,35.17639],[136.9085,35.17618],[136.90854,35.17575],[136.90858,35.17532],[136.9086,35.1752],[136.90864,35.17476],[136.90865,35.17475],[136.90872,35.17398],[136.90879,35.1738]]]}},{"type":"Feature","properties":{"name":"門前町","setai":654,"jinko":1028,"key":"231060590","units":1,"m":499,"f":529,"gk":110,"a0":85,"a1":580,"a2":204,"a75":106,"ag":[31,25,29,32,49,58,48,60,78,76,62,63,54,45,53,40,32,21,13,0,0],"nf":159},"geometry":{"type":"Polygon","coordinates":[[[136.90195,35.15578],[136.90187,35.15553],[136.90156,35.15561],[136.90155,35.15558],[136.90075,35.15581],[136.90017,35.15599],[136.9002,35.15607],[136.89951,35.15626],[136.89939,35.15629],[136.89877,35.15646],[136.89854,35.15651],[136.89847,35.15778],[136.89846,35.1582],[136.89861,35.15818],[136.89897,35.1581],[136.89941,35.15801],[136.89981,35.15792],[136.90049,35.15778],[136.90052,35.15778],[136.90128,35.15771],[136.90127,35.15767],[136.90193,35.15763],[136.90228,35.1576],[136.90228,35.15748],[136.90228,35.15744],[136.90225,35.15686],[136.90224,35.15678],[136.90223,35.15675],[136.90221,35.15673],[136.90206,35.15624],[136.90204,35.15617],[136.90207,35.15616],[136.90195,35.15578]]]}}]}