{"type":"FeatureCollection","features":[{"type":"Feature","properties":{"name":"上落合一丁目","setai":1459,"jinko":3227,"key":"11105003001","units":1},"geometry":{"type":"Polygon","coordinates":[[[139.62964,35.89268],[139.62956,35.89224],[139.6296,35.89225],[139.63005,35.89118],[139.63009,35.89108],[139.63091,35.89131],[139.63109,35.89117],[139.63113,35.89114],[139.63117,35.89111],[139.63129,35.89104],[139.63145,35.89094],[139.63151,35.89092],[139.63152,35.89091],[139.63175,35.89081],[139.6318,35.89078],[139.63188,35.89075],[139.63226,35.89058],[139.63229,35.89056],[139.63251,35.89046],[139.63252,35.89046],[139.63262,35.89042],[139.63291,35.89028],[139.63357,35.88997],[139.6334,35.88994],[139.63331,35.88992],[139.63361,35.88928],[139.63365,35.8892],[139.6332,35.88907],[139.63314,35.88905],[139.63336,35.8888],[139.63336,35.8888],[139.63338,35.88877],[139.63339,35.88875],[139.63314,35.88868],[139.63323,35.88847],[139.63278,35.88833],[139.63255,35.88883],[139.63252,35.88888],[139.63229,35.88884],[139.63179,35.88873],[139.63143,35.88865],[139.6314,35.88865],[139.63135,35.88865],[139.63128,35.88866],[139.63113,35.8887],[139.63104,35.8887],[139.63091,35.88871],[139.63081,35.88871],[139.63073,35.88871],[139.63061,35.88872],[139.63048,35.88871],[139.62976,35.88861],[139.62948,35.88928],[139.62939,35.88949],[139.62928,35.88976],[139.62927,35.88979],[139.62923,35.88988],[139.62912,35.89011],[139.62905,35.89028],[139.62896,35.89047],[139.62889,35.89064],[139.6288,35.89083],[139.62863,35.89122],[139.62834,35.89189],[139.62791,35.8929],[139.62852,35.89309],[139.62913,35.89325],[139.62968,35.89343],[139.62968,35.89323],[139.62964,35.89268]]]}},{"type":"Feature","properties":{"name":"上落合二丁目","setai":1657,"jinko":3822,"key":"11105003002","units":1},"geometry":{"type":"Polygon","coordinates":[[[139.62661,35.88813],[139.62647,35.88813],[139.62641,35.88895],[139.62631,35.8892],[139.62629,35.88925],[139.62616,35.88947],[139.62604,35.88972],[139.62604,35.88973],[139.62592,35.88998],[139.62578,35.89042],[139.62577,35.89046],[139.62576,35.89048],[139.62568,35.89071],[139.62556,35.89114],[139.62547,35.89146],[139.62526,35.89215],[139.62582,35.89231],[139.6266,35.89253],[139.62667,35.89255],[139.62722,35.89271],[139.6275,35.89279],[139.62791,35.8929],[139.62834,35.89189],[139.62863,35.89122],[139.6288,35.89083],[139.62889,35.89064],[139.62896,35.89047],[139.62905,35.89028],[139.62912,35.89011],[139.62923,35.88988],[139.62927,35.88979],[139.62928,35.88976],[139.62939,35.88949],[139.62948,35.88928],[139.62976,35.88861],[139.62906,35.8885],[139.62847,35.88842],[139.6284,35.88841],[139.62839,35.88841],[139.62753,35.88826],[139.62753,35.88826],[139.62726,35.88822],[139.62716,35.8882],[139.62699,35.88817],[139.62692,35.88816],[139.62684,35.88815],[139.62677,35.88814],[139.62666,35.88814],[139.62661,35.88813]]]}},{"type":"Feature","properties":{"name":"上落合三丁目","setai":1133,"jinko":2183,"key":"11105003003","units":1},"geometry":{"type":"Polygon","coordinates":[[[139.62431,35.88809],[139.6234,35.88807],[139.62339,35.88824],[139.62337,35.88844],[139.62332,35.88865],[139.62323,35.88913],[139.62304,35.88997],[139.62289,35.89063],[139.6228,35.89103],[139.62271,35.89145],[139.62345,35.89165],[139.62391,35.89178],[139.62452,35.89195],[139.62481,35.89203],[139.62526,35.89215],[139.62547,35.89146],[139.62556,35.89114],[139.62568,35.89071],[139.62576,35.89048],[139.62577,35.89046],[139.62578,35.89042],[139.62592,35.88998],[139.62604,35.88973],[139.62604,35.88972],[139.62616,35.88947],[139.62629,35.88925],[139.62631,35.8892],[139.62641,35.88895],[139.62647,35.88813],[139.6264,35.88813],[139.6262,35.88813],[139.62499,35.88811],[139.62431,35.88809]]]}},{"type":"Feature","properties":{"name":"上落合四丁目","setai":390,"jinko":862,"key":"11105003004","units":1},"geometry":{"type":"Polygon","coordinates":[[[139.62345,35.89165],[139.62271,35.89145],[139.62264,35.89172],[139.62255,35.89205],[139.62247,35.89236],[139.62246,35.89239],[139.62237,35.8927],[139.62226,35.89306],[139.62235,35.89309],[139.62277,35.8932],[139.62276,35.89321],[139.62381,35.89351],[139.62457,35.89388],[139.62484,35.89402],[139.6252,35.89416],[139.6257,35.89422],[139.62617,35.8943],[139.6267,35.89445],[139.62716,35.89459],[139.62743,35.89392],[139.62744,35.8939],[139.62791,35.8929],[139.6275,35.89279],[139.62722,35.89271],[139.62667,35.89255],[139.6266,35.89253],[139.62582,35.89231],[139.62526,35.89215],[139.62481,35.89203],[139.62452,35.89195],[139.62391,35.89178],[139.62345,35.89165]]]}},{"type":"Feature","properties":{"name":"上落合五丁目","setai":1004,"jinko":1925,"key":"11105003005","units":1},"geometry":{"type":"Polygon","coordinates":[[[139.62814,35.89688],[139.62857,35.89636],[139.62874,35.89637],[139.6288,35.89633],[139.62889,35.89634],[139.62901,35.89636],[139.62903,35.89637],[139.62903,35.89631],[139.62916,35.89595],[139.62936,35.89537],[139.62956,35.8947],[139.62961,35.89436],[139.62968,35.89361],[139.62968,35.89343],[139.62913,35.89325],[139.62852,35.89309],[139.62791,35.8929],[139.62744,35.8939],[139.62743,35.89392],[139.62716,35.89459],[139.62686,35.89526],[139.62652,35.89611],[139.62629,35.89671],[139.626,35.89739],[139.62588,35.89761],[139.62572,35.89796],[139.62569,35.89804],[139.62564,35.89813],[139.62559,35.89823],[139.6255,35.89839],[139.62543,35.89852],[139.62534,35.89868],[139.62588,35.89905],[139.62639,35.89933],[139.62649,35.89918],[139.62667,35.8989],[139.62688,35.89856],[139.62695,35.89845],[139.62696,35.89843],[139.62711,35.89824],[139.62739,35.89786],[139.62759,35.89759],[139.6278,35.89734],[139.62814,35.89688]]]}},{"type":"Feature","properties":{"name":"上落合六丁目","setai":1165,"jinko":2852,"key":"11105003006","units":1},"geometry":{"type":"Polygon","coordinates":[[[139.62381,35.89351],[139.62276,35.89321],[139.62241,35.89404],[139.62216,35.89461],[139.62215,35.89463],[139.62204,35.8949],[139.62204,35.8949],[139.62198,35.89505],[139.62181,35.89549],[139.6224,35.89559],[139.62301,35.89569],[139.62395,35.89599],[139.62439,35.89615],[139.6245,35.89618],[139.62467,35.89624],[139.62497,35.89634],[139.62528,35.89643],[139.62574,35.89655],[139.62588,35.89659],[139.62629,35.89671],[139.62652,35.89611],[139.62686,35.89526],[139.62716,35.89459],[139.6267,35.89445],[139.62617,35.8943],[139.6257,35.89422],[139.6252,35.89416],[139.62484,35.89402],[139.62457,35.89388],[139.62381,35.89351]]]}},{"type":"Feature","properties":{"name":"上落合七丁目","setai":1067,"jinko":2541,"key":"11105003007","units":1},"geometry":{"type":"Polygon","coordinates":[[[139.6224,35.89559],[139.62181,35.89549],[139.62148,35.89628],[139.62141,35.89643],[139.62196,35.89655],[139.62195,35.89658],[139.62194,35.8966],[139.62163,35.89732],[139.62182,35.89739],[139.62233,35.89754],[139.62272,35.89767],[139.62275,35.89769],[139.62314,35.89783],[139.62324,35.89787],[139.62354,35.89799],[139.62397,35.89816],[139.62429,35.89828],[139.62534,35.89868],[139.62543,35.89852],[139.6255,35.89839],[139.62559,35.89823],[139.62564,35.89813],[139.62569,35.89804],[139.62572,35.89796],[139.62588,35.89761],[139.626,35.89739],[139.62629,35.89671],[139.62588,35.89659],[139.62574,35.89655],[139.62528,35.89643],[139.62497,35.89634],[139.62467,35.89624],[139.6245,35.89618],[139.62439,35.89615],[139.62395,35.89599],[139.62301,35.89569],[139.6224,35.89559]]]}},{"type":"Feature","properties":{"name":"上落合八丁目","setai":765,"jinko":1536,"key":"11105003008","units":1},"geometry":{"type":"Polygon","coordinates":[[[139.62233,35.89754],[139.62182,35.89739],[139.62163,35.89732],[139.62156,35.89748],[139.62129,35.89737],[139.62087,35.89817],[139.62063,35.89866],[139.6205,35.89894],[139.6207,35.89901],[139.62069,35.89903],[139.62034,35.89972],[139.62034,35.89974],[139.62016,35.90007],[139.62,35.9004],[139.62,35.9004],[139.61975,35.90087],[139.61967,35.90102],[139.61959,35.90121],[139.62,35.90134],[139.6199,35.90154],[139.62029,35.90168],[139.62031,35.90175],[139.62065,35.90155],[139.62164,35.90101],[139.6218,35.90092],[139.62262,35.90048],[139.62291,35.90034],[139.62331,35.90013],[139.62361,35.89996],[139.62388,35.89982],[139.62428,35.89955],[139.6245,35.8994],[139.62474,35.89917],[139.62495,35.899],[139.62534,35.89868],[139.62429,35.89828],[139.62397,35.89816],[139.62354,35.89799],[139.62324,35.89787],[139.62314,35.89783],[139.62275,35.89769],[139.62272,35.89767],[139.62233,35.89754]]]}},{"type":"Feature","properties":{"name":"上落合九丁目","setai":658,"jinko":1175,"key":"11105003009","units":1},"geometry":{"type":"Polygon","coordinates":[[[139.62161,35.90244],[139.62172,35.90224],[139.6221,35.90238],[139.62214,35.90229],[139.62217,35.90223],[139.62218,35.90221],[139.62221,35.90213],[139.62222,35.90212],[139.62239,35.90177],[139.62261,35.90136],[139.62266,35.90137],[139.62271,35.90138],[139.62321,35.90146],[139.62347,35.9015],[139.62377,35.90155],[139.62432,35.90165],[139.62438,35.90151],[139.6244,35.90152],[139.62469,35.90158],[139.62514,35.90167],[139.62518,35.90158],[139.62529,35.90136],[139.62547,35.90118],[139.62559,35.90116],[139.62581,35.90064],[139.62572,35.90066],[139.62558,35.90069],[139.62542,35.90067],[139.62585,35.90017],[139.62606,35.89994],[139.62654,35.8994],[139.62639,35.89933],[139.62588,35.89905],[139.62534,35.89868],[139.62495,35.899],[139.62474,35.89917],[139.6245,35.8994],[139.62428,35.89955],[139.62388,35.89982],[139.62361,35.89996],[139.62331,35.90013],[139.62291,35.90034],[139.62262,35.90048],[139.6218,35.90092],[139.62164,35.90101],[139.62065,35.90155],[139.62031,35.90175],[139.62034,35.90183],[139.62048,35.90188],[139.62054,35.90197],[139.62106,35.90215],[139.62101,35.90225],[139.62161,35.90244]]]}},{"type":"Feature","properties":{"name":"大字上落合","setai":0,"jinko":0,"key":"111050040","units":1},"geometry":{"type":"MultiPolygon","coordinates":[[[[139.6331,35.89443],[139.63315,35.89436],[139.63322,35.89439],[139.63328,35.89431],[139.63333,35.89432],[139.63344,35.89421],[139.63355,35.89412],[139.63388,35.89386],[139.634,35.89352],[139.63401,35.8935],[139.63408,35.89335],[139.63412,35.89326],[139.63416,35.89319],[139.63425,35.89304],[139.6343,35.89295],[139.63448,35.89269],[139.63414,35.89221],[139.63413,35.89221],[139.63347,35.89311],[139.63251,35.89442],[139.63259,35.8944],[139.63276,35.89441],[139.63288,35.89444],[139.6331,35.89443]]],[[[139.63218,35.89501],[139.63218,35.89501],[139.63161,35.89568],[139.63185,35.89574],[139.63187,35.89566],[139.63194,35.89566],[139.63197,35.89565],[139.63207,35.89554],[139.63211,35.89547],[139.63216,35.89533],[139.63216,35.8953],[139.63214,35.89525],[139.63212,35.89524],[139.6321,35.89515],[139.63213,35.89508],[139.63218,35.89501]]]]}},{"type":"Feature","properties":{"name":"大字下落合","setai":1811,"jinko":3910,"key":"111050050","units":1},"geometry":{"type":"Polygon","coordinates":[[[139.63604,35.88705],[139.63611,35.88704],[139.63613,35.88704],[139.63629,35.88682],[139.6363,35.8868],[139.63638,35.88669],[139.63661,35.88635],[139.63667,35.88627],[139.63674,35.88616],[139.63678,35.88609],[139.63685,35.88599],[139.63685,35.88597],[139.63692,35.88587],[139.63713,35.88554],[139.63715,35.88551],[139.63729,35.88528],[139.63739,35.88513],[139.63742,35.88507],[139.63755,35.88486],[139.63766,35.88471],[139.63769,35.88466],[139.63775,35.88456],[139.63777,35.88454],[139.63792,35.88428],[139.63792,35.88427],[139.63805,35.88407],[139.63821,35.8838],[139.63837,35.88354],[139.63843,35.88345],[139.63882,35.88354],[139.63903,35.88357],[139.63957,35.8837],[139.6399,35.88379],[139.63992,35.88379],[139.64068,35.88396],[139.64077,35.88382],[139.6409,35.88362],[139.64094,35.88356],[139.64095,35.88355],[139.64123,35.88311],[139.64087,35.88296],[139.64056,35.88284],[139.64045,35.88281],[139.6403,35.88276],[139.63997,35.88266],[139.63949,35.8825],[139.63947,35.8825],[139.63905,35.88237],[139.63905,35.88237],[139.63901,35.88236],[139.63898,35.88235],[139.63891,35.88232],[139.63846,35.88219],[139.63846,35.88219],[139.63835,35.88216],[139.63822,35.8821],[139.63815,35.88207],[139.63809,35.88205],[139.63788,35.88197],[139.63787,35.88196],[139.63776,35.88192],[139.63733,35.88176],[139.63711,35.88168],[139.63709,35.88167],[139.63707,35.88167],[139.63668,35.88153],[139.63636,35.88143],[139.63643,35.88153],[139.63673,35.88194],[139.63661,35.8823],[139.63634,35.88293],[139.63617,35.8833],[139.63609,35.88345],[139.63607,35.88348],[139.63589,35.88377],[139.63581,35.88388],[139.63554,35.88427],[139.6355,35.88434],[139.63521,35.88467],[139.63521,35.88468],[139.63519,35.88469],[139.63478,35.8852],[139.63458,35.88548],[139.63431,35.88586],[139.63415,35.8861],[139.63403,35.88627],[139.63389,35.88684],[139.63392,35.88684],[139.63421,35.88691],[139.63425,35.88691],[139.63462,35.88697],[139.63479,35.88699],[139.63512,35.88702],[139.63551,35.88705],[139.63585,35.88704],[139.63604,35.88705]]]}},{"type":"Feature","properties":{"name":"下落合二丁目","setai":969,"jinko":1860,"key":"11105006002","units":1},"geometry":{"type":"Polygon","coordinates":[[[139.63554,35.88427],[139.63581,35.88388],[139.63589,35.88377],[139.63607,35.88348],[139.63609,35.88345],[139.63617,35.8833],[139.63634,35.88293],[139.63661,35.8823],[139.63673,35.88194],[139.63643,35.88153],[139.63636,35.88143],[139.63622,35.88138],[139.63571,35.88119],[139.6357,35.88118],[139.63507,35.88098],[139.63452,35.88078],[139.6338,35.88054],[139.63345,35.881],[139.63341,35.88106],[139.633,35.88168],[139.63293,35.88177],[139.63284,35.88192],[139.6326,35.88226],[139.63207,35.88306],[139.63177,35.88354],[139.63162,35.88386],[139.63152,35.88412],[139.63254,35.88411],[139.6326,35.88411],[139.63362,35.88416],[139.63365,35.88417],[139.63419,35.88422],[139.63426,35.88422],[139.6348,35.88427],[139.6355,35.88434],[139.63554,35.88427]]]}},{"type":"Feature","properties":{"name":"下落合三丁目","setai":1041,"jinko":1990,"key":"11105006003","units":1},"geometry":{"type":"Polygon","coordinates":[[[139.63255,35.88883],[139.63278,35.88833],[139.63277,35.88833],[139.63286,35.88815],[139.63291,35.88804],[139.63294,35.88799],[139.63298,35.88794],[139.63304,35.88787],[139.63305,35.88785],[139.63322,35.88764],[139.63329,35.88756],[139.63338,35.88745],[139.63364,35.88716],[139.63392,35.88684],[139.63389,35.88684],[139.63403,35.88627],[139.63415,35.8861],[139.63431,35.88586],[139.63458,35.88548],[139.63478,35.8852],[139.63519,35.88469],[139.63521,35.88468],[139.63521,35.88467],[139.6355,35.88434],[139.6348,35.88427],[139.63426,35.88422],[139.63419,35.88422],[139.63365,35.88417],[139.63362,35.88416],[139.6326,35.88411],[139.63254,35.88411],[139.63152,35.88412],[139.63127,35.88498],[139.63111,35.88537],[139.63099,35.88569],[139.63097,35.88573],[139.63083,35.88613],[139.63039,35.88715],[139.63012,35.8879],[139.62976,35.88861],[139.63048,35.88871],[139.63061,35.88872],[139.63073,35.88871],[139.63081,35.88871],[139.63091,35.88871],[139.63104,35.8887],[139.63113,35.8887],[139.63128,35.88866],[139.63135,35.88865],[139.6314,35.88865],[139.63143,35.88865],[139.63179,35.88873],[139.63229,35.88884],[139.63252,35.88888],[139.63255,35.88883]]]}},{"type":"Feature","properties":{"name":"下落合四丁目","setai":857,"jinko":1604,"key":"11105006004","units":1},"geometry":{"type":"Polygon","coordinates":[[[139.62968,35.88607],[139.62877,35.88603],[139.62813,35.88599],[139.62798,35.886],[139.62753,35.88604],[139.62745,35.88604],[139.62712,35.88598],[139.62642,35.88585],[139.626,35.88578],[139.6257,35.88573],[139.62519,35.88564],[139.62471,35.88555],[139.62469,35.88559],[139.62468,35.88565],[139.62458,35.88585],[139.62429,35.88639],[139.62425,35.88647],[139.62407,35.88683],[139.62395,35.88705],[139.6238,35.88733],[139.62367,35.8876],[139.62354,35.88783],[139.6234,35.88807],[139.62431,35.88809],[139.62499,35.88811],[139.6262,35.88813],[139.6264,35.88813],[139.62647,35.88813],[139.62661,35.88813],[139.62666,35.88814],[139.62677,35.88814],[139.62684,35.88815],[139.62692,35.88816],[139.62699,35.88817],[139.62716,35.8882],[139.62726,35.88822],[139.62753,35.88826],[139.62753,35.88826],[139.62839,35.88841],[139.6284,35.88841],[139.62847,35.88842],[139.62906,35.8885],[139.62976,35.88861],[139.63012,35.8879],[139.63039,35.88715],[139.63083,35.88613],[139.63077,35.88613],[139.62968,35.88607]]]}},{"type":"Feature","properties":{"name":"下落合五丁目","setai":714,"jinko":1369,"key":"11105006005","units":1},"geometry":{"type":"Polygon","coordinates":[[[139.63083,35.88613],[139.63097,35.88573],[139.63099,35.88569],[139.63111,35.88537],[139.63127,35.88498],[139.63152,35.88412],[139.63072,35.88413],[139.62989,35.88413],[139.62959,35.88407],[139.62948,35.88404],[139.62907,35.88389],[139.62817,35.88354],[139.62815,35.88353],[139.62791,35.88347],[139.62783,35.88345],[139.62709,35.88324],[139.62664,35.88311],[139.62648,35.88308],[139.6262,35.88303],[139.62604,35.88301],[139.62604,35.88303],[139.62553,35.88396],[139.62549,35.88403],[139.62527,35.88447],[139.62521,35.88461],[139.62498,35.88504],[139.62471,35.88555],[139.62519,35.88564],[139.6257,35.88573],[139.626,35.88578],[139.62642,35.88585],[139.62712,35.88598],[139.62745,35.88604],[139.62753,35.88604],[139.62798,35.886],[139.62813,35.88599],[139.62877,35.88603],[139.62968,35.88607],[139.63077,35.88613],[139.63083,35.88613]]]}},{"type":"Feature","properties":{"name":"下落合六丁目","setai":1072,"jinko":1907,"key":"11105006006","units":1},"geometry":{"type":"Polygon","coordinates":[[[139.62702,35.88111],[139.62701,35.8811],[139.62679,35.88155],[139.62672,35.88166],[139.62644,35.88221],[139.6264,35.8823],[139.62604,35.88301],[139.6262,35.88303],[139.62648,35.88308],[139.62664,35.88311],[139.62709,35.88324],[139.62783,35.88345],[139.62791,35.88347],[139.62815,35.88353],[139.62817,35.88354],[139.62907,35.88389],[139.62948,35.88404],[139.62959,35.88407],[139.62989,35.88413],[139.63072,35.88413],[139.63152,35.88412],[139.63162,35.88386],[139.63177,35.88354],[139.63207,35.88306],[139.6326,35.88226],[139.63246,35.88224],[139.6316,35.88211],[139.63098,35.88202],[139.63045,35.88195],[139.62982,35.88194],[139.62981,35.88192],[139.62931,35.88178],[139.62889,35.88166],[139.62797,35.88138],[139.62702,35.88111]]]}},{"type":"Feature","properties":{"name":"下落合七丁目","setai":787,"jinko":1467,"key":"11105006007","units":1},"geometry":{"type":"Polygon","coordinates":[[[139.62966,35.87937],[139.62879,35.87928],[139.62821,35.87974],[139.6278,35.88007],[139.62761,35.88025],[139.62749,35.88042],[139.62734,35.88062],[139.62721,35.8808],[139.62701,35.8811],[139.62702,35.88111],[139.62797,35.88138],[139.62889,35.88166],[139.62931,35.88178],[139.62981,35.88192],[139.62982,35.88194],[139.63045,35.88195],[139.63098,35.88202],[139.6316,35.88211],[139.63246,35.88224],[139.6326,35.88226],[139.63284,35.88192],[139.63293,35.88177],[139.633,35.88168],[139.63341,35.88106],[139.63345,35.881],[139.6338,35.88054],[139.63292,35.88022],[139.63203,35.87992],[139.63133,35.87967],[139.63105,35.87958],[139.63099,35.87956],[139.63092,35.87955],[139.63057,35.87949],[139.63054,35.87948],[139.63025,35.87943],[139.62999,35.87941],[139.62966,35.87937]]]}},{"type":"Feature","properties":{"name":"新中里一丁目","setai":900,"jinko":2033,"key":"11105007001","units":1},"geometry":{"type":"Polygon","coordinates":[[[139.63839,35.87116],[139.63847,35.87072],[139.6389,35.87075],[139.63887,35.87113],[139.63936,35.87112],[139.63936,35.87112],[139.63938,35.87066],[139.63805,35.87055],[139.63745,35.8705],[139.63687,35.87045],[139.63625,35.87039],[139.63578,35.87035],[139.63568,35.87105],[139.63566,35.87118],[139.63558,35.87159],[139.63543,35.87202],[139.63536,35.87226],[139.63531,35.87244],[139.63529,35.87252],[139.63526,35.87266],[139.63517,35.87308],[139.63512,35.87331],[139.63504,35.87369],[139.63504,35.87373],[139.63494,35.87418],[139.63487,35.8745],[139.63532,35.87456],[139.63552,35.87459],[139.63579,35.87463],[139.63626,35.8747],[139.63628,35.87471],[139.6372,35.87484],[139.63749,35.87488],[139.63767,35.87468],[139.63783,35.87451],[139.638,35.87435],[139.63815,35.87426],[139.63815,35.87424],[139.63815,35.87424],[139.63813,35.87421],[139.6381,35.87412],[139.6381,35.87409],[139.63808,35.87402],[139.63807,35.87394],[139.63807,35.87375],[139.63806,35.87371],[139.63805,35.87369],[139.63804,35.87354],[139.63804,35.87352],[139.63804,35.87349],[139.63803,35.87342],[139.63801,35.87317],[139.63801,35.87312],[139.638,35.87311],[139.63799,35.87281],[139.63799,35.8728],[139.63798,35.87278],[139.63797,35.87245],[139.63794,35.87211],[139.63794,35.8721],[139.63794,35.87207],[139.63794,35.87163],[139.63794,35.87163],[139.63796,35.8714],[139.63796,35.87139],[139.63796,35.87139],[139.63799,35.8712],[139.63839,35.87116]]]}},{"type":"Feature","properties":{"name":"新中里二丁目","setai":602,"jinko":1357,"key":"11105007002","units":1},"geometry":{"type":"Polygon","coordinates":[[[139.63275,35.87011],[139.63233,35.87011],[139.63234,35.87016],[139.63242,35.87055],[139.6325,35.87102],[139.63258,35.87156],[139.63269,35.87228],[139.63277,35.87301],[139.63278,35.87353],[139.63277,35.87418],[139.63352,35.8743],[139.63424,35.8744],[139.63487,35.8745],[139.63494,35.87418],[139.63504,35.87373],[139.63504,35.87369],[139.63512,35.87331],[139.63517,35.87308],[139.63526,35.87266],[139.63529,35.87252],[139.63531,35.87244],[139.63536,35.87226],[139.63543,35.87202],[139.63558,35.87159],[139.63566,35.87118],[139.63568,35.87105],[139.63578,35.87035],[139.6344,35.87025],[139.63376,35.8702],[139.633,35.87013],[139.63275,35.87011]]]}},{"type":"Feature","properties":{"name":"新中里三丁目","setai":670,"jinko":1506,"key":"11105007003","units":1},"geometry":{"type":"Polygon","coordinates":[[[139.63584,35.87738],[139.63664,35.87619],[139.63722,35.87529],[139.63749,35.87488],[139.6372,35.87484],[139.63628,35.87471],[139.63626,35.8747],[139.63579,35.87463],[139.63552,35.87459],[139.63532,35.87456],[139.63487,35.8745],[139.63424,35.8744],[139.63352,35.8743],[139.63277,35.87418],[139.63272,35.87441],[139.6327,35.8745],[139.63267,35.87457],[139.63264,35.87464],[139.63258,35.87474],[139.63257,35.87477],[139.63254,35.87481],[139.63253,35.87485],[139.63248,35.8749],[139.63223,35.87527],[139.63221,35.87529],[139.632,35.87559],[139.63177,35.87593],[139.63124,35.8767],[139.63126,35.8767],[139.63188,35.87682],[139.63255,35.87693],[139.63256,35.87692],[139.63262,35.87692],[139.63353,35.87707],[139.63399,35.87713],[139.63433,35.87719],[139.63472,35.87723],[139.63512,35.87729],[139.63584,35.87738]]]}},{"type":"Feature","properties":{"name":"新中里四丁目","setai":1050,"jinko":2524,"key":"11105007004","units":1},"geometry":{"type":"Polygon","coordinates":[[[139.63353,35.87707],[139.63262,35.87692],[139.63256,35.87692],[139.63255,35.87693],[139.63188,35.87682],[139.63126,35.8767],[139.63124,35.8767],[139.63123,35.87671],[139.6307,35.87746],[139.63061,35.87761],[139.63045,35.87779],[139.6303,35.87795],[139.63017,35.87807],[139.63005,35.87818],[139.62934,35.87874],[139.62934,35.87874],[139.62879,35.87928],[139.62966,35.87937],[139.62999,35.87941],[139.63025,35.87943],[139.63054,35.87948],[139.63057,35.87949],[139.63092,35.87955],[139.63099,35.87956],[139.63105,35.87958],[139.63133,35.87967],[139.63203,35.87992],[139.63292,35.88022],[139.6338,35.88054],[139.63418,35.87996],[139.6344,35.87959],[139.63476,35.87904],[139.63487,35.87889],[139.63511,35.87851],[139.63538,35.87808],[139.63584,35.87738],[139.63512,35.87729],[139.63472,35.87723],[139.63433,35.87719],[139.63399,35.87713],[139.63353,35.87707]]]}},{"type":"Feature","properties":{"name":"新中里五丁目","setai":1126,"jinko":2340,"key":"11105007005","units":1},"geometry":{"type":"Polygon","coordinates":[[[139.63816,35.87434],[139.63815,35.87426],[139.638,35.87435],[139.63783,35.87451],[139.63767,35.87468],[139.63749,35.87488],[139.63722,35.87529],[139.63664,35.87619],[139.63584,35.87738],[139.63538,35.87808],[139.63511,35.87851],[139.63487,35.87889],[139.63476,35.87904],[139.6344,35.87959],[139.63418,35.87996],[139.6338,35.88054],[139.63452,35.88078],[139.63507,35.88098],[139.6357,35.88118],[139.63571,35.88119],[139.63622,35.88138],[139.63636,35.88143],[139.63668,35.88153],[139.63707,35.88167],[139.63709,35.88167],[139.63708,35.88165],[139.63715,35.88118],[139.63716,35.88115],[139.63723,35.88106],[139.63723,35.88105],[139.63725,35.88103],[139.6373,35.88058],[139.6373,35.88056],[139.63736,35.8802],[139.63736,35.88019],[139.63742,35.87973],[139.63742,35.87969],[139.63749,35.87916],[139.6375,35.8791],[139.63755,35.87852],[139.63758,35.87821],[139.6376,35.87805],[139.63766,35.87761],[139.63782,35.87635],[139.63782,35.87634],[139.63782,35.87632],[139.63798,35.8754],[139.63798,35.87539],[139.63799,35.87539],[139.63799,35.87537],[139.63801,35.87511],[139.63803,35.87496],[139.63805,35.87488],[139.63808,35.87475],[139.63814,35.87445],[139.63815,35.87439],[139.63816,35.87434]]]}},{"type":"Feature","properties":{"name":"鈴谷一丁目","setai":86,"jinko":173,"key":"11105008001","units":1},"geometry":{"type":"Polygon","coordinates":[[[139.63234,35.8629],[139.63199,35.86279],[139.63196,35.86281],[139.63186,35.86294],[139.63179,35.86307],[139.63174,35.86322],[139.63174,35.86327],[139.63174,35.8633],[139.63173,35.86337],[139.63174,35.86344],[139.63176,35.86349],[139.63178,35.86359],[139.63179,35.86372],[139.6318,35.86384],[139.63178,35.86388],[139.63176,35.86394],[139.63173,35.864],[139.63167,35.86409],[139.63166,35.8641],[139.63165,35.86411],[139.63161,35.86416],[139.63154,35.86429],[139.63148,35.86441],[139.63144,35.86451],[139.63143,35.86456],[139.63144,35.86466],[139.63144,35.86485],[139.63145,35.86511],[139.63142,35.86526],[139.63134,35.86545],[139.63129,35.86554],[139.63125,35.86557],[139.63121,35.8656],[139.63111,35.86566],[139.63103,35.86569],[139.63091,35.86573],[139.63074,35.86577],[139.63052,35.86583],[139.63039,35.86586],[139.63024,35.86591],[139.63013,35.86594],[139.63009,35.86597],[139.63008,35.86605],[139.63007,35.86611],[139.63007,35.86623],[139.63006,35.86632],[139.62996,35.86637],[139.63048,35.86647],[139.6312,35.86661],[139.63169,35.8667],[139.63245,35.86684],[139.6328,35.86586],[139.63326,35.86495],[139.63351,35.86443],[139.63352,35.86442],[139.63379,35.86392],[139.63413,35.86342],[139.63395,35.86337],[139.63379,35.86333],[139.63307,35.86313],[139.63307,35.86313],[139.63234,35.8629]]]}},{"type":"Feature","properties":{"name":"鈴谷二丁目","setai":702,"jinko":1445,"key":"11105008002","units":1},"geometry":{"type":"Polygon","coordinates":[[[139.63048,35.86647],[139.62996,35.86637],[139.62995,35.86637],[139.62993,35.86638],[139.62984,35.8664],[139.62916,35.86616],[139.62916,35.86616],[139.62832,35.86586],[139.62831,35.86586],[139.62804,35.86637],[139.62779,35.86688],[139.62725,35.86797],[139.6272,35.86809],[139.6272,35.8681],[139.62716,35.86819],[139.62703,35.86855],[139.62691,35.86889],[139.6269,35.86891],[139.62653,35.86981],[139.62652,35.86983],[139.62624,35.87046],[139.62623,35.87048],[139.62717,35.87044],[139.6272,35.87043],[139.62776,35.87041],[139.62778,35.87041],[139.62788,35.8704],[139.62791,35.8704],[139.6284,35.87038],[139.6288,35.87035],[139.62906,35.87034],[139.62932,35.87033],[139.6296,35.87031],[139.6302,35.87028],[139.63026,35.87028],[139.63067,35.87026],[139.6314,35.87021],[139.63234,35.87016],[139.63233,35.87011],[139.63228,35.86989],[139.63219,35.86967],[139.63214,35.86954],[139.6321,35.86932],[139.63206,35.86917],[139.63205,35.86906],[139.63205,35.86894],[139.63204,35.8688],[139.63204,35.86866],[139.63204,35.86855],[139.63205,35.86848],[139.63205,35.86846],[139.63211,35.86815],[139.63213,35.86808],[139.63221,35.86778],[139.63225,35.86761],[139.63231,35.86736],[139.63236,35.86714],[139.63245,35.86684],[139.63169,35.8667],[139.6312,35.86661],[139.63048,35.86647]]]}},{"type":"Feature","properties":{"name":"鈴谷三丁目","setai":725,"jinko":1376,"key":"11105008003","units":1},"geometry":{"type":"Polygon","coordinates":[[[139.62653,35.86981],[139.6269,35.86891],[139.62691,35.86889],[139.62703,35.86855],[139.62716,35.86819],[139.6272,35.8681],[139.6272,35.86809],[139.62725,35.86797],[139.62779,35.86688],[139.62804,35.86637],[139.62831,35.86586],[139.62818,35.86581],[139.62805,35.86577],[139.6279,35.86572],[139.62778,35.86569],[139.62748,35.86561],[139.62749,35.86573],[139.62749,35.86586],[139.62742,35.86595],[139.62736,35.86607],[139.62728,35.86617],[139.62718,35.86634],[139.62701,35.86663],[139.627,35.86663],[139.62683,35.86659],[139.62661,35.86653],[139.62647,35.86649],[139.62636,35.86645],[139.62627,35.86643],[139.62604,35.86636],[139.62583,35.8663],[139.62576,35.8665],[139.62554,35.86701],[139.62551,35.86708],[139.62529,35.86763],[139.62527,35.86767],[139.62527,35.86768],[139.625,35.86841],[139.6249,35.86839],[139.62461,35.86832],[139.6246,35.86856],[139.6246,35.86858],[139.62459,35.86865],[139.62454,35.86908],[139.62453,35.8691],[139.62438,35.86903],[139.62432,35.86919],[139.62427,35.86933],[139.62428,35.86933],[139.62452,35.86935],[139.6245,35.86942],[139.62447,35.86958],[139.62447,35.8696],[139.62428,35.86957],[139.62422,35.86984],[139.62452,35.86985],[139.62454,35.87006],[139.62455,35.87019],[139.62458,35.8702],[139.62524,35.87038],[139.62525,35.87038],[139.62527,35.87039],[139.62526,35.87042],[139.62524,35.87046],[139.62624,35.87046],[139.62652,35.86983],[139.62653,35.86981]]]}},{"type":"Feature","properties":{"name":"鈴谷四丁目","setai":1346,"jinko":2950,"key":"11105008004","units":1},"geometry":{"type":"Polygon","coordinates":[[[139.62496,35.87285],[139.62507,35.8728],[139.62571,35.87294],[139.62664,35.87315],[139.62772,35.87338],[139.62839,35.87353],[139.62872,35.87263],[139.62912,35.87153],[139.62933,35.87101],[139.62934,35.87097],[139.62934,35.87092],[139.62932,35.87033],[139.62906,35.87034],[139.6288,35.87035],[139.6284,35.87038],[139.62791,35.8704],[139.62788,35.8704],[139.62778,35.87041],[139.62776,35.87041],[139.6272,35.87043],[139.62717,35.87044],[139.62623,35.87048],[139.62624,35.87046],[139.62524,35.87046],[139.6251,35.87083],[139.62503,35.871],[139.62471,35.87094],[139.62465,35.87114],[139.62495,35.87121],[139.62468,35.87174],[139.62464,35.87173],[139.62462,35.87185],[139.62446,35.87188],[139.62445,35.87185],[139.62445,35.87182],[139.62444,35.8718],[139.62444,35.87177],[139.62432,35.87177],[139.6237,35.87177],[139.62368,35.87177],[139.62353,35.87178],[139.62345,35.87191],[139.62341,35.87195],[139.62338,35.87195],[139.62335,35.87186],[139.62328,35.87186],[139.62301,35.87187],[139.62296,35.87188],[139.62292,35.87189],[139.62288,35.87192],[139.62285,35.87195],[139.62283,35.87197],[139.62281,35.87199],[139.62278,35.872],[139.62275,35.872],[139.62264,35.87199],[139.62263,35.8721],[139.62257,35.87212],[139.62246,35.87211],[139.62244,35.87224],[139.62211,35.87215],[139.62196,35.87204],[139.62194,35.87203],[139.62192,35.87204],[139.62183,35.87222],[139.62199,35.87227],[139.62194,35.87239],[139.62211,35.87247],[139.62187,35.87265],[139.62135,35.87244],[139.62136,35.87264],[139.62137,35.87298],[139.62136,35.87345],[139.62137,35.87346],[139.62137,35.87347],[139.62158,35.8738],[139.62181,35.87418],[139.6224,35.87392],[139.62254,35.87386],[139.62261,35.87383],[139.62291,35.87371],[139.6231,35.87364],[139.62336,35.87353],[139.62496,35.87285]]]}},{"type":"Feature","properties":{"name":"鈴谷五丁目","setai":501,"jinko":1088,"key":"11105008005","units":1},"geometry":{"type":"Polygon","coordinates":[[[139.63242,35.87055],[139.63234,35.87016],[139.6314,35.87021],[139.63067,35.87026],[139.63026,35.87028],[139.6302,35.87028],[139.6296,35.87031],[139.62932,35.87033],[139.62934,35.87092],[139.62934,35.87097],[139.62933,35.87101],[139.62912,35.87153],[139.62872,35.87263],[139.62839,35.87353],[139.62888,35.87363],[139.6291,35.87366],[139.62981,35.87376],[139.63006,35.8738],[139.63048,35.87386],[139.63072,35.87389],[139.63183,35.87404],[139.63277,35.87418],[139.63278,35.87353],[139.63277,35.87301],[139.63269,35.87228],[139.63258,35.87156],[139.6325,35.87102],[139.63242,35.87055]]]}},{"type":"Feature","properties":{"name":"鈴谷六丁目","setai":579,"jinko":1388,"key":"11105008006","units":1},"geometry":{"type":"Polygon","coordinates":[[[139.62888,35.87363],[139.62839,35.87353],[139.62802,35.87455],[139.6279,35.87485],[139.62773,35.87531],[139.62744,35.87611],[139.62745,35.87612],[139.62817,35.87623],[139.62847,35.87628],[139.62911,35.87639],[139.62931,35.87642],[139.63014,35.87655],[139.63123,35.87671],[139.63124,35.8767],[139.63177,35.87593],[139.632,35.87559],[139.63221,35.87529],[139.63223,35.87527],[139.63248,35.8749],[139.63253,35.87485],[139.63254,35.87481],[139.63257,35.87477],[139.63258,35.87474],[139.63264,35.87464],[139.63267,35.87457],[139.6327,35.8745],[139.63272,35.87441],[139.63277,35.87418],[139.63183,35.87404],[139.63072,35.87389],[139.63048,35.87386],[139.63006,35.8738],[139.62981,35.87376],[139.6291,35.87366],[139.62888,35.87363]]]}},{"type":"Feature","properties":{"name":"鈴谷七丁目","setai":1178,"jinko":2749,"key":"11105008007","units":1},"geometry":{"type":"Polygon","coordinates":[[[139.6279,35.87485],[139.62802,35.87455],[139.62839,35.87353],[139.62772,35.87338],[139.62664,35.87315],[139.62571,35.87294],[139.62507,35.8728],[139.62496,35.87285],[139.62336,35.87353],[139.6231,35.87364],[139.62291,35.87371],[139.62261,35.87383],[139.62254,35.87386],[139.6224,35.87392],[139.62181,35.87418],[139.62212,35.87465],[139.6222,35.87478],[139.62226,35.87488],[139.62249,35.87523],[139.62254,35.87529],[139.62269,35.87554],[139.62295,35.8754],[139.62316,35.8753],[139.62343,35.87517],[139.62385,35.87496],[139.62419,35.8748],[139.62455,35.87543],[139.62504,35.87565],[139.62505,35.87565],[139.62539,35.87579],[139.62542,35.8758],[139.62546,35.8758],[139.62575,35.87585],[139.62609,35.8759],[139.6261,35.8759],[139.62646,35.87596],[139.62694,35.87603],[139.62694,35.87603],[139.62694,35.87604],[139.62735,35.8761],[139.62744,35.87611],[139.62773,35.87531],[139.6279,35.87485]]]}},{"type":"Feature","properties":{"name":"鈴谷八丁目","setai":468,"jinko":1016,"key":"11105008008","units":1},"geometry":{"type":"Polygon","coordinates":[[[139.62455,35.87543],[139.62419,35.8748],[139.62385,35.87496],[139.62343,35.87517],[139.62316,35.8753],[139.62295,35.8754],[139.62269,35.87554],[139.62317,35.8763],[139.62355,35.87688],[139.62328,35.8773],[139.62311,35.87752],[139.62268,35.87806],[139.62362,35.87828],[139.62473,35.87856],[139.62546,35.87875],[139.62626,35.87896],[139.62661,35.878],[139.62664,35.87793],[139.62684,35.87765],[139.62717,35.87679],[139.62744,35.87615],[139.62745,35.87612],[139.62744,35.87611],[139.62735,35.8761],[139.62694,35.87604],[139.62694,35.87603],[139.62694,35.87603],[139.62646,35.87596],[139.6261,35.8759],[139.62609,35.8759],[139.62575,35.87585],[139.62546,35.8758],[139.62542,35.8758],[139.62539,35.87579],[139.62505,35.87565],[139.62504,35.87565],[139.62455,35.87543]]]}},{"type":"Feature","properties":{"name":"鈴谷九丁目","setai":180,"jinko":257,"key":"11105008009","units":1},"geometry":{"type":"Polygon","coordinates":[[[139.62817,35.87623],[139.62745,35.87612],[139.62744,35.87615],[139.62717,35.87679],[139.62684,35.87765],[139.62664,35.87793],[139.62661,35.878],[139.62626,35.87896],[139.62652,35.87903],[139.62657,35.87904],[139.62706,35.87911],[139.62728,35.87913],[139.62833,35.87924],[139.62879,35.87928],[139.62934,35.87874],[139.62934,35.87874],[139.63005,35.87818],[139.63017,35.87807],[139.6303,35.87795],[139.63045,35.87779],[139.63061,35.87761],[139.6307,35.87746],[139.63123,35.87671],[139.63014,35.87655],[139.62931,35.87642],[139.62911,35.87639],[139.62847,35.87628],[139.62817,35.87623]]]}},{"type":"Feature","properties":{"name":"大戸一丁目","setai":1061,"jinko":2382,"key":"11105009001","units":1},"geometry":{"type":"Polygon","coordinates":[[[139.6402,35.86066],[139.64002,35.86043],[139.64002,35.86043],[139.64003,35.86041],[139.64005,35.86032],[139.64006,35.86025],[139.64007,35.86023],[139.64007,35.86019],[139.64008,35.86019],[139.64008,35.86016],[139.64011,35.86009],[139.64017,35.85997],[139.64044,35.85998],[139.64046,35.85998],[139.64057,35.8588],[139.64031,35.85878],[139.64018,35.85876],[139.64018,35.85869],[139.6402,35.85834],[139.64019,35.85834],[139.64,35.85832],[139.63999,35.8583],[139.63999,35.8583],[139.63993,35.85818],[139.63973,35.85779],[139.63967,35.85767],[139.63963,35.85761],[139.63959,35.85752],[139.63958,35.8575],[139.63957,35.85749],[139.63957,35.85748],[139.63957,35.85745],[139.63957,35.85742],[139.63956,35.85729],[139.63955,35.857],[139.63955,35.85689],[139.63969,35.85684],[139.64001,35.85671],[139.64003,35.85668],[139.64005,35.8566],[139.64007,35.85651],[139.64007,35.85651],[139.64007,35.85649],[139.64005,35.85611],[139.64002,35.85597],[139.63999,35.85581],[139.63994,35.85564],[139.63994,35.85562],[139.63992,35.85553],[139.63992,35.85553],[139.63993,35.8554],[139.63993,35.85524],[139.63993,35.85523],[139.63991,35.85513],[139.63989,35.85507],[139.63984,35.85503],[139.63978,35.85498],[139.63969,35.85489],[139.63968,35.85487],[139.63968,35.85485],[139.63965,35.8547],[139.63965,35.85469],[139.63963,35.85469],[139.63936,35.85467],[139.63935,35.85467],[139.6393,35.85468],[139.63924,35.8548],[139.63919,35.85487],[139.6391,35.85507],[139.63898,35.85547],[139.6389,35.85573],[139.63875,35.85615],[139.63867,35.85633],[139.63862,35.85645],[139.63858,35.8566],[139.63855,35.85675],[139.6385,35.85692],[139.63843,35.85709],[139.63838,35.85719],[139.63838,35.85721],[139.63838,35.85721],[139.63836,35.85726],[139.63833,35.85736],[139.63831,35.85745],[139.63829,35.85768],[139.6383,35.85783],[139.63832,35.8579],[139.63832,35.85792],[139.63835,35.858],[139.63844,35.8582],[139.63848,35.85834],[139.63848,35.8584],[139.63845,35.85846],[139.63833,35.85859],[139.63821,35.85872],[139.63807,35.85888],[139.63805,35.8589],[139.63797,35.85901],[139.63785,35.85917],[139.63779,35.8593],[139.63775,35.85946],[139.63769,35.85969],[139.63766,35.85969],[139.63765,35.8597],[139.63706,35.85957],[139.63668,35.86056],[139.63607,35.86043],[139.63606,35.86044],[139.63606,35.86044],[139.63599,35.86059],[139.63593,35.86073],[139.63592,35.86075],[139.63584,35.8609],[139.63582,35.86095],[139.63573,35.8611],[139.63571,35.86115],[139.6356,35.86131],[139.63545,35.86152],[139.6353,35.86173],[139.63527,35.86177],[139.63615,35.86196],[139.63664,35.86207],[139.63707,35.86217],[139.63736,35.86224],[139.63754,35.86227],[139.63813,35.86241],[139.63901,35.86261],[139.63941,35.86269],[139.63986,35.8628],[139.64024,35.86288],[139.64024,35.86286],[139.6403,35.86197],[139.64034,35.86156],[139.64038,35.86097],[139.64039,35.86069],[139.6402,35.86066]]]}},{"type":"Feature","properties":{"name":"大戸二丁目","setai":432,"jinko":916,"key":"11105009002","units":1},"geometry":{"type":"Polygon","coordinates":[[[139.63705,35.86358],[139.63717,35.86302],[139.63736,35.86224],[139.63707,35.86217],[139.63664,35.86207],[139.63615,35.86196],[139.63527,35.86177],[139.63521,35.86186],[139.63504,35.86211],[139.63495,35.86225],[139.63494,35.86227],[139.63489,35.86235],[139.63471,35.8626],[139.63458,35.86279],[139.63453,35.86286],[139.63434,35.86313],[139.63432,35.86317],[139.63422,35.8633],[139.63414,35.86343],[139.63413,35.86342],[139.63379,35.86392],[139.63352,35.86442],[139.63351,35.86443],[139.63326,35.86495],[139.6328,35.86586],[139.63352,35.86599],[139.63354,35.866],[139.63436,35.86615],[139.63483,35.86611],[139.63528,35.86608],[139.63534,35.86608],[139.6359,35.86604],[139.63633,35.86599],[139.63649,35.86594],[139.63664,35.8655],[139.63665,35.86547],[139.63677,35.8649],[139.63677,35.86488],[139.63694,35.86411],[139.63707,35.86358],[139.63705,35.86358]]]}},{"type":"Feature","properties":{"name":"大戸三丁目","setai":532,"jinko":1311,"key":"11105009003","units":1},"geometry":{"type":"Polygon","coordinates":[[[139.64035,35.86603],[139.64038,35.86569],[139.64002,35.86566],[139.64005,35.86527],[139.64005,35.86526],[139.6401,35.86464],[139.64016,35.86392],[139.6402,35.86333],[139.6402,35.86332],[139.64024,35.86288],[139.63986,35.8628],[139.63941,35.86269],[139.63901,35.86261],[139.63813,35.86241],[139.63754,35.86227],[139.63736,35.86224],[139.63717,35.86302],[139.63705,35.86358],[139.63707,35.86358],[139.63694,35.86411],[139.63677,35.86488],[139.63677,35.8649],[139.63665,35.86547],[139.63664,35.8655],[139.63649,35.86594],[139.63654,35.86593],[139.63662,35.86591],[139.6367,35.86589],[139.63681,35.86588],[139.63692,35.86587],[139.63716,35.86587],[139.63727,35.86587],[139.63738,35.86586],[139.63746,35.86586],[139.63754,35.86585],[139.63765,35.86584],[139.63776,35.86583],[139.63823,35.86586],[139.63852,35.86588],[139.63888,35.86591],[139.63905,35.86592],[139.63927,35.86594],[139.63961,35.86597],[139.63977,35.86598],[139.64028,35.86602],[139.64035,35.86603]]]}},{"type":"Feature","properties":{"name":"大戸四丁目","setai":780,"jinko":1782,"key":"11105009004","units":1},"geometry":{"type":"Polygon","coordinates":[[[139.63981,35.86948],[139.63982,35.86943],[139.64056,35.86951],[139.64058,35.86916],[139.64061,35.86916],[139.64061,35.86915],[139.64062,35.86914],[139.64101,35.86916],[139.64106,35.86916],[139.64107,35.86917],[139.64168,35.86921],[139.64172,35.86921],[139.64174,35.86885],[139.6416,35.86883],[139.64162,35.86852],[139.64162,35.86852],[139.64162,35.8685],[139.64237,35.86854],[139.6424,35.86855],[139.64244,35.86818],[139.64244,35.86817],[139.64245,35.86815],[139.64271,35.86816],[139.64271,35.86816],[139.64273,35.86799],[139.64275,35.86786],[139.64277,35.86786],[139.64277,35.86785],[139.64314,35.86787],[139.64316,35.86771],[139.64318,35.86772],[139.64319,35.86772],[139.64358,35.86773],[139.64359,35.86759],[139.6439,35.86761],[139.64398,35.86762],[139.64403,35.86762],[139.64403,35.86762],[139.64402,35.86769],[139.64399,35.86786],[139.64439,35.86789],[139.64443,35.8679],[139.64442,35.86795],[139.64469,35.86798],[139.64469,35.86804],[139.64468,35.86815],[139.64474,35.86816],[139.64491,35.86816],[139.64491,35.86816],[139.64491,35.86832],[139.64491,35.86832],[139.64488,35.86861],[139.64488,35.86869],[139.64585,35.86877],[139.64585,35.86876],[139.64586,35.86866],[139.64586,35.86865],[139.64588,35.86841],[139.64589,35.86838],[139.64591,35.86815],[139.64491,35.86765],[139.64491,35.86765],[139.64449,35.86744],[139.64448,35.86743],[139.64407,35.86723],[139.64366,35.86702],[139.64365,35.86702],[139.64329,35.86682],[139.64329,35.86682],[139.64326,35.86681],[139.64326,35.86681],[139.64293,35.86652],[139.64289,35.8665],[139.64266,35.86628],[139.64267,35.86621],[139.64222,35.86617],[139.64225,35.86597],[139.64182,35.86595],[139.64183,35.8658],[139.64124,35.86575],[139.64124,35.86575],[139.64038,35.86569],[139.64035,35.86603],[139.64028,35.86602],[139.64017,35.86649],[139.64016,35.86657],[139.64007,35.86693],[139.63997,35.86729],[139.63988,35.86764],[139.63979,35.868],[139.64023,35.86804],[139.64014,35.86836],[139.64001,35.8688],[139.63993,35.8691],[139.63959,35.86908],[139.63955,35.86941],[139.6395,35.86981],[139.63946,35.87019],[139.63969,35.87019],[139.63971,35.87019],[139.63979,35.86981],[139.63981,35.86948]]]}},{"type":"Feature","properties":{"name":"大戸五丁目","setai":1052,"jinko":2167,"key":"11105009005","units":1},"geometry":{"type":"Polygon","coordinates":[[[139.63939,35.87051],[139.63943,35.8702],[139.63945,35.8702],[139.63945,35.8702],[139.63946,35.87019],[139.6395,35.86981],[139.63955,35.86941],[139.63959,35.86908],[139.63993,35.8691],[139.64001,35.8688],[139.64014,35.86836],[139.64023,35.86804],[139.63979,35.868],[139.63988,35.86764],[139.63997,35.86729],[139.64007,35.86693],[139.64016,35.86657],[139.64017,35.86649],[139.64028,35.86602],[139.63977,35.86598],[139.63961,35.86597],[139.63927,35.86594],[139.63905,35.86592],[139.63888,35.86591],[139.63852,35.86588],[139.63823,35.86586],[139.63776,35.86583],[139.63765,35.86584],[139.63754,35.86585],[139.63746,35.86586],[139.63738,35.86586],[139.63727,35.86587],[139.63716,35.86587],[139.63692,35.86587],[139.63681,35.86588],[139.6367,35.86589],[139.63662,35.86591],[139.63654,35.86593],[139.63649,35.86594],[139.63633,35.86599],[139.63627,35.86655],[139.63616,35.8672],[139.63609,35.86771],[139.63598,35.86844],[139.63607,35.86845],[139.63598,35.86913],[139.63587,35.86987],[139.63578,35.87035],[139.63625,35.87039],[139.63687,35.87045],[139.63745,35.8705],[139.63805,35.87055],[139.63938,35.87066],[139.63939,35.87051]]]}},{"type":"Feature","properties":{"name":"大戸六丁目","setai":674,"jinko":1370,"key":"11105009006","units":1},"geometry":{"type":"Polygon","coordinates":[[[139.63627,35.86655],[139.63633,35.86599],[139.6359,35.86604],[139.63534,35.86608],[139.63528,35.86608],[139.63483,35.86611],[139.63436,35.86615],[139.63354,35.866],[139.63352,35.86599],[139.6328,35.86586],[139.63245,35.86684],[139.63236,35.86714],[139.63231,35.86736],[139.63225,35.86761],[139.63221,35.86778],[139.63213,35.86808],[139.63211,35.86815],[139.63205,35.86846],[139.63205,35.86848],[139.63204,35.86855],[139.63204,35.86866],[139.63204,35.8688],[139.63205,35.86894],[139.63205,35.86906],[139.63206,35.86917],[139.6321,35.86932],[139.63214,35.86954],[139.63219,35.86967],[139.63228,35.86989],[139.63233,35.87011],[139.63275,35.87011],[139.633,35.87013],[139.63376,35.8702],[139.6344,35.87025],[139.63578,35.87035],[139.63587,35.86987],[139.63598,35.86913],[139.63607,35.86845],[139.63598,35.86844],[139.63609,35.86771],[139.63616,35.8672],[139.63627,35.86655]]]}},{"type":"Feature","properties":{"name":"八王子一丁目","setai":75,"jinko":223,"key":"11105010001","units":1},"geometry":{"type":"Polygon","coordinates":[[[139.61437,35.88417],[139.61402,35.88407],[139.61374,35.88437],[139.61323,35.88489],[139.61267,35.88546],[139.6125,35.88565],[139.61202,35.88639],[139.61256,35.88654],[139.61265,35.88656],[139.61274,35.88657],[139.61285,35.88658],[139.61349,35.88666],[139.61402,35.88673],[139.6141,35.88673],[139.61432,35.88674],[139.61438,35.88675],[139.61464,35.88612],[139.61477,35.88582],[139.61492,35.88549],[139.61517,35.88485],[139.61534,35.88446],[139.61502,35.88436],[139.61468,35.88427],[139.61437,35.88417]]]}},{"type":"Feature","properties":{"name":"八王子二丁目","setai":387,"jinko":964,"key":"11105010002","units":1},"geometry":{"type":"Polygon","coordinates":[[[139.61323,35.88489],[139.61374,35.88437],[139.61402,35.88407],[139.61377,35.88392],[139.61297,35.88347],[139.61294,35.88346],[139.61274,35.88333],[139.61229,35.88318],[139.61162,35.88299],[139.61158,35.88297],[139.61152,35.88295],[139.61114,35.88279],[139.61086,35.88267],[139.6105,35.88251],[139.61031,35.88243],[139.61002,35.88232],[139.60995,35.88228],[139.6097,35.88219],[139.60968,35.88218],[139.60951,35.88213],[139.60937,35.88208],[139.60923,35.88205],[139.60892,35.88198],[139.60892,35.88204],[139.60893,35.88205],[139.60893,35.88215],[139.60891,35.88222],[139.6088,35.88245],[139.60873,35.88263],[139.60873,35.88304],[139.60922,35.88317],[139.60924,35.8834],[139.60936,35.88377],[139.60948,35.88406],[139.60969,35.88447],[139.60972,35.88453],[139.61018,35.88469],[139.61039,35.88476],[139.61043,35.88469],[139.61081,35.88481],[139.61185,35.88517],[139.61206,35.88523],[139.61267,35.88546],[139.61323,35.88489]]]}},{"type":"Feature","properties":{"name":"八王子三丁目","setai":780,"jinko":1903,"key":"11105010003","units":1},"geometry":{"type":"Polygon","coordinates":[[[139.6125,35.87742],[139.61239,35.87736],[139.61226,35.87737],[139.61198,35.87741],[139.61192,35.87741],[139.61182,35.87739],[139.61172,35.87736],[139.61165,35.87733],[139.61134,35.87749],[139.61126,35.87754],[139.61112,35.87763],[139.61109,35.87765],[139.61103,35.87769],[139.61098,35.87769],[139.6108,35.87774],[139.6107,35.87861],[139.61064,35.87909],[139.6106,35.87956],[139.6106,35.87958],[139.61054,35.88019],[139.61051,35.88056],[139.61051,35.88058],[139.6104,35.88155],[139.61031,35.88243],[139.6105,35.88251],[139.61086,35.88267],[139.61114,35.88279],[139.61152,35.88295],[139.61158,35.88297],[139.61162,35.88299],[139.61229,35.88318],[139.61274,35.88333],[139.61294,35.88346],[139.61297,35.88347],[139.61377,35.88392],[139.61412,35.88371],[139.61468,35.88342],[139.61434,35.88284],[139.61433,35.88282],[139.61414,35.8823],[139.61392,35.88176],[139.61391,35.88173],[139.6138,35.88144],[139.61367,35.88116],[139.61353,35.88089],[139.61398,35.87988],[139.61295,35.87957],[139.61315,35.87908],[139.61322,35.87888],[139.61326,35.87877],[139.61328,35.87865],[139.61333,35.87848],[139.6134,35.87823],[139.61349,35.87783],[139.61347,35.8778],[139.61342,35.87774],[139.61316,35.87767],[139.61291,35.87761],[139.6128,35.87757],[139.61267,35.8775],[139.6125,35.87742]]]}},{"type":"Feature","properties":{"name":"八王子四丁目","setai":245,"jinko":617,"key":"11105010004","units":1},"geometry":{"type":"Polygon","coordinates":[[[139.61031,35.88243],[139.6104,35.88155],[139.61051,35.88058],[139.61051,35.88056],[139.61054,35.88019],[139.6106,35.87958],[139.6106,35.87956],[139.61064,35.87909],[139.6107,35.87861],[139.6108,35.87774],[139.61075,35.87775],[139.61066,35.87776],[139.61031,35.87786],[139.61022,35.87787],[139.61011,35.87785],[139.60983,35.87781],[139.60981,35.87781],[139.60973,35.8778],[139.60967,35.8778],[139.6094,35.87774],[139.60932,35.87773],[139.60928,35.87772],[139.60927,35.8777],[139.60926,35.87768],[139.60926,35.87765],[139.60929,35.87758],[139.60899,35.8775],[139.60891,35.87756],[139.60875,35.87755],[139.60859,35.87754],[139.60848,35.87753],[139.60839,35.87752],[139.60831,35.8775],[139.60824,35.8775],[139.60819,35.87751],[139.60815,35.87752],[139.608,35.87761],[139.60794,35.87761],[139.60784,35.87761],[139.60773,35.87768],[139.60766,35.8778],[139.60762,35.8784],[139.60758,35.87892],[139.60756,35.87921],[139.60754,35.87956],[139.60749,35.88035],[139.60747,35.88055],[139.60745,35.88075],[139.6074,35.88134],[139.60735,35.88183],[139.60767,35.88185],[139.60786,35.88187],[139.60805,35.88195],[139.6083,35.88198],[139.60848,35.88199],[139.60855,35.88199],[139.60855,35.88208],[139.60872,35.88208],[139.60872,35.88203],[139.60892,35.88204],[139.60892,35.88198],[139.60923,35.88205],[139.60937,35.88208],[139.60951,35.88213],[139.60968,35.88218],[139.6097,35.88219],[139.60995,35.88228],[139.61002,35.88232],[139.61031,35.88243]]]}},{"type":"Feature","properties":{"name":"八王子五丁目","setai":755,"jinko":1730,"key":"11105010005","units":1},"geometry":{"type":"Polygon","coordinates":[[[139.60735,35.88183],[139.6074,35.88134],[139.60745,35.88075],[139.60747,35.88055],[139.60749,35.88035],[139.60754,35.87956],[139.60756,35.87921],[139.60758,35.87892],[139.60762,35.8784],[139.60766,35.8778],[139.60763,35.87783],[139.60755,35.87785],[139.60732,35.87783],[139.60729,35.87786],[139.60699,35.87782],[139.6067,35.87777],[139.60664,35.87784],[139.60657,35.87784],[139.60652,35.87784],[139.60639,35.87785],[139.6063,35.87787],[139.60625,35.8779],[139.60619,35.87794],[139.60614,35.87798],[139.6061,35.87803],[139.60607,35.87808],[139.60597,35.87826],[139.60595,35.87829],[139.60595,35.8783],[139.60593,35.87833],[139.60588,35.87839],[139.60586,35.87842],[139.60582,35.87845],[139.60577,35.87849],[139.60572,35.87851],[139.60568,35.87853],[139.60562,35.87853],[139.60555,35.87853],[139.60545,35.87852],[139.60538,35.8785],[139.60492,35.87837],[139.6049,35.87836],[139.60477,35.87832],[139.60457,35.87826],[139.60448,35.87824],[139.60436,35.87821],[139.60414,35.87819],[139.60419,35.87844],[139.60419,35.87857],[139.60419,35.87867],[139.60418,35.87914],[139.60418,35.87915],[139.60419,35.87944],[139.6042,35.87949],[139.60425,35.87963],[139.60428,35.87971],[139.60445,35.88015],[139.60446,35.88016],[139.60456,35.88044],[139.60457,35.88051],[139.60457,35.88058],[139.60454,35.88067],[139.60442,35.88112],[139.60441,35.88112],[139.60441,35.88116],[139.6044,35.8812],[139.60439,35.88126],[139.6044,35.88128],[139.60442,35.88144],[139.60442,35.88147],[139.60459,35.88144],[139.60487,35.88167],[139.60609,35.88175],[139.60614,35.88175],[139.60617,35.88175],[139.60648,35.88177],[139.60649,35.88177],[139.60731,35.88183],[139.60735,35.88183]]]}},{"type":"Feature","properties":{"name":"上峰一丁目","setai":790,"jinko":1531,"key":"11105011001","units":1},"geometry":{"type":"Polygon","coordinates":[[[139.61998,35.87162],[139.62005,35.87089],[139.62011,35.87033],[139.61989,35.87027],[139.61995,35.87017],[139.61998,35.87012],[139.62,35.87008],[139.62002,35.87003],[139.62007,35.86996],[139.62014,35.86992],[139.62016,35.86991],[139.62033,35.86971],[139.62097,35.86983],[139.62103,35.86969],[139.62107,35.86958],[139.6212,35.86952],[139.6213,35.86948],[139.62084,35.86936],[139.62114,35.86885],[139.6209,35.86892],[139.62073,35.86897],[139.62072,35.86903],[139.62052,35.86904],[139.62045,35.86905],[139.62026,35.86906],[139.62025,35.86906],[139.62023,35.86906],[139.6202,35.86906],[139.62015,35.86906],[139.62011,35.86906],[139.62007,35.86908],[139.61996,35.86912],[139.61993,35.86913],[139.6193,35.86933],[139.61904,35.86932],[139.61901,35.86942],[139.61895,35.86943],[139.6189,35.86945],[139.61885,35.86947],[139.61877,35.86953],[139.61873,35.86958],[139.61872,35.86959],[139.61869,35.86964],[139.61865,35.86967],[139.61862,35.86971],[139.61857,35.86975],[139.6185,35.86981],[139.61844,35.86987],[139.61841,35.8699],[139.61818,35.87016],[139.6181,35.87023],[139.61796,35.8704],[139.61785,35.87052],[139.61782,35.87055],[139.6178,35.87057],[139.61776,35.87063],[139.61773,35.87072],[139.6177,35.87082],[139.6176,35.87088],[139.61757,35.8709],[139.61752,35.87096],[139.61748,35.87104],[139.61746,35.87106],[139.61738,35.87121],[139.61729,35.87118],[139.61724,35.87128],[139.61723,35.8713],[139.61711,35.87129],[139.61703,35.87159],[139.617,35.87166],[139.61698,35.87169],[139.61662,35.8722],[139.61652,35.87233],[139.61649,35.87239],[139.61643,35.87251],[139.61639,35.87258],[139.61633,35.8727],[139.61607,35.87322],[139.61587,35.87362],[139.61604,35.87366],[139.61604,35.87367],[139.61611,35.87369],[139.61664,35.8738],[139.61744,35.87399],[139.6178,35.87408],[139.6179,35.87411],[139.61797,35.87414],[139.6183,35.87428],[139.61831,35.87429],[139.61932,35.87509],[139.61967,35.87403],[139.6197,35.87385],[139.61972,35.87374],[139.61974,35.87359],[139.61974,35.87356],[139.61975,35.87348],[139.61986,35.87287],[139.61987,35.8727],[139.61994,35.87192],[139.61998,35.87162]]]}},{"type":"Feature","properties":{"name":"上峰二丁目","setai":903,"jinko":1851,"key":"11105011002","units":1},"geometry":{"type":"Polygon","coordinates":[[[139.61932,35.87509],[139.61831,35.87429],[139.6183,35.87428],[139.61797,35.87414],[139.6179,35.87411],[139.6178,35.87408],[139.61744,35.87399],[139.61664,35.8738],[139.61611,35.87369],[139.61604,35.87367],[139.61604,35.87367],[139.61596,35.87383],[139.61594,35.87387],[139.61576,35.87423],[139.61572,35.87431],[139.61568,35.87437],[139.61565,35.87442],[139.61563,35.87445],[139.61558,35.87451],[139.61553,35.87458],[139.61549,35.87462],[139.61546,35.87466],[139.61543,35.87469],[139.61539,35.87469],[139.61534,35.87466],[139.61502,35.87494],[139.61521,35.87498],[139.6151,35.87514],[139.61486,35.87547],[139.61466,35.87578],[139.61465,35.87579],[139.61447,35.87603],[139.61422,35.87634],[139.61407,35.87653],[139.61387,35.87678],[139.61357,35.87714],[139.61351,35.87721],[139.61402,35.87737],[139.61426,35.87743],[139.61464,35.87754],[139.615,35.87765],[139.61507,35.87767],[139.61522,35.87772],[139.61598,35.87794],[139.61608,35.87798],[139.61712,35.87829],[139.61788,35.87852],[139.61828,35.87753],[139.61837,35.87733],[139.61877,35.87632],[139.61909,35.87558],[139.61932,35.87509]]]}},{"type":"Feature","properties":{"name":"上峰三丁目","setai":750,"jinko":1465,"key":"11105011003","units":1},"geometry":{"type":"Polygon","coordinates":[[[139.6209,35.87085],[139.62084,35.87084],[139.62084,35.87084],[139.62073,35.87084],[139.62053,35.87084],[139.62049,35.87085],[139.62046,35.87084],[139.62045,35.87084],[139.62043,35.87081],[139.62042,35.87077],[139.62042,35.87077],[139.62044,35.87071],[139.62048,35.87061],[139.62053,35.87046],[139.62048,35.87045],[139.62027,35.87038],[139.62011,35.87033],[139.62005,35.87089],[139.61998,35.87162],[139.61994,35.87192],[139.61987,35.8727],[139.61986,35.87287],[139.61975,35.87348],[139.61974,35.87356],[139.61974,35.87359],[139.61972,35.87374],[139.6197,35.87385],[139.61967,35.87403],[139.61932,35.87509],[139.61985,35.87551],[139.62042,35.87596],[139.62085,35.87632],[139.62124,35.87711],[139.62156,35.87778],[139.62268,35.87806],[139.62311,35.87752],[139.62328,35.8773],[139.62355,35.87688],[139.62317,35.8763],[139.62269,35.87554],[139.62254,35.87529],[139.62249,35.87523],[139.62226,35.87488],[139.6222,35.87478],[139.62212,35.87465],[139.62181,35.87418],[139.62158,35.8738],[139.62137,35.87347],[139.62137,35.87346],[139.62136,35.87345],[139.62137,35.87298],[139.62136,35.87264],[139.62135,35.87244],[139.62132,35.87243],[139.62131,35.87234],[139.6213,35.8723],[139.62129,35.87229],[139.62128,35.87225],[139.62114,35.87206],[139.62112,35.87204],[139.62112,35.87188],[139.62112,35.87183],[139.62112,35.87183],[139.62112,35.87182],[139.62111,35.87181],[139.62111,35.87178],[139.62109,35.87174],[139.62108,35.87169],[139.62107,35.87167],[139.62105,35.87133],[139.62104,35.87128],[139.62103,35.8712],[139.62102,35.87105],[139.62102,35.87105],[139.62102,35.87104],[139.62098,35.87096],[139.62095,35.8709],[139.62092,35.87087],[139.6209,35.87085]]]}},{"type":"Feature","properties":{"name":"上峰四丁目","setai":506,"jinko":964,"key":"11105011004","units":1},"geometry":{"type":"Polygon","coordinates":[[[139.61985,35.87551],[139.61932,35.87509],[139.61909,35.87558],[139.61877,35.87632],[139.61837,35.87733],[139.61828,35.87753],[139.61788,35.87852],[139.61862,35.87874],[139.61877,35.87878],[139.61949,35.879],[139.61963,35.87904],[139.62035,35.87925],[139.62041,35.87926],[139.62075,35.87935],[139.62123,35.87949],[139.62158,35.87868],[139.62197,35.87859],[139.62158,35.87782],[139.62156,35.87778],[139.62124,35.87711],[139.62085,35.87632],[139.62042,35.87596],[139.61985,35.87551]]]}},{"type":"Feature","properties":{"name":"円阿弥一丁目","setai":21,"jinko":73,"key":"11105012001","units":1},"geometry":{"type":"Polygon","coordinates":[[[139.61256,35.88654],[139.61202,35.88639],[139.61173,35.88694],[139.6117,35.887],[139.61145,35.88744],[139.61108,35.88808],[139.61254,35.88854],[139.61321,35.88875],[139.61371,35.88889],[139.61374,35.8889],[139.61401,35.88825],[139.61416,35.88791],[139.61422,35.88776],[139.61463,35.88677],[139.61454,35.88676],[139.61438,35.88675],[139.61432,35.88674],[139.6141,35.88673],[139.61402,35.88673],[139.61349,35.88666],[139.61285,35.88658],[139.61274,35.88657],[139.61265,35.88656],[139.61256,35.88654]]]}},{"type":"Feature","properties":{"name":"円阿弥二丁目","setai":221,"jinko":643,"key":"11105012002","units":1},"geometry":{"type":"Polygon","coordinates":[[[139.61185,35.88517],[139.61081,35.88481],[139.61043,35.88469],[139.61039,35.88476],[139.61032,35.8849],[139.6102,35.88512],[139.60983,35.885],[139.60975,35.88498],[139.60927,35.88526],[139.6092,35.88532],[139.60903,35.88546],[139.609,35.88551],[139.609,35.88552],[139.60895,35.88558],[139.60883,35.88576],[139.60879,35.88582],[139.60876,35.88587],[139.60874,35.88591],[139.60871,35.88597],[139.60867,35.88606],[139.60851,35.88618],[139.60855,35.88623],[139.60867,35.88641],[139.60788,35.88679],[139.60782,35.88682],[139.60766,35.88693],[139.60761,35.88697],[139.60759,35.88699],[139.60943,35.88757],[139.61018,35.8878],[139.6103,35.88784],[139.61108,35.88808],[139.61145,35.88744],[139.6117,35.887],[139.61173,35.88694],[139.61202,35.88639],[139.6125,35.88565],[139.61267,35.88546],[139.61206,35.88523],[139.61185,35.88517]]]}},{"type":"Feature","properties":{"name":"円阿弥三丁目","setai":110,"jinko":286,"key":"11105012003","units":1},"geometry":{"type":"Polygon","coordinates":[[[139.61254,35.88854],[139.61108,35.88808],[139.61053,35.88897],[139.61048,35.88905],[139.61004,35.88975],[139.60999,35.88983],[139.60967,35.89036],[139.60939,35.89076],[139.61112,35.89134],[139.61163,35.89157],[139.61228,35.89113],[139.61267,35.89078],[139.61293,35.89037],[139.6132,35.88985],[139.61359,35.88912],[139.61374,35.8889],[139.61371,35.88889],[139.61321,35.88875],[139.61254,35.88854]]]}},{"type":"Feature","properties":{"name":"円阿弥四丁目","setai":437,"jinko":1135,"key":"11105012004","units":1},"geometry":{"type":"Polygon","coordinates":[[[139.60967,35.89036],[139.60999,35.88983],[139.61004,35.88975],[139.61048,35.88905],[139.61053,35.88897],[139.61108,35.88808],[139.6103,35.88784],[139.61018,35.8878],[139.60943,35.88757],[139.60759,35.88699],[139.60735,35.88724],[139.60732,35.88727],[139.60731,35.88729],[139.60731,35.8873],[139.60731,35.88745],[139.60704,35.8877],[139.60688,35.88776],[139.60687,35.88776],[139.60681,35.88779],[139.60667,35.88787],[139.60656,35.88796],[139.60632,35.88816],[139.60601,35.88842],[139.60597,35.88844],[139.60593,35.88846],[139.60588,35.88848],[139.60585,35.88849],[139.60569,35.88853],[139.6056,35.88854],[139.60553,35.88856],[139.60546,35.88855],[139.60541,35.88855],[139.60534,35.88853],[139.6052,35.88842],[139.60517,35.88845],[139.60503,35.8886],[139.605,35.88864],[139.60497,35.8887],[139.60497,35.88878],[139.60502,35.88889],[139.60506,35.88899],[139.60505,35.88902],[139.6047,35.88898],[139.60463,35.88897],[139.60461,35.88897],[139.60501,35.88921],[139.60509,35.88926],[139.60511,35.88927],[139.60525,35.88934],[139.60544,35.88939],[139.60551,35.88941],[139.60547,35.8895],[139.60545,35.88955],[139.60553,35.88962],[139.60557,35.88967],[139.60571,35.88973],[139.60608,35.88988],[139.60609,35.88988],[139.60606,35.89003],[139.60605,35.89011],[139.60632,35.89015],[139.60678,35.8902],[139.60692,35.89022],[139.60706,35.89022],[139.60713,35.89022],[139.60757,35.89017],[139.6077,35.89014],[139.60776,35.89013],[139.60813,35.89012],[139.60846,35.89013],[139.60854,35.89013],[139.60861,35.89014],[139.60867,35.89016],[139.60873,35.89018],[139.60879,35.89021],[139.60886,35.89026],[139.60894,35.89032],[139.60939,35.89076],[139.60967,35.89036]]]}},{"type":"Feature","properties":{"name":"円阿弥五丁目","setai":602,"jinko":1758,"key":"11105012005","units":1},"geometry":{"type":"Polygon","coordinates":[[[139.60886,35.89026],[139.60879,35.89021],[139.60873,35.89018],[139.60867,35.89016],[139.60861,35.89014],[139.60854,35.89013],[139.60846,35.89013],[139.60813,35.89012],[139.60776,35.89013],[139.6077,35.89014],[139.60757,35.89017],[139.60713,35.89022],[139.60706,35.89022],[139.60692,35.89022],[139.60678,35.8902],[139.60632,35.89015],[139.60605,35.89011],[139.60603,35.89035],[139.60602,35.89063],[139.606,35.89082],[139.60602,35.8911],[139.60605,35.89131],[139.60609,35.89164],[139.6061,35.8917],[139.60613,35.89214],[139.60617,35.89253],[139.60626,35.89281],[139.60636,35.89302],[139.60638,35.89307],[139.60645,35.89322],[139.60651,35.89337],[139.6067,35.89386],[139.60672,35.89396],[139.60686,35.89447],[139.6069,35.89475],[139.60691,35.8948],[139.60704,35.89471],[139.60728,35.89415],[139.60773,35.89329],[139.60792,35.89292],[139.60806,35.89265],[139.60818,35.8924],[139.60824,35.89231],[139.60837,35.89207],[139.60862,35.89162],[139.60888,35.89135],[139.60906,35.89111],[139.60939,35.89076],[139.60894,35.89032],[139.60886,35.89026]]]}},{"type":"Feature","properties":{"name":"円阿弥六丁目","setai":60,"jinko":143,"key":"11105012006","units":1},"geometry":{"type":"Polygon","coordinates":[[[139.61112,35.89134],[139.60939,35.89076],[139.60906,35.89111],[139.60888,35.89135],[139.60862,35.89162],[139.60837,35.89207],[139.60824,35.89231],[139.60818,35.8924],[139.60806,35.89265],[139.60792,35.89292],[139.60773,35.89329],[139.60728,35.89415],[139.60704,35.89471],[139.60691,35.8948],[139.60692,35.89485],[139.60695,35.89499],[139.60697,35.89508],[139.60728,35.89485],[139.60791,35.89438],[139.60887,35.89366],[139.60984,35.89295],[139.61062,35.89232],[139.61076,35.89222],[139.61163,35.89157],[139.61112,35.89134]]]}},{"type":"Feature","properties":{"name":"円阿弥七丁目","setai":240,"jinko":536,"key":"11105012007","units":1},"geometry":{"type":"Polygon","coordinates":[[[139.61073,35.89544],[139.61067,35.8953],[139.61148,35.89531],[139.61161,35.89502],[139.61168,35.89486],[139.612,35.8941],[139.61261,35.89427],[139.61272,35.8943],[139.61273,35.89429],[139.6128,35.89414],[139.61295,35.89373],[139.61226,35.89353],[139.61166,35.89337],[139.61174,35.89307],[139.61178,35.89296],[139.61181,35.8929],[139.61199,35.89264],[139.61211,35.8925],[139.61227,35.89222],[139.61248,35.89181],[139.61163,35.89157],[139.61076,35.89222],[139.61062,35.89232],[139.60984,35.89295],[139.60887,35.89366],[139.60791,35.89438],[139.60728,35.89485],[139.60697,35.89508],[139.60706,35.89545],[139.60706,35.89546],[139.60715,35.89599],[139.60713,35.89619],[139.60763,35.8961],[139.60844,35.89593],[139.60846,35.89592],[139.60948,35.89571],[139.6101,35.89557],[139.61073,35.89544]]]}},{"type":"Feature","properties":{"name":"桜丘一丁目","setai":599,"jinko":1454,"key":"11105013001","units":1},"geometry":{"type":"Polygon","coordinates":[[[139.61402,35.87737],[139.61351,35.87721],[139.61344,35.87729],[139.61334,35.87743],[139.61332,35.87746],[139.61332,35.87753],[139.61332,35.87755],[139.61333,35.87758],[139.61335,35.87764],[139.61336,35.87765],[139.61342,35.87774],[139.61347,35.8778],[139.61349,35.87783],[139.6134,35.87823],[139.61333,35.87848],[139.61328,35.87865],[139.61326,35.87877],[139.61322,35.87888],[139.61315,35.87908],[139.61295,35.87957],[139.61398,35.87988],[139.61434,35.87998],[139.6151,35.88021],[139.61614,35.88052],[139.6169,35.88075],[139.61722,35.88001],[139.61743,35.87951],[139.61744,35.87949],[139.61788,35.87852],[139.61712,35.87829],[139.61608,35.87798],[139.61598,35.87794],[139.61522,35.87772],[139.61507,35.87767],[139.615,35.87765],[139.61464,35.87754],[139.61426,35.87743],[139.61402,35.87737]]]}},{"type":"Feature","properties":{"name":"桜丘二丁目","setai":448,"jinko":1054,"key":"11105013002","units":1},"geometry":{"type":"Polygon","coordinates":[[[139.61434,35.87998],[139.61398,35.87988],[139.61353,35.88089],[139.61367,35.88116],[139.6138,35.88144],[139.61391,35.88173],[139.61392,35.88176],[139.61414,35.8823],[139.61433,35.88282],[139.61434,35.88284],[139.61468,35.88342],[139.61412,35.88371],[139.61377,35.88392],[139.61402,35.88407],[139.61437,35.88417],[139.61468,35.88427],[139.61502,35.88436],[139.61534,35.88446],[139.61584,35.88328],[139.61636,35.88207],[139.61665,35.88135],[139.6169,35.88075],[139.61614,35.88052],[139.6151,35.88021],[139.61434,35.87998]]]}},{"type":"Feature","properties":{"name":"本町西一丁目","setai":651,"jinko":1284,"key":"11105014001","units":1},"geometry":{"type":"Polygon","coordinates":[[[139.61877,35.88279],[139.62001,35.88227],[139.62118,35.88258],[139.6213,35.88226],[139.62138,35.88191],[139.62152,35.88135],[139.62155,35.88124],[139.62165,35.8809],[139.62168,35.88076],[139.62179,35.8804],[139.62194,35.8799],[139.62202,35.87963],[139.62219,35.87909],[139.62221,35.87901],[139.62228,35.87884],[139.62237,35.87865],[139.6225,35.87836],[139.62261,35.87816],[139.62268,35.87806],[139.62156,35.87778],[139.62158,35.87782],[139.62197,35.87859],[139.62158,35.87868],[139.62123,35.87949],[139.62075,35.87935],[139.62041,35.87926],[139.62035,35.87925],[139.61963,35.87904],[139.61949,35.879],[139.61877,35.87878],[139.61862,35.87874],[139.61788,35.87852],[139.61744,35.87949],[139.61743,35.87951],[139.61722,35.88001],[139.6169,35.88075],[139.61665,35.88135],[139.61636,35.88207],[139.61721,35.88232],[139.61805,35.88257],[139.61877,35.88279]]]}},{"type":"Feature","properties":{"name":"本町西二丁目","setai":489,"jinko":996,"key":"11105014002","units":1},"geometry":{"type":"Polygon","coordinates":[[[139.62106,35.88293],[139.62116,35.88266],[139.62118,35.88258],[139.62001,35.88227],[139.61877,35.88279],[139.61805,35.88257],[139.61721,35.88232],[139.61636,35.88207],[139.61584,35.88328],[139.61534,35.88446],[139.61598,35.88466],[139.6163,35.88473],[139.617,35.88494],[139.61773,35.88509],[139.61845,35.88522],[139.6189,35.88529],[139.61912,35.88533],[139.62001,35.88546],[139.62021,35.88501],[139.62023,35.88496],[139.62033,35.88471],[139.62035,35.88464],[139.62037,35.88462],[139.62062,35.88405],[139.62066,35.88394],[139.62078,35.88365],[139.62085,35.88348],[139.62091,35.88332],[139.621,35.8831],[139.62106,35.88293]]]}},{"type":"Feature","properties":{"name":"本町西三丁目","setai":842,"jinko":1791,"key":"11105014003","units":1},"geometry":{"type":"Polygon","coordinates":[[[139.61598,35.88466],[139.61534,35.88446],[139.61517,35.88485],[139.61492,35.88549],[139.61477,35.88582],[139.61464,35.88612],[139.61438,35.88675],[139.61454,35.88676],[139.61463,35.88677],[139.61484,35.88679],[139.61509,35.88682],[139.61513,35.88683],[139.61523,35.88685],[139.61581,35.88693],[139.61581,35.88693],[139.6168,35.8871],[139.61685,35.88711],[139.61791,35.88729],[139.61839,35.88737],[139.61842,35.88738],[139.61913,35.88749],[139.6195,35.88664],[139.6196,35.88642],[139.61972,35.88614],[139.61975,35.88607],[139.61985,35.88584],[139.62001,35.88546],[139.61912,35.88533],[139.6189,35.88529],[139.61845,35.88522],[139.61773,35.88509],[139.617,35.88494],[139.6163,35.88473],[139.61598,35.88466]]]}},{"type":"Feature","properties":{"name":"本町西四丁目","setai":672,"jinko":1479,"key":"11105014004","units":1},"geometry":{"type":"Polygon","coordinates":[[[139.61484,35.88679],[139.61463,35.88677],[139.61422,35.88776],[139.61416,35.88791],[139.61401,35.88825],[139.61374,35.8889],[139.61427,35.88906],[139.61495,35.88926],[139.61596,35.88955],[139.61641,35.88968],[139.61688,35.88982],[139.61732,35.88995],[139.61746,35.88998],[139.61815,35.89018],[139.61836,35.88963],[139.61854,35.88915],[139.61871,35.8887],[139.61876,35.88856],[139.61897,35.88801],[139.61898,35.88795],[139.61913,35.8875],[139.61913,35.88749],[139.61842,35.88738],[139.61839,35.88737],[139.61791,35.88729],[139.61685,35.88711],[139.6168,35.8871],[139.61581,35.88693],[139.61581,35.88693],[139.61523,35.88685],[139.61513,35.88683],[139.61509,35.88682],[139.61484,35.88679]]]}},{"type":"Feature","properties":{"name":"本町西五丁目","setai":475,"jinko":1352,"key":"11105014005","units":1},"geometry":{"type":"Polygon","coordinates":[[[139.61427,35.88906],[139.61374,35.8889],[139.61359,35.88912],[139.6132,35.88985],[139.61293,35.89037],[139.61267,35.89078],[139.61228,35.89113],[139.61163,35.89157],[139.61248,35.89181],[139.61299,35.89197],[139.61364,35.89217],[139.61407,35.89228],[139.61447,35.89239],[139.61568,35.89273],[139.61613,35.89236],[139.61761,35.89119],[139.6179,35.89085],[139.61792,35.89082],[139.61815,35.89018],[139.61746,35.88998],[139.61732,35.88995],[139.61688,35.88982],[139.61641,35.88968],[139.61596,35.88955],[139.61495,35.88926],[139.61427,35.88906]]]}},{"type":"Feature","properties":{"name":"本町西六丁目","setai":143,"jinko":317,"key":"11105014006","units":1},"geometry":{"type":"Polygon","coordinates":[[[139.61359,35.89435],[139.61363,35.89426],[139.61384,35.89431],[139.61396,35.89422],[139.61422,35.89399],[139.61467,35.8936],[139.6156,35.89281],[139.61568,35.89273],[139.61447,35.89239],[139.61407,35.89228],[139.61364,35.89217],[139.61299,35.89197],[139.61248,35.89181],[139.61227,35.89222],[139.61211,35.8925],[139.61199,35.89264],[139.61181,35.8929],[139.61178,35.89296],[139.61174,35.89307],[139.61166,35.89337],[139.61226,35.89353],[139.61295,35.89373],[139.6128,35.89414],[139.61281,35.89414],[139.61359,35.89435]]]}},{"type":"Feature","properties":{"name":"本町東一丁目","setai":547,"jinko":1060,"key":"11105015001","units":1},"geometry":{"type":"Polygon","coordinates":[[[139.62362,35.87828],[139.62268,35.87806],[139.62261,35.87816],[139.6225,35.87836],[139.62237,35.87865],[139.62228,35.87884],[139.62221,35.87901],[139.62219,35.87909],[139.62202,35.87963],[139.62194,35.8799],[139.62262,35.88],[139.62295,35.88005],[139.62334,35.88013],[139.62358,35.88018],[139.62376,35.88023],[139.62408,35.88031],[139.6248,35.88049],[139.62521,35.8806],[139.62562,35.8807],[139.62639,35.88093],[139.62701,35.8811],[139.62721,35.8808],[139.62734,35.88062],[139.62749,35.88042],[139.62761,35.88025],[139.6278,35.88007],[139.62821,35.87974],[139.62879,35.87928],[139.62833,35.87924],[139.62728,35.87913],[139.62706,35.87911],[139.62657,35.87904],[139.62652,35.87903],[139.62626,35.87896],[139.62546,35.87875],[139.62473,35.87856],[139.62362,35.87828]]]}},{"type":"Feature","properties":{"name":"本町東二丁目","setai":673,"jinko":1126,"key":"11105015002","units":1},"geometry":{"type":"Polygon","coordinates":[[[139.62262,35.88],[139.62194,35.8799],[139.62179,35.8804],[139.62168,35.88076],[139.62165,35.8809],[139.62155,35.88124],[139.62152,35.88135],[139.62138,35.88191],[139.6213,35.88226],[139.6215,35.88228],[139.62173,35.88232],[139.62211,35.88239],[139.62257,35.88248],[139.62263,35.8825],[139.6232,35.8826],[139.624,35.88277],[139.62415,35.88279],[139.62481,35.88288],[139.62493,35.88289],[139.62566,35.88296],[139.62575,35.88297],[139.62604,35.88301],[139.6264,35.8823],[139.62644,35.88221],[139.62672,35.88166],[139.62679,35.88155],[139.62701,35.8811],[139.62639,35.88093],[139.62562,35.8807],[139.62521,35.8806],[139.6248,35.88049],[139.62408,35.88031],[139.62376,35.88023],[139.62358,35.88018],[139.62334,35.88013],[139.62295,35.88005],[139.62262,35.88]]]}},{"type":"Feature","properties":{"name":"本町東三丁目","setai":632,"jinko":1180,"key":"11105015003","units":1},"geometry":{"type":"Polygon","coordinates":[[[139.6215,35.88228],[139.6213,35.88226],[139.62118,35.88258],[139.62116,35.88266],[139.62106,35.88293],[139.621,35.8831],[139.62091,35.88332],[139.62085,35.88348],[139.62078,35.88365],[139.62066,35.88394],[139.62062,35.88405],[139.62037,35.88462],[139.62035,35.88464],[139.62033,35.88471],[139.62095,35.88484],[139.62108,35.88486],[139.62114,35.88488],[139.62179,35.885],[139.62202,35.88505],[139.62248,35.88514],[139.62314,35.88527],[139.62318,35.88528],[139.62405,35.88545],[139.62409,35.88546],[139.62471,35.88555],[139.62498,35.88504],[139.62521,35.88461],[139.62527,35.88447],[139.62549,35.88403],[139.62553,35.88396],[139.62604,35.88303],[139.62604,35.88301],[139.62575,35.88297],[139.62566,35.88296],[139.62493,35.88289],[139.62481,35.88288],[139.62415,35.88279],[139.624,35.88277],[139.6232,35.8826],[139.62263,35.8825],[139.62257,35.88248],[139.62211,35.88239],[139.62173,35.88232],[139.6215,35.88228]]]}},{"type":"Feature","properties":{"name":"本町東四丁目","setai":912,"jinko":1825,"key":"11105015004","units":1},"geometry":{"type":"Polygon","coordinates":[[[139.62095,35.88484],[139.62033,35.88471],[139.62023,35.88496],[139.62021,35.88501],[139.62001,35.88546],[139.61985,35.88584],[139.61975,35.88607],[139.61972,35.88614],[139.6196,35.88642],[139.6195,35.88664],[139.61913,35.88749],[139.61913,35.8875],[139.6197,35.88759],[139.62028,35.88767],[139.62045,35.88769],[139.62094,35.88775],[139.62148,35.88782],[139.62166,35.88785],[139.62238,35.88794],[139.6234,35.88807],[139.62354,35.88783],[139.62367,35.8876],[139.6238,35.88733],[139.62395,35.88705],[139.62407,35.88683],[139.62425,35.88647],[139.62429,35.88639],[139.62458,35.88585],[139.62468,35.88565],[139.62469,35.88559],[139.62471,35.88555],[139.62409,35.88546],[139.62405,35.88545],[139.62318,35.88528],[139.62314,35.88527],[139.62248,35.88514],[139.62202,35.88505],[139.62179,35.885],[139.62114,35.88488],[139.62108,35.88486],[139.62095,35.88484]]]}},{"type":"Feature","properties":{"name":"本町東五丁目","setai":778,"jinko":1636,"key":"11105015005","units":1},"geometry":{"type":"Polygon","coordinates":[[[139.6197,35.88759],[139.61913,35.8875],[139.61898,35.88795],[139.61897,35.88801],[139.61876,35.88856],[139.61871,35.8887],[139.61854,35.88915],[139.61836,35.88963],[139.61815,35.89018],[139.61879,35.89036],[139.61888,35.89039],[139.61969,35.89061],[139.62047,35.89082],[139.62125,35.89105],[139.62191,35.89123],[139.62264,35.89143],[139.62271,35.89145],[139.6228,35.89103],[139.62289,35.89063],[139.62304,35.88997],[139.62323,35.88913],[139.62332,35.88865],[139.62337,35.88844],[139.62339,35.88824],[139.6234,35.88807],[139.62238,35.88794],[139.62166,35.88785],[139.62148,35.88782],[139.62094,35.88775],[139.62045,35.88769],[139.62028,35.88767],[139.6197,35.88759]]]}},{"type":"Feature","properties":{"name":"本町東六丁目","setai":442,"jinko":1333,"key":"11105015006","units":1},"geometry":{"type":"Polygon","coordinates":[[[139.61764,35.8942],[139.61778,35.89413],[139.61789,35.89416],[139.61801,35.89418],[139.61831,35.89378],[139.61848,35.89355],[139.6187,35.89308],[139.61888,35.89269],[139.6191,35.89216],[139.61944,35.89134],[139.61951,35.89113],[139.61969,35.89061],[139.61888,35.89039],[139.61879,35.89036],[139.61815,35.89018],[139.61792,35.89082],[139.6179,35.89085],[139.61761,35.89119],[139.61613,35.89236],[139.61568,35.89273],[139.6156,35.89281],[139.61467,35.8936],[139.61422,35.89399],[139.61396,35.89422],[139.61442,35.89423],[139.61454,35.89423],[139.61467,35.89424],[139.61555,35.89425],[139.6166,35.89425],[139.61695,35.89427],[139.61719,35.89427],[139.61739,35.89426],[139.61753,35.89423],[139.61764,35.8942]]]}},{"type":"Feature","properties":{"name":"本町東七丁目","setai":1315,"jinko":3101,"key":"11105015007","units":1},"geometry":{"type":"Polygon","coordinates":[[[139.62126,35.89402],[139.62132,35.89395],[139.6214,35.89388],[139.62158,35.89376],[139.62178,35.89359],[139.62192,35.8935],[139.62204,35.89338],[139.62214,35.89316],[139.62219,35.89305],[139.62219,35.89304],[139.62226,35.89306],[139.62237,35.8927],[139.62246,35.89239],[139.62247,35.89236],[139.62255,35.89205],[139.62264,35.89172],[139.62271,35.89145],[139.62264,35.89143],[139.62191,35.89123],[139.62125,35.89105],[139.62047,35.89082],[139.61969,35.89061],[139.61951,35.89113],[139.61944,35.89134],[139.6191,35.89216],[139.61888,35.89269],[139.6187,35.89308],[139.61848,35.89355],[139.61831,35.89378],[139.61801,35.89418],[139.61805,35.89418],[139.61846,35.89419],[139.61848,35.89419],[139.61895,35.8942],[139.61901,35.89408],[139.61902,35.89406],[139.61955,35.8942],[139.61982,35.89428],[139.6199,35.89407],[139.61994,35.89396],[139.62056,35.89415],[139.6206,35.89416],[139.6208,35.89422],[139.62108,35.89431],[139.62114,35.89418],[139.62125,35.89404],[139.62126,35.89402]]]}},{"type":"Feature","properties":{"name":"新都心","setai":77,"jinko":99,"key":"111050160","units":1},"geometry":{"type":"Polygon","coordinates":[[[139.63347,35.89311],[139.63413,35.89221],[139.63421,35.89208],[139.635,35.89082],[139.63527,35.89037],[139.63594,35.88928],[139.63593,35.88928],[139.63592,35.88927],[139.63641,35.88856],[139.63691,35.88773],[139.63696,35.88762],[139.6371,35.88733],[139.63703,35.88729],[139.63665,35.88713],[139.63655,35.88712],[139.63625,35.88716],[139.63611,35.88721],[139.63602,35.88732],[139.63587,35.88756],[139.63555,35.88807],[139.63532,35.88845],[139.6352,35.88861],[139.63497,35.88883],[139.63484,35.88894],[139.63476,35.88903],[139.63429,35.88939],[139.63428,35.8894],[139.63357,35.88997],[139.63291,35.89028],[139.63262,35.89042],[139.63252,35.89046],[139.63251,35.89046],[139.63229,35.89056],[139.63226,35.89058],[139.63188,35.89075],[139.6318,35.89078],[139.63175,35.89081],[139.63152,35.89091],[139.63151,35.89092],[139.63145,35.89094],[139.63129,35.89104],[139.63117,35.89111],[139.63113,35.89114],[139.63109,35.89117],[139.63091,35.89131],[139.63009,35.89108],[139.63005,35.89118],[139.6296,35.89225],[139.62956,35.89224],[139.62964,35.89268],[139.62968,35.89323],[139.62968,35.89343],[139.62968,35.89361],[139.62961,35.89436],[139.62956,35.8947],[139.62936,35.89537],[139.62916,35.89595],[139.62903,35.89631],[139.62903,35.89637],[139.62846,35.89787],[139.62853,35.89789],[139.62892,35.898],[139.63054,35.8967],[139.63069,35.89656],[139.63083,35.89646],[139.63087,35.89643],[139.63152,35.89578],[139.63161,35.89568],[139.63218,35.89501],[139.63219,35.895],[139.6322,35.89493],[139.63222,35.89487],[139.6325,35.89444],[139.63251,35.89442],[139.63347,35.89311]]]}}]}