{"type":"FeatureCollection","features":[{"type":"Feature","properties":{"name":"大字熊川","setai":8827,"jinko":17939,"key":"13218001091","units":3},"geometry":{"type":"MultiPolygon","coordinates":[[[[139.33756,35.72709],[139.33939,35.72555],[139.33914,35.72549],[139.33887,35.72534],[139.33884,35.72538],[139.33866,35.72567],[139.33854,35.72586],[139.33847,35.72597],[139.33832,35.72613],[139.33798,35.72645],[139.33741,35.72622],[139.33706,35.72619],[139.33667,35.72611],[139.33678,35.72543],[139.33739,35.7255],[139.33766,35.72497],[139.33773,35.72499],[139.33798,35.72451],[139.338,35.72445],[139.3386,35.72471],[139.33877,35.72441],[139.33888,35.7242],[139.33882,35.72416],[139.3388,35.72411],[139.33893,35.72346],[139.33862,35.72353],[139.3387,35.72328],[139.33882,35.72305],[139.33825,35.72276],[139.33845,35.72249],[139.33861,35.72253],[139.33918,35.72263],[139.33953,35.7227],[139.33974,35.72204],[139.33986,35.72197],[139.3398,35.72188],[139.3402,35.72196],[139.34052,35.72203],[139.3412,35.72216],[139.34126,35.7221],[139.34075,35.72125],[139.34063,35.72092],[139.34059,35.72075],[139.34039,35.72045],[139.34037,35.72043],[139.34003,35.72031],[139.33986,35.72025],[139.33984,35.71997],[139.33967,35.71994],[139.33942,35.71993],[139.33942,35.7199],[139.3394,35.71978],[139.33935,35.71974],[139.33934,35.71959],[139.33905,35.71959],[139.33891,35.71953],[139.3389,35.71946],[139.33888,35.71922],[139.33887,35.71916],[139.33882,35.71911],[139.33874,35.71909],[139.33864,35.71904],[139.33856,35.71896],[139.33861,35.71883],[139.33887,35.71833],[139.33894,35.7182],[139.33913,35.71784],[139.33927,35.71788],[139.3394,35.71763],[139.33908,35.71753],[139.33908,35.71753],[139.33915,35.71734],[139.33913,35.71731],[139.33916,35.71721],[139.33925,35.71696],[139.33941,35.717],[139.33887,35.7159],[139.33859,35.71521],[139.33858,35.71521],[139.33842,35.71521],[139.33816,35.71523],[139.33789,35.7153],[139.33774,35.71535],[139.3375,35.71534],[139.33746,35.71533],[139.33743,35.71532],[139.33727,35.71523],[139.33704,35.71507],[139.33689,35.71498],[139.33671,35.71489],[139.33648,35.71479],[139.33633,35.71472],[139.33609,35.71456],[139.33593,35.71443],[139.3358,35.71429],[139.3354,35.71411],[139.33489,35.71388],[139.33482,35.71385],[139.33449,35.7137],[139.33413,35.71353],[139.33398,35.71346],[139.3335,35.71325],[139.33343,35.71322],[139.33337,35.71317],[139.33292,35.71288],[139.33297,35.71297],[139.33299,35.71301],[139.33306,35.71314],[139.33308,35.71319],[139.33311,35.71335],[139.33309,35.71349],[139.33304,35.71364],[139.33276,35.71434],[139.33251,35.71499],[139.33244,35.71518],[139.33238,35.7154],[139.33222,35.71577],[139.33199,35.71624],[139.33188,35.71641],[139.33124,35.71734],[139.33118,35.71751],[139.33108,35.71794],[139.33099,35.71823],[139.33086,35.71847],[139.33081,35.7186],[139.33079,35.71883],[139.33081,35.71894],[139.33087,35.71907],[139.33103,35.71926],[139.33127,35.71951],[139.33171,35.71991],[139.33176,35.71996],[139.33214,35.72037],[139.33224,35.72049],[139.33255,35.72085],[139.33298,35.72146],[139.33301,35.7215],[139.33302,35.72151],[139.33403,35.72132],[139.33403,35.72126],[139.33408,35.72114],[139.33436,35.72112],[139.33435,35.72105],[139.33441,35.72102],[139.33531,35.72089],[139.33532,35.7209],[139.33521,35.72203],[139.33521,35.72209],[139.33513,35.72295],[139.33501,35.72387],[139.33496,35.72441],[139.33496,35.72524],[139.33496,35.72529],[139.33495,35.72631],[139.33496,35.72631],[139.33498,35.72672],[139.33565,35.7267],[139.33599,35.7267],[139.33603,35.7267],[139.33658,35.7268],[139.33689,35.7269],[139.33714,35.72699],[139.33739,35.72704],[139.33756,35.72709]]],[[[139.34926,35.72418],[139.34952,35.72379],[139.34977,35.72406],[139.34992,35.72377],[139.35023,35.72399],[139.35079,35.72358],[139.3509,35.72339],[139.35102,35.72337],[139.35108,35.72319],[139.35157,35.72336],[139.35232,35.7236],[139.35241,35.72362],[139.35269,35.72363],[139.3527,35.72371],[139.35296,35.7235],[139.35286,35.72342],[139.35278,35.72335],[139.35271,35.72327],[139.35265,35.72317],[139.35262,35.72312],[139.35259,35.72305],[139.35256,35.72294],[139.35255,35.72292],[139.35256,35.72292],[139.35255,35.72287],[139.35254,35.72283],[139.35254,35.72283],[139.35245,35.7228],[139.35225,35.72275],[139.3521,35.72271],[139.35191,35.72266],[139.35178,35.72262],[139.35188,35.72251],[139.35188,35.72251],[139.35186,35.72249],[139.35181,35.72246],[139.35166,35.72223],[139.3513,35.72242],[139.35103,35.72226],[139.351,35.72215],[139.35097,35.72213],[139.35093,35.72211],[139.35041,35.72221],[139.35038,35.72222],[139.35018,35.72237],[139.34961,35.72185],[139.34951,35.72189],[139.34928,35.72184],[139.34915,35.72181],[139.34914,35.72165],[139.34912,35.72144],[139.34865,35.72147],[139.34828,35.7215],[139.34781,35.72152],[139.34724,35.72156],[139.34702,35.72158],[139.34689,35.72146],[139.34684,35.72142],[139.34635,35.72105],[139.34625,35.72111],[139.34594,35.72094],[139.34581,35.72106],[139.34546,35.72094],[139.3453,35.72088],[139.34526,35.72091],[139.34503,35.72113],[139.34508,35.72121],[139.34525,35.72145],[139.34521,35.72147],[139.34497,35.7214],[139.34481,35.72138],[139.34445,35.7214],[139.34433,35.72139],[139.34405,35.72129],[139.34373,35.72119],[139.3434,35.72158],[139.34302,35.72158],[139.34203,35.72289],[139.34236,35.7232],[139.34268,35.72348],[139.34307,35.72382],[139.34377,35.72388],[139.34471,35.72398],[139.34554,35.72407],[139.34572,35.72409],[139.34618,35.72414],[139.3469,35.72423],[139.34701,35.72425],[139.34738,35.72429],[139.34757,35.72433],[139.34813,35.72443],[139.34869,35.72459],[139.34894,35.72467],[139.34898,35.72461],[139.34926,35.72418]],[[139.34542,35.7215],[139.34561,35.72147],[139.34575,35.72146],[139.34588,35.72168],[139.34624,35.7218],[139.34614,35.72202],[139.34624,35.72207],[139.34614,35.72224],[139.34611,35.72229],[139.34601,35.72244],[139.34601,35.72244],[139.34585,35.72259],[139.34559,35.72274],[139.34516,35.72236],[139.34506,35.72164],[139.34542,35.7215]]],[[[139.34102,35.73417],[139.34121,35.73373],[139.34134,35.73346],[139.34144,35.73319],[139.34163,35.7327],[139.34174,35.73234],[139.34198,35.73158],[139.34222,35.73082],[139.34247,35.73002],[139.34258,35.72967],[139.34251,35.72964],[139.34276,35.7291],[139.34284,35.7288],[139.3428,35.72873],[139.34291,35.72846],[139.34302,35.72742],[139.34297,35.72726],[139.34312,35.72728],[139.34314,35.72726],[139.34446,35.72538],[139.34478,35.72495],[139.34598,35.72549],[139.34683,35.72433],[139.3469,35.72423],[139.34618,35.72414],[139.34572,35.72409],[139.34554,35.72407],[139.34471,35.72398],[139.34377,35.72388],[139.34307,35.72382],[139.34268,35.72348],[139.34236,35.7232],[139.34203,35.72289],[139.34302,35.72158],[139.34294,35.72159],[139.34269,35.72148],[139.34252,35.7214],[139.34233,35.72163],[139.34217,35.72155],[139.34203,35.72147],[139.34189,35.72144],[139.34178,35.72145],[139.34172,35.72146],[139.34158,35.72141],[139.34115,35.72117],[139.34108,35.72112],[139.34077,35.72091],[139.34059,35.72075],[139.34063,35.72092],[139.34075,35.72125],[139.34126,35.7221],[139.3412,35.72216],[139.34052,35.72203],[139.3402,35.72196],[139.3398,35.72188],[139.33986,35.72197],[139.33974,35.72204],[139.33953,35.7227],[139.33918,35.72263],[139.33861,35.72253],[139.33845,35.72249],[139.33825,35.72276],[139.33882,35.72305],[139.3387,35.72328],[139.33862,35.72353],[139.33893,35.72346],[139.3388,35.72411],[139.33882,35.72416],[139.33888,35.7242],[139.33877,35.72441],[139.3386,35.72471],[139.338,35.72445],[139.33798,35.72451],[139.33773,35.72499],[139.33766,35.72497],[139.33739,35.7255],[139.33678,35.72543],[139.33667,35.72611],[139.33706,35.72619],[139.33741,35.72622],[139.33798,35.72645],[139.33832,35.72613],[139.33847,35.72597],[139.33854,35.72586],[139.33866,35.72567],[139.33884,35.72538],[139.33887,35.72534],[139.33914,35.72549],[139.33939,35.72555],[139.33756,35.72709],[139.33739,35.72704],[139.33714,35.72699],[139.33689,35.7269],[139.33658,35.7268],[139.33603,35.7267],[139.33599,35.7267],[139.33565,35.7267],[139.33498,35.72672],[139.33496,35.72631],[139.33495,35.72631],[139.33419,35.72633],[139.33413,35.72615],[139.33354,35.72615],[139.33348,35.72616],[139.33345,35.72619],[139.3334,35.72635],[139.33331,35.72655],[139.33323,35.72663],[139.33308,35.72669],[139.33306,35.72687],[139.33302,35.72728],[139.33303,35.72769],[139.33302,35.72805],[139.33301,35.72812],[139.33283,35.72858],[139.33267,35.72886],[139.33219,35.72946],[139.33181,35.72991],[139.33119,35.73067],[139.3311,35.73076],[139.33089,35.73094],[139.33075,35.73103],[139.33061,35.73111],[139.32968,35.73165],[139.3296,35.73168],[139.32934,35.73181],[139.32911,35.73197],[139.32931,35.73217],[139.32954,35.73242],[139.33004,35.73265],[139.33009,35.73267],[139.33031,35.73277],[139.33057,35.73288],[139.33098,35.73301],[139.33155,35.73319],[139.33191,35.73329],[139.33228,35.73334],[139.33252,35.73335],[139.33276,35.73337],[139.33337,35.73342],[139.33448,35.7335],[139.33485,35.73352],[139.33488,35.73352],[139.33526,35.73354],[139.33574,35.73358],[139.33577,35.73359],[139.33617,35.73358],[139.33662,35.73359],[139.33676,35.73358],[139.33696,35.73354],[139.33756,35.73351],[139.33759,35.73366],[139.33757,35.73379],[139.33759,35.73379],[139.3376,35.73376],[139.3382,35.73383],[139.33823,35.73384],[139.33856,35.7339],[139.33857,35.7339],[139.33952,35.73407],[139.33977,35.73411],[139.34092,35.73428],[139.34102,35.73417]],[[139.33879,35.7331],[139.33915,35.7331],[139.33918,35.73339],[139.33868,35.73344],[139.33879,35.7331]]],[[[139.33348,35.72616],[139.33354,35.72615],[139.33413,35.72615],[139.33419,35.72633],[139.33495,35.72631],[139.33496,35.72529],[139.33496,35.72524],[139.33496,35.72441],[139.33501,35.72387],[139.33513,35.72295],[139.33521,35.72209],[139.33521,35.72203],[139.33532,35.7209],[139.33531,35.72089],[139.33441,35.72102],[139.33435,35.72105],[139.33436,35.72112],[139.33408,35.72114],[139.33403,35.72126],[139.33403,35.72132],[139.33302,35.72151],[139.33301,35.7215],[139.33301,35.7215],[139.33332,35.72207],[139.33339,35.72222],[139.33342,35.72237],[139.33343,35.72253],[139.33336,35.7231],[139.33335,35.72325],[139.33331,35.72356],[139.33324,35.72404],[139.33319,35.72455],[139.33316,35.72502],[139.33313,35.72546],[139.33308,35.72668],[139.33308,35.72669],[139.33323,35.72663],[139.33331,35.72655],[139.3334,35.72635],[139.33345,35.72619],[139.33348,35.72616]]],[[[139.35293,35.72874],[139.35297,35.72839],[139.35381,35.72843],[139.35396,35.7284],[139.35422,35.7282],[139.35445,35.72795],[139.35494,35.7273],[139.35547,35.72659],[139.35531,35.72654],[139.35525,35.7265],[139.35521,35.72641],[139.35535,35.72556],[139.3549,35.72519],[139.35436,35.72511],[139.35432,35.72511],[139.35424,35.72512],[139.35304,35.72494],[139.35303,35.7249],[139.35295,35.72489],[139.35287,35.72447],[139.3527,35.72371],[139.35269,35.72363],[139.35241,35.72362],[139.35232,35.7236],[139.35157,35.72336],[139.35108,35.72319],[139.35102,35.72337],[139.3509,35.72339],[139.35079,35.72358],[139.35023,35.72399],[139.34992,35.72377],[139.34977,35.72406],[139.34952,35.72379],[139.34926,35.72418],[139.34898,35.72461],[139.34894,35.72467],[139.34869,35.72459],[139.34813,35.72443],[139.34757,35.72433],[139.34738,35.72429],[139.34701,35.72425],[139.3469,35.72423],[139.34683,35.72433],[139.34925,35.72547],[139.35282,35.72716],[139.3527,35.72763],[139.35267,35.72771],[139.35245,35.72844],[139.35248,35.72847],[139.35246,35.72855],[139.35286,35.72871],[139.35293,35.72874]]],[[[139.33276,35.71434],[139.33304,35.71364],[139.33309,35.71349],[139.33311,35.71335],[139.33308,35.71319],[139.33306,35.71314],[139.33299,35.71301],[139.33297,35.71297],[139.33292,35.71288],[139.33251,35.71261],[139.33246,35.71283],[139.33235,35.71339],[139.33222,35.71405],[139.33121,35.71348],[139.33121,35.71349],[139.32968,35.71958],[139.32963,35.7198],[139.32965,35.71994],[139.33004,35.71995],[139.33067,35.71995],[139.33125,35.71996],[139.33176,35.71996],[139.33171,35.71991],[139.33127,35.71951],[139.33103,35.71926],[139.33087,35.71907],[139.33081,35.71894],[139.33079,35.71883],[139.33081,35.7186],[139.33086,35.71847],[139.33099,35.71823],[139.33108,35.71794],[139.33118,35.71751],[139.33124,35.71734],[139.33188,35.71641],[139.33199,35.71624],[139.33222,35.71577],[139.33238,35.7154],[139.33244,35.71518],[139.33251,35.71499],[139.33276,35.71434]]],[[[139.34588,35.72168],[139.34575,35.72146],[139.34561,35.72147],[139.34542,35.7215],[139.34506,35.72164],[139.34516,35.72236],[139.34559,35.72274],[139.34585,35.72259],[139.34601,35.72244],[139.34601,35.72244],[139.34611,35.72229],[139.34614,35.72224],[139.34624,35.72207],[139.34614,35.72202],[139.34624,35.7218],[139.34588,35.72168]]]]}},{"type":"Feature","properties":{"name":"大字福生","setai":6279,"jinko":12727,"key":"13218002090","units":2},"geometry":{"type":"MultiPolygon","coordinates":[[[[139.3186,35.74965],[139.31871,35.74863],[139.3194,35.74844],[139.31981,35.74834],[139.31943,35.74795],[139.3197,35.74777],[139.31992,35.74764],[139.32053,35.74738],[139.3211,35.74697],[139.32125,35.74684],[139.32128,35.74681],[139.32134,35.7466],[139.32139,35.74661],[139.32175,35.74662],[139.32181,35.74661],[139.32206,35.74647],[139.3221,35.74643],[139.3222,35.74627],[139.32233,35.74611],[139.32254,35.74591],[139.32284,35.74559],[139.32293,35.74548],[139.32302,35.74532],[139.32303,35.74524],[139.32283,35.74484],[139.32289,35.74484],[139.32387,35.74486],[139.32396,35.74467],[139.32441,35.7449],[139.32465,35.74501],[139.32494,35.74516],[139.32551,35.74544],[139.32623,35.74446],[139.32685,35.74362],[139.32705,35.74337],[139.32827,35.74174],[139.32824,35.74172],[139.32822,35.74175],[139.32805,35.74168],[139.32785,35.74191],[139.32758,35.74178],[139.327,35.74154],[139.32699,35.74154],[139.32668,35.74145],[139.32636,35.74135],[139.32595,35.74123],[139.32538,35.74113],[139.32536,35.74112],[139.3252,35.74109],[139.32491,35.74102],[139.32504,35.74075],[139.32505,35.74074],[139.32528,35.74022],[139.3254,35.73995],[139.32543,35.73987],[139.32559,35.73948],[139.32572,35.7392],[139.32581,35.73898],[139.32585,35.73876],[139.32585,35.73866],[139.32585,35.73842],[139.32581,35.73812],[139.32571,35.73785],[139.32566,35.73772],[139.32563,35.73767],[139.32592,35.73744],[139.32594,35.73754],[139.32585,35.73788],[139.32593,35.73791],[139.32623,35.73791],[139.32642,35.73755],[139.32646,35.73749],[139.32644,35.73748],[139.32644,35.73732],[139.32649,35.73695],[139.32644,35.73678],[139.32623,35.73663],[139.32625,35.73646],[139.32626,35.7363],[139.3263,35.73608],[139.32634,35.73592],[139.32649,35.73563],[139.3265,35.73561],[139.32705,35.73496],[139.32763,35.73426],[139.32759,35.7342],[139.32742,35.73402],[139.32737,35.73393],[139.32736,35.73395],[139.32726,35.73383],[139.32712,35.73377],[139.32672,35.73371],[139.32635,35.73368],[139.32599,35.73369],[139.32589,35.73373],[139.32578,35.73382],[139.32573,35.73399],[139.32545,35.7345],[139.32539,35.73456],[139.3252,35.7347],[139.32529,35.73485],[139.32537,35.73497],[139.32534,35.73502],[139.32533,35.73507],[139.3252,35.73518],[139.32489,35.73538],[139.32444,35.73562],[139.32411,35.73583],[139.32407,35.73586],[139.32393,35.7357],[139.3238,35.73577],[139.3238,35.73581],[139.32381,35.73585],[139.32386,35.73596],[139.32389,35.73604],[139.32389,35.73606],[139.32388,35.7361],[139.32385,35.73613],[139.32383,35.73615],[139.32383,35.73615],[139.32382,35.73617],[139.32351,35.73648],[139.32338,35.73667],[139.32295,35.73713],[139.32287,35.73722],[139.32254,35.73747],[139.32243,35.73758],[139.32236,35.73767],[139.3222,35.73788],[139.32209,35.73806],[139.32189,35.73818],[139.32179,35.73831],[139.32095,35.73882],[139.3209,35.73883],[139.32094,35.73889],[139.32064,35.7391],[139.32063,35.7391],[139.32055,35.73911],[139.32053,35.73911],[139.3205,35.73914],[139.32049,35.73919],[139.32042,35.73922],[139.32017,35.73932],[139.31963,35.73919],[139.31926,35.7391],[139.31926,35.73915],[139.31918,35.73952],[139.31911,35.73968],[139.31898,35.74072],[139.31852,35.74436],[139.3186,35.74432],[139.31868,35.74419],[139.31879,35.74381],[139.31892,35.74363],[139.31896,35.74356],[139.31896,35.74335],[139.31904,35.74324],[139.31997,35.74263],[139.32013,35.74273],[139.3202,35.74275],[139.31998,35.74344],[139.31986,35.74381],[139.31982,35.74394],[139.31978,35.74407],[139.31974,35.7442],[139.31958,35.74466],[139.31926,35.74466],[139.31911,35.74467],[139.31876,35.74473],[139.31852,35.7448],[139.31831,35.74487],[139.31795,35.74508],[139.31773,35.74529],[139.31732,35.74575],[139.31663,35.74656],[139.3166,35.74658],[139.31644,35.74661],[139.3163,35.74668],[139.31542,35.74768],[139.31586,35.74797],[139.31619,35.74817],[139.31619,35.74818],[139.3162,35.74818],[139.31678,35.74863],[139.31679,35.74865],[139.3168,35.74865],[139.31687,35.74872],[139.31688,35.74873],[139.317,35.74885],[139.31712,35.74898],[139.31717,35.74903],[139.31719,35.74903],[139.31733,35.74902],[139.31788,35.74975],[139.3179,35.74976],[139.31801,35.74981],[139.31822,35.75024],[139.31822,35.75024],[139.31848,35.74996],[139.31856,35.74983],[139.3186,35.74965]]],[[[139.3374,35.74653],[139.33749,35.74575],[139.33758,35.74502],[139.33764,35.74463],[139.3376,35.74462],[139.33769,35.7439],[139.33775,35.74337],[139.3378,35.74286],[139.33786,35.74234],[139.33799,35.74125],[139.33805,35.7408],[139.33809,35.74042],[139.33812,35.7402],[139.33815,35.73995],[139.33758,35.7397],[139.33713,35.73947],[139.33659,35.73936],[139.33655,35.73934],[139.33624,35.73927],[139.33622,35.73926],[139.33582,35.73918],[139.335,35.73899],[139.33364,35.73883],[139.33294,35.73865],[139.33275,35.73908],[139.33364,35.73924],[139.3336,35.73943],[139.33356,35.73955],[139.33339,35.7398],[139.3332,35.74002],[139.33335,35.74012],[139.33416,35.74058],[139.33422,35.74068],[139.33436,35.74076],[139.33444,35.74078],[139.33463,35.74084],[139.33441,35.74137],[139.33427,35.74173],[139.33451,35.74177],[139.33437,35.74216],[139.33411,35.74262],[139.33392,35.74262],[139.33348,35.74251],[139.33315,35.74315],[139.33332,35.74322],[139.33316,35.74344],[139.33339,35.74354],[139.33349,35.74358],[139.33387,35.74368],[139.33444,35.74389],[139.33487,35.74405],[139.33468,35.74458],[139.33565,35.74459],[139.33584,35.7446],[139.33589,35.7446],[139.33589,35.74497],[139.33591,35.74511],[139.33599,35.74551],[139.33609,35.74622],[139.33538,35.74603],[139.33513,35.74695],[139.33517,35.74698],[139.33551,35.74712],[139.33635,35.74749],[139.3365,35.74808],[139.3366,35.74839],[139.33682,35.749],[139.33731,35.75022],[139.33872,35.75032],[139.3385,35.74994],[139.33853,35.74991],[139.3374,35.74802],[139.33736,35.74796],[139.33726,35.74778],[139.33731,35.74753],[139.33728,35.74741],[139.3374,35.74653]]],[[[139.32854,35.74704],[139.32858,35.74699],[139.32873,35.74702],[139.32881,35.74668],[139.32934,35.74675],[139.32983,35.74681],[139.3298,35.74662],[139.33,35.74639],[139.33007,35.7463],[139.33024,35.74605],[139.33034,35.74587],[139.33041,35.74571],[139.33049,35.7455],[139.33033,35.74549],[139.32984,35.74554],[139.32925,35.74559],[139.32906,35.74561],[139.32893,35.74562],[139.32809,35.74566],[139.32675,35.74564],[139.32652,35.74594],[139.32691,35.74633],[139.32706,35.74648],[139.32718,35.74665],[139.32728,35.74679],[139.32751,35.7472],[139.32767,35.74724],[139.32776,35.74728],[139.32841,35.74774],[139.32844,35.74769],[139.32852,35.74731],[139.32854,35.74704]]],[[[139.33117,35.74385],[139.33125,35.74375],[139.3314,35.74385],[139.33171,35.74404],[139.33209,35.74427],[139.33257,35.74452],[139.33275,35.74454],[139.33308,35.74454],[139.33379,35.74456],[139.33426,35.74457],[139.33468,35.74458],[139.33487,35.74405],[139.33444,35.74389],[139.33387,35.74368],[139.33349,35.74358],[139.33339,35.74354],[139.33316,35.74344],[139.33332,35.74322],[139.33315,35.74315],[139.33348,35.74251],[139.33392,35.74262],[139.33411,35.74262],[139.33437,35.74216],[139.33451,35.74177],[139.33427,35.74173],[139.33441,35.74137],[139.33463,35.74084],[139.33444,35.74078],[139.33436,35.74076],[139.33422,35.74068],[139.33416,35.74058],[139.33335,35.74012],[139.3332,35.74002],[139.33339,35.7398],[139.33356,35.73955],[139.3336,35.73943],[139.33364,35.73924],[139.33275,35.73908],[139.33294,35.73865],[139.33364,35.73883],[139.335,35.73899],[139.33582,35.73918],[139.33622,35.73926],[139.33624,35.73927],[139.33655,35.73934],[139.33659,35.73936],[139.33713,35.73947],[139.33758,35.7397],[139.33815,35.73995],[139.33816,35.73988],[139.33822,35.73978],[139.33823,35.73969],[139.33892,35.73829],[139.33942,35.73728],[139.33958,35.73696],[139.34003,35.73607],[139.33942,35.73607],[139.33944,35.73592],[139.33931,35.7359],[139.33915,35.73587],[139.33919,35.73571],[139.3392,35.73548],[139.33888,35.73542],[139.33893,35.73521],[139.33898,35.735],[139.33936,35.73506],[139.33939,35.73483],[139.33908,35.73477],[139.3391,35.73465],[139.33918,35.7343],[139.33849,35.73418],[139.33857,35.7339],[139.33856,35.7339],[139.33823,35.73384],[139.3382,35.73383],[139.3376,35.73376],[139.33759,35.73379],[139.33752,35.734],[139.33749,35.73412],[139.3374,35.73427],[139.33726,35.73443],[139.33725,35.73458],[139.33721,35.73489],[139.33719,35.73488],[139.33714,35.73509],[139.33711,35.73523],[139.3371,35.73521],[139.337,35.73555],[139.33665,35.73578],[139.3365,35.73601],[139.33634,35.73627],[139.33626,35.73632],[139.33615,35.73648],[139.336,35.73672],[139.33597,35.73676],[139.3355,35.73665],[139.33509,35.73655],[139.335,35.73654],[139.3348,35.73655],[139.33447,35.73664],[139.33435,35.73668],[139.33428,35.73671],[139.33418,35.73675],[139.33399,35.73691],[139.33372,35.73722],[139.33354,35.73746],[139.33343,35.73765],[139.33333,35.73782],[139.33317,35.73795],[139.33251,35.73852],[139.33211,35.73893],[139.33172,35.73937],[139.33154,35.7396],[139.33175,35.73974],[139.33177,35.73975],[139.33124,35.74045],[139.33102,35.74073],[139.33098,35.74077],[139.33093,35.74083],[139.33092,35.74093],[139.33092,35.74094],[139.33092,35.74099],[139.33059,35.74126],[139.33022,35.74157],[139.33021,35.74156],[139.32996,35.74143],[139.3297,35.74131],[139.32929,35.74116],[139.3292,35.74124],[139.32901,35.74113],[139.32894,35.7411],[139.32866,35.74124],[139.32854,35.7413],[139.32851,35.74137],[139.32857,35.74143],[139.32873,35.7416],[139.32886,35.74168],[139.32908,35.74179],[139.3293,35.74184],[139.32963,35.7419],[139.32919,35.74252],[139.32811,35.74386],[139.32737,35.74481],[139.32721,35.74502],[139.32675,35.74564],[139.32809,35.74566],[139.32893,35.74562],[139.32906,35.74561],[139.32925,35.74559],[139.32984,35.74554],[139.33033,35.74549],[139.33051,35.74517],[139.33079,35.74476],[139.33085,35.74474],[139.331,35.74447],[139.33105,35.7443],[139.33117,35.74405],[139.3312,35.744],[139.33115,35.74392],[139.33117,35.74385]]],[[[139.31958,35.74466],[139.31974,35.7442],[139.31978,35.74407],[139.31982,35.74394],[139.31986,35.74381],[139.31998,35.74344],[139.3202,35.74275],[139.32013,35.74273],[139.31997,35.74263],[139.31904,35.74324],[139.31896,35.74335],[139.31896,35.74356],[139.31892,35.74363],[139.31879,35.74381],[139.31868,35.74419],[139.3186,35.74432],[139.31852,35.74436],[139.31898,35.74072],[139.31911,35.73968],[139.31918,35.73952],[139.31926,35.73915],[139.31921,35.73915],[139.31794,35.73884],[139.31759,35.73994],[139.31726,35.74092],[139.31711,35.74144],[139.31661,35.74261],[139.31608,35.74384],[139.31573,35.74451],[139.31533,35.7453],[139.31524,35.74548],[139.31399,35.74678],[139.31401,35.7468],[139.31542,35.74768],[139.3163,35.74668],[139.31644,35.74661],[139.3166,35.74658],[139.31663,35.74656],[139.31732,35.74575],[139.31773,35.74529],[139.31795,35.74508],[139.31831,35.74487],[139.31852,35.7448],[139.31876,35.74473],[139.31911,35.74467],[139.31926,35.74466],[139.31958,35.74466]]],[[[139.33977,35.73411],[139.33952,35.73407],[139.33949,35.73436],[139.33948,35.73441],[139.3395,35.73441],[139.33966,35.73442],[139.33965,35.73448],[139.33989,35.73451],[139.33983,35.73478],[139.34028,35.73484],[139.34028,35.73495],[139.34058,35.73497],[139.34092,35.73428],[139.33977,35.73411]]],[[[139.34003,35.73561],[139.34013,35.73541],[139.34005,35.73537],[139.34005,35.73536],[139.34004,35.7354],[139.33993,35.73544],[139.33991,35.73532],[139.3399,35.7353],[139.33967,35.73534],[139.33965,35.73548],[139.34003,35.73561]]]]}},{"type":"Feature","properties":{"name":"牛浜","setai":1051,"jinko":1950,"key":"132180030","units":1},"geometry":{"type":"Polygon","coordinates":[[[139.336,35.73672],[139.33615,35.73648],[139.33626,35.73632],[139.33634,35.73627],[139.3365,35.73601],[139.33665,35.73578],[139.337,35.73555],[139.3371,35.73521],[139.33711,35.73523],[139.33714,35.73509],[139.33719,35.73488],[139.33721,35.73489],[139.33725,35.73458],[139.33726,35.73443],[139.3374,35.73427],[139.33749,35.73412],[139.33752,35.734],[139.33759,35.73379],[139.33757,35.73379],[139.33759,35.73366],[139.33756,35.73351],[139.33696,35.73354],[139.33676,35.73358],[139.33662,35.73359],[139.33617,35.73358],[139.33577,35.73359],[139.33574,35.73358],[139.33526,35.73354],[139.33488,35.73352],[139.33485,35.73352],[139.33448,35.7335],[139.33337,35.73342],[139.33276,35.73337],[139.33252,35.73335],[139.33228,35.73334],[139.33191,35.73329],[139.33155,35.73319],[139.33098,35.73301],[139.33057,35.73288],[139.33031,35.73277],[139.33009,35.73267],[139.33004,35.73265],[139.32954,35.73242],[139.32931,35.73217],[139.32911,35.73197],[139.32905,35.73195],[139.32867,35.73226],[139.32831,35.73256],[139.32799,35.73285],[139.32768,35.73323],[139.32755,35.73337],[139.32732,35.73371],[139.32731,35.7338],[139.32737,35.73393],[139.32742,35.73402],[139.32759,35.7342],[139.32763,35.73426],[139.32771,35.73422],[139.32877,35.73351],[139.32893,35.7337],[139.32906,35.73364],[139.32926,35.73374],[139.32981,35.73398],[139.32953,35.73447],[139.33061,35.73498],[139.33159,35.73544],[139.3326,35.73591],[139.33368,35.73642],[139.33428,35.73671],[139.33435,35.73668],[139.33447,35.73664],[139.3348,35.73655],[139.335,35.73654],[139.33509,35.73655],[139.3355,35.73665],[139.33597,35.73676],[139.336,35.73672]]]}},{"type":"Feature","properties":{"name":"志茂","setai":1494,"jinko":2898,"key":"132180040","units":1},"geometry":{"type":"Polygon","coordinates":[[[139.33251,35.73852],[139.33317,35.73795],[139.33333,35.73782],[139.33343,35.73765],[139.33354,35.73746],[139.33372,35.73722],[139.33399,35.73691],[139.33418,35.73675],[139.33428,35.73671],[139.33368,35.73642],[139.3326,35.73591],[139.33159,35.73544],[139.33061,35.73498],[139.32953,35.73447],[139.32981,35.73398],[139.32926,35.73374],[139.32906,35.73364],[139.32893,35.7337],[139.32877,35.73351],[139.32771,35.73422],[139.32763,35.73426],[139.32705,35.73496],[139.3265,35.73561],[139.32649,35.73563],[139.32634,35.73592],[139.3263,35.73608],[139.32626,35.7363],[139.32625,35.73646],[139.32623,35.73663],[139.32644,35.73678],[139.32649,35.73695],[139.32644,35.73732],[139.32644,35.73748],[139.32646,35.73749],[139.32642,35.73755],[139.32623,35.73791],[139.32593,35.73791],[139.32585,35.73788],[139.32594,35.73754],[139.32592,35.73744],[139.32563,35.73767],[139.32566,35.73772],[139.32571,35.73785],[139.32581,35.73812],[139.32703,35.73825],[139.32722,35.73827],[139.32738,35.73828],[139.32752,35.73804],[139.32872,35.7386],[139.33012,35.73929],[139.3313,35.73991],[139.33152,35.73962],[139.33154,35.7396],[139.33172,35.73937],[139.33211,35.73893],[139.33251,35.73852]]]}},{"type":"Feature","properties":{"name":"本町","setai":876,"jinko":1420,"key":"132180050","units":1},"geometry":{"type":"Polygon","coordinates":[[[139.32785,35.74191],[139.32805,35.74168],[139.32822,35.74175],[139.32824,35.74172],[139.32849,35.74138],[139.32851,35.74137],[139.32854,35.7413],[139.32866,35.74124],[139.32894,35.7411],[139.32901,35.74113],[139.3292,35.74124],[139.32929,35.74116],[139.3297,35.74131],[139.32996,35.74143],[139.33021,35.74156],[139.33022,35.74157],[139.33059,35.74126],[139.33092,35.74099],[139.33092,35.74094],[139.33092,35.74093],[139.33093,35.74083],[139.33098,35.74077],[139.33102,35.74073],[139.33124,35.74045],[139.33177,35.73975],[139.33175,35.73974],[139.33154,35.7396],[139.33152,35.73962],[139.3313,35.73991],[139.33012,35.73929],[139.32872,35.7386],[139.32752,35.73804],[139.32738,35.73828],[139.32722,35.73827],[139.32703,35.73825],[139.32581,35.73812],[139.32585,35.73842],[139.32585,35.73866],[139.32585,35.73876],[139.32581,35.73898],[139.32572,35.7392],[139.32559,35.73948],[139.32543,35.73987],[139.3254,35.73995],[139.32528,35.74022],[139.32505,35.74074],[139.32504,35.74075],[139.32491,35.74102],[139.3252,35.74109],[139.32536,35.74112],[139.32538,35.74113],[139.32595,35.74123],[139.32636,35.74135],[139.32668,35.74145],[139.32699,35.74154],[139.327,35.74154],[139.32758,35.74178],[139.32785,35.74191]]]}},{"type":"Feature","properties":{"name":"北田園","setai":0,"jinko":0,"key":"13218006000","units":1},"geometry":{"type":"Polygon","coordinates":[[[139.31926,35.73915],[139.31926,35.7391],[139.31922,35.73909],[139.31969,35.7375],[139.31999,35.7365],[139.32041,35.7351],[139.32053,35.73485],[139.32069,35.73456],[139.32082,35.73436],[139.321,35.73412],[139.32135,35.73371],[139.32159,35.73354],[139.32207,35.73318],[139.32165,35.73285],[139.32159,35.73289],[139.32129,35.73267],[139.32099,35.73295],[139.32063,35.73327],[139.32011,35.73379],[139.31977,35.7342],[139.31943,35.73475],[139.31923,35.73511],[139.31908,35.73545],[139.31893,35.73588],[139.31858,35.7369],[139.31794,35.73884],[139.31921,35.73915],[139.31926,35.73915]]]}},{"type":"Feature","properties":{"name":"北田園一丁目","setai":393,"jinko":1077,"key":"13218006001","units":1},"geometry":{"type":"Polygon","coordinates":[[[139.32599,35.73369],[139.32635,35.73368],[139.32672,35.73371],[139.32712,35.73377],[139.32726,35.73383],[139.32736,35.73395],[139.32737,35.73393],[139.32731,35.7338],[139.32732,35.73371],[139.32755,35.73337],[139.32768,35.73323],[139.32799,35.73285],[139.32831,35.73256],[139.32867,35.73226],[139.32905,35.73195],[139.32902,35.73191],[139.32883,35.73183],[139.32832,35.73166],[139.32773,35.73147],[139.32772,35.73147],[139.32723,35.7313],[139.32675,35.73115],[139.3267,35.73109],[139.32596,35.73161],[139.32533,35.73202],[139.32528,35.73206],[139.32501,35.7318],[139.32527,35.73163],[139.32503,35.73137],[139.32435,35.73065],[139.32366,35.7312],[139.32323,35.73156],[139.32174,35.73278],[139.32165,35.73285],[139.32207,35.73318],[139.32251,35.73351],[139.32275,35.7337],[139.32287,35.73379],[139.32299,35.73387],[139.32384,35.73429],[139.3244,35.73456],[139.32534,35.73502],[139.32537,35.73497],[139.32529,35.73485],[139.3252,35.7347],[139.32539,35.73456],[139.32545,35.7345],[139.32573,35.73399],[139.32578,35.73382],[139.32589,35.73373],[139.32599,35.73369]]]}},{"type":"Feature","properties":{"name":"北田園二丁目","setai":508,"jinko":1067,"key":"13218006002","units":1},"geometry":{"type":"Polygon","coordinates":[[[139.32382,35.73617],[139.32383,35.73615],[139.32383,35.73615],[139.32385,35.73613],[139.32388,35.7361],[139.32389,35.73606],[139.32389,35.73604],[139.32386,35.73596],[139.32381,35.73585],[139.3238,35.73581],[139.3238,35.73577],[139.32393,35.7357],[139.32407,35.73586],[139.32411,35.73583],[139.32444,35.73562],[139.32489,35.73538],[139.3252,35.73518],[139.32533,35.73507],[139.32534,35.73502],[139.3244,35.73456],[139.32384,35.73429],[139.32299,35.73387],[139.32287,35.73379],[139.32275,35.7337],[139.32251,35.73351],[139.32207,35.73318],[139.32159,35.73354],[139.32135,35.73371],[139.321,35.73412],[139.32082,35.73436],[139.32069,35.73456],[139.32053,35.73485],[139.32041,35.7351],[139.31999,35.7365],[139.31969,35.7375],[139.31922,35.73909],[139.31926,35.7391],[139.31963,35.73919],[139.32017,35.73932],[139.32042,35.73922],[139.32049,35.73919],[139.3205,35.73914],[139.32053,35.73911],[139.32055,35.73911],[139.32063,35.7391],[139.32064,35.7391],[139.32094,35.73889],[139.3209,35.73883],[139.32095,35.73882],[139.32179,35.73831],[139.32189,35.73818],[139.32209,35.73806],[139.3222,35.73788],[139.32236,35.73767],[139.32243,35.73758],[139.32254,35.73747],[139.32287,35.73722],[139.32295,35.73713],[139.32338,35.73667],[139.32351,35.73648],[139.32382,35.73617]]]}},{"type":"Feature","properties":{"name":"南田園","setai":2,"jinko":2,"key":"13218007000","units":1},"geometry":{"type":"Polygon","coordinates":[[[139.32629,35.73067],[139.32713,35.73011],[139.32786,35.72963],[139.32808,35.72956],[139.32851,35.72952],[139.3288,35.72882],[139.32895,35.72841],[139.32909,35.72802],[139.32904,35.72778],[139.32928,35.72702],[139.3295,35.72624],[139.32963,35.72573],[139.32968,35.72543],[139.32977,35.7251],[139.32999,35.72408],[139.32999,35.72319],[139.32999,35.72268],[139.33,35.72155],[139.33004,35.71995],[139.32965,35.71994],[139.32969,35.72013],[139.32902,35.7221],[139.32857,35.7236],[139.32856,35.72375],[139.32869,35.72449],[139.32866,35.72478],[139.32842,35.72554],[139.32793,35.72712],[139.32795,35.72738],[139.32815,35.7276],[139.32793,35.72778],[139.32729,35.72828],[139.32435,35.73065],[139.32503,35.73137],[139.32503,35.73137],[139.32629,35.73067]]]}},{"type":"Feature","properties":{"name":"南田園一丁目","setai":498,"jinko":1210,"key":"13218007001","units":1},"geometry":{"type":"Polygon","coordinates":[[[139.33067,35.71995],[139.33004,35.71995],[139.33,35.72155],[139.32999,35.72268],[139.32999,35.72319],[139.32999,35.72408],[139.33076,35.72408],[139.33142,35.72407],[139.33211,35.72406],[139.33324,35.72404],[139.33331,35.72356],[139.33335,35.72325],[139.33336,35.7231],[139.33343,35.72253],[139.33342,35.72237],[139.33339,35.72222],[139.33332,35.72207],[139.33301,35.7215],[139.33301,35.7215],[139.33298,35.72146],[139.33255,35.72085],[139.33224,35.72049],[139.33214,35.72037],[139.33176,35.71996],[139.33125,35.71996],[139.33067,35.71995]]]}},{"type":"Feature","properties":{"name":"南田園二丁目","setai":1097,"jinko":2005,"key":"13218007002","units":1},"geometry":{"type":"Polygon","coordinates":[[[139.33319,35.72455],[139.33324,35.72404],[139.33211,35.72406],[139.33142,35.72407],[139.33076,35.72408],[139.32999,35.72408],[139.32977,35.7251],[139.32968,35.72543],[139.32963,35.72573],[139.3295,35.72624],[139.32928,35.72702],[139.32904,35.72778],[139.32974,35.72792],[139.32979,35.72794],[139.33052,35.72808],[139.33107,35.7282],[139.33122,35.72823],[139.33182,35.72836],[139.33283,35.72857],[139.33283,35.72858],[139.33301,35.72812],[139.33302,35.72805],[139.33303,35.72769],[139.33302,35.72728],[139.33306,35.72687],[139.33308,35.72669],[139.33308,35.72668],[139.33313,35.72546],[139.33316,35.72502],[139.33319,35.72455]]]}},{"type":"Feature","properties":{"name":"南田園三丁目","setai":659,"jinko":1347,"key":"13218007003","units":1},"geometry":{"type":"Polygon","coordinates":[[[139.32596,35.73161],[139.3267,35.73109],[139.32675,35.73115],[139.32723,35.7313],[139.32772,35.73147],[139.32773,35.73147],[139.32832,35.73166],[139.32883,35.73183],[139.32902,35.73191],[139.32905,35.73195],[139.32911,35.73197],[139.32934,35.73181],[139.3296,35.73168],[139.32968,35.73165],[139.33061,35.73111],[139.33075,35.73103],[139.33089,35.73094],[139.3311,35.73076],[139.33119,35.73067],[139.33181,35.72991],[139.33219,35.72946],[139.33267,35.72886],[139.33283,35.72858],[139.33283,35.72857],[139.33182,35.72836],[139.33122,35.72823],[139.33107,35.7282],[139.33052,35.72808],[139.32979,35.72794],[139.32974,35.72792],[139.32904,35.72778],[139.32909,35.72802],[139.32895,35.72841],[139.3288,35.72882],[139.32851,35.72952],[139.32808,35.72956],[139.32786,35.72963],[139.32713,35.73011],[139.32629,35.73067],[139.32503,35.73137],[139.32503,35.73137],[139.32527,35.73163],[139.32501,35.7318],[139.32528,35.73206],[139.32533,35.73202],[139.32596,35.73161]]]}},{"type":"Feature","properties":{"name":"武蔵野台一丁目","setai":1701,"jinko":3487,"key":"13218008001","units":1},"geometry":{"type":"Polygon","coordinates":[[[139.33193,35.75212],[139.3321,35.7516],[139.33376,35.75188],[139.33386,35.75114],[139.334,35.75114],[139.33402,35.75111],[139.33404,35.7511],[139.33418,35.75111],[139.33424,35.75103],[139.33429,35.75086],[139.33441,35.75026],[139.33469,35.74885],[139.33504,35.74733],[139.33517,35.74698],[139.33513,35.74695],[139.33538,35.74603],[139.33609,35.74622],[139.33599,35.74551],[139.33591,35.74511],[139.33589,35.74497],[139.33589,35.7446],[139.33584,35.7446],[139.33565,35.74459],[139.33468,35.74458],[139.33426,35.74457],[139.33379,35.74456],[139.33308,35.74454],[139.33275,35.74454],[139.33257,35.74452],[139.33206,35.7459],[139.33184,35.74651],[139.33163,35.74707],[139.33169,35.7471],[139.33121,35.74838],[139.33104,35.7487],[139.33089,35.74909],[139.33081,35.74932],[139.33055,35.75004],[139.33058,35.75003],[139.33037,35.75059],[139.33027,35.75086],[139.33017,35.75112],[139.33016,35.75116],[139.32985,35.75197],[139.3297,35.75237],[139.33055,35.75268],[139.33151,35.75303],[139.33164,35.75302],[139.33193,35.75212]]]}},{"type":"Feature","properties":{"name":"武蔵野台二丁目","setai":1314,"jinko":2517,"key":"13218008002","units":1},"geometry":{"type":"Polygon","coordinates":[[[139.32909,35.75359],[139.32956,35.75235],[139.32959,35.75233],[139.3297,35.75237],[139.32985,35.75197],[139.33016,35.75116],[139.33017,35.75112],[139.33027,35.75086],[139.33037,35.75059],[139.33058,35.75003],[139.33055,35.75004],[139.33081,35.74932],[139.33089,35.74909],[139.33104,35.7487],[139.33121,35.74838],[139.33169,35.7471],[139.33163,35.74707],[139.33184,35.74651],[139.33206,35.7459],[139.33257,35.74452],[139.33209,35.74427],[139.33171,35.74404],[139.3314,35.74385],[139.33125,35.74375],[139.33117,35.74385],[139.33115,35.74392],[139.3312,35.744],[139.33117,35.74405],[139.33105,35.7443],[139.331,35.74447],[139.33085,35.74474],[139.33079,35.74476],[139.33051,35.74517],[139.33033,35.74549],[139.33049,35.7455],[139.33041,35.74571],[139.33034,35.74587],[139.33024,35.74605],[139.33007,35.7463],[139.33,35.74639],[139.3298,35.74662],[139.32983,35.74681],[139.32934,35.74675],[139.32928,35.7471],[139.32921,35.74716],[139.32917,35.74739],[139.32916,35.74742],[139.32939,35.7475],[139.32903,35.74814],[139.32881,35.74843],[139.32873,35.74855],[139.32853,35.74883],[139.32813,35.74937],[139.32808,35.74985],[139.32788,35.75058],[139.32788,35.7506],[139.32775,35.7511],[139.3276,35.75164],[139.3273,35.75276],[139.32728,35.7528],[139.32733,35.75282],[139.32741,35.75276],[139.32814,35.75312],[139.32838,35.75324],[139.32906,35.75358],[139.32909,35.75359]]]}},{"type":"Feature","properties":{"name":"加美平一丁目","setai":765,"jinko":1536,"key":"13218009001","units":1},"geometry":{"type":"Polygon","coordinates":[[[139.32376,35.75203],[139.32397,35.75175],[139.32444,35.75198],[139.32526,35.75239],[139.32545,35.75215],[139.32561,35.75192],[139.32629,35.75226],[139.32686,35.75254],[139.3273,35.75276],[139.3276,35.75164],[139.32775,35.7511],[139.32788,35.7506],[139.32788,35.75058],[139.32808,35.74985],[139.32813,35.74937],[139.32853,35.74883],[139.32873,35.74855],[139.32881,35.74843],[139.32903,35.74814],[139.32939,35.7475],[139.32916,35.74742],[139.32917,35.74739],[139.32921,35.74716],[139.32928,35.7471],[139.32934,35.74675],[139.32881,35.74668],[139.32873,35.74702],[139.32858,35.74699],[139.32854,35.74704],[139.32852,35.74731],[139.32844,35.74769],[139.32841,35.74774],[139.32776,35.74728],[139.32767,35.74724],[139.32751,35.7472],[139.32728,35.74679],[139.32718,35.74665],[139.32706,35.74648],[139.32691,35.74633],[139.32652,35.74594],[139.32627,35.74626],[139.32581,35.74686],[139.32557,35.74742],[139.32539,35.74806],[139.32506,35.74907],[139.32472,35.7496],[139.32407,35.75049],[139.32335,35.75146],[139.32269,35.75236],[139.32269,35.75248],[139.32203,35.75339],[139.32245,35.75358],[139.32252,35.75361],[139.32257,35.75364],[139.32293,35.75316],[139.32312,35.75289],[139.32329,35.75267],[139.32357,35.75229],[139.32376,35.75203]]]}},{"type":"Feature","properties":{"name":"加美平二丁目","setai":530,"jinko":1086,"key":"13218009002","units":1},"geometry":{"type":"Polygon","coordinates":[[[139.326,35.7456],[139.32552,35.74547],[139.32529,35.74578],[139.32502,35.74611],[139.32461,35.74665],[139.3246,35.74667],[139.32416,35.74727],[139.32379,35.74778],[139.3231,35.74872],[139.3231,35.74872],[139.32238,35.74969],[139.3223,35.7498],[139.3217,35.75065],[139.32172,35.75066],[139.32106,35.75156],[139.32157,35.75181],[139.32158,35.75181],[139.32211,35.75208],[139.32269,35.75236],[139.32335,35.75146],[139.32407,35.75049],[139.32472,35.7496],[139.32506,35.74907],[139.32539,35.74806],[139.32557,35.74742],[139.32581,35.74686],[139.32627,35.74626],[139.32652,35.74594],[139.32623,35.74564],[139.32615,35.74562],[139.326,35.7456]]]}},{"type":"Feature","properties":{"name":"加美平三丁目","setai":844,"jinko":1835,"key":"13218009003","units":1},"geometry":{"type":"Polygon","coordinates":[[[139.31887,35.75091],[139.31914,35.75084],[139.31926,35.75085],[139.31945,35.75086],[139.32037,35.7505],[139.32059,35.75039],[139.32072,35.75031],[139.32097,35.75028],[139.32169,35.75067],[139.32172,35.75066],[139.3217,35.75065],[139.3223,35.7498],[139.32238,35.74969],[139.3231,35.74872],[139.3231,35.74872],[139.32379,35.74778],[139.32416,35.74727],[139.3246,35.74667],[139.32461,35.74665],[139.32502,35.74611],[139.32529,35.74578],[139.32552,35.74547],[139.32551,35.74544],[139.32494,35.74516],[139.32465,35.74501],[139.32441,35.7449],[139.32396,35.74467],[139.32387,35.74486],[139.32289,35.74484],[139.32283,35.74484],[139.32303,35.74524],[139.32302,35.74532],[139.32293,35.74548],[139.32284,35.74559],[139.32254,35.74591],[139.32233,35.74611],[139.3222,35.74627],[139.3221,35.74643],[139.32206,35.74647],[139.32181,35.74661],[139.32175,35.74662],[139.32139,35.74661],[139.32134,35.7466],[139.32128,35.74681],[139.32125,35.74684],[139.3211,35.74697],[139.32053,35.74738],[139.31992,35.74764],[139.3197,35.74777],[139.31943,35.74795],[139.31981,35.74834],[139.3194,35.74844],[139.31871,35.74863],[139.3186,35.74965],[139.31856,35.74983],[139.31848,35.74996],[139.31822,35.75024],[139.31852,35.75063],[139.31862,35.75074],[139.31863,35.75074],[139.31879,35.75089],[139.31887,35.75091]]]}},{"type":"Feature","properties":{"name":"加美平四丁目","setai":1017,"jinko":1599,"key":"13218009004","units":1},"geometry":{"type":"Polygon","coordinates":[[[139.3254,35.75383],[139.32546,35.75383],[139.32632,35.75424],[139.32634,35.75421],[139.32666,35.75367],[139.32728,35.7528],[139.3273,35.75276],[139.32686,35.75254],[139.32629,35.75226],[139.32561,35.75192],[139.32545,35.75215],[139.32526,35.75239],[139.32444,35.75198],[139.32397,35.75175],[139.32376,35.75203],[139.32357,35.75229],[139.32329,35.75267],[139.32312,35.75289],[139.32293,35.75316],[139.32257,35.75364],[139.32298,35.75385],[139.32385,35.75429],[139.32424,35.75448],[139.32468,35.75469],[139.32472,35.75471],[139.32501,35.75433],[139.3254,35.75383]]]}},{"type":"Feature","properties":{"name":"東町","setai":165,"jinko":316,"key":"132180100","units":1},"geometry":{"type":"Polygon","coordinates":[[[139.32857,35.74143],[139.32851,35.74137],[139.32849,35.74138],[139.32824,35.74172],[139.32827,35.74174],[139.32705,35.74337],[139.32685,35.74362],[139.32623,35.74446],[139.32551,35.74544],[139.32552,35.74547],[139.326,35.7456],[139.32615,35.74562],[139.32623,35.74564],[139.32652,35.74594],[139.32675,35.74564],[139.32721,35.74502],[139.32737,35.74481],[139.32811,35.74386],[139.32919,35.74252],[139.32963,35.7419],[139.3293,35.74184],[139.32908,35.74179],[139.32886,35.74168],[139.32873,35.7416],[139.32857,35.74143]]]}},{"type":"Feature","properties":{"name":"横田基地内","setai":8,"jinko":181,"key":"132180110","units":1},"geometry":{"type":"Polygon","coordinates":[[[139.33709,35.75149],[139.33723,35.75145],[139.33744,35.75169],[139.33738,35.75194],[139.33744,35.75203],[139.3379,35.75194],[139.33795,35.75145],[139.33802,35.75125],[139.33806,35.75118],[139.3381,35.75118],[139.3382,35.75082],[139.33843,35.75075],[139.33845,35.75081],[139.33867,35.75074],[139.33864,35.75067],[139.3389,35.7506],[139.33923,35.75048],[139.33912,35.75027],[139.34016,35.7502],[139.34033,35.7503],[139.34058,35.74983],[139.34058,35.74982],[139.34081,35.74955],[139.34094,35.74949],[139.341,35.74947],[139.34175,35.74976],[139.34176,35.74975],[139.34193,35.74956],[139.34262,35.74966],[139.34226,35.7461],[139.34227,35.7461],[139.34575,35.747],[139.34914,35.74383],[139.35141,35.74171],[139.35185,35.74129],[139.35196,35.74138],[139.35216,35.74163],[139.35334,35.74257],[139.35332,35.74259],[139.3511,35.74493],[139.35105,35.74502],[139.351,35.74507],[139.35094,35.74518],[139.35088,35.74528],[139.35085,35.74535],[139.35011,35.74774],[139.35007,35.74786],[139.35008,35.74786],[139.35008,35.74787],[139.35044,35.74753],[139.3506,35.74738],[139.35107,35.74694],[139.35107,35.74694],[139.35134,35.74685],[139.35446,35.74585],[139.35458,35.74582],[139.35461,35.74581],[139.35462,35.7458],[139.35538,35.74544],[139.35554,35.74538],[139.35446,35.74305],[139.35473,35.74294],[139.35576,35.74257],[139.35607,35.74247],[139.35884,35.74198],[139.35867,35.74136],[139.35865,35.74116],[139.35914,35.74106],[139.35917,35.74102],[139.35982,35.73992],[139.35987,35.73994],[139.3605,35.73974],[139.35984,35.7399],[139.35864,35.73952],[139.35884,35.73885],[139.35924,35.73759],[139.35632,35.73696],[139.35276,35.73624],[139.35314,35.7344],[139.35338,35.73305],[139.35235,35.73296],[139.3523,35.73294],[139.35226,35.73283],[139.35223,35.73261],[139.35223,35.73238],[139.35227,35.73223],[139.35233,35.73218],[139.35283,35.72949],[139.35293,35.72874],[139.35286,35.72871],[139.35246,35.72855],[139.35248,35.72847],[139.35245,35.72844],[139.35267,35.72771],[139.3527,35.72763],[139.35282,35.72716],[139.34925,35.72547],[139.34683,35.72433],[139.34598,35.72549],[139.34478,35.72495],[139.34446,35.72538],[139.34314,35.72726],[139.34312,35.72728],[139.34297,35.72726],[139.34302,35.72742],[139.34291,35.72846],[139.3428,35.72873],[139.34284,35.7288],[139.34276,35.7291],[139.34251,35.72964],[139.34258,35.72967],[139.34247,35.73002],[139.34222,35.73082],[139.34198,35.73158],[139.34174,35.73234],[139.34163,35.7327],[139.34144,35.73319],[139.34134,35.73346],[139.34121,35.73373],[139.34102,35.73417],[139.34092,35.73428],[139.34058,35.73497],[139.34049,35.73514],[139.3404,35.73538],[139.34022,35.73568],[139.34003,35.73607],[139.33958,35.73696],[139.33942,35.73728],[139.33892,35.73829],[139.33823,35.73969],[139.33822,35.73978],[139.33816,35.73988],[139.33815,35.73995],[139.33812,35.7402],[139.33809,35.74042],[139.33805,35.7408],[139.33799,35.74125],[139.33786,35.74234],[139.3378,35.74286],[139.33775,35.74337],[139.33769,35.7439],[139.3376,35.74462],[139.33764,35.74463],[139.33758,35.74502],[139.33749,35.74575],[139.3374,35.74653],[139.33728,35.74741],[139.33731,35.74753],[139.33726,35.74778],[139.33736,35.74796],[139.3374,35.74802],[139.33853,35.74991],[139.3385,35.74994],[139.33872,35.75032],[139.33731,35.75022],[139.33682,35.749],[139.3366,35.74839],[139.3365,35.74808],[139.33635,35.74749],[139.33551,35.74712],[139.33517,35.74698],[139.33504,35.74733],[139.33469,35.74885],[139.33441,35.75026],[139.33429,35.75086],[139.33424,35.75103],[139.33418,35.75111],[139.33421,35.75113],[139.33422,35.75111],[139.33436,35.75112],[139.33439,35.75112],[139.33446,35.75112],[139.33463,35.7511],[139.33539,35.75115],[139.33552,35.75112],[139.33586,35.75115],[139.33586,35.75138],[139.33617,35.75159],[139.33641,35.75163],[139.33637,35.75172],[139.33627,35.75193],[139.33628,35.75194],[139.33654,35.75205],[139.33674,35.75212],[139.33707,35.75203],[139.33709,35.75149]]]}},{"type":"Feature","properties":{"name":"大字熊川二宮","setai":4,"jinko":8,"key":"132180120","units":1},"geometry":{"type":"Polygon","coordinates":[[[139.33918,35.73339],[139.33915,35.7331],[139.33879,35.7331],[139.33868,35.73344],[139.33918,35.73339]]]}},{"type":"Feature","properties":{"name":"大字福生二宮","setai":116,"jinko":207,"key":"132180130","units":1},"geometry":{"type":"Polygon","coordinates":[[[139.34022,35.73568],[139.3404,35.73538],[139.34049,35.73514],[139.34058,35.73497],[139.34028,35.73495],[139.34028,35.73484],[139.33983,35.73478],[139.33989,35.73451],[139.33965,35.73448],[139.33966,35.73442],[139.3395,35.73441],[139.33948,35.73441],[139.33949,35.73436],[139.33952,35.73407],[139.33857,35.7339],[139.33849,35.73418],[139.33918,35.7343],[139.3391,35.73465],[139.33908,35.73477],[139.33939,35.73483],[139.33936,35.73506],[139.33898,35.735],[139.33893,35.73521],[139.33888,35.73542],[139.3392,35.73548],[139.33919,35.73571],[139.33915,35.73587],[139.33931,35.7359],[139.33944,35.73592],[139.33942,35.73607],[139.34003,35.73607],[139.34022,35.73568]],[[139.33967,35.73534],[139.3399,35.7353],[139.33991,35.73532],[139.33993,35.73544],[139.34004,35.7354],[139.34005,35.73536],[139.34005,35.73537],[139.34013,35.73541],[139.34003,35.73561],[139.33965,35.73548],[139.33967,35.73534]]]}}]}