{"type":"FeatureCollection","features":[{"type":"Feature","properties":{"name":"柏里一丁目","setai":575,"jinko":1040,"key":"27113001001","units":1,"m":520,"f":520,"gk":37,"a0":97,"a1":681,"a2":247,"a75":132,"ag":[37,32,28,23,59,110,82,82,74,71,70,58,52,45,70,66,32,19,10,5,0],"nf":15},"geometry":{"type":"Polygon","coordinates":[[[135.47251,34.70585],[135.47208,34.70558],[135.4695,34.70845],[135.46939,34.70878],[135.46929,34.70883],[135.46894,34.70903],[135.4685,34.70928],[135.46823,34.70947],[135.468,34.70964],[135.46783,34.70978],[135.46762,34.70999],[135.46801,34.71023],[135.46838,34.71047],[135.46837,34.71048],[135.46894,34.71081],[135.46926,34.71101],[135.46981,34.71133],[135.47009,34.71099],[135.47015,34.71093],[135.4704,34.71063],[135.47066,34.71032],[135.47087,34.71008],[135.47091,34.71004],[135.47109,34.70983],[135.47198,34.70881],[135.47228,34.70844],[135.47385,34.70667],[135.47341,34.7064],[135.47296,34.70612],[135.47265,34.70593],[135.47251,34.70585]]]}},{"type":"Feature","properties":{"name":"柏里二丁目","setai":714,"jinko":1221,"key":"27113001002","units":1,"m":597,"f":624,"gk":67,"a0":102,"a1":821,"a2":290,"a75":145,"ag":[42,29,31,47,69,124,94,71,91,104,88,64,69,67,78,60,45,22,13,4,1],"nf":8},"geometry":{"type":"Polygon","coordinates":[[[135.46582,34.70887],[135.46538,34.7086],[135.46531,34.70919],[135.46526,34.70952],[135.46521,34.70992],[135.46516,34.71031],[135.46514,34.71065],[135.46514,34.71077],[135.46512,34.71104],[135.46534,34.71105],[135.46555,34.71106],[135.46589,34.71108],[135.46593,34.71111],[135.46639,34.71142],[135.46644,34.71145],[135.46711,34.71164],[135.46726,34.71168],[135.46782,34.71183],[135.46788,34.71185],[135.46789,34.71186],[135.46818,34.71194],[135.46837,34.71199],[135.46867,34.71207],[135.46916,34.71207],[135.46946,34.71173],[135.46981,34.71133],[135.46926,34.71101],[135.46894,34.71081],[135.46837,34.71048],[135.46838,34.71047],[135.46801,34.71023],[135.46762,34.70999],[135.46715,34.7097],[135.46667,34.7094],[135.46646,34.70927],[135.4662,34.70911],[135.46582,34.70887]]]}},{"type":"Feature","properties":{"name":"柏里三丁目","setai":788,"jinko":1293,"key":"27113001003","units":1,"m":567,"f":726,"gk":29,"a0":69,"a1":646,"a2":571,"a75":332,"ag":[26,23,20,23,52,56,53,68,58,83,87,92,74,84,155,139,106,65,15,6,1],"nf":7},"geometry":{"type":"Polygon","coordinates":[[[135.46534,34.71105],[135.46512,34.71104],[135.46506,34.71134],[135.46503,34.71152],[135.46494,34.71199],[135.4649,34.71223],[135.46487,34.71237],[135.46477,34.71272],[135.46469,34.71314],[135.46564,34.7134],[135.46659,34.71365],[135.46707,34.71378],[135.46713,34.7138],[135.46766,34.71395],[135.46809,34.71341],[135.46818,34.7133],[135.4687,34.71266],[135.46874,34.71261],[135.46892,34.71239],[135.46916,34.71207],[135.46867,34.71207],[135.46837,34.71199],[135.46818,34.71194],[135.46789,34.71186],[135.46788,34.71185],[135.46782,34.71183],[135.46726,34.71168],[135.46711,34.71164],[135.46644,34.71145],[135.46639,34.71142],[135.46593,34.71111],[135.46589,34.71108],[135.46555,34.71106],[135.46534,34.71105]]]}},{"type":"Feature","properties":{"name":"花川一丁目","setai":569,"jinko":1106,"key":"27113002001","units":1,"m":533,"f":573,"gk":25,"a0":111,"a1":649,"a2":342,"a75":195,"ag":[32,33,46,58,61,82,58,47,65,90,75,66,47,63,84,74,72,32,16,1,0],"nf":4},"geometry":{"type":"Polygon","coordinates":[[[135.46866,34.7035],[135.46843,34.70336],[135.46596,34.70622],[135.46591,34.70634],[135.46604,34.70656],[135.46627,34.70712],[135.46629,34.70714],[135.46645,34.70742],[135.46654,34.7077],[135.46666,34.70802],[135.46666,34.70803],[135.46675,34.70835],[135.46684,34.70859],[135.46687,34.70885],[135.46677,34.70922],[135.46673,34.70929],[135.46667,34.7094],[135.46715,34.7097],[135.46762,34.70999],[135.46783,34.70978],[135.468,34.70964],[135.46823,34.70947],[135.4685,34.70928],[135.46894,34.70903],[135.46929,34.70883],[135.46939,34.70878],[135.4695,34.70845],[135.47208,34.70558],[135.47152,34.70524],[135.47126,34.70508],[135.47094,34.70488],[135.47065,34.7047],[135.47004,34.70433],[135.46979,34.70417],[135.4696,34.70406],[135.46938,34.70392],[135.46866,34.7035]]]}},{"type":"Feature","properties":{"name":"花川二丁目","setai":1021,"jinko":2120,"key":"27113002002","units":1,"m":1046,"f":1074,"gk":68,"a0":274,"a1":1417,"a2":407,"a75":203,"ag":[100,87,87,93,137,181,173,127,157,193,130,126,100,80,124,90,50,43,17,3,0],"nf":22},"geometry":{"type":"Polygon","coordinates":[[[135.46675,34.70835],[135.46666,34.70803],[135.46666,34.70802],[135.46654,34.7077],[135.46645,34.70742],[135.46629,34.70714],[135.46627,34.70712],[135.46604,34.70656],[135.46591,34.70634],[135.46596,34.70622],[135.46843,34.70336],[135.46829,34.70328],[135.4678,34.70298],[135.46777,34.70297],[135.46731,34.70269],[135.46701,34.70251],[135.46665,34.7023],[135.46646,34.7022],[135.46637,34.70215],[135.46564,34.70301],[135.4653,34.70339],[135.46501,34.70374],[135.4635,34.70547],[135.46338,34.7056],[135.46321,34.7058],[135.46307,34.70595],[135.46272,34.70625],[135.46244,34.70647],[135.46233,34.70654],[135.4622,34.70662],[135.46214,34.70666],[135.46293,34.70714],[135.46369,34.70761],[135.46397,34.70779],[135.46407,34.70785],[135.4642,34.70793],[135.46454,34.70814],[135.46458,34.7081],[135.46538,34.7086],[135.46582,34.70887],[135.4662,34.70911],[135.46646,34.70927],[135.46667,34.7094],[135.46673,34.70929],[135.46677,34.70922],[135.46687,34.70885],[135.46684,34.70859],[135.46675,34.70835]]]}},{"type":"Feature","properties":{"name":"野里一丁目","setai":2244,"jinko":3607,"key":"27113003001","units":1,"m":1843,"f":1764,"gk":165,"a0":293,"a1":2448,"a2":796,"a75":403,"ag":[105,83,105,130,293,383,281,209,217,283,275,215,162,169,224,163,131,78,22,9,0],"nf":70},"geometry":{"type":"Polygon","coordinates":[[[135.46538,34.7086],[135.46458,34.7081],[135.46454,34.70814],[135.4642,34.70793],[135.46407,34.70785],[135.46397,34.70779],[135.46369,34.70761],[135.46293,34.70714],[135.46214,34.70666],[135.46194,34.70679],[135.46205,34.70751],[135.46207,34.70765],[135.46212,34.70782],[135.46213,34.70787],[135.46218,34.70808],[135.46219,34.70809],[135.46224,34.70819],[135.46226,34.70821],[135.46238,34.70838],[135.46278,34.70887],[135.46264,34.70893],[135.46268,34.70916],[135.46268,34.70927],[135.46261,34.70982],[135.46262,34.70985],[135.46263,34.70999],[135.46264,34.71028],[135.46265,34.71038],[135.46264,34.71061],[135.46264,34.7107],[135.46265,34.71101],[135.46262,34.7111],[135.46251,34.71151],[135.46249,34.71157],[135.46239,34.71172],[135.4623,34.71179],[135.46229,34.7118],[135.4622,34.71201],[135.46204,34.71242],[135.46223,34.71248],[135.46241,34.71252],[135.46295,34.71267],[135.46369,34.71287],[135.46374,34.71288],[135.46468,34.71313],[135.46469,34.71314],[135.46477,34.71272],[135.46487,34.71237],[135.4649,34.71223],[135.46494,34.71199],[135.46503,34.71152],[135.46506,34.71134],[135.46512,34.71104],[135.46514,34.71077],[135.46514,34.71065],[135.46516,34.71031],[135.46521,34.70992],[135.46526,34.70952],[135.46531,34.70919],[135.46538,34.7086]]]}},{"type":"Feature","properties":{"name":"野里二丁目","setai":1966,"jinko":3315,"key":"27113003002","units":1,"m":1617,"f":1698,"gk":109,"a0":322,"a1":2224,"a2":615,"a75":296,"ag":[102,120,100,111,239,385,284,249,200,215,219,189,133,158,161,118,101,45,29,3,0],"nf":154},"geometry":{"type":"Polygon","coordinates":[[[135.46205,34.70751],[135.46194,34.70679],[135.46161,34.70697],[135.46132,34.70714],[135.46104,34.70731],[135.46063,34.70755],[135.46015,34.70783],[135.45985,34.70801],[135.45966,34.70813],[135.45947,34.70824],[135.45932,34.70833],[135.4592,34.7084],[135.459,34.70852],[135.45898,34.70853],[135.4586,34.70875],[135.45884,34.70903],[135.45905,34.70929],[135.45907,34.70932],[135.45976,34.71014],[135.46013,34.71056],[135.4603,34.71077],[135.46051,34.71101],[135.46105,34.71167],[135.46107,34.71171],[135.46089,34.71212],[135.46134,34.71224],[135.46204,34.71242],[135.4622,34.71201],[135.46229,34.7118],[135.4623,34.71179],[135.46239,34.71172],[135.46249,34.71157],[135.46251,34.71151],[135.46262,34.7111],[135.46265,34.71101],[135.46264,34.7107],[135.46264,34.71061],[135.46265,34.71038],[135.46264,34.71028],[135.46263,34.70999],[135.46262,34.70985],[135.46261,34.70982],[135.46268,34.70927],[135.46268,34.70916],[135.46264,34.70893],[135.46278,34.70887],[135.46238,34.70838],[135.46226,34.70821],[135.46224,34.70819],[135.46219,34.70809],[135.46218,34.70808],[135.46213,34.70787],[135.46212,34.70782],[135.46207,34.70765],[135.46205,34.70751]]]}},{"type":"Feature","properties":{"name":"野里三丁目","setai":572,"jinko":1219,"key":"27113003003","units":1,"m":575,"f":644,"gk":9,"a0":194,"a1":719,"a2":272,"a75":118,"ag":[44,72,78,44,42,49,62,95,123,101,85,56,62,77,77,54,37,19,5,3,0],"nf":34},"geometry":{"type":"Polygon","coordinates":[[[135.45884,34.70903],[135.4586,34.70875],[135.45787,34.70916],[135.45741,34.70942],[135.45732,34.70947],[135.45676,34.7098],[135.45668,34.70985],[135.45661,34.70988],[135.45632,34.71005],[135.45653,34.71036],[135.45675,34.71066],[135.45676,34.71068],[135.45704,34.71107],[135.45704,34.71108],[135.45706,34.7111],[135.45742,34.7112],[135.45787,34.71133],[135.45839,34.71147],[135.45842,34.71148],[135.45971,34.71182],[135.46026,34.71196],[135.46087,34.71211],[135.46089,34.71212],[135.46107,34.71171],[135.46105,34.71167],[135.46051,34.71101],[135.4603,34.71077],[135.46013,34.71056],[135.45976,34.71014],[135.45907,34.70932],[135.45905,34.70929],[135.45884,34.70903]]]}},{"type":"Feature","properties":{"name":"歌島一丁目","setai":1078,"jinko":1994,"key":"27113004001","units":1,"m":1019,"f":975,"gk":100,"a0":196,"a1":1337,"a2":451,"a75":210,"ag":[67,72,57,75,156,150,166,120,118,174,157,122,99,110,131,86,67,36,16,5,0],"nf":10},"geometry":{"type":"Polygon","coordinates":[[[135.46469,34.71314],[135.46468,34.71313],[135.46451,34.7137],[135.46442,34.71403],[135.46432,34.71435],[135.46432,34.71436],[135.46423,34.71469],[135.46413,34.71503],[135.46414,34.71546],[135.46413,34.71566],[135.46356,34.71581],[135.46349,34.71583],[135.46303,34.71594],[135.46272,34.71604],[135.46248,34.71613],[135.46222,34.71624],[135.46204,34.71634],[135.46182,34.7165],[135.46179,34.71652],[135.46168,34.71661],[135.46148,34.71682],[135.46209,34.717],[135.46279,34.7172],[135.4631,34.71728],[135.4635,34.71741],[135.46413,34.7176],[135.46433,34.71763],[135.46442,34.71766],[135.46449,34.71758],[135.46487,34.71713],[135.46522,34.71675],[135.46523,34.71674],[135.46552,34.71642],[135.46585,34.71604],[135.46615,34.7157],[135.4662,34.71564],[135.46642,34.71539],[135.4667,34.71508],[135.46699,34.71475],[135.46726,34.71444],[135.46735,34.71434],[135.46766,34.71395],[135.46713,34.7138],[135.46707,34.71378],[135.46659,34.71365],[135.46564,34.7134],[135.46469,34.71314]]]}},{"type":"Feature","properties":{"name":"歌島二丁目","setai":806,"jinko":1719,"key":"27113004002","units":1,"m":904,"f":815,"gk":76,"a0":207,"a1":1208,"a2":302,"a75":136,"ag":[56,51,100,108,115,125,93,95,110,199,159,122,82,87,79,60,43,18,11,4,0],"nf":2},"geometry":{"type":"Polygon","coordinates":[[[135.46223,34.71248],[135.46204,34.71242],[135.46159,34.71354],[135.46126,34.71435],[135.46127,34.71438],[135.46095,34.71454],[135.46048,34.71478],[135.45997,34.71501],[135.46012,34.71523],[135.46029,34.71547],[135.46045,34.7157],[135.46059,34.71589],[135.4606,34.7159],[135.46086,34.71628],[135.46089,34.71632],[135.46091,34.71635],[135.46095,34.7164],[135.46099,34.71646],[135.46105,34.71654],[135.46114,34.71665],[135.46121,34.71675],[135.46148,34.71682],[135.46168,34.71661],[135.46179,34.71652],[135.46182,34.7165],[135.46204,34.71634],[135.46222,34.71624],[135.46248,34.71613],[135.46272,34.71604],[135.46303,34.71594],[135.46349,34.71583],[135.46356,34.71581],[135.46413,34.71566],[135.46414,34.71546],[135.46413,34.71503],[135.46423,34.71469],[135.46432,34.71436],[135.46432,34.71435],[135.46442,34.71403],[135.46451,34.7137],[135.46468,34.71313],[135.46374,34.71288],[135.46369,34.71287],[135.46295,34.71267],[135.46241,34.71252],[135.46223,34.71248]]]}},{"type":"Feature","properties":{"name":"歌島三丁目","setai":891,"jinko":1898,"key":"27113004003","units":1,"m":827,"f":1071,"gk":33,"a0":174,"a1":993,"a2":720,"a75":398,"ag":[62,59,53,60,79,81,97,95,92,126,109,142,112,142,180,168,138,70,20,2,0],"nf":11},"geometry":{"type":"Polygon","coordinates":[[[135.45742,34.7112],[135.45706,34.7111],[135.45742,34.7116],[135.45766,34.71194],[135.45805,34.71244],[135.45844,34.71295],[135.45846,34.71297],[135.45867,34.71326],[135.45873,34.71335],[135.45902,34.71376],[135.45911,34.71388],[135.45913,34.7139],[135.45938,34.71426],[135.45966,34.71461],[135.45997,34.71501],[135.46048,34.71478],[135.46095,34.71454],[135.46127,34.71438],[135.46126,34.71435],[135.46159,34.71354],[135.46204,34.71242],[135.46134,34.71224],[135.46089,34.71212],[135.46087,34.71211],[135.46026,34.71196],[135.45971,34.71182],[135.45842,34.71148],[135.45839,34.71147],[135.45787,34.71133],[135.45742,34.7112]]]}},{"type":"Feature","properties":{"name":"歌島四丁目","setai":237,"jinko":453,"key":"27113004004","units":1,"m":204,"f":249,"gk":11,"a0":34,"a1":250,"a2":166,"a75":85,"ag":[14,10,10,21,18,21,16,16,21,28,26,44,39,35,46,39,25,14,5,2,0],"nf":3},"geometry":{"type":"Polygon","coordinates":[[[135.46121,34.71675],[135.46114,34.71665],[135.46115,34.71671],[135.461,34.71713],[135.46089,34.71747],[135.46082,34.71779],[135.46071,34.71831],[135.46058,34.71879],[135.46058,34.7188],[135.4605,34.71911],[135.46019,34.72026],[135.46007,34.72055],[135.46079,34.72086],[135.46112,34.72101],[135.46138,34.72115],[135.46175,34.72075],[135.46246,34.71993],[135.46288,34.71943],[135.46341,34.71885],[135.46362,34.71858],[135.4639,34.71824],[135.46442,34.71766],[135.46433,34.71763],[135.46413,34.7176],[135.4635,34.71741],[135.4631,34.71728],[135.46279,34.7172],[135.46209,34.717],[135.46148,34.71682],[135.46121,34.71675]]]}},{"type":"Feature","properties":{"name":"竹島一丁目","setai":6,"jinko":16,"key":"27113005001","units":1,"m":11,"f":5,"gk":0,"a0":5,"a1":11,"a2":0,"a75":0,"ag":[1,1,3,0,2,1,1,3,1,2,0,0,1,0,0,0,0,0,0,0,0]},"geometry":{"type":"Polygon","coordinates":[[[135.46079,34.72086],[135.46007,34.72055],[135.45983,34.72092],[135.45964,34.72118],[135.45941,34.72145],[135.45915,34.72171],[135.45885,34.722],[135.45853,34.72229],[135.45821,34.72258],[135.45791,34.72287],[135.45742,34.72329],[135.45724,34.72343],[135.45714,34.72353],[135.457,34.72364],[135.45603,34.72381],[135.45596,34.72383],[135.45608,34.72421],[135.45605,34.72448],[135.45617,34.72501],[135.45643,34.72588],[135.45647,34.72584],[135.45666,34.72569],[135.45675,34.72562],[135.45699,34.7254],[135.45725,34.72513],[135.45776,34.72459],[135.45792,34.72442],[135.45822,34.7241],[135.45852,34.72379],[135.45887,34.72349],[135.45916,34.72323],[135.4592,34.7232],[135.45971,34.72278],[135.45988,34.72265],[135.46052,34.72208],[135.46071,34.72187],[135.46077,34.72183],[135.46102,34.72158],[135.46108,34.72151],[135.46138,34.72115],[135.46112,34.72101],[135.46079,34.72086]]]}},{"type":"Feature","properties":{"name":"竹島二丁目","setai":99,"jinko":255,"key":"27113005002","units":1,"m":129,"f":126,"gk":7,"a0":45,"a1":153,"a2":49,"a75":32,"ag":[8,10,27,16,14,9,6,5,23,43,16,10,11,8,9,11,13,4,3,1,0],"nf":8},"geometry":{"type":"Polygon","coordinates":[[[135.45355,34.72306],[135.45299,34.72288],[135.45265,34.72363],[135.45241,34.72413],[135.4524,34.72414],[135.45215,34.72466],[135.45331,34.72505],[135.45401,34.72528],[135.45405,34.72537],[135.45416,34.72574],[135.45416,34.72577],[135.45457,34.72703],[135.45531,34.72664],[135.45576,34.72637],[135.45643,34.72588],[135.45617,34.72501],[135.45605,34.72448],[135.45608,34.72421],[135.45596,34.72383],[135.45577,34.7238],[135.45548,34.72373],[135.45448,34.7234],[135.45445,34.72339],[135.454,34.72323],[135.45355,34.72306]]]}},{"type":"Feature","properties":{"name":"竹島三丁目","setai":591,"jinko":1179,"key":"27113005003","units":1,"m":626,"f":553,"gk":40,"a0":158,"a1":756,"a2":219,"a75":102,"ag":[79,35,44,50,59,107,99,76,97,84,71,61,52,53,64,39,35,14,11,3,0],"nf":46},"geometry":{"type":"Polygon","coordinates":[[[135.45331,34.72505],[135.45215,34.72466],[135.45189,34.72521],[135.4516,34.72574],[135.45133,34.72627],[135.45108,34.72683],[135.45099,34.72703],[135.45083,34.72734],[135.45097,34.7278],[135.45106,34.72814],[135.45147,34.72807],[135.4518,34.728],[135.45246,34.72781],[135.45277,34.72771],[135.45284,34.72769],[135.45334,34.7275],[135.45365,34.72738],[135.45408,34.72723],[135.45414,34.72721],[135.45457,34.72703],[135.45416,34.72577],[135.45416,34.72574],[135.45405,34.72537],[135.45401,34.72528],[135.45331,34.72505]]]}},{"type":"Feature","properties":{"name":"竹島四丁目","setai":67,"jinko":110,"key":"27113005004","units":1,"m":61,"f":49,"gk":0,"a0":4,"a1":70,"a2":31,"a75":22,"ag":[3,0,1,2,7,11,8,7,5,8,6,9,7,3,6,9,7,4,2,0,0],"nf":5},"geometry":{"type":"Polygon","coordinates":[[[135.4516,34.72574],[135.45189,34.72521],[135.45215,34.72466],[135.4524,34.72414],[135.45241,34.72413],[135.45265,34.72363],[135.45299,34.72288],[135.45297,34.72288],[135.45187,34.72252],[135.45091,34.72221],[135.45088,34.72219],[135.4506,34.72209],[135.44997,34.72189],[135.44941,34.72169],[135.44907,34.72217],[135.44871,34.72266],[135.44847,34.72293],[135.44824,34.72316],[135.44804,34.72332],[135.44796,34.72354],[135.44782,34.72384],[135.44748,34.72451],[135.44742,34.72462],[135.44722,34.72494],[135.44722,34.72494],[135.44906,34.72561],[135.44912,34.72555],[135.45024,34.72591],[135.45133,34.72627],[135.4516,34.72574]]]}},{"type":"Feature","properties":{"name":"竹島五丁目","setai":53,"jinko":75,"key":"27113005005","units":1,"m":35,"f":40,"gk":1,"a0":3,"a1":46,"a2":24,"a75":13,"ag":[0,2,1,0,10,10,2,0,3,10,7,2,2,4,7,3,8,2,0,0,0],"nf":2},"geometry":{"type":"Polygon","coordinates":[[[135.45024,34.72591],[135.44912,34.72555],[135.44906,34.72561],[135.44722,34.72494],[135.44708,34.72521],[135.44684,34.72564],[135.44642,34.72636],[135.44618,34.72681],[135.44598,34.72716],[135.44588,34.72745],[135.44582,34.72767],[135.44575,34.72803],[135.44565,34.72865],[135.44565,34.72913],[135.44568,34.72912],[135.44589,34.72908],[135.44696,34.7289],[135.44753,34.7288],[135.44789,34.72873],[135.44842,34.72862],[135.44931,34.72846],[135.45029,34.72828],[135.45106,34.72814],[135.45097,34.7278],[135.45083,34.72734],[135.45099,34.72703],[135.45108,34.72683],[135.45133,34.72627],[135.45024,34.72591]]]}},{"type":"Feature","properties":{"name":"千舟一丁目","setai":85,"jinko":179,"key":"27113006001","units":1,"m":83,"f":96,"gk":4,"a0":24,"a1":125,"a2":29,"a75":13,"ag":[9,12,3,4,2,28,3,17,19,22,10,10,10,7,9,5,6,2,0,0,0],"nf":1},"geometry":{"type":"Polygon","coordinates":[[[135.45383,34.70666],[135.45381,34.70665],[135.45246,34.70721],[135.45136,34.70768],[135.4508,34.7079],[135.45198,34.70855],[135.45229,34.70872],[135.45239,34.70878],[135.45313,34.70919],[135.45388,34.70962],[135.45494,34.7102],[135.45553,34.71053],[135.45561,34.71048],[135.45632,34.71005],[135.45614,34.7098],[135.45602,34.70964],[135.45598,34.70959],[135.45592,34.7095],[135.45581,34.70936],[135.4555,34.70893],[135.45537,34.70876],[135.45529,34.70866],[135.45503,34.70831],[135.45473,34.70788],[135.45466,34.70778],[135.45443,34.70748],[135.45427,34.70726],[135.45383,34.70666]]]}},{"type":"Feature","properties":{"name":"千舟二丁目","setai":1092,"jinko":2557,"key":"27113006002","units":1,"m":1233,"f":1324,"gk":70,"a0":449,"a1":1518,"a2":573,"a75":256,"ag":[136,187,126,91,93,115,138,221,238,205,171,130,116,161,156,106,71,43,23,11,2],"nf":17},"geometry":{"type":"Polygon","coordinates":[[[135.45388,34.70962],[135.45313,34.70919],[135.45272,34.70942],[135.45255,34.70952],[135.4524,34.7096],[135.45222,34.7097],[135.45212,34.70976],[135.45177,34.70995],[135.45126,34.71022],[135.45042,34.71067],[135.44989,34.71089],[135.44932,34.71113],[135.44826,34.7116],[135.44835,34.71167],[135.44872,34.71202],[135.44908,34.71242],[135.4493,34.71268],[135.44974,34.71323],[135.44993,34.71349],[135.45001,34.7136],[135.45016,34.71354],[135.45045,34.71338],[135.45079,34.71321],[135.45109,34.71305],[135.45125,34.71297],[135.45138,34.71291],[135.45153,34.71282],[135.45175,34.7127],[135.452,34.71256],[135.45206,34.71252],[135.45226,34.71241],[135.45246,34.71231],[135.45272,34.71215],[135.45299,34.712],[135.45327,34.71184],[135.45334,34.7118],[135.45406,34.71139],[135.4542,34.71131],[135.45426,34.71128],[135.45452,34.71112],[135.45506,34.71081],[135.45553,34.71053],[135.45494,34.7102],[135.45388,34.70962]]]}},{"type":"Feature","properties":{"name":"千舟三丁目","setai":835,"jinko":1671,"key":"27113006003","units":1,"m":954,"f":717,"gk":38,"a0":271,"a1":1125,"a2":263,"a75":109,"ag":[71,86,114,101,96,111,97,108,143,199,121,80,69,87,67,50,44,10,4,1,0],"nf":12},"geometry":{"type":"Polygon","coordinates":[[[135.45198,34.70855],[135.4508,34.7079],[135.45076,34.70792],[135.45057,34.708],[135.44955,34.70842],[135.44907,34.70862],[135.44902,34.70863],[135.44876,34.70874],[135.44861,34.70878],[135.44858,34.70879],[135.4483,34.70891],[135.44827,34.70892],[135.44774,34.70912],[135.44764,34.70915],[135.44772,34.70923],[135.44738,34.70947],[135.44716,34.70965],[135.44692,34.70989],[135.44637,34.7105],[135.44628,34.71061],[135.44644,34.71065],[135.44651,34.71067],[135.44662,34.7107],[135.44664,34.71071],[135.44679,34.71076],[135.44704,34.71084],[135.44747,34.71103],[135.4479,34.71131],[135.44813,34.71148],[135.44826,34.7116],[135.44932,34.71113],[135.44989,34.71089],[135.45042,34.71067],[135.45126,34.71022],[135.45177,34.70995],[135.45212,34.70976],[135.45222,34.7097],[135.4524,34.7096],[135.45255,34.70952],[135.45272,34.70942],[135.45313,34.70919],[135.45239,34.70878],[135.45229,34.70872],[135.45198,34.70855]]]}},{"type":"Feature","properties":{"name":"御幣島一丁目","setai":617,"jinko":1494,"key":"27113007001","units":1,"m":716,"f":778,"gk":30,"a0":207,"a1":1032,"a2":244,"a75":124,"ag":[64,68,75,108,105,69,79,84,99,158,142,117,71,53,67,55,32,24,11,2,0],"nf":11},"geometry":{"type":"Polygon","coordinates":[[[135.45653,34.71036],[135.45632,34.71005],[135.45561,34.71048],[135.45563,34.71076],[135.45565,34.71105],[135.45565,34.71168],[135.45564,34.71252],[135.45565,34.71348],[135.45565,34.71447],[135.45565,34.71547],[135.45644,34.71548],[135.45647,34.71548],[135.45672,34.71548],[135.4568,34.71548],[135.45709,34.71549],[135.45822,34.71549],[135.45834,34.71548],[135.45907,34.71544],[135.4591,34.71543],[135.45997,34.71501],[135.45966,34.71461],[135.45938,34.71426],[135.45913,34.7139],[135.45911,34.71388],[135.45902,34.71376],[135.45873,34.71335],[135.45867,34.71326],[135.45846,34.71297],[135.45844,34.71295],[135.45805,34.71244],[135.45766,34.71194],[135.45742,34.7116],[135.45706,34.7111],[135.45704,34.71108],[135.45704,34.71107],[135.45676,34.71068],[135.45675,34.71066],[135.45653,34.71036]]]}},{"type":"Feature","properties":{"name":"御幣島二丁目","setai":1284,"jinko":2355,"key":"27113007002","units":1,"m":1193,"f":1162,"gk":59,"a0":228,"a1":1536,"a2":498,"a75":222,"ag":[93,56,79,115,131,194,186,147,156,201,167,138,101,131,145,96,72,36,12,5,1],"nf":93},"geometry":{"type":"Polygon","coordinates":[[[135.45364,34.71547],[135.45444,34.71547],[135.45445,34.71547],[135.45498,34.71547],[135.45499,34.71547],[135.45565,34.71547],[135.45565,34.71447],[135.45565,34.71348],[135.45564,34.71252],[135.45565,34.71168],[135.45565,34.71105],[135.45563,34.71076],[135.45561,34.71048],[135.45553,34.71053],[135.45506,34.71081],[135.45452,34.71112],[135.45426,34.71128],[135.4542,34.71131],[135.45406,34.71139],[135.45334,34.7118],[135.45327,34.71184],[135.45299,34.712],[135.45272,34.71215],[135.45246,34.71231],[135.45226,34.71241],[135.45206,34.71252],[135.452,34.71256],[135.45175,34.7127],[135.45153,34.71282],[135.45138,34.71291],[135.45125,34.71297],[135.45109,34.71305],[135.45079,34.71321],[135.45045,34.71338],[135.45016,34.71354],[135.45001,34.7136],[135.45003,34.71363],[135.45027,34.71402],[135.45033,34.71415],[135.45042,34.71432],[135.4513,34.71381],[135.4514,34.71397],[135.45148,34.71408],[135.45155,34.71419],[135.45178,34.71454],[135.45185,34.71466],[135.45198,34.71489],[135.45208,34.71506],[135.4523,34.71547],[135.45316,34.71547],[135.45364,34.71547]]]}},{"type":"Feature","properties":{"name":"御幣島三丁目","setai":1553,"jinko":3941,"key":"27113007003","units":1,"m":1891,"f":2050,"gk":53,"a0":617,"a1":2657,"a2":615,"a75":303,"ag":[141,190,286,323,209,138,154,200,304,505,401,273,150,143,169,152,97,40,11,3,0],"nf":52},"geometry":{"type":"Polygon","coordinates":[[[135.46058,34.71879],[135.46071,34.71831],[135.46082,34.71779],[135.46089,34.71747],[135.461,34.71713],[135.46115,34.71671],[135.46114,34.71665],[135.46105,34.71654],[135.46099,34.71646],[135.46095,34.7164],[135.46091,34.71635],[135.46089,34.71632],[135.46086,34.71628],[135.4606,34.7159],[135.46059,34.71589],[135.46045,34.7157],[135.46029,34.71547],[135.46012,34.71523],[135.45997,34.71501],[135.4591,34.71543],[135.45907,34.71544],[135.45834,34.71548],[135.45822,34.71549],[135.45709,34.71549],[135.4568,34.71548],[135.45672,34.71548],[135.45647,34.71548],[135.45644,34.71548],[135.45565,34.71547],[135.45564,34.71574],[135.45563,34.71606],[135.45563,34.71636],[135.45562,34.71662],[135.45561,34.71668],[135.45561,34.71708],[135.4556,34.71778],[135.45559,34.71875],[135.45644,34.71875],[135.4567,34.71875],[135.45705,34.71875],[135.45778,34.71876],[135.45825,34.71876],[135.45882,34.71877],[135.45907,34.71877],[135.45922,34.71877],[135.45934,34.71877],[135.45963,34.71877],[135.46058,34.7188],[135.46058,34.71879]]]}},{"type":"Feature","properties":{"name":"御幣島四丁目","setai":617,"jinko":1402,"key":"27113007004","units":1,"m":690,"f":712,"gk":32,"a0":182,"a1":828,"a2":354,"a75":170,"ag":[52,61,69,67,77,59,69,85,100,109,99,96,67,98,86,76,36,41,13,4,0],"nf":38},"geometry":{"type":"Polygon","coordinates":[[[135.45444,34.71875],[135.45496,34.71874],[135.45559,34.71875],[135.4556,34.71778],[135.45561,34.71708],[135.45561,34.71668],[135.45562,34.71662],[135.45563,34.71636],[135.45563,34.71606],[135.45564,34.71574],[135.45565,34.71547],[135.45499,34.71547],[135.45498,34.71547],[135.45445,34.71547],[135.45444,34.71547],[135.45364,34.71547],[135.45316,34.71547],[135.4523,34.71547],[135.45208,34.71506],[135.45198,34.71489],[135.45185,34.71466],[135.45178,34.71454],[135.45155,34.71419],[135.45148,34.71408],[135.4514,34.71397],[135.4513,34.71381],[135.45042,34.71432],[135.4506,34.71468],[135.45064,34.71476],[135.4508,34.7151],[135.45085,34.71527],[135.45087,34.71534],[135.45094,34.71557],[135.451,34.71578],[135.45105,34.71598],[135.45106,34.71602],[135.45108,34.71609],[135.45114,34.71631],[135.45116,34.71638],[135.4512,34.71653],[135.45124,34.71668],[135.45126,34.71675],[135.4513,34.71694],[135.4513,34.71707],[135.4513,34.71744],[135.45128,34.7176],[135.45122,34.7178],[135.45116,34.71804],[135.45107,34.7183],[135.45094,34.71869],[135.45093,34.71871],[135.45147,34.71872],[135.45306,34.71873],[135.45371,34.71873],[135.45373,34.71873],[135.45444,34.71875]]]}},{"type":"Feature","properties":{"name":"御幣島五丁目","setai":124,"jinko":283,"key":"27113007005","units":1,"m":145,"f":138,"gk":29,"a0":29,"a1":146,"a2":101,"a75":54,"ag":[11,7,11,11,15,11,13,10,16,13,20,19,18,22,25,19,21,10,3,0,1],"nf":7},"geometry":{"type":"Polygon","coordinates":[[[135.45778,34.71876],[135.45705,34.71875],[135.4567,34.71875],[135.45644,34.71875],[135.45559,34.71875],[135.4556,34.71954],[135.45559,34.71994],[135.4556,34.72042],[135.4556,34.72092],[135.45558,34.7215],[135.45558,34.72185],[135.45581,34.72283],[135.45579,34.72286],[135.45583,34.72295],[135.45603,34.72381],[135.457,34.72364],[135.45714,34.72353],[135.45724,34.72343],[135.45742,34.72329],[135.45791,34.72287],[135.45821,34.72258],[135.45853,34.72229],[135.45885,34.722],[135.45915,34.72171],[135.45941,34.72145],[135.45964,34.72118],[135.45983,34.72092],[135.46007,34.72055],[135.46019,34.72026],[135.4605,34.71911],[135.46058,34.7188],[135.45963,34.71877],[135.45934,34.71877],[135.45922,34.71877],[135.45907,34.71877],[135.45882,34.71877],[135.45825,34.71876],[135.45778,34.71876]]]}},{"type":"Feature","properties":{"name":"御幣島六丁目","setai":1223,"jinko":3028,"key":"27113007006","units":1,"m":1437,"f":1591,"gk":63,"a0":361,"a1":1674,"a2":952,"a75":509,"ag":[83,107,171,184,124,115,109,165,205,272,190,149,161,192,251,216,145,90,41,13,4],"nf":41},"geometry":{"type":"Polygon","coordinates":[[[135.4556,34.71954],[135.45559,34.71875],[135.45496,34.71874],[135.45444,34.71875],[135.45373,34.71873],[135.45371,34.71873],[135.45306,34.71873],[135.45147,34.71872],[135.45093,34.71871],[135.45086,34.71889],[135.45078,34.71909],[135.45062,34.71949],[135.45057,34.71962],[135.45054,34.71969],[135.45039,34.72001],[135.45021,34.72036],[135.45004,34.72068],[135.44964,34.72134],[135.44948,34.72159],[135.44941,34.72169],[135.44997,34.72189],[135.4506,34.72209],[135.45088,34.72219],[135.45091,34.72221],[135.45187,34.72252],[135.45297,34.72288],[135.45299,34.72288],[135.45355,34.72306],[135.454,34.72323],[135.45445,34.72339],[135.45448,34.7234],[135.45548,34.72373],[135.45577,34.7238],[135.45596,34.72383],[135.45603,34.72381],[135.45583,34.72295],[135.45579,34.72286],[135.45581,34.72283],[135.45558,34.72185],[135.45558,34.7215],[135.4556,34.72092],[135.4556,34.72042],[135.45559,34.71994],[135.4556,34.71954]]]}},{"type":"Feature","properties":{"name":"佃一丁目","setai":1900,"jinko":4435,"key":"27113008001","units":1,"m":2147,"f":2288,"gk":86,"a0":486,"a1":2952,"a2":950,"a75":437,"ag":[121,135,230,323,249,200,233,195,310,456,384,349,253,259,254,184,134,75,34,9,1],"nf":47},"geometry":{"type":"Polygon","coordinates":[[[135.45027,34.71402],[135.45003,34.71363],[135.44971,34.71379],[135.44895,34.71416],[135.44884,34.71421],[135.44869,34.71429],[135.4486,34.71433],[135.4483,34.71453],[135.44807,34.71472],[135.44769,34.71503],[135.44757,34.71514],[135.44711,34.71554],[135.44703,34.71562],[135.44678,34.7159],[135.44625,34.71657],[135.44588,34.71701],[135.44564,34.71732],[135.44521,34.71781],[135.44577,34.71819],[135.44625,34.71853],[135.44684,34.719],[135.44704,34.7192],[135.44722,34.7194],[135.4474,34.71967],[135.44757,34.71996],[135.44774,34.72031],[135.4478,34.72048],[135.44801,34.72098],[135.44813,34.72129],[135.4482,34.72154],[135.44825,34.72183],[135.44825,34.72217],[135.44818,34.72279],[135.44811,34.7231],[135.44804,34.72332],[135.44824,34.72316],[135.44847,34.72293],[135.44871,34.72266],[135.44907,34.72217],[135.44941,34.72169],[135.44948,34.72159],[135.44964,34.72134],[135.45004,34.72068],[135.45021,34.72036],[135.45039,34.72001],[135.45054,34.71969],[135.45057,34.71962],[135.45062,34.71949],[135.45078,34.71909],[135.45086,34.71889],[135.45093,34.71871],[135.45094,34.71869],[135.45107,34.7183],[135.45116,34.71804],[135.45122,34.7178],[135.45128,34.7176],[135.4513,34.71744],[135.4513,34.71707],[135.4513,34.71694],[135.45126,34.71675],[135.45124,34.71668],[135.4512,34.71653],[135.45116,34.71638],[135.45114,34.71631],[135.45108,34.71609],[135.45106,34.71602],[135.45105,34.71598],[135.451,34.71578],[135.45094,34.71557],[135.45087,34.71534],[135.45085,34.71527],[135.4508,34.7151],[135.45064,34.71476],[135.4506,34.71468],[135.45042,34.71432],[135.45033,34.71415],[135.45027,34.71402]]]}},{"type":"Feature","properties":{"name":"佃二丁目","setai":1946,"jinko":4171,"key":"27113008002","units":1,"m":1894,"f":2277,"gk":65,"a0":307,"a1":2006,"a2":1760,"a75":857,"ag":[91,91,125,151,153,138,155,193,226,291,267,205,227,398,505,367,281,150,47,12,0],"nf":98},"geometry":{"type":"Polygon","coordinates":[[[135.4483,34.71453],[135.4486,34.71433],[135.44869,34.71429],[135.44884,34.71421],[135.44895,34.71416],[135.44971,34.71379],[135.45003,34.71363],[135.45001,34.7136],[135.44993,34.71349],[135.44974,34.71323],[135.4493,34.71268],[135.44908,34.71242],[135.44872,34.71202],[135.44835,34.71167],[135.44826,34.7116],[135.44813,34.71148],[135.4479,34.71131],[135.44747,34.71103],[135.44704,34.71084],[135.44679,34.71076],[135.44664,34.71071],[135.44662,34.7107],[135.44651,34.71067],[135.44618,34.71106],[135.446,34.71129],[135.44588,34.71144],[135.44576,34.71155],[135.44555,34.71175],[135.44537,34.71192],[135.44519,34.71212],[135.44502,34.71238],[135.44476,34.71271],[135.44475,34.71273],[135.44429,34.71336],[135.44428,34.71337],[135.44405,34.71372],[135.44377,34.71406],[135.4437,34.71415],[135.44368,34.71418],[135.44378,34.71421],[135.44382,34.71427],[135.44383,34.7143],[135.44369,34.71446],[135.44352,34.71436],[135.44328,34.71462],[135.44305,34.71487],[135.4428,34.71507],[135.44269,34.71518],[135.44261,34.71525],[135.44251,34.71534],[135.44231,34.71551],[135.44221,34.71559],[135.44197,34.71579],[135.44194,34.71581],[135.44167,34.71604],[135.44135,34.7163],[135.44187,34.71647],[135.44281,34.7168],[135.4433,34.71697],[135.44402,34.71722],[135.44449,34.7174],[135.44465,34.71748],[135.44521,34.71781],[135.44564,34.71732],[135.44588,34.71701],[135.44625,34.71657],[135.44678,34.7159],[135.44703,34.71562],[135.44711,34.71554],[135.44757,34.71514],[135.44769,34.71503],[135.44807,34.71472],[135.4483,34.71453]]]}},{"type":"Feature","properties":{"name":"佃三丁目","setai":1486,"jinko":2973,"key":"27113008003","units":1,"m":1467,"f":1506,"gk":89,"a0":248,"a1":1646,"a2":1078,"a75":515,"ag":[94,81,73,101,150,131,144,163,159,233,205,189,171,256,307,207,164,100,36,8,0],"nf":1},"geometry":{"type":"Polygon","coordinates":[[[135.44328,34.71462],[135.44352,34.71436],[135.44369,34.71446],[135.44383,34.7143],[135.44382,34.71427],[135.44378,34.71421],[135.44368,34.71418],[135.4437,34.71415],[135.44377,34.71406],[135.44405,34.71372],[135.44428,34.71337],[135.44429,34.71336],[135.44475,34.71273],[135.44476,34.71271],[135.44502,34.71238],[135.44519,34.71212],[135.44537,34.71192],[135.44555,34.71175],[135.44576,34.71155],[135.44588,34.71144],[135.446,34.71129],[135.44618,34.71106],[135.44651,34.71067],[135.44644,34.71065],[135.44628,34.71061],[135.44596,34.71054],[135.44551,34.71047],[135.44548,34.71046],[135.44524,34.71043],[135.44502,34.71041],[135.44458,34.71042],[135.444,34.71045],[135.44366,34.71046],[135.44322,34.71046],[135.44304,34.71044],[135.44261,34.71041],[135.44242,34.71038],[135.44235,34.71038],[135.44174,34.7103],[135.4415,34.71026],[135.4412,34.71135],[135.44115,34.71145],[135.44091,34.71191],[135.44063,34.71245],[135.44036,34.71298],[135.44006,34.71354],[135.43981,34.71405],[135.43979,34.71407],[135.43965,34.71424],[135.43952,34.71451],[135.43902,34.71561],[135.43955,34.71577],[135.43985,34.71587],[135.44022,34.71599],[135.44054,34.71609],[135.44135,34.7163],[135.44167,34.71604],[135.44194,34.71581],[135.44197,34.71579],[135.44221,34.71559],[135.44231,34.71551],[135.44251,34.71534],[135.44261,34.71525],[135.44269,34.71518],[135.4428,34.71507],[135.44305,34.71487],[135.44328,34.71462]]]}},{"type":"Feature","properties":{"name":"佃四丁目","setai":266,"jinko":516,"key":"27113008004","units":1,"m":261,"f":255,"gk":33,"a0":38,"a1":322,"a2":156,"a75":73,"ag":[13,7,18,27,25,35,31,32,33,40,38,23,38,42,41,45,13,11,4,0,0]},"geometry":{"type":"Polygon","coordinates":[[[135.44006,34.71354],[135.44036,34.71298],[135.44063,34.71245],[135.44091,34.71191],[135.44115,34.71145],[135.4412,34.71135],[135.4415,34.71026],[135.44123,34.71022],[135.44096,34.71016],[135.44068,34.7101],[135.4403,34.71],[135.43988,34.70989],[135.43952,34.70976],[135.43908,34.71035],[135.43849,34.71097],[135.43804,34.71144],[135.43772,34.71204],[135.43743,34.71261],[135.43716,34.71313],[135.43699,34.71346],[135.4369,34.71344],[135.43626,34.71466],[135.43709,34.715],[135.43753,34.71515],[135.43832,34.71538],[135.43902,34.71561],[135.43952,34.71451],[135.43965,34.71424],[135.43979,34.71407],[135.43981,34.71405],[135.44006,34.71354]]]}},{"type":"Feature","properties":{"name":"佃五丁目","setai":775,"jinko":1805,"key":"27113008005","units":1,"m":870,"f":935,"gk":90,"a0":200,"a1":1228,"a2":371,"a75":147,"ag":[76,56,68,77,121,113,113,100,102,152,144,183,123,110,114,65,47,23,9,3,0],"nf":6},"geometry":{"type":"Polygon","coordinates":[[[135.43626,34.71466],[135.4369,34.71344],[135.43699,34.71346],[135.43716,34.71313],[135.43743,34.71261],[135.43772,34.71204],[135.43804,34.71144],[135.43849,34.71097],[135.43908,34.71035],[135.43952,34.70976],[135.43936,34.70969],[135.43859,34.70935],[135.4379,34.70902],[135.43768,34.70891],[135.4372,34.70869],[135.43697,34.70858],[135.43679,34.70849],[135.43632,34.70831],[135.43613,34.70825],[135.4356,34.70893],[135.43498,34.70974],[135.43496,34.70975],[135.43461,34.71024],[135.43419,34.7108],[135.43378,34.71132],[135.43377,34.71133],[135.43341,34.71179],[135.4334,34.71181],[135.43307,34.71224],[135.43252,34.71293],[135.43285,34.71311],[135.43319,34.71328],[135.43343,34.71341],[135.43369,34.71353],[135.43412,34.71373],[135.43427,34.7138],[135.43427,34.7138],[135.43478,34.71404],[135.4348,34.71404],[135.43495,34.71411],[135.43547,34.71432],[135.4359,34.71452],[135.43626,34.71466]]]}},{"type":"Feature","properties":{"name":"佃六丁目","setai":13,"jinko":22,"key":"27113008006","units":1,"m":15,"f":7,"gk":0,"a0":0,"a1":13,"a2":8,"a75":5,"ag":[0,0,0,1,1,0,0,0,3,2,0,4,2,1,2,2,1,2,0,0,0],"nf":1},"geometry":{"type":"Polygon","coordinates":[[[135.43252,34.71293],[135.43307,34.71224],[135.4334,34.71181],[135.43341,34.71179],[135.43377,34.71133],[135.43378,34.71132],[135.43419,34.7108],[135.43461,34.71024],[135.43496,34.70975],[135.43498,34.70974],[135.4356,34.70893],[135.43613,34.70825],[135.43602,34.70822],[135.43599,34.70822],[135.43504,34.70802],[135.43495,34.708],[135.43437,34.70791],[135.43366,34.70781],[135.43324,34.70774],[135.43251,34.70855],[135.43214,34.70897],[135.4319,34.70926],[135.43176,34.70946],[135.43157,34.70964],[135.43136,34.70984],[135.43084,34.7103],[135.43036,34.71072],[135.42985,34.71117],[135.42959,34.7114],[135.42959,34.7114],[135.43007,34.71167],[135.43075,34.71204],[135.4313,34.71232],[135.43158,34.71245],[135.43158,34.71245],[135.43229,34.71281],[135.43252,34.71293]]]}},{"type":"Feature","properties":{"name":"佃七丁目","setai":12,"jinko":16,"key":"27113008007","units":1,"m":8,"f":8,"gk":1,"a0":1,"a1":10,"a2":5,"a75":4,"ag":[1,0,0,0,0,1,4,0,0,1,2,1,1,0,1,2,2,0,0,0,0]},"geometry":{"type":"Polygon","coordinates":[[[135.4258,34.70623],[135.42512,34.70605],[135.42529,34.70615],[135.42553,34.70634],[135.4258,34.7066],[135.42602,34.70687],[135.42616,34.70707],[135.42637,34.7074],[135.42671,34.70794],[135.42696,34.70832],[135.42719,34.70867],[135.42768,34.70937],[135.4279,34.7097],[135.42813,34.71002],[135.42823,34.71015],[135.42861,34.71055],[135.42896,34.71088],[135.42915,34.71105],[135.42949,34.71133],[135.42959,34.7114],[135.42985,34.71117],[135.43036,34.71072],[135.43084,34.7103],[135.43136,34.70984],[135.43157,34.70964],[135.43176,34.70946],[135.4319,34.70926],[135.43214,34.70897],[135.43251,34.70855],[135.43324,34.70774],[135.43273,34.70768],[135.43214,34.70756],[135.43179,34.70751],[135.43152,34.70746],[135.43133,34.70742],[135.4306,34.70731],[135.43024,34.70724],[135.42993,34.70717],[135.42927,34.70703],[135.42889,34.70694],[135.42842,34.70685],[135.42808,34.70676],[135.42737,34.70659],[135.4271,34.70652],[135.42655,34.70639],[135.42622,34.70632],[135.4258,34.70623]]]}},{"type":"Feature","properties":{"name":"大和田一丁目","setai":293,"jinko":624,"key":"27113009001","units":1,"m":313,"f":311,"gk":23,"a0":42,"a1":434,"a2":127,"a75":61,"ag":[8,13,21,39,59,33,20,14,26,67,82,56,38,30,36,25,14,15,5,1,1],"nf":21},"geometry":{"type":"Polygon","coordinates":[[[135.44895,34.70498],[135.44859,34.70476],[135.44834,34.70515],[135.44817,34.70542],[135.44802,34.70567],[135.44781,34.70604],[135.44756,34.7064],[135.44806,34.7066],[135.44843,34.70676],[135.44875,34.70689],[135.44947,34.70721],[135.45019,34.70759],[135.45076,34.70792],[135.4508,34.7079],[135.45136,34.70768],[135.45246,34.70721],[135.45381,34.70665],[135.4536,34.70638],[135.45356,34.70633],[135.45349,34.70626],[135.45329,34.70599],[135.45324,34.70594],[135.45306,34.70581],[135.45294,34.70576],[135.4528,34.70571],[135.45252,34.70568],[135.4518,34.70561],[135.45141,34.70555],[135.45076,34.70547],[135.45049,34.70542],[135.44998,34.70535],[135.44994,34.70534],[135.44981,34.70532],[135.44954,34.70526],[135.44932,34.70518],[135.44895,34.70498]]]}},{"type":"Feature","properties":{"name":"大和田二丁目","setai":491,"jinko":1189,"key":"27113009002","units":1,"m":522,"f":667,"gk":32,"a0":116,"a1":663,"a2":401,"a75":262,"ag":[41,32,43,67,58,50,46,41,64,114,81,64,78,78,61,91,77,53,23,13,5],"nf":9},"geometry":{"type":"Polygon","coordinates":[[[135.44193,34.70068],[135.4419,34.70065],[135.44162,34.70098],[135.44136,34.7013],[135.44131,34.70136],[135.44118,34.70151],[135.44091,34.70184],[135.44053,34.70233],[135.44008,34.70288],[135.43985,34.70317],[135.43994,34.7032],[135.44051,34.70344],[135.44073,34.70354],[135.44106,34.70367],[135.44123,34.70374],[135.44258,34.7043],[135.44298,34.70447],[135.4435,34.70469],[135.44378,34.7048],[135.44388,34.70485],[135.44476,34.70523],[135.44498,34.70532],[135.44537,34.70548],[135.44681,34.70609],[135.44756,34.7064],[135.44781,34.70604],[135.44802,34.70567],[135.44817,34.70542],[135.44834,34.70515],[135.44859,34.70476],[135.44788,34.70452],[135.44767,34.70446],[135.44763,34.70445],[135.44726,34.70442],[135.44688,34.70439],[135.44643,34.70437],[135.44601,34.70435],[135.44569,34.70433],[135.4451,34.7043],[135.44464,34.70422],[135.44445,34.70416],[135.44431,34.7041],[135.4442,34.70403],[135.44405,34.70393],[135.44387,34.70379],[135.44374,34.70366],[135.44356,34.70342],[135.44345,34.70323],[135.44337,34.70306],[135.44316,34.70274],[135.44314,34.70267],[135.44298,34.70229],[135.44276,34.70181],[135.44257,34.70144],[135.44255,34.70141],[135.44254,34.70139],[135.44233,34.70116],[135.44228,34.7011],[135.44218,34.70096],[135.44193,34.70068]]]}},{"type":"Feature","properties":{"name":"大和田三丁目","setai":762,"jinko":1613,"key":"27113009003","units":1,"m":816,"f":797,"gk":52,"a0":183,"a1":1052,"a2":315,"a75":158,"ag":[55,58,70,100,107,83,65,95,81,163,163,100,95,79,78,63,46,32,17,0,0],"nf":63},"geometry":{"type":"Polygon","coordinates":[[[135.44806,34.7066],[135.44756,34.7064],[135.44721,34.70692],[135.44698,34.7073],[135.44691,34.70741],[135.44688,34.70746],[135.44674,34.70768],[135.44673,34.70769],[135.44649,34.70808],[135.44649,34.70809],[135.44637,34.70829],[135.44625,34.7085],[135.44604,34.70891],[135.44593,34.70915],[135.44584,34.70933],[135.44578,34.70946],[135.44564,34.70978],[135.44548,34.71046],[135.44551,34.71047],[135.44596,34.71054],[135.44628,34.71061],[135.44637,34.7105],[135.44692,34.70989],[135.44716,34.70965],[135.44738,34.70947],[135.44772,34.70923],[135.44764,34.70915],[135.44774,34.70912],[135.44827,34.70892],[135.4483,34.70891],[135.44858,34.70879],[135.44861,34.70878],[135.44876,34.70874],[135.44902,34.70863],[135.44907,34.70862],[135.44955,34.70842],[135.45057,34.708],[135.45076,34.70792],[135.45019,34.70759],[135.44947,34.70721],[135.44875,34.70689],[135.44843,34.70676],[135.44806,34.7066]]]}},{"type":"Feature","properties":{"name":"大和田四丁目","setai":839,"jinko":1563,"key":"27113009004","units":1,"m":820,"f":743,"gk":142,"a0":172,"a1":998,"a2":324,"a75":163,"ag":[63,55,54,76,104,135,106,110,104,113,84,90,76,89,72,52,47,39,15,8,2],"nf":69},"geometry":{"type":"Polygon","coordinates":[[[135.44548,34.71046],[135.44564,34.70978],[135.44578,34.70946],[135.44584,34.70933],[135.44593,34.70915],[135.44604,34.70891],[135.44625,34.7085],[135.44637,34.70829],[135.44649,34.70809],[135.44649,34.70808],[135.44673,34.70769],[135.44674,34.70768],[135.44688,34.70746],[135.44691,34.70741],[135.44698,34.7073],[135.44721,34.70692],[135.44756,34.7064],[135.44681,34.70609],[135.44537,34.70548],[135.44498,34.70532],[135.44476,34.70523],[135.44388,34.70485],[135.44374,34.70514],[135.44284,34.70559],[135.44378,34.70647],[135.44427,34.70692],[135.4443,34.70699],[135.44448,34.70738],[135.44449,34.70741],[135.44466,34.70779],[135.4448,34.70816],[135.44475,34.70838],[135.4445,34.70927],[135.44458,34.71042],[135.44502,34.71041],[135.44524,34.71043],[135.44548,34.71046]]]}},{"type":"Feature","properties":{"name":"大和田五丁目","setai":790,"jinko":1560,"key":"27113009005","units":1,"m":733,"f":827,"gk":50,"a0":120,"a1":774,"a2":644,"a75":406,"ag":[33,50,37,50,76,84,50,71,91,82,102,85,83,110,128,133,123,98,42,9,1],"nf":22},"geometry":{"type":"Polygon","coordinates":[[[135.44378,34.70647],[135.44284,34.70559],[135.44241,34.70581],[135.44193,34.70603],[135.44192,34.70602],[135.44165,34.70612],[135.44144,34.70619],[135.44082,34.7064],[135.4398,34.70676],[135.44017,34.70715],[135.4403,34.70729],[135.44033,34.70733],[135.4406,34.70761],[135.44092,34.70794],[135.44093,34.70794],[135.44114,34.70814],[135.44137,34.70833],[135.44149,34.70845],[135.44163,34.70858],[135.44216,34.70891],[135.44255,34.70914],[135.44318,34.70951],[135.4436,34.70975],[135.44458,34.71042],[135.4445,34.70927],[135.44475,34.70838],[135.4448,34.70816],[135.44466,34.70779],[135.44449,34.70741],[135.44448,34.70738],[135.4443,34.70699],[135.44427,34.70692],[135.44378,34.70647]]]}},{"type":"Feature","properties":{"name":"大和田六丁目","setai":529,"jinko":1113,"key":"27113009006","units":1,"m":604,"f":509,"gk":59,"a0":128,"a1":581,"a2":385,"a75":216,"ag":[43,35,50,58,55,43,48,63,57,71,82,61,43,70,99,70,69,48,23,5,1],"nf":19},"geometry":{"type":"Polygon","coordinates":[[[135.44165,34.70612],[135.44192,34.70602],[135.44193,34.70603],[135.44241,34.70581],[135.44284,34.70559],[135.44374,34.70514],[135.44388,34.70485],[135.44378,34.7048],[135.4435,34.70469],[135.44298,34.70447],[135.44258,34.7043],[135.44123,34.70374],[135.44106,34.70367],[135.44073,34.70354],[135.44051,34.70344],[135.43994,34.7032],[135.43954,34.70371],[135.43939,34.7039],[135.43894,34.7045],[135.43881,34.70466],[135.4388,34.70469],[135.43853,34.70502],[135.43863,34.70519],[135.43908,34.70585],[135.43917,34.70597],[135.43923,34.70605],[135.43951,34.70639],[135.43952,34.7064],[135.4398,34.70676],[135.44082,34.7064],[135.44144,34.70619],[135.44165,34.70612]]]}},{"type":"Feature","properties":{"name":"姫里一丁目","setai":1543,"jinko":2783,"key":"27113010001","units":1,"m":1393,"f":1390,"gk":71,"a0":265,"a1":1877,"a2":640,"a75":328,"ag":[101,80,84,121,162,234,210,186,208,224,227,160,145,137,175,141,104,51,26,6,0],"nf":1},"geometry":{"type":"Polygon","coordinates":[[[135.46208,34.6997],[135.46206,34.6997],[135.46139,34.70054],[135.46082,34.70126],[135.46025,34.70194],[135.45986,34.70242],[135.45952,34.70285],[135.45899,34.70354],[135.45864,34.70398],[135.45838,34.70425],[135.45815,34.70444],[135.45798,34.70458],[135.45789,34.70465],[135.45769,34.70479],[135.45836,34.70506],[135.45858,34.70515],[135.45896,34.7053],[135.45927,34.70543],[135.45937,34.70548],[135.4595,34.70553],[135.45955,34.70555],[135.45985,34.70568],[135.46002,34.70575],[135.46023,34.70583],[135.46048,34.70593],[135.46055,34.70596],[135.46111,34.70618],[135.46137,34.70628],[135.46167,34.70641],[135.4619,34.7065],[135.46195,34.70652],[135.4622,34.70662],[135.46233,34.70654],[135.46244,34.70647],[135.46272,34.70625],[135.46307,34.70595],[135.46321,34.7058],[135.46338,34.7056],[135.4635,34.70547],[135.46501,34.70374],[135.4653,34.70339],[135.46564,34.70301],[135.46637,34.70215],[135.46614,34.70202],[135.46575,34.7018],[135.46521,34.7015],[135.46422,34.70093],[135.46382,34.7007],[135.46374,34.70066],[135.46346,34.7005],[135.46334,34.70043],[135.46333,34.70042],[135.46318,34.70033],[135.46304,34.70024],[135.46279,34.7001],[135.4626,34.69999],[135.4621,34.69971],[135.46208,34.6997]]]}},{"type":"Feature","properties":{"name":"姫里二丁目","setai":1244,"jinko":2184,"key":"27113010002","units":1,"m":1032,"f":1152,"gk":60,"a0":229,"a1":1558,"a2":397,"a75":214,"ag":[69,96,64,84,231,299,207,132,147,139,156,104,59,91,92,93,52,37,27,4,1]},"geometry":{"type":"Polygon","coordinates":[[[135.45836,34.70506],[135.45769,34.70479],[135.45752,34.70494],[135.45714,34.70517],[135.45699,34.70526],[135.45679,34.70537],[135.45675,34.70539],[135.45646,34.70553],[135.45645,34.70554],[135.45679,34.70594],[135.45683,34.70599],[135.45716,34.70639],[135.45755,34.70684],[135.45792,34.70727],[135.45823,34.70763],[135.45846,34.7079],[135.45861,34.70808],[135.45874,34.70824],[135.45884,34.70836],[135.45898,34.70853],[135.459,34.70852],[135.4592,34.7084],[135.45932,34.70833],[135.45947,34.70824],[135.45966,34.70813],[135.45985,34.70801],[135.46015,34.70783],[135.46063,34.70755],[135.46104,34.70731],[135.46132,34.70714],[135.46161,34.70697],[135.46194,34.70679],[135.46214,34.70666],[135.4622,34.70662],[135.46195,34.70652],[135.4619,34.7065],[135.46167,34.70641],[135.46137,34.70628],[135.46111,34.70618],[135.46055,34.70596],[135.46048,34.70593],[135.46023,34.70583],[135.46002,34.70575],[135.45985,34.70568],[135.45955,34.70555],[135.4595,34.70553],[135.45937,34.70548],[135.45927,34.70543],[135.45896,34.7053],[135.45858,34.70515],[135.45836,34.70506]]]}},{"type":"Feature","properties":{"name":"姫里三丁目","setai":1212,"jinko":3044,"key":"27113010003","units":1,"m":1527,"f":1517,"gk":41,"a0":578,"a1":2148,"a2":318,"a75":140,"ag":[138,220,220,224,197,161,160,183,319,365,274,143,122,82,96,60,52,17,7,3,1]},"geometry":{"type":"Polygon","coordinates":[[[135.45679,34.70594],[135.45645,34.70554],[135.45573,34.70584],[135.45528,34.70603],[135.45491,34.70619],[135.45383,34.70666],[135.45427,34.70726],[135.45443,34.70748],[135.45466,34.70778],[135.45473,34.70788],[135.45503,34.70831],[135.45529,34.70866],[135.45537,34.70876],[135.4555,34.70893],[135.45581,34.70936],[135.45592,34.7095],[135.45598,34.70959],[135.45602,34.70964],[135.45614,34.7098],[135.45632,34.71005],[135.45661,34.70988],[135.45668,34.70985],[135.45676,34.7098],[135.45732,34.70947],[135.45741,34.70942],[135.45787,34.70916],[135.4586,34.70875],[135.45898,34.70853],[135.45884,34.70836],[135.45874,34.70824],[135.45861,34.70808],[135.45846,34.7079],[135.45823,34.70763],[135.45792,34.70727],[135.45755,34.70684],[135.45716,34.70639],[135.45683,34.70599],[135.45679,34.70594]]]}},{"type":"Feature","properties":{"name":"姫島一丁目","setai":1115,"jinko":2091,"key":"27113011001","units":1,"m":1056,"f":1035,"gk":49,"a0":187,"a1":1238,"a2":632,"a75":326,"ag":[66,64,57,76,130,142,117,101,120,134,148,151,119,140,166,117,105,61,39,4,0],"nf":34},"geometry":{"type":"Polygon","coordinates":[[[135.45684,34.69702],[135.45671,34.69696],[135.45504,34.70012],[135.45494,34.70027],[135.45497,34.70062],[135.45498,34.7007],[135.45504,34.70164],[135.45506,34.7022],[135.45506,34.70223],[135.4551,34.70277],[135.45512,34.70298],[135.45516,34.70336],[135.4552,34.70377],[135.45531,34.70382],[135.45589,34.70405],[135.45634,34.70423],[135.45667,34.70437],[135.4568,34.70442],[135.45699,34.7045],[135.45769,34.70479],[135.45789,34.70465],[135.45798,34.70458],[135.45815,34.70444],[135.45838,34.70425],[135.45864,34.70398],[135.45899,34.70354],[135.45952,34.70285],[135.45986,34.70242],[135.46025,34.70194],[135.46082,34.70126],[135.46139,34.70054],[135.46206,34.6997],[135.46132,34.69928],[135.46117,34.6992],[135.4606,34.6989],[135.46033,34.69876],[135.45953,34.69834],[135.45884,34.69799],[135.45857,34.69786],[135.45826,34.6977],[135.45818,34.69766],[135.45786,34.69751],[135.4572,34.69719],[135.4571,34.69714],[135.45684,34.69702]]]}},{"type":"Feature","properties":{"name":"姫島二丁目","setai":903,"jinko":2144,"key":"27113011002","units":1,"m":1030,"f":1114,"gk":43,"a0":236,"a1":1211,"a2":688,"a75":408,"ag":[79,76,81,94,124,124,111,97,120,146,149,145,101,115,165,117,130,94,52,13,2],"nf":9},"geometry":{"type":"Polygon","coordinates":[[[135.45614,34.6967],[135.45575,34.69653],[135.45391,34.69983],[135.45397,34.69994],[135.45324,34.70024],[135.45256,34.70052],[135.45255,34.70053],[135.45126,34.70104],[135.45059,34.70133],[135.45011,34.70153],[135.45028,34.70177],[135.45126,34.70216],[135.4515,34.70226],[135.45186,34.70241],[135.45282,34.7028],[135.45288,34.70282],[135.45338,34.70303],[135.45368,34.70316],[135.45385,34.70323],[135.455,34.70369],[135.4552,34.70377],[135.45516,34.70336],[135.45512,34.70298],[135.4551,34.70277],[135.45506,34.70223],[135.45506,34.7022],[135.45504,34.70164],[135.45498,34.7007],[135.45497,34.70062],[135.45494,34.70027],[135.45504,34.70012],[135.45671,34.69696],[135.45661,34.69691],[135.45614,34.6967]]]}},{"type":"Feature","properties":{"name":"姫島三丁目","setai":1008,"jinko":2414,"key":"27113011003","units":1,"m":1155,"f":1259,"gk":77,"a0":296,"a1":1615,"a2":496,"a75":222,"ag":[82,90,124,179,164,119,109,104,152,294,191,179,124,122,152,111,54,39,15,3,0],"nf":7},"geometry":{"type":"Polygon","coordinates":[[[135.45136,34.69458],[135.45131,34.69456],[135.45113,34.69483],[135.4504,34.69595],[135.45018,34.69629],[135.44913,34.69791],[135.44889,34.69827],[135.44889,34.69828],[135.44858,34.69875],[135.44819,34.69895],[135.44817,34.69896],[135.448,34.69905],[135.44743,34.69935],[135.44664,34.69975],[135.44662,34.69976],[135.44636,34.7002],[135.44667,34.70033],[135.44723,34.70055],[135.44789,34.70081],[135.44834,34.70099],[135.4488,34.70117],[135.44894,34.70123],[135.44937,34.7014],[135.45028,34.70177],[135.45011,34.70153],[135.45059,34.70133],[135.45126,34.70104],[135.45255,34.70053],[135.45256,34.70052],[135.45324,34.70024],[135.45397,34.69994],[135.45391,34.69983],[135.45575,34.69653],[135.4557,34.6965],[135.45506,34.69622],[135.45478,34.69609],[135.45453,34.69599],[135.45435,34.69591],[135.45349,34.69552],[135.45338,34.69547],[135.4529,34.69526],[135.45267,34.69515],[135.45234,34.69501],[135.45194,34.69483],[135.45154,34.69466],[135.45136,34.69458]]]}},{"type":"Feature","properties":{"name":"姫島四丁目","setai":974,"jinko":1794,"key":"27113011004","units":1,"m":901,"f":893,"gk":84,"a0":163,"a1":1089,"a2":516,"a75":247,"ag":[60,43,60,63,107,143,116,80,103,145,120,107,105,112,157,102,65,52,23,5,0],"nf":26},"geometry":{"type":"Polygon","coordinates":[[[135.45589,34.70405],[135.45531,34.70382],[135.4552,34.70377],[135.455,34.70369],[135.45501,34.70376],[135.45462,34.70382],[135.45407,34.70391],[135.45347,34.704],[135.45292,34.70398],[135.45216,34.70396],[135.45183,34.70393],[135.45177,34.70394],[135.45121,34.70396],[135.45107,34.70397],[135.45092,34.70398],[135.45039,34.70408],[135.45037,34.70408],[135.45015,34.70414],[135.4497,34.70425],[135.44936,34.70437],[135.44867,34.70466],[135.44859,34.70476],[135.44895,34.70498],[135.44932,34.70518],[135.44954,34.70526],[135.44981,34.70532],[135.44994,34.70534],[135.44998,34.70535],[135.45049,34.70542],[135.45076,34.70547],[135.45141,34.70555],[135.4518,34.70561],[135.45252,34.70568],[135.4528,34.70571],[135.45294,34.70576],[135.45306,34.70581],[135.45324,34.70594],[135.45329,34.70599],[135.45349,34.70626],[135.45356,34.70633],[135.4536,34.70638],[135.45381,34.70665],[135.45383,34.70666],[135.45491,34.70619],[135.45528,34.70603],[135.45573,34.70584],[135.45645,34.70554],[135.45646,34.70553],[135.45675,34.70539],[135.45679,34.70537],[135.45699,34.70526],[135.45714,34.70517],[135.45752,34.70494],[135.45769,34.70479],[135.45699,34.7045],[135.4568,34.70442],[135.45667,34.70437],[135.45634,34.70423],[135.45589,34.70405]]]}},{"type":"Feature","properties":{"name":"姫島五丁目","setai":876,"jinko":1755,"key":"27113011005","units":1,"m":903,"f":852,"gk":61,"a0":131,"a1":972,"a2":616,"a75":370,"ag":[42,46,43,37,108,106,85,91,102,117,121,99,106,112,134,111,103,84,50,16,6],"nf":36},"geometry":{"type":"Polygon","coordinates":[[[135.45177,34.70394],[135.45183,34.70393],[135.45216,34.70396],[135.45292,34.70398],[135.45347,34.704],[135.45407,34.70391],[135.45462,34.70382],[135.45501,34.70376],[135.455,34.70369],[135.45385,34.70323],[135.45368,34.70316],[135.45338,34.70303],[135.45288,34.70282],[135.45282,34.7028],[135.45186,34.70241],[135.4515,34.70226],[135.45126,34.70216],[135.45028,34.70177],[135.44937,34.7014],[135.44904,34.70198],[135.44872,34.70254],[135.44848,34.70295],[135.44819,34.70339],[135.44784,34.70401],[135.44779,34.70413],[135.44777,34.70416],[135.44767,34.70446],[135.44788,34.70452],[135.44859,34.70476],[135.44867,34.70466],[135.44936,34.70437],[135.4497,34.70425],[135.45015,34.70414],[135.45037,34.70408],[135.45039,34.70408],[135.45092,34.70398],[135.45107,34.70397],[135.45121,34.70396],[135.45177,34.70394]]]}},{"type":"Feature","properties":{"name":"姫島六丁目","setai":570,"jinko":1228,"key":"27113011006","units":1,"m":565,"f":663,"gk":38,"a0":140,"a1":661,"a2":416,"a75":235,"ag":[25,40,75,79,49,43,33,57,78,108,98,66,50,75,106,92,74,53,13,3,0],"nf":11},"geometry":{"type":"Polygon","coordinates":[[[135.44667,34.70033],[135.44636,34.7002],[135.44591,34.70096],[135.4459,34.70098],[135.44547,34.7017],[135.44455,34.70321],[135.44475,34.70348],[135.44495,34.70381],[135.44508,34.704],[135.44521,34.70408],[135.44542,34.70414],[135.44603,34.70419],[135.44601,34.70435],[135.44643,34.70437],[135.44688,34.70439],[135.44726,34.70442],[135.44763,34.70445],[135.44767,34.70446],[135.44777,34.70416],[135.44779,34.70413],[135.44784,34.70401],[135.44819,34.70339],[135.44848,34.70295],[135.44872,34.70254],[135.44904,34.70198],[135.44937,34.7014],[135.44894,34.70123],[135.4488,34.70117],[135.44834,34.70099],[135.44789,34.70081],[135.44723,34.70055],[135.44667,34.70033]]]}},{"type":"Feature","properties":{"name":"福町一丁目","setai":384,"jinko":944,"key":"27113012001","units":1,"m":476,"f":468,"gk":16,"a0":129,"a1":667,"a2":134,"a75":51,"ag":[55,42,32,71,54,37,65,65,78,115,88,64,30,44,39,20,15,13,2,1,0],"nf":14},"geometry":{"type":"Polygon","coordinates":[[[135.44827,34.69316],[135.44786,34.69297],[135.44681,34.6944],[135.44652,34.69481],[135.44579,34.69582],[135.44562,34.69604],[135.44478,34.69709],[135.44424,34.69775],[135.44397,34.69809],[135.44391,34.69816],[135.4438,34.69831],[135.44357,34.69858],[135.44347,34.69871],[135.4433,34.69892],[135.44326,34.69895],[135.4441,34.69929],[135.44474,34.69955],[135.44477,34.69956],[135.44524,34.69976],[135.44636,34.7002],[135.44662,34.69976],[135.44664,34.69975],[135.44743,34.69935],[135.448,34.69905],[135.44817,34.69896],[135.44819,34.69895],[135.44858,34.69875],[135.44889,34.69828],[135.44889,34.69827],[135.44913,34.69791],[135.45018,34.69629],[135.4504,34.69595],[135.45113,34.69483],[135.45131,34.69456],[135.4503,34.69409],[135.4502,34.69404],[135.44992,34.69392],[135.44933,34.69364],[135.44867,34.69334],[135.44827,34.69316]]]}},{"type":"Feature","properties":{"name":"福町二丁目","setai":1115,"jinko":2426,"key":"27113012002","units":1,"m":1189,"f":1237,"gk":159,"a0":202,"a1":1291,"a2":897,"a75":584,"ag":[55,81,66,97,154,165,103,110,123,138,136,149,116,125,188,161,170,146,82,22,3],"nf":36},"geometry":{"type":"Polygon","coordinates":[[[135.43965,34.68942],[135.43783,34.68874],[135.43731,34.68977],[135.43704,34.69025],[135.43642,34.69145],[135.43617,34.69193],[135.43592,34.69238],[135.43605,34.69244],[135.43638,34.69257],[135.4367,34.69272],[135.43698,34.69288],[135.4372,34.69304],[135.43742,34.69323],[135.43754,34.69335],[135.4379,34.69365],[135.43839,34.69405],[135.43861,34.69425],[135.43872,34.69435],[135.43892,34.69455],[135.43913,34.69477],[135.43924,34.6949],[135.43948,34.69515],[135.43962,34.69534],[135.43981,34.69555],[135.44002,34.69587],[135.44012,34.69603],[135.44045,34.69658],[135.44057,34.69675],[135.44064,34.69692],[135.44071,34.69709],[135.44077,34.69724],[135.44083,34.69745],[135.44093,34.69779],[135.44098,34.69804],[135.441,34.69818],[135.44107,34.69864],[135.44118,34.69931],[135.44119,34.69936],[135.44123,34.69951],[135.44131,34.6997],[135.44135,34.69979],[135.44165,34.70032],[135.4419,34.70065],[135.44193,34.70068],[135.44217,34.70039],[135.44212,34.70027],[135.44288,34.69936],[135.44302,34.69919],[135.44326,34.69895],[135.4433,34.69892],[135.44347,34.69871],[135.44357,34.69858],[135.4438,34.69831],[135.44391,34.69816],[135.44397,34.69809],[135.44424,34.69775],[135.44478,34.69709],[135.44562,34.69604],[135.44579,34.69582],[135.44652,34.69481],[135.44681,34.6944],[135.44786,34.69297],[135.44756,34.69284],[135.44713,34.69264],[135.44708,34.69261],[135.44681,34.6925],[135.44654,34.69238],[135.44642,34.69233],[135.44577,34.69203],[135.44515,34.69174],[135.44485,34.69162],[135.44479,34.69159],[135.44447,34.69145],[135.44423,34.69133],[135.44413,34.69129],[135.44391,34.69119],[135.44345,34.69098],[135.44326,34.69089],[135.44279,34.69068],[135.44224,34.69042],[135.44217,34.69039],[135.44202,34.69033],[135.44143,34.69009],[135.44137,34.69007],[135.44071,34.68981],[135.44066,34.6898],[135.44033,34.68969],[135.43965,34.68942]]]}},{"type":"Feature","properties":{"name":"福町三丁目","setai":187,"jinko":322,"key":"27113012003","units":1,"m":151,"f":171,"gk":4,"a0":21,"a1":229,"a2":66,"a75":28,"ag":[10,5,6,10,36,36,25,17,13,24,19,23,26,19,19,7,12,7,2,0,0],"nf":6},"geometry":{"type":"Polygon","coordinates":[[[135.4441,34.69929],[135.44326,34.69895],[135.44302,34.69919],[135.44288,34.69936],[135.44212,34.70027],[135.44217,34.70039],[135.44193,34.70068],[135.44218,34.70096],[135.44228,34.7011],[135.44233,34.70116],[135.44254,34.70139],[135.44255,34.70141],[135.44257,34.70144],[135.44276,34.70181],[135.44298,34.70229],[135.44314,34.70267],[135.44316,34.70274],[135.44337,34.70306],[135.44345,34.70323],[135.44356,34.70342],[135.44374,34.70366],[135.44387,34.70379],[135.44405,34.70393],[135.4442,34.70403],[135.44431,34.7041],[135.44445,34.70416],[135.44464,34.70422],[135.4451,34.7043],[135.44569,34.70433],[135.44601,34.70435],[135.44603,34.70419],[135.44542,34.70414],[135.44521,34.70408],[135.44508,34.704],[135.44495,34.70381],[135.44475,34.70348],[135.44455,34.70321],[135.44547,34.7017],[135.4459,34.70098],[135.44591,34.70096],[135.44636,34.7002],[135.44524,34.69976],[135.44477,34.69956],[135.44474,34.69955],[135.4441,34.69929]]]}},{"type":"Feature","properties":{"name":"百島一丁目","setai":164,"jinko":293,"key":"27113013001","units":1,"m":166,"f":127,"gk":9,"a0":30,"a1":182,"a2":73,"a75":39,"ag":[12,10,8,4,24,31,28,8,14,18,21,17,17,17,17,15,10,9,4,1,0],"nf":8},"geometry":{"type":"Polygon","coordinates":[[[135.44083,34.69745],[135.44077,34.69724],[135.44071,34.69709],[135.44064,34.69692],[135.44057,34.69675],[135.44045,34.69658],[135.44012,34.69603],[135.44002,34.69587],[135.43981,34.69555],[135.43962,34.69534],[135.43948,34.69515],[135.43924,34.6949],[135.43913,34.69477],[135.43892,34.69455],[135.43872,34.69435],[135.43861,34.69425],[135.43839,34.69405],[135.4379,34.69365],[135.43754,34.69335],[135.43746,34.69355],[135.43717,34.69423],[135.43693,34.69476],[135.43653,34.69565],[135.43868,34.69665],[135.43873,34.69696],[135.43878,34.69698],[135.4388,34.69699],[135.43934,34.69723],[135.43934,34.69721],[135.43955,34.69729],[135.4398,34.69732],[135.44001,34.69737],[135.44004,34.69741],[135.44012,34.69738],[135.44017,34.69739],[135.44017,34.69762],[135.44022,34.69774],[135.44083,34.69745]]]}},{"type":"Feature","properties":{"name":"百島二丁目","setai":42,"jinko":44,"key":"27113013002","units":1,"m":40,"f":4,"gk":34,"a0":0,"a1":42,"a2":2,"a75":1,"ag":[0,0,0,0,13,12,7,4,0,2,3,1,0,1,0,0,0,1,0,0,0]},"geometry":{"type":"Polygon","coordinates":[[[135.43653,34.69565],[135.43693,34.69476],[135.43717,34.69423],[135.43746,34.69355],[135.43754,34.69335],[135.43742,34.69323],[135.4372,34.69304],[135.43698,34.69288],[135.4367,34.69272],[135.43638,34.69257],[135.43605,34.69244],[135.43592,34.69238],[135.43617,34.69193],[135.43642,34.69145],[135.43704,34.69025],[135.43731,34.68977],[135.43783,34.68874],[135.43751,34.68862],[135.43675,34.68833],[135.43618,34.68812],[135.43582,34.68799],[135.43539,34.68783],[135.43493,34.68765],[135.43461,34.68832],[135.43388,34.68993],[135.43325,34.69132],[135.43311,34.69165],[135.4329,34.69214],[135.43252,34.69302],[135.43237,34.69332],[135.4321,34.69393],[135.43192,34.69437],[135.4318,34.69463],[135.43179,34.69474],[135.43178,34.69529],[135.43178,34.69623],[135.43176,34.69769],[135.43287,34.69768],[135.43287,34.69794],[135.43443,34.6979],[135.43448,34.69796],[135.43501,34.69795],[135.43502,34.69772],[135.43532,34.69771],[135.43538,34.69577],[135.43638,34.69596],[135.43653,34.69565]]]}},{"type":"Feature","properties":{"name":"大野一丁目","setai":290,"jinko":500,"key":"27113014001","units":1,"m":275,"f":225,"gk":45,"a0":40,"a1":340,"a2":104,"a75":56,"ag":[12,16,12,24,40,35,27,41,41,50,31,25,26,19,29,19,17,14,5,1,0],"nf":16},"geometry":{"type":"Polygon","coordinates":[[[135.44131,34.6997],[135.44123,34.69951],[135.44082,34.69978],[135.44063,34.6999],[135.44,34.70034],[135.43993,34.70038],[135.43964,34.70058],[135.4396,34.7006],[135.43941,34.70074],[135.43897,34.70111],[135.43883,34.70125],[135.43872,34.70135],[135.43857,34.7015],[135.43825,34.70186],[135.43801,34.70213],[135.43784,34.70234],[135.43779,34.70241],[135.4378,34.70241],[135.43744,34.70285],[135.43706,34.7033],[135.43701,34.70333],[135.43761,34.70378],[135.43825,34.70426],[135.4388,34.70469],[135.43881,34.70466],[135.43894,34.7045],[135.43939,34.7039],[135.43954,34.70371],[135.43994,34.7032],[135.43985,34.70317],[135.44008,34.70288],[135.44053,34.70233],[135.44091,34.70184],[135.44118,34.70151],[135.44131,34.70136],[135.44136,34.7013],[135.44162,34.70098],[135.4419,34.70065],[135.44165,34.70032],[135.44135,34.69979],[135.44131,34.6997]]]}},{"type":"Feature","properties":{"name":"大野二丁目","setai":14,"jinko":83,"key":"27113014002","units":1,"m":28,"f":55,"gk":1,"a0":3,"a1":14,"a2":66,"a75":49,"ag":[1,1,1,0,0,0,1,4,0,0,0,3,6,7,10,6,16,11,12,3,1]},"geometry":{"type":"Polygon","coordinates":[[[135.43897,34.69989],[135.43812,34.69962],[135.4374,34.69965],[135.43709,34.69969],[135.43677,34.69973],[135.43649,34.69979],[135.43615,34.69989],[135.43595,34.69992],[135.43559,34.69997],[135.435,34.70003],[135.43419,34.70017],[135.43367,34.70025],[135.4329,34.70036],[135.43273,34.70041],[135.43256,34.70051],[135.43305,34.70093],[135.43343,34.70128],[135.43372,34.70144],[135.43393,34.70152],[135.43443,34.70167],[135.43504,34.70189],[135.43526,34.70199],[135.43563,34.70224],[135.43566,34.70226],[135.436,34.70261],[135.43643,34.70295],[135.43693,34.70326],[135.43701,34.70333],[135.43706,34.7033],[135.43744,34.70285],[135.4378,34.70241],[135.43779,34.70241],[135.43784,34.70234],[135.43801,34.70213],[135.43825,34.70186],[135.43857,34.7015],[135.43872,34.70135],[135.43883,34.70125],[135.43897,34.70111],[135.43941,34.70074],[135.4396,34.7006],[135.43964,34.70058],[135.43993,34.70038],[135.43962,34.7002],[135.43926,34.69998],[135.43923,34.69997],[135.43919,34.69996],[135.43897,34.69989]]]}},{"type":"Feature","properties":{"name":"大野三丁目","setai":297,"jinko":557,"key":"27113014003","units":1,"m":264,"f":293,"gk":32,"a0":38,"a1":292,"a2":206,"a75":104,"ag":[11,12,15,23,22,29,24,26,20,43,31,34,40,48,54,42,32,23,4,3,0],"nf":21},"geometry":{"type":"Polygon","coordinates":[[[135.4374,34.69965],[135.43812,34.69962],[135.43897,34.69989],[135.43919,34.69996],[135.43923,34.69997],[135.43926,34.69998],[135.43962,34.7002],[135.43993,34.70038],[135.44,34.70034],[135.44063,34.6999],[135.44082,34.69978],[135.44123,34.69951],[135.44119,34.69936],[135.44118,34.69931],[135.44107,34.69864],[135.441,34.69818],[135.44098,34.69804],[135.44093,34.69779],[135.44083,34.69745],[135.44022,34.69774],[135.44017,34.69762],[135.44017,34.69739],[135.44012,34.69738],[135.44004,34.69741],[135.44001,34.69737],[135.4398,34.69732],[135.43955,34.69729],[135.43934,34.69721],[135.43934,34.69723],[135.4388,34.69699],[135.43878,34.69698],[135.43873,34.69696],[135.43868,34.69665],[135.43653,34.69565],[135.43638,34.69596],[135.43538,34.69577],[135.43532,34.69771],[135.43502,34.69772],[135.43501,34.69795],[135.43448,34.69796],[135.43443,34.6979],[135.43287,34.69794],[135.43287,34.69768],[135.43176,34.69769],[135.43176,34.69788],[135.43176,34.69855],[135.43175,34.69901],[135.43176,34.69942],[135.43175,34.69999],[135.43178,34.70015],[135.43183,34.70027],[135.43196,34.70052],[135.43211,34.70074],[135.43256,34.70051],[135.43273,34.70041],[135.4329,34.70036],[135.43367,34.70025],[135.43419,34.70017],[135.435,34.70003],[135.43559,34.69997],[135.43595,34.69992],[135.43615,34.69989],[135.43649,34.69979],[135.43677,34.69973],[135.43709,34.69969],[135.4374,34.69965]]]}},{"type":"Feature","properties":{"name":"出来島一丁目","setai":830,"jinko":1907,"key":"27113015001","units":1,"m":893,"f":1014,"gk":85,"a0":184,"a1":1088,"a2":628,"a75":370,"ag":[36,66,82,76,106,86,81,96,94,151,158,134,106,112,146,141,107,76,38,6,2],"nf":7},"geometry":{"type":"Polygon","coordinates":[[[135.43863,34.70519],[135.43853,34.70502],[135.43809,34.70556],[135.43781,34.7059],[135.43767,34.70613],[135.43757,34.70628],[135.43729,34.70664],[135.43602,34.70822],[135.43613,34.70825],[135.43632,34.70831],[135.43679,34.70849],[135.43697,34.70858],[135.4372,34.70869],[135.43768,34.70891],[135.4379,34.70902],[135.43859,34.70935],[135.43936,34.70969],[135.43952,34.70976],[135.43988,34.70989],[135.4403,34.71],[135.44068,34.7101],[135.44096,34.71016],[135.44123,34.71022],[135.4415,34.71026],[135.44174,34.7103],[135.44235,34.71038],[135.44242,34.71038],[135.44261,34.71041],[135.44304,34.71044],[135.44322,34.71046],[135.44366,34.71046],[135.444,34.71045],[135.44458,34.71042],[135.4436,34.70975],[135.44318,34.70951],[135.44255,34.70914],[135.44216,34.70891],[135.44163,34.70858],[135.44149,34.70845],[135.44137,34.70833],[135.44114,34.70814],[135.44093,34.70794],[135.44092,34.70794],[135.4406,34.70761],[135.44033,34.70733],[135.4403,34.70729],[135.44017,34.70715],[135.4398,34.70676],[135.43952,34.7064],[135.43951,34.70639],[135.43923,34.70605],[135.43917,34.70597],[135.43908,34.70585],[135.43863,34.70519]]]}},{"type":"Feature","properties":{"name":"出来島二丁目","setai":632,"jinko":1257,"key":"27113015002","units":1,"m":653,"f":604,"gk":105,"a0":125,"a1":818,"a2":297,"a75":134,"ag":[34,39,52,58,90,77,60,65,90,116,99,91,72,74,89,70,38,20,6,0,0],"nf":17},"geometry":{"type":"Polygon","coordinates":[[[135.43761,34.70378],[135.43701,34.70333],[135.43656,34.70387],[135.43603,34.70448],[135.43575,34.7048],[135.43543,34.70517],[135.43473,34.70597],[135.4345,34.70623],[135.43414,34.70665],[135.43441,34.70686],[135.43472,34.70709],[135.43486,34.7072],[135.43505,34.70734],[135.43522,34.7075],[135.43522,34.7075],[135.43539,34.70765],[135.43571,34.70793],[135.43588,34.70809],[135.43599,34.70822],[135.43602,34.70822],[135.43729,34.70664],[135.43757,34.70628],[135.43767,34.70613],[135.43781,34.7059],[135.43809,34.70556],[135.43853,34.70502],[135.4388,34.70469],[135.43825,34.70426],[135.43761,34.70378]]]}},{"type":"Feature","properties":{"name":"出来島三丁目","setai":1097,"jinko":2316,"key":"27113015003","units":1,"m":1121,"f":1195,"gk":238,"a0":311,"a1":1453,"a2":520,"a75":264,"ag":[118,88,105,92,97,155,159,140,152,200,159,168,131,132,124,101,94,51,15,2,1],"nf":32},"geometry":{"type":"Polygon","coordinates":[[[135.43305,34.70093],[135.43256,34.70051],[135.43211,34.70074],[135.43265,34.70135],[135.43265,34.70291],[135.43237,34.7036],[135.43231,34.70376],[135.43227,34.7038],[135.43189,34.70414],[135.43176,34.70425],[135.43187,34.70439],[135.4321,34.70465],[135.43233,34.70492],[135.43279,34.70544],[135.433,34.70567],[135.43313,34.70579],[135.43337,34.70603],[135.4338,34.70638],[135.43398,34.70653],[135.43414,34.70665],[135.4345,34.70623],[135.43473,34.70597],[135.43543,34.70517],[135.43575,34.7048],[135.43603,34.70448],[135.43656,34.70387],[135.43701,34.70333],[135.43693,34.70326],[135.43643,34.70295],[135.436,34.70261],[135.43566,34.70226],[135.43563,34.70224],[135.43526,34.70199],[135.43504,34.70189],[135.43443,34.70167],[135.43393,34.70152],[135.43372,34.70144],[135.43343,34.70128],[135.43305,34.70093]]]}},{"type":"Feature","properties":{"name":"中島一丁目","setai":1954,"jinko":4640,"key":"27113016001","units":1,"m":2315,"f":2325,"gk":463,"a0":837,"a1":2698,"a2":1061,"a75":506,"ag":[224,308,305,186,194,195,257,339,426,386,286,215,214,249,306,203,164,82,42,13,2],"nf":44},"geometry":{"type":"Polygon","coordinates":[[[135.42741,34.69747],[135.42721,34.69707],[135.42689,34.69722],[135.4253,34.69889],[135.42445,34.69979],[135.42411,34.70013],[135.42385,34.70038],[135.42353,34.70062],[135.42065,34.70215],[135.41853,34.70327],[135.41755,34.7039],[135.41999,34.70463],[135.42289,34.70532],[135.4233,34.70545],[135.42432,34.70576],[135.42485,34.70592],[135.42512,34.70605],[135.4258,34.70623],[135.42622,34.70632],[135.42655,34.70639],[135.4271,34.70652],[135.42737,34.70659],[135.42808,34.70676],[135.42842,34.70685],[135.42889,34.70694],[135.42927,34.70703],[135.42993,34.70717],[135.43024,34.70724],[135.4306,34.70731],[135.43133,34.70742],[135.43152,34.70746],[135.43179,34.70751],[135.43214,34.70756],[135.43273,34.70768],[135.43324,34.70774],[135.43366,34.70781],[135.43437,34.70791],[135.43495,34.708],[135.43504,34.70802],[135.43599,34.70822],[135.43588,34.70809],[135.43571,34.70793],[135.43539,34.70765],[135.43522,34.7075],[135.43522,34.7075],[135.43505,34.70734],[135.43486,34.7072],[135.43472,34.70709],[135.43441,34.70686],[135.43414,34.70665],[135.43398,34.70653],[135.4338,34.70638],[135.43337,34.70603],[135.43313,34.70579],[135.433,34.70567],[135.43279,34.70544],[135.43233,34.70492],[135.4321,34.70465],[135.43187,34.70439],[135.43176,34.70425],[135.43145,34.70391],[135.43112,34.70355],[135.43075,34.70316],[135.43017,34.70256],[135.42969,34.70207],[135.42969,34.70207],[135.42939,34.70175],[135.429,34.70136],[135.42855,34.70076],[135.42835,34.70036],[135.42817,34.69993],[135.42809,34.69974],[135.4279,34.69908],[135.42782,34.69846],[135.42777,34.69825],[135.42768,34.69792],[135.42741,34.69747]]]}},{"type":"Feature","properties":{"name":"中島二丁目","setai":6,"jinko":8,"key":"27113016002","units":1,"m":8,"f":0,"gk":2,"a0":0,"a1":7,"a2":1,"a75":0,"ag":[0,0,0,1,0,1,1,1,2,0,0,1,0,1,0,0,0,0,0,0,0]},"geometry":{"type":"Polygon","coordinates":[[[135.4253,34.69889],[135.42689,34.69722],[135.42654,34.69687],[135.42622,34.69662],[135.42306,34.6947],[135.42261,34.69443],[135.42091,34.69334],[135.41825,34.69175],[135.41601,34.69042],[135.41443,34.68944],[135.41385,34.68967],[135.41308,34.6901],[135.41185,34.69082],[135.41089,34.69145],[135.41044,34.69193],[135.41004,34.6925],[135.40958,34.69314],[135.40905,34.6942],[135.40885,34.69463],[135.40865,34.69506],[135.40834,34.69619],[135.40823,34.69657],[135.40983,34.69848],[135.41001,34.69844],[135.41068,34.69912],[135.41138,34.69975],[135.41191,34.70011],[135.41264,34.7006],[135.41323,34.70097],[135.41425,34.70148],[135.41585,34.7022],[135.41735,34.70279],[135.41853,34.70327],[135.42065,34.70215],[135.42353,34.70062],[135.42385,34.70038],[135.42411,34.70013],[135.42445,34.69979],[135.4253,34.69889]]]}},{"type":"Feature","properties":{"name":"西島一丁目","setai":0,"jinko":0,"key":"27113017001","units":1,"m":0,"f":0,"gk":0,"a0":0,"a1":0,"a2":0,"a75":0,"ag":[0,0,0,0,0,0,0,0,0,0,0,0,0,0,0,0,0,0,0,0,0]},"geometry":{"type":"Polygon","coordinates":[[[135.43432,34.68742],[135.43328,34.68703],[135.43221,34.68906],[135.43138,34.69053],[135.43134,34.6908],[135.43116,34.69178],[135.43106,34.69217],[135.43068,34.69281],[135.4301,34.69378],[135.42951,34.69473],[135.42944,34.69485],[135.4289,34.69564],[135.4279,34.69664],[135.42758,34.69691],[135.42721,34.69707],[135.42741,34.69747],[135.42768,34.69792],[135.42777,34.69825],[135.42782,34.69846],[135.4279,34.69908],[135.42809,34.69974],[135.42817,34.69993],[135.42835,34.70036],[135.42855,34.70076],[135.429,34.70136],[135.42939,34.70175],[135.42969,34.70207],[135.42969,34.70207],[135.43017,34.70256],[135.43075,34.70316],[135.43112,34.70355],[135.43145,34.70391],[135.43176,34.70425],[135.43189,34.70414],[135.43227,34.7038],[135.43231,34.70376],[135.43237,34.7036],[135.43265,34.70291],[135.43265,34.70135],[135.43211,34.70074],[135.43196,34.70052],[135.43183,34.70027],[135.43178,34.70015],[135.43175,34.69999],[135.43176,34.69942],[135.43175,34.69901],[135.43176,34.69855],[135.43176,34.69788],[135.43176,34.69769],[135.43178,34.69623],[135.43178,34.69529],[135.43179,34.69474],[135.4318,34.69463],[135.43192,34.69437],[135.4321,34.69393],[135.43237,34.69332],[135.43252,34.69302],[135.4329,34.69214],[135.43311,34.69165],[135.43325,34.69132],[135.43388,34.68993],[135.43461,34.68832],[135.43493,34.68765],[135.4347,34.68756],[135.43432,34.68742]]]}},{"type":"Feature","properties":{"name":"西島二丁目","setai":0,"jinko":0,"key":"27113017002","units":1,"m":0,"f":0,"gk":0,"a0":0,"a1":0,"a2":0,"a75":0,"ag":[0,0,0,0,0,0,0,0,0,0,0,0,0,0,0,0,0,0,0,0,0]},"geometry":{"type":"Polygon","coordinates":[[[135.43328,34.68703],[135.43317,34.68699],[135.43284,34.68687],[135.43219,34.68662],[135.43172,34.68645],[135.43121,34.68625],[135.43107,34.68619],[135.43017,34.68586],[135.4296,34.68565],[135.42904,34.6855],[135.42766,34.68512],[135.42747,34.68507],[135.42534,34.68448],[135.42316,34.68388],[135.41897,34.68272],[135.41732,34.68228],[135.41579,34.68186],[135.41467,34.68155],[135.4129,34.68106],[135.41049,34.6804],[135.40974,34.68024],[135.40825,34.68412],[135.418,34.68678],[135.41757,34.68789],[135.41764,34.68796],[135.4176,34.68802],[135.4175,34.68803],[135.41746,34.68808],[135.42238,34.69221],[135.42239,34.6923],[135.42451,34.69408],[135.42525,34.69471],[135.4268,34.69602],[135.4273,34.69654],[135.42758,34.69691],[135.4279,34.69664],[135.4289,34.69564],[135.42944,34.69485],[135.42951,34.69473],[135.4301,34.69378],[135.43068,34.69281],[135.43106,34.69217],[135.43116,34.69178],[135.43134,34.6908],[135.43138,34.69053],[135.43221,34.68906],[135.43328,34.68703]]]}}]}