{"type":"FeatureCollection","features":[{"type":"Feature","properties":{"name":"野江一丁目","setai":1824,"jinko":3479,"key":"27118001001","units":1},"geometry":{"type":"Polygon","coordinates":[[[135.54113,34.70296],[135.54109,34.70259],[135.54104,34.70238],[135.54095,34.702],[135.54085,34.7017],[135.54082,34.70162],[135.54074,34.70148],[135.54066,34.70132],[135.54038,34.70095],[135.54031,34.70088],[135.54016,34.70073],[135.5399,34.70054],[135.53966,34.70038],[135.53948,34.70028],[135.53939,34.70023],[135.53906,34.7001],[135.53869,34.69997],[135.53851,34.69993],[135.53841,34.69991],[135.53806,34.69985],[135.53766,34.69977],[135.53723,34.69968],[135.53672,34.69957],[135.53641,34.69952],[135.53649,34.69989],[135.53661,34.70035],[135.53668,34.70061],[135.53671,34.70073],[135.53673,34.70085],[135.53675,34.70096],[135.53672,34.70096],[135.53674,34.7011],[135.53677,34.70126],[135.53678,34.70126],[135.53683,34.70154],[135.53688,34.70206],[135.5369,34.70222],[135.5369,34.70229],[135.53692,34.70248],[135.53695,34.70252],[135.53703,34.70266],[135.53708,34.70322],[135.53749,34.70319],[135.53749,34.70315],[135.53781,34.70312],[135.53805,34.7031],[135.53816,34.70309],[135.53816,34.70309],[135.53911,34.70301],[135.53941,34.70298],[135.53951,34.70297],[135.54025,34.70291],[135.54028,34.70295],[135.54085,34.70374],[135.54118,34.70372],[135.54118,34.70356],[135.54116,34.70329],[135.54113,34.70296]]]}},{"type":"Feature","properties":{"name":"野江二丁目","setai":1926,"jinko":3315,"key":"27118001002","units":1},"geometry":{"type":"Polygon","coordinates":[[[135.54119,34.70377],[135.54118,34.70372],[135.54085,34.70374],[135.54028,34.70295],[135.54025,34.70291],[135.53951,34.70297],[135.53941,34.70298],[135.53911,34.70301],[135.53816,34.70309],[135.53816,34.70309],[135.53805,34.7031],[135.53781,34.70312],[135.53749,34.70315],[135.53749,34.70319],[135.53708,34.70322],[135.53703,34.70266],[135.53695,34.70252],[135.53691,34.70283],[135.53685,34.70305],[135.53685,34.70309],[135.53669,34.70337],[135.53666,34.70344],[135.53656,34.70362],[135.53644,34.70383],[135.53641,34.70387],[135.53639,34.7039],[135.53638,34.70401],[135.53638,34.70406],[135.53638,34.70415],[135.53643,34.70432],[135.53643,34.70434],[135.53649,34.70464],[135.53652,34.70482],[135.53651,34.70489],[135.53649,34.70507],[135.53652,34.70543],[135.53654,34.70565],[135.53693,34.70567],[135.53728,34.70569],[135.53761,34.70571],[135.53797,34.70572],[135.53854,34.70573],[135.53942,34.7057],[135.54055,34.70559],[135.54127,34.70553],[135.54127,34.7055],[135.54121,34.7046],[135.54121,34.70457],[135.54121,34.70439],[135.5412,34.70429],[135.54119,34.70405],[135.54119,34.70377]]]}},{"type":"Feature","properties":{"name":"野江三丁目","setai":1691,"jinko":3276,"key":"27118001003","units":1},"geometry":{"type":"Polygon","coordinates":[[[135.53747,34.70839],[135.53763,34.70838],[135.53765,34.70841],[135.53854,34.70837],[135.53911,34.70835],[135.53933,34.70835],[135.53972,34.70834],[135.54081,34.7083],[135.54147,34.70829],[135.5415,34.70827],[135.54149,34.70809],[135.54148,34.70786],[135.54144,34.7074],[135.54144,34.70737],[135.54141,34.70701],[135.54139,34.70658],[135.54134,34.70658],[135.54132,34.7063],[135.54131,34.70611],[135.54127,34.70553],[135.54055,34.70559],[135.53942,34.7057],[135.53854,34.70573],[135.53797,34.70572],[135.53761,34.70571],[135.53728,34.70569],[135.53693,34.70567],[135.53654,34.70565],[135.53652,34.70568],[135.53645,34.70579],[135.53636,34.70586],[135.53613,34.70603],[135.53609,34.70606],[135.53604,34.70627],[135.53604,34.70646],[135.53609,34.70672],[135.53613,34.70704],[135.53617,34.70745],[135.53618,34.7078],[135.53617,34.70795],[135.53617,34.70799],[135.53606,34.7081],[135.53604,34.70825],[135.53601,34.70844],[135.53615,34.70843],[135.53702,34.7084],[135.53727,34.70839],[135.5374,34.70839],[135.53747,34.70839]]]}},{"type":"Feature","properties":{"name":"野江四丁目","setai":468,"jinko":961,"key":"27118001004","units":1},"geometry":{"type":"Polygon","coordinates":[[[135.5415,34.70861],[135.54147,34.70829],[135.54081,34.7083],[135.53972,34.70834],[135.53933,34.70835],[135.53911,34.70835],[135.53854,34.70837],[135.53765,34.70841],[135.53809,34.70881],[135.53848,34.70915],[135.53875,34.70938],[135.53909,34.70968],[135.53941,34.70999],[135.5398,34.71038],[135.53974,34.71039],[135.54002,34.71069],[135.54019,34.71087],[135.54035,34.71103],[135.5406,34.71131],[135.54085,34.71098],[135.54106,34.71068],[135.54108,34.71066],[135.54117,34.71049],[135.54129,34.71026],[135.54139,34.71],[135.5414,34.70995],[135.54147,34.70966],[135.5415,34.70949],[135.54152,34.70946],[135.54153,34.70931],[135.54154,34.70917],[135.54155,34.70905],[135.54152,34.70904],[135.54152,34.70879],[135.54153,34.70873],[135.5415,34.70861]]]}},{"type":"Feature","properties":{"name":"成育一丁目","setai":381,"jinko":682,"key":"27118002001","units":1},"geometry":{"type":"Polygon","coordinates":[[[135.54639,34.7065],[135.54638,34.70556],[135.54612,34.70556],[135.54608,34.70557],[135.54564,34.70557],[135.54422,34.70546],[135.54291,34.70535],[135.54242,34.7054],[135.5421,34.70543],[135.54191,34.70514],[135.54178,34.70494],[135.5415,34.70455],[135.54121,34.70457],[135.54121,34.7046],[135.54127,34.7055],[135.54127,34.70553],[135.54131,34.70611],[135.54132,34.7063],[135.54134,34.70658],[135.54139,34.70658],[135.54208,34.70656],[135.54212,34.70656],[135.54287,34.70655],[135.54291,34.70655],[135.54305,34.70654],[135.5443,34.70652],[135.54434,34.70652],[135.54435,34.70652],[135.54565,34.7065],[135.54567,34.7065],[135.54639,34.7065]]]}},{"type":"Feature","properties":{"name":"成育二丁目","setai":1495,"jinko":2517,"key":"27118002002","units":1},"geometry":{"type":"Polygon","coordinates":[[[135.54641,34.70798],[135.54641,34.70793],[135.5464,34.70747],[135.5464,34.70746],[135.5464,34.70739],[135.54641,34.70719],[135.54641,34.70708],[135.54641,34.70697],[135.54641,34.70692],[135.5464,34.70667],[135.54639,34.7065],[135.54639,34.7065],[135.54567,34.7065],[135.54565,34.7065],[135.54435,34.70652],[135.54434,34.70652],[135.5443,34.70652],[135.54305,34.70654],[135.54291,34.70655],[135.54293,34.70659],[135.54329,34.70712],[135.54345,34.70736],[135.54356,34.70751],[135.54361,34.7076],[135.5437,34.70771],[135.54385,34.70795],[135.54386,34.70794],[135.54403,34.7082],[135.54408,34.70827],[135.54414,34.70836],[135.54428,34.70857],[135.54441,34.70876],[135.54462,34.70908],[135.54495,34.70956],[135.54547,34.71032],[135.54581,34.71082],[135.5459,34.71096],[135.54643,34.71176],[135.54645,34.71177],[135.54646,34.71119],[135.54645,34.71082],[135.54644,34.71059],[135.54644,34.71027],[135.54644,34.71024],[135.54643,34.71003],[135.54643,34.70976],[135.54643,34.70971],[135.54643,34.70931],[135.54643,34.7093],[135.54642,34.70837],[135.54641,34.70836],[135.54641,34.70834],[135.54641,34.70798]]]}},{"type":"Feature","properties":{"name":"成育三丁目","setai":798,"jinko":1525,"key":"27118002003","units":1},"geometry":{"type":"Polygon","coordinates":[[[135.54179,34.70989],[135.54204,34.70982],[135.54256,34.70983],[135.54259,34.70983],[135.54349,34.70982],[135.54428,34.70979],[135.54429,34.70979],[135.54495,34.70956],[135.54462,34.70908],[135.54441,34.70876],[135.54428,34.70857],[135.54414,34.70836],[135.54408,34.70827],[135.54403,34.7082],[135.54386,34.70794],[135.54385,34.70795],[135.5437,34.70771],[135.54361,34.7076],[135.54356,34.70751],[135.54345,34.70736],[135.54329,34.70712],[135.54293,34.70659],[135.54291,34.70655],[135.54287,34.70655],[135.54212,34.70656],[135.54208,34.70656],[135.54139,34.70658],[135.54141,34.70701],[135.54144,34.70737],[135.54144,34.7074],[135.54148,34.70786],[135.54149,34.70809],[135.5415,34.70827],[135.54147,34.70829],[135.5415,34.70861],[135.54153,34.70873],[135.54152,34.70879],[135.54152,34.70904],[135.54155,34.70905],[135.54154,34.70917],[135.54153,34.70931],[135.54152,34.70946],[135.5415,34.70949],[135.54147,34.70966],[135.5414,34.70995],[135.54139,34.71],[135.54179,34.70989]]]}},{"type":"Feature","properties":{"name":"成育四丁目","setai":1500,"jinko":2777,"key":"27118002004","units":1},"geometry":{"type":"Polygon","coordinates":[[[135.54547,34.71032],[135.54495,34.70956],[135.54429,34.70979],[135.54428,34.70979],[135.54349,34.70982],[135.54259,34.70983],[135.54256,34.70983],[135.54204,34.70982],[135.54179,34.70989],[135.54139,34.71],[135.54129,34.71026],[135.54117,34.71049],[135.54108,34.71066],[135.54106,34.71068],[135.54085,34.71098],[135.5406,34.71131],[135.54069,34.7114],[135.54077,34.71148],[135.541,34.71174],[135.54107,34.71182],[135.54122,34.71198],[135.54165,34.71244],[135.54181,34.71262],[135.54207,34.7129],[135.54265,34.71255],[135.54269,34.71253],[135.54322,34.71246],[135.5436,34.71241],[135.54377,34.71239],[135.54433,34.71231],[135.54479,34.71225],[135.5448,34.71225],[135.54496,34.71223],[135.54534,34.71218],[135.54585,34.71212],[135.54619,34.71208],[135.54644,34.71205],[135.54643,34.71176],[135.5459,34.71096],[135.54581,34.71082],[135.54547,34.71032]]]}},{"type":"Feature","properties":{"name":"成育五丁目","setai":792,"jinko":1442,"key":"27118002005","units":1},"geometry":{"type":"Polygon","coordinates":[[[135.54647,34.71271],[135.54644,34.71205],[135.54619,34.71208],[135.54585,34.71212],[135.54534,34.71218],[135.54496,34.71223],[135.5448,34.71225],[135.54479,34.71225],[135.54433,34.71231],[135.54377,34.71239],[135.5436,34.71241],[135.54322,34.71246],[135.54269,34.71253],[135.54265,34.71255],[135.54207,34.7129],[135.54214,34.71296],[135.54271,34.71352],[135.54288,34.71365],[135.54328,34.71393],[135.54333,34.71396],[135.54372,34.71422],[135.54396,34.71435],[135.54456,34.71463],[135.54488,34.71476],[135.54554,34.71502],[135.54575,34.71511],[135.54593,34.71517],[135.54652,34.71538],[135.54651,34.71493],[135.54651,34.71486],[135.5465,34.71446],[135.54649,34.71399],[135.54647,34.7135],[135.54648,34.71305],[135.54647,34.71271]]]}},{"type":"Feature","properties":{"name":"中央一丁目","setai":1519,"jinko":2783,"key":"27118003001","units":1},"geometry":{"type":"Polygon","coordinates":[[[135.54104,34.70199],[135.54154,34.70196],[135.54156,34.70197],[135.54201,34.70193],[135.54213,34.70191],[135.5422,34.70191],[135.54254,34.70188],[135.54295,34.70182],[135.54301,34.70181],[135.54337,34.70176],[135.54346,34.70175],[135.54367,34.70171],[135.54388,34.70168],[135.54393,34.70168],[135.54402,34.70168],[135.5441,34.70167],[135.54414,34.70166],[135.54414,34.70166],[135.54417,34.70166],[135.54448,34.70162],[135.54481,34.7016],[135.54507,34.70159],[135.54537,34.70158],[135.5456,34.70157],[135.54632,34.70156],[135.5463,34.70089],[135.5463,34.70032],[135.54558,34.70029],[135.54508,34.70026],[135.54385,34.70022],[135.5435,34.7002],[135.54348,34.7002],[135.54314,34.70019],[135.5424,34.70015],[135.54224,34.70015],[135.54208,34.70014],[135.54186,34.70013],[135.54178,34.70013],[135.54173,34.70013],[135.54148,34.70012],[135.54097,34.7001],[135.54096,34.70013],[135.54095,34.70036],[135.54093,34.70055],[135.54093,34.70075],[135.54097,34.70122],[135.541,34.70151],[135.54104,34.70199]]]}},{"type":"Feature","properties":{"name":"中央二丁目","setai":2296,"jinko":5406,"key":"27118003002","units":1},"geometry":{"type":"Polygon","coordinates":[[[135.54422,34.70546],[135.54417,34.70503],[135.54411,34.70457],[135.54411,34.70454],[135.54416,34.70454],[135.54412,34.7042],[135.54409,34.70382],[135.54405,34.70348],[135.54403,34.70327],[135.54401,34.70304],[135.54396,34.70258],[135.54394,34.70236],[135.54392,34.70216],[135.5439,34.70194],[135.54388,34.70168],[135.54367,34.70171],[135.54346,34.70175],[135.54337,34.70176],[135.54301,34.70181],[135.54295,34.70182],[135.54254,34.70188],[135.5422,34.70191],[135.54213,34.70191],[135.54201,34.70193],[135.54156,34.70197],[135.54154,34.70196],[135.54104,34.70199],[135.54108,34.7024],[135.54108,34.70241],[135.54109,34.70259],[135.54113,34.70296],[135.54116,34.70329],[135.54118,34.70356],[135.54118,34.70372],[135.54119,34.70377],[135.54119,34.70405],[135.5412,34.70429],[135.54121,34.70439],[135.54121,34.70457],[135.5415,34.70455],[135.54178,34.70494],[135.54191,34.70514],[135.5421,34.70543],[135.54242,34.7054],[135.54291,34.70535],[135.54422,34.70546]]]}},{"type":"Feature","properties":{"name":"中央三丁目","setai":1266,"jinko":2281,"key":"27118003003","units":1},"geometry":{"type":"Polygon","coordinates":[[[135.54632,34.70201],[135.54632,34.70156],[135.5456,34.70157],[135.54537,34.70158],[135.54507,34.70159],[135.54481,34.7016],[135.54448,34.70162],[135.54417,34.70166],[135.54414,34.70166],[135.54414,34.70166],[135.5441,34.70167],[135.54402,34.70168],[135.54393,34.70168],[135.54388,34.70168],[135.5439,34.70194],[135.54392,34.70216],[135.54394,34.70236],[135.54396,34.70258],[135.54401,34.70304],[135.54403,34.70327],[135.54405,34.70348],[135.54409,34.70382],[135.54412,34.7042],[135.54416,34.70454],[135.54411,34.70454],[135.54411,34.70457],[135.54417,34.70503],[135.54422,34.70546],[135.54564,34.70557],[135.54608,34.70557],[135.54612,34.70556],[135.54638,34.70556],[135.54638,34.70512],[135.54638,34.7051],[135.54637,34.70504],[135.54637,34.70496],[135.54638,34.70485],[135.54638,34.70472],[135.54639,34.70463],[135.54636,34.70461],[135.54636,34.70418],[135.54635,34.70374],[135.54634,34.70344],[135.54633,34.70287],[135.54632,34.70221],[135.54632,34.70201]]]}},{"type":"Feature","properties":{"name":"関目一丁目","setai":1506,"jinko":3314,"key":"27118004001","units":1},"geometry":{"type":"Polygon","coordinates":[[[135.54982,34.70524],[135.5498,34.70512],[135.54843,34.70517],[135.54841,34.70507],[135.54834,34.70462],[135.54834,34.70459],[135.54786,34.7046],[135.54743,34.7046],[135.54709,34.7046],[135.54706,34.7046],[135.54636,34.70461],[135.54639,34.70463],[135.54638,34.70472],[135.54638,34.70485],[135.54637,34.70496],[135.54637,34.70504],[135.54638,34.7051],[135.54638,34.70512],[135.54638,34.70556],[135.54639,34.7065],[135.54639,34.7065],[135.5464,34.70667],[135.54641,34.70692],[135.54641,34.70697],[135.54641,34.70708],[135.54641,34.70719],[135.5464,34.70739],[135.5464,34.70746],[135.5464,34.70747],[135.54641,34.70793],[135.54641,34.70798],[135.54641,34.70834],[135.54641,34.70836],[135.54642,34.70837],[135.54643,34.7093],[135.54643,34.70931],[135.54713,34.7093],[135.54716,34.7093],[135.54834,34.70927],[135.54837,34.70927],[135.54852,34.70927],[135.54913,34.70925],[135.54947,34.70925],[135.5496,34.70924],[135.54997,34.70923],[135.54995,34.70875],[135.54993,34.70828],[135.54991,34.70783],[135.54989,34.70736],[135.54987,34.70691],[135.54985,34.70643],[135.54984,34.70595],[135.54984,34.70568],[135.54983,34.70551],[135.54986,34.70548],[135.54982,34.70524]]]}},{"type":"Feature","properties":{"name":"関目二丁目","setai":2089,"jinko":4711,"key":"27118004002","units":1},"geometry":{"type":"Polygon","coordinates":[[[135.55416,34.70555],[135.55416,34.7054],[135.55334,34.70541],[135.55268,34.70542],[135.55124,34.70544],[135.55124,34.70544],[135.55062,34.70547],[135.55051,34.70547],[135.54986,34.70548],[135.54983,34.70551],[135.54984,34.70568],[135.54984,34.70595],[135.54985,34.70643],[135.54987,34.70691],[135.54989,34.70736],[135.54991,34.70783],[135.54993,34.70828],[135.54995,34.70875],[135.54997,34.70923],[135.55054,34.70922],[135.55069,34.70922],[135.55138,34.7092],[135.55195,34.70919],[135.55204,34.70919],[135.55214,34.70918],[135.55229,34.70918],[135.55229,34.70918],[135.55235,34.70918],[135.55281,34.70917],[135.55346,34.70915],[135.55362,34.70915],[135.55429,34.70914],[135.55429,34.70912],[135.55428,34.70882],[135.55427,34.70854],[135.55427,34.70846],[135.55426,34.70839],[135.55426,34.70828],[135.55426,34.70823],[135.55424,34.70811],[135.55423,34.70792],[135.55423,34.70772],[135.55422,34.70727],[135.55421,34.70704],[135.55419,34.70632],[135.55416,34.70564],[135.55416,34.70555]]]}},{"type":"Feature","properties":{"name":"関目三丁目","setai":1323,"jinko":2605,"key":"27118004003","units":1},"geometry":{"type":"Polygon","coordinates":[[[135.55007,34.71205],[135.55005,34.71155],[135.55003,34.71111],[135.55003,34.71109],[135.55002,34.71085],[135.55001,34.71062],[135.55001,34.71059],[135.55,34.71039],[135.55,34.71019],[135.55,34.71018],[135.54997,34.70971],[135.54997,34.70923],[135.5496,34.70924],[135.54947,34.70925],[135.54913,34.70925],[135.54852,34.70927],[135.54837,34.70927],[135.54834,34.70927],[135.54716,34.7093],[135.54713,34.7093],[135.54643,34.70931],[135.54643,34.70971],[135.54643,34.70976],[135.54643,34.71003],[135.54644,34.71024],[135.54644,34.71027],[135.54644,34.71059],[135.54645,34.71082],[135.54646,34.71119],[135.54645,34.71177],[135.54661,34.71201],[135.54679,34.71201],[135.54726,34.71201],[135.5482,34.71199],[135.54864,34.71199],[135.54864,34.71201],[135.5495,34.71203],[135.55007,34.71205]]]}},{"type":"Feature","properties":{"name":"関目四丁目","setai":1381,"jinko":2955,"key":"27118004004","units":1},"geometry":{"type":"Polygon","coordinates":[[[135.55427,34.70924],[135.55429,34.70914],[135.55362,34.70915],[135.55346,34.70915],[135.55281,34.70917],[135.55235,34.70918],[135.55229,34.70918],[135.55229,34.70918],[135.55214,34.70918],[135.55204,34.70919],[135.55195,34.70919],[135.55138,34.7092],[135.55069,34.70922],[135.55054,34.70922],[135.54997,34.70923],[135.54997,34.70971],[135.55,34.71018],[135.55,34.71019],[135.55,34.71039],[135.55001,34.71059],[135.55001,34.71062],[135.55002,34.71085],[135.55003,34.71109],[135.55003,34.71111],[135.55005,34.71155],[135.55007,34.71205],[135.55146,34.712],[135.55206,34.71199],[135.55256,34.71198],[135.55266,34.71198],[135.55289,34.71197],[135.5529,34.71197],[135.55353,34.71196],[135.55391,34.71195],[135.55436,34.71194],[135.55436,34.71193],[135.55436,34.71184],[135.55435,34.71167],[135.55434,34.71148],[135.55434,34.71146],[135.55434,34.71135],[135.55434,34.71122],[135.55433,34.71098],[135.55433,34.71051],[135.55431,34.71007],[135.5543,34.70982],[135.5543,34.70964],[135.55429,34.70942],[135.55427,34.70924]]]}},{"type":"Feature","properties":{"name":"関目五丁目","setai":1569,"jinko":2723,"key":"27118004005","units":1},"geometry":{"type":"Polygon","coordinates":[[[135.5495,34.71203],[135.54864,34.71201],[135.54864,34.71199],[135.5482,34.71199],[135.54726,34.71201],[135.54679,34.71201],[135.54661,34.71201],[135.54645,34.71177],[135.54643,34.71176],[135.54644,34.71205],[135.54647,34.71271],[135.54648,34.71305],[135.54647,34.7135],[135.54649,34.71399],[135.5465,34.71446],[135.54651,34.71486],[135.54651,34.71493],[135.54652,34.71538],[135.54677,34.71544],[135.54725,34.71544],[135.54768,34.71544],[135.54815,34.71544],[135.54827,34.71545],[135.54867,34.71545],[135.54892,34.71545],[135.54891,34.71543],[135.54958,34.7154],[135.54971,34.71539],[135.55016,34.71537],[135.55013,34.71482],[135.55012,34.71435],[135.55011,34.7139],[135.5501,34.71365],[135.5501,34.71344],[135.55008,34.71299],[135.55008,34.71252],[135.55007,34.71205],[135.5495,34.71203]]]}},{"type":"Feature","properties":{"name":"関目六丁目","setai":1896,"jinko":4021,"key":"27118004006","units":1},"geometry":{"type":"Polygon","coordinates":[[[135.55441,34.71194],[135.55436,34.71193],[135.55436,34.71194],[135.55391,34.71195],[135.55353,34.71196],[135.5529,34.71197],[135.55289,34.71197],[135.55266,34.71198],[135.55256,34.71198],[135.55206,34.71199],[135.55146,34.712],[135.55007,34.71205],[135.55008,34.71252],[135.55008,34.71299],[135.5501,34.71344],[135.5501,34.71365],[135.55011,34.7139],[135.55012,34.71435],[135.55013,34.71482],[135.55016,34.71537],[135.55024,34.71536],[135.55062,34.71534],[135.55079,34.71534],[135.55085,34.71533],[135.55104,34.71533],[135.55114,34.71533],[135.5514,34.71532],[135.55159,34.71532],[135.55193,34.71531],[135.55197,34.71531],[135.55226,34.7153],[135.55302,34.71528],[135.55315,34.71528],[135.55438,34.71526],[135.55452,34.71525],[135.5545,34.71472],[135.55448,34.71443],[135.55446,34.71413],[135.55445,34.7138],[135.55445,34.71359],[135.55445,34.71356],[135.55444,34.71336],[135.55443,34.71321],[135.55443,34.71292],[135.55442,34.71287],[135.55442,34.71258],[135.55441,34.71228],[135.55441,34.71226],[135.55441,34.71194]]]}},{"type":"Feature","properties":{"name":"古市一丁目","setai":1058,"jinko":2366,"key":"27118005001","units":1},"geometry":{"type":"Polygon","coordinates":[[[135.56014,34.7057],[135.56013,34.70526],[135.55948,34.70527],[135.55889,34.70529],[135.5582,34.7053],[135.55691,34.70534],[135.55563,34.70537],[135.55498,34.70538],[135.55416,34.7054],[135.55416,34.70555],[135.55416,34.70564],[135.55419,34.70632],[135.55421,34.70704],[135.55422,34.70727],[135.55423,34.70772],[135.55423,34.70792],[135.55424,34.70811],[135.55426,34.70823],[135.55426,34.70828],[135.55426,34.70839],[135.55427,34.70846],[135.55427,34.70854],[135.55428,34.70882],[135.55429,34.70912],[135.5551,34.70911],[135.55574,34.7091],[135.55615,34.70909],[135.55703,34.70907],[135.55711,34.70907],[135.55745,34.70906],[135.55794,34.70905],[135.55803,34.70905],[135.55835,34.70905],[135.55876,34.70904],[135.55913,34.70903],[135.55962,34.70902],[135.55992,34.70901],[135.56022,34.709],[135.56019,34.70806],[135.56018,34.70787],[135.56017,34.70763],[135.56016,34.70738],[135.56016,34.70714],[135.56015,34.70647],[135.56015,34.7062],[135.56015,34.70593],[135.56014,34.70574],[135.56014,34.7057]]]}},{"type":"Feature","properties":{"name":"古市二丁目","setai":1764,"jinko":3825,"key":"27118005002","units":1},"geometry":{"type":"Polygon","coordinates":[[[135.56024,34.70947],[135.56022,34.709],[135.55992,34.70901],[135.55962,34.70902],[135.55913,34.70903],[135.55876,34.70904],[135.55835,34.70905],[135.55803,34.70905],[135.55794,34.70905],[135.55745,34.70906],[135.55711,34.70907],[135.55703,34.70907],[135.55615,34.70909],[135.55574,34.7091],[135.5551,34.70911],[135.55429,34.70912],[135.55429,34.70914],[135.55427,34.70924],[135.55429,34.70942],[135.5543,34.70964],[135.5543,34.70982],[135.55431,34.71007],[135.55433,34.71051],[135.55433,34.71098],[135.55434,34.71122],[135.55434,34.71135],[135.55434,34.71146],[135.55434,34.71148],[135.55435,34.71167],[135.55436,34.71184],[135.55436,34.71193],[135.55441,34.71194],[135.55519,34.71192],[135.55585,34.71191],[135.55616,34.7119],[135.55653,34.71189],[135.55688,34.71189],[135.55713,34.71188],[135.5577,34.71187],[135.55782,34.71186],[135.55837,34.71185],[135.55969,34.71182],[135.5603,34.7118],[135.56027,34.71086],[135.56026,34.71051],[135.56024,34.70996],[135.56024,34.70976],[135.56024,34.70947]]]}},{"type":"Feature","properties":{"name":"古市三丁目","setai":2388,"jinko":5286,"key":"27118005003","units":1},"geometry":{"type":"Polygon","coordinates":[[[135.56031,34.71214],[135.5603,34.7118],[135.55969,34.71182],[135.55837,34.71185],[135.55782,34.71186],[135.5577,34.71187],[135.55713,34.71188],[135.55688,34.71189],[135.55653,34.71189],[135.55616,34.7119],[135.55585,34.71191],[135.55519,34.71192],[135.55441,34.71194],[135.55441,34.71226],[135.55441,34.71228],[135.55442,34.71258],[135.55442,34.71287],[135.55443,34.71292],[135.55443,34.71321],[135.55444,34.71336],[135.55445,34.71356],[135.55445,34.71359],[135.55445,34.7138],[135.55446,34.71413],[135.55448,34.71443],[135.5545,34.71472],[135.55452,34.71525],[135.55532,34.71524],[135.55566,34.71523],[135.55596,34.71522],[135.55726,34.7152],[135.55814,34.71517],[135.55853,34.71516],[135.55927,34.71515],[135.55983,34.71513],[135.56011,34.71513],[135.5604,34.71512],[135.56039,34.71458],[135.56039,34.71457],[135.56038,34.71366],[135.56034,34.71274],[135.56031,34.71214]]]}},{"type":"Feature","properties":{"name":"今福東一丁目","setai":1517,"jinko":3230,"key":"27118006001","units":1},"geometry":{"type":"Polygon","coordinates":[[[135.55999,34.70122],[135.55999,34.70096],[135.55996,34.70052],[135.55996,34.70039],[135.55995,34.70014],[135.55994,34.69992],[135.55941,34.69987],[135.55857,34.69974],[135.55801,34.69966],[135.55673,34.69946],[135.55543,34.69926],[135.55541,34.69925],[135.55389,34.69902],[135.55387,34.69905],[135.55387,34.6992],[135.55387,34.6992],[135.55388,34.69937],[135.55389,34.69954],[135.5539,34.69976],[135.55391,34.69985],[135.55391,34.70019],[135.55391,34.70048],[135.55392,34.7012],[135.55394,34.70116],[135.55548,34.70136],[135.55549,34.70137],[135.55656,34.7015],[135.55674,34.70152],[135.55678,34.70152],[135.5572,34.70159],[135.55807,34.7017],[135.55872,34.70178],[135.55933,34.70186],[135.56002,34.70195],[135.56002,34.70188],[135.56001,34.70163],[135.56001,34.70161],[135.56,34.70149],[135.56,34.70138],[135.55999,34.70122]]]}},{"type":"Feature","properties":{"name":"今福東二丁目","setai":1201,"jinko":2772,"key":"27118006002","units":1},"geometry":{"type":"Polygon","coordinates":[[[135.55886,34.70342],[135.55938,34.70341],[135.55942,34.70342],[135.56007,34.7034],[135.56007,34.70339],[135.56003,34.70237],[135.56002,34.70195],[135.55933,34.70186],[135.55872,34.70178],[135.55807,34.7017],[135.5572,34.70159],[135.55678,34.70152],[135.55674,34.70152],[135.55656,34.7015],[135.55549,34.70137],[135.55548,34.70136],[135.55394,34.70116],[135.55394,34.70134],[135.55395,34.70151],[135.55397,34.70167],[135.55398,34.70185],[135.55399,34.70222],[135.55401,34.70251],[135.55406,34.70354],[135.55473,34.70352],[135.55493,34.70352],[135.55497,34.70351],[135.55502,34.70351],[135.55508,34.70351],[135.55513,34.70351],[135.55518,34.70351],[135.55522,34.70351],[135.55527,34.70351],[135.55533,34.70351],[135.5554,34.70351],[135.55547,34.7035],[135.5555,34.7035],[135.55556,34.7035],[135.55624,34.70349],[135.55686,34.70347],[135.55714,34.70347],[135.55729,34.70346],[135.55739,34.70346],[135.55814,34.70345],[135.55855,34.70343],[135.5587,34.70343],[135.55886,34.70342]]]}},{"type":"Feature","properties":{"name":"今福東三丁目","setai":1470,"jinko":2969,"key":"27118006003","units":1},"geometry":{"type":"Polygon","coordinates":[[[135.56008,34.70383],[135.56007,34.7034],[135.55942,34.70342],[135.55938,34.70341],[135.55886,34.70342],[135.5587,34.70343],[135.55855,34.70343],[135.55814,34.70345],[135.55739,34.70346],[135.55729,34.70346],[135.55714,34.70347],[135.55686,34.70347],[135.55624,34.70349],[135.55556,34.7035],[135.5555,34.7035],[135.55547,34.7035],[135.5554,34.70351],[135.55533,34.70351],[135.55527,34.70351],[135.55522,34.70351],[135.55518,34.70351],[135.55513,34.70351],[135.55508,34.70351],[135.55502,34.70351],[135.55497,34.70351],[135.55493,34.70352],[135.55473,34.70352],[135.55406,34.70354],[135.55408,34.70407],[135.5541,34.70447],[135.55411,34.7047],[135.55413,34.70496],[135.55415,34.70503],[135.55416,34.7054],[135.55498,34.70538],[135.55563,34.70537],[135.55691,34.70534],[135.5582,34.7053],[135.55889,34.70529],[135.55948,34.70527],[135.56013,34.70526],[135.56012,34.70517],[135.56011,34.705],[135.56011,34.70483],[135.56009,34.70433],[135.56009,34.70413],[135.56008,34.70383]]]}},{"type":"Feature","properties":{"name":"今福西一丁目","setai":1141,"jinko":2207,"key":"27118007001","units":1},"geometry":{"type":"Polygon","coordinates":[[[135.54805,34.69762],[135.54753,34.6975],[135.54753,34.69752],[135.54666,34.69733],[135.54661,34.69733],[135.54626,34.69726],[135.54625,34.69749],[135.54626,34.69811],[135.54626,34.69827],[135.54626,34.69833],[135.54627,34.69856],[135.54627,34.69859],[135.54625,34.69878],[135.54627,34.69894],[135.54627,34.69901],[135.54627,34.69905],[135.54627,34.69914],[135.54628,34.69931],[135.54628,34.69943],[135.54628,34.69956],[135.54629,34.69995],[135.54629,34.69995],[135.5463,34.70032],[135.5469,34.70035],[135.54724,34.70036],[135.5479,34.70045],[135.54791,34.7005],[135.54912,34.70065],[135.54919,34.70066],[135.54971,34.70071],[135.54968,34.70042],[135.54966,34.70001],[135.54965,34.6998],[135.54965,34.69976],[135.54964,34.69956],[135.54964,34.6995],[135.54965,34.69935],[135.54967,34.69925],[135.54967,34.69917],[135.54967,34.69908],[135.54963,34.69894],[135.54955,34.69859],[135.54951,34.69853],[135.54947,34.69845],[135.54958,34.6983],[135.54935,34.6982],[135.54921,34.69809],[135.54921,34.69809],[135.54908,34.69801],[135.54805,34.69762]]]}},{"type":"Feature","properties":{"name":"今福西二丁目","setai":1115,"jinko":2546,"key":"27118007002","units":1},"geometry":{"type":"Polygon","coordinates":[[[135.55235,34.69879],[135.55229,34.69878],[135.55227,34.69878],[135.55167,34.69867],[135.55116,34.69858],[135.55113,34.69857],[135.5509,34.69852],[135.55073,34.6985],[135.55071,34.6985],[135.55051,34.69847],[135.55004,34.69839],[135.5498,34.69837],[135.54958,34.6983],[135.54947,34.69845],[135.54951,34.69853],[135.54955,34.69859],[135.54963,34.69894],[135.54967,34.69908],[135.54967,34.69917],[135.54967,34.69925],[135.54965,34.69935],[135.54964,34.6995],[135.54964,34.69956],[135.54965,34.69976],[135.54965,34.6998],[135.54966,34.70001],[135.54968,34.70042],[135.54971,34.70071],[135.55064,34.70082],[135.55109,34.70088],[135.55188,34.70098],[135.55189,34.70098],[135.55203,34.70099],[135.55203,34.70099],[135.55222,34.70101],[135.55239,34.70104],[135.55252,34.70105],[135.5532,34.70113],[135.55345,34.70116],[135.55392,34.7012],[135.55391,34.70048],[135.55391,34.70019],[135.55391,34.69985],[135.5539,34.69976],[135.55389,34.69954],[135.55388,34.69937],[135.55387,34.6992],[135.55387,34.6992],[135.55387,34.69905],[135.5524,34.6988],[135.55235,34.69879]]]}},{"type":"Feature","properties":{"name":"今福西三丁目","setai":826,"jinko":1513,"key":"27118007003","units":1},"geometry":{"type":"Polygon","coordinates":[[[135.54836,34.70294],[135.54942,34.70283],[135.54941,34.70272],[135.5494,34.70268],[135.54999,34.70262],[135.55003,34.70261],[135.54996,34.70196],[135.5499,34.70142],[135.54988,34.70131],[135.54985,34.70131],[135.54987,34.70119],[135.54976,34.70105],[135.54975,34.70103],[135.54971,34.70071],[135.54919,34.70066],[135.54912,34.70065],[135.54791,34.7005],[135.5479,34.70045],[135.54724,34.70036],[135.5469,34.70035],[135.5463,34.70032],[135.5463,34.70089],[135.54632,34.70156],[135.54632,34.70201],[135.54632,34.70221],[135.54633,34.70287],[135.5465,34.70286],[135.54668,34.70286],[135.54684,34.70286],[135.54707,34.70286],[135.54812,34.70286],[135.54813,34.70296],[135.54836,34.70294]]]}},{"type":"Feature","properties":{"name":"今福西四丁目","setai":521,"jinko":881,"key":"27118007004","units":1},"geometry":{"type":"Polygon","coordinates":[[[135.55394,34.70134],[135.55394,34.70116],[135.55392,34.7012],[135.55345,34.70116],[135.5532,34.70113],[135.55252,34.70105],[135.55239,34.70104],[135.55222,34.70101],[135.55203,34.70099],[135.55203,34.70099],[135.55189,34.70098],[135.55188,34.70098],[135.55109,34.70088],[135.55064,34.70082],[135.54971,34.70071],[135.54975,34.70103],[135.54976,34.70105],[135.54987,34.70119],[135.54985,34.70131],[135.54988,34.70131],[135.5499,34.70142],[135.54996,34.70196],[135.55003,34.70261],[135.55007,34.70261],[135.55055,34.70259],[135.55113,34.70258],[135.55115,34.70258],[135.55118,34.70258],[135.55151,34.70257],[135.55154,34.70257],[135.55182,34.70257],[135.55234,34.70255],[135.55257,34.70255],[135.55261,34.70255],[135.55292,34.70254],[135.55321,34.70253],[135.55401,34.70251],[135.55399,34.70222],[135.55398,34.70185],[135.55397,34.70167],[135.55395,34.70151],[135.55394,34.70134]]]}},{"type":"Feature","properties":{"name":"今福西五丁目","setai":901,"jinko":1660,"key":"27118007005","units":1},"geometry":{"type":"Polygon","coordinates":[[[135.54979,34.70486],[135.54973,34.70458],[135.5497,34.70443],[135.5497,34.70437],[135.5497,34.70433],[135.54968,34.70418],[135.54965,34.70407],[135.5496,34.70392],[135.54957,34.70383],[135.54953,34.70373],[135.54952,34.70366],[135.5495,34.70347],[135.54949,34.70341],[135.54946,34.70317],[135.54945,34.7031],[135.54942,34.70283],[135.54836,34.70294],[135.54813,34.70296],[135.54812,34.70286],[135.54707,34.70286],[135.54684,34.70286],[135.54668,34.70286],[135.5465,34.70286],[135.54633,34.70287],[135.54634,34.70344],[135.54635,34.70374],[135.54636,34.70418],[135.54636,34.70461],[135.54706,34.7046],[135.54709,34.7046],[135.54743,34.7046],[135.54786,34.7046],[135.54834,34.70459],[135.54834,34.70462],[135.54841,34.70507],[135.54843,34.70517],[135.5498,34.70512],[135.54983,34.70512],[135.54979,34.70486]]]}},{"type":"Feature","properties":{"name":"今福西六丁目","setai":1444,"jinko":4514,"key":"27118007006","units":1},"geometry":{"type":"Polygon","coordinates":[[[135.55062,34.70547],[135.55124,34.70544],[135.55124,34.70544],[135.55268,34.70542],[135.55334,34.70541],[135.55416,34.7054],[135.55415,34.70503],[135.55413,34.70496],[135.55411,34.7047],[135.5541,34.70447],[135.55408,34.70407],[135.55406,34.70354],[135.55401,34.70251],[135.55321,34.70253],[135.55292,34.70254],[135.55261,34.70255],[135.55257,34.70255],[135.55234,34.70255],[135.55182,34.70257],[135.55154,34.70257],[135.55151,34.70257],[135.55118,34.70258],[135.55115,34.70258],[135.55113,34.70258],[135.55055,34.70259],[135.55007,34.70261],[135.55003,34.70261],[135.54999,34.70262],[135.5494,34.70268],[135.54941,34.70272],[135.54942,34.70283],[135.54945,34.7031],[135.54946,34.70317],[135.54949,34.70341],[135.5495,34.70347],[135.54952,34.70366],[135.54953,34.70373],[135.54957,34.70383],[135.5496,34.70392],[135.54965,34.70407],[135.54968,34.70418],[135.5497,34.70433],[135.5497,34.70437],[135.5497,34.70443],[135.54973,34.70458],[135.54979,34.70486],[135.54983,34.70512],[135.5498,34.70512],[135.54982,34.70524],[135.54986,34.70548],[135.55051,34.70547],[135.55062,34.70547]]]}},{"type":"Feature","properties":{"name":"今福南一丁目","setai":257,"jinko":458,"key":"27118008001","units":1},"geometry":{"type":"Polygon","coordinates":[[[135.54923,34.69808],[135.54976,34.69748],[135.54978,34.69746],[135.55001,34.69708],[135.5504,34.69639],[135.55056,34.69612],[135.55061,34.69604],[135.55069,34.69593],[135.55075,34.69585],[135.55089,34.69573],[135.55114,34.69571],[135.55121,34.69565],[135.55121,34.69547],[135.55118,34.69547],[135.55089,34.69549],[135.55043,34.69557],[135.55001,34.69566],[135.54962,34.69573],[135.5495,34.69576],[135.54922,34.69584],[135.54905,34.69591],[135.54898,34.69593],[135.54878,34.69604],[135.54885,34.6961],[135.54836,34.69637],[135.548,34.69656],[135.5477,34.69666],[135.54732,34.69672],[135.54675,34.69677],[135.54665,34.69677],[135.54624,34.69678],[135.54621,34.69678],[135.54621,34.697],[135.54622,34.69725],[135.54626,34.69726],[135.54661,34.69733],[135.54666,34.69733],[135.54753,34.69752],[135.54753,34.6975],[135.54805,34.69762],[135.54908,34.69801],[135.54921,34.69809],[135.54923,34.69808]]]}},{"type":"Feature","properties":{"name":"今福南二丁目","setai":793,"jinko":1697,"key":"27118008002","units":1},"geometry":{"type":"Polygon","coordinates":[[[135.55389,34.69902],[135.55389,34.69878],[135.55384,34.69795],[135.55383,34.69745],[135.55381,34.69677],[135.55379,34.6961],[135.5538,34.6956],[135.55333,34.69557],[135.55255,34.69553],[135.55212,34.69551],[135.55156,34.69548],[135.55121,34.69547],[135.55121,34.69565],[135.55114,34.69571],[135.55089,34.69573],[135.55075,34.69585],[135.55069,34.69593],[135.55061,34.69604],[135.55056,34.69612],[135.5504,34.69639],[135.55001,34.69708],[135.54978,34.69746],[135.54976,34.69748],[135.54923,34.69808],[135.54921,34.69809],[135.54921,34.69809],[135.54935,34.6982],[135.54958,34.6983],[135.5498,34.69837],[135.55004,34.69839],[135.55051,34.69847],[135.55071,34.6985],[135.55073,34.6985],[135.5509,34.69852],[135.55113,34.69857],[135.55116,34.69858],[135.55167,34.69867],[135.55227,34.69878],[135.55229,34.69878],[135.55235,34.69879],[135.5524,34.6988],[135.55387,34.69905],[135.55389,34.69902]]]}},{"type":"Feature","properties":{"name":"今福南三丁目","setai":93,"jinko":249,"key":"27118008003","units":1},"geometry":{"type":"Polygon","coordinates":[[[135.55413,34.69562],[135.5538,34.6956],[135.55379,34.6961],[135.55381,34.69677],[135.55383,34.69745],[135.55439,34.69744],[135.55468,34.69744],[135.55536,34.69741],[135.55786,34.69736],[135.55793,34.69736],[135.55834,34.69734],[135.5593,34.69732],[135.55972,34.69731],[135.55967,34.6966],[135.55964,34.69636],[135.55962,34.69592],[135.55824,34.69584],[135.55788,34.69583],[135.55715,34.69581],[135.5564,34.69577],[135.55573,34.69574],[135.55547,34.69572],[135.55488,34.69566],[135.55463,34.69565],[135.55449,34.69564],[135.55423,34.69562],[135.55413,34.69562]]]}},{"type":"Feature","properties":{"name":"今福南四丁目","setai":1922,"jinko":3590,"key":"27118008004","units":1},"geometry":{"type":"Polygon","coordinates":[[[135.55972,34.69748],[135.55972,34.69731],[135.5593,34.69732],[135.55834,34.69734],[135.55793,34.69736],[135.55786,34.69736],[135.55536,34.69741],[135.55468,34.69744],[135.55439,34.69744],[135.55383,34.69745],[135.55384,34.69795],[135.55389,34.69878],[135.55389,34.69902],[135.55541,34.69925],[135.55543,34.69926],[135.55673,34.69946],[135.55801,34.69966],[135.55857,34.69974],[135.55941,34.69987],[135.55994,34.69992],[135.55986,34.69969],[135.55981,34.69881],[135.5598,34.69861],[135.55978,34.69829],[135.55977,34.69826],[135.55974,34.69776],[135.55974,34.69772],[135.55972,34.69748]]]}},{"type":"Feature","properties":{"name":"蒲生一丁目","setai":932,"jinko":1275,"key":"27118009001","units":1},"geometry":{"type":"Polygon","coordinates":[[[135.5383,34.69973],[135.53825,34.69966],[135.53856,34.69971],[135.53892,34.69978],[135.53931,34.69985],[135.53932,34.69985],[135.53962,34.69978],[135.5399,34.69971],[135.54006,34.69965],[135.53988,34.69941],[135.53982,34.69935],[135.53973,34.69938],[135.53962,34.69938],[135.53949,34.69935],[135.53944,34.69929],[135.53929,34.69905],[135.53917,34.69892],[135.53906,34.69877],[135.53891,34.69855],[135.53884,34.69837],[135.53845,34.69832],[135.53844,34.69816],[135.53843,34.69809],[135.53843,34.69801],[135.53825,34.69784],[135.53803,34.69763],[135.53807,34.6975],[135.538,34.69741],[135.53781,34.69738],[135.53733,34.69728],[135.53609,34.69707],[135.53567,34.69701],[135.53573,34.6972],[135.53575,34.69725],[135.53586,34.69756],[135.53594,34.69778],[135.53607,34.69815],[135.53608,34.69817],[135.53611,34.69827],[135.53615,34.6984],[135.53617,34.69846],[135.53639,34.69939],[135.5364,34.69944],[135.53641,34.69952],[135.53672,34.69957],[135.53723,34.69968],[135.53766,34.69977],[135.53806,34.69985],[135.53841,34.69991],[135.5383,34.69973]]]}},{"type":"Feature","properties":{"name":"蒲生二丁目","setai":1089,"jinko":1657,"key":"27118009002","units":1},"geometry":{"type":"Polygon","coordinates":[[[135.54097,34.7001],[135.54113,34.6996],[135.5412,34.69938],[135.5413,34.69913],[135.54147,34.69875],[135.54162,34.69842],[135.54164,34.69839],[135.54166,34.69836],[135.54176,34.69813],[135.54184,34.69795],[135.54151,34.69796],[135.54111,34.69795],[135.5408,34.69792],[135.54042,34.6979],[135.54035,34.6979],[135.54001,34.69787],[135.5399,34.69786],[135.53977,34.69785],[135.53964,34.69783],[135.53963,34.69783],[135.53945,34.69779],[135.53919,34.69773],[135.53887,34.69764],[135.53858,34.69756],[135.53846,34.69752],[135.53819,34.69745],[135.538,34.69741],[135.53807,34.6975],[135.53803,34.69763],[135.53825,34.69784],[135.53843,34.69801],[135.53843,34.69809],[135.53844,34.69816],[135.53845,34.69832],[135.53884,34.69837],[135.53891,34.69855],[135.53906,34.69877],[135.53917,34.69892],[135.53929,34.69905],[135.53944,34.69929],[135.53949,34.69935],[135.53962,34.69938],[135.53973,34.69938],[135.53982,34.69935],[135.53988,34.69941],[135.54006,34.69965],[135.5399,34.69971],[135.53962,34.69978],[135.53932,34.69985],[135.53931,34.69985],[135.53892,34.69978],[135.53856,34.69971],[135.53825,34.69966],[135.5383,34.69973],[135.53841,34.69991],[135.53851,34.69993],[135.53869,34.69997],[135.53906,34.7001],[135.53939,34.70023],[135.53948,34.70028],[135.53966,34.70038],[135.5399,34.70054],[135.54016,34.70073],[135.54031,34.70088],[135.54038,34.70095],[135.54066,34.70132],[135.54074,34.70148],[135.54082,34.70162],[135.54085,34.7017],[135.54095,34.702],[135.54104,34.70238],[135.54109,34.70259],[135.54108,34.70241],[135.54108,34.7024],[135.54104,34.70199],[135.541,34.70151],[135.54097,34.70122],[135.54093,34.70075],[135.54093,34.70055],[135.54095,34.70036],[135.54096,34.70013],[135.54097,34.7001]]]}},{"type":"Feature","properties":{"name":"蒲生三丁目","setai":723,"jinko":1297,"key":"27118009003","units":1},"geometry":{"type":"Polygon","coordinates":[[[135.54332,34.69774],[135.5432,34.69762],[135.54223,34.69787],[135.54205,34.6979],[135.54187,34.6979],[135.54184,34.69795],[135.54176,34.69813],[135.54166,34.69836],[135.54164,34.69839],[135.54162,34.69842],[135.54147,34.69875],[135.5413,34.69913],[135.5412,34.69938],[135.54113,34.6996],[135.54097,34.7001],[135.54148,34.70012],[135.54173,34.70013],[135.54178,34.70013],[135.54186,34.70013],[135.54208,34.70014],[135.54224,34.70015],[135.5424,34.70015],[135.54314,34.70019],[135.54348,34.7002],[135.5435,34.7002],[135.54385,34.70022],[135.54386,34.6998],[135.54388,34.69961],[135.54389,34.69947],[135.54389,34.69944],[135.54388,34.6992],[135.54387,34.69891],[135.54387,34.6989],[135.54377,34.69823],[135.54377,34.69823],[135.54344,34.69785],[135.54332,34.69774]]]}},{"type":"Feature","properties":{"name":"蒲生四丁目","setai":804,"jinko":1596,"key":"27118009004","units":1},"geometry":{"type":"Polygon","coordinates":[[[135.54568,34.69714],[135.54533,34.69711],[135.54511,34.69713],[135.5448,34.69719],[135.54436,34.6973],[135.54417,34.69735],[135.5432,34.69762],[135.54332,34.69774],[135.54344,34.69785],[135.54377,34.69823],[135.54377,34.69823],[135.54387,34.6989],[135.54387,34.69891],[135.54388,34.6992],[135.54389,34.69944],[135.54389,34.69947],[135.54388,34.69961],[135.54386,34.6998],[135.54385,34.70022],[135.54508,34.70026],[135.54558,34.70029],[135.5463,34.70032],[135.54629,34.69995],[135.54629,34.69995],[135.54628,34.69956],[135.54628,34.69943],[135.54628,34.69931],[135.54627,34.69914],[135.54627,34.69905],[135.54627,34.69901],[135.54627,34.69894],[135.54625,34.69878],[135.54627,34.69859],[135.54627,34.69856],[135.54626,34.69833],[135.54626,34.69827],[135.54626,34.69811],[135.54625,34.69749],[135.54626,34.69726],[135.54622,34.69725],[135.54568,34.69714]]]}},{"type":"Feature","properties":{"name":"新喜多一丁目","setai":1566,"jinko":2683,"key":"27118010001","units":1},"geometry":{"type":"Polygon","coordinates":[[[135.54103,34.69746],[135.54102,34.6974],[135.54076,34.69741],[135.54076,34.69698],[135.54075,34.69624],[135.54046,34.69623],[135.53996,34.69622],[135.5389,34.6962],[135.53805,34.69615],[135.53783,34.69611],[135.5374,34.69603],[135.53719,34.69597],[135.53678,34.69586],[135.53629,34.69575],[135.53593,34.69566],[135.5356,34.69557],[135.53538,34.69553],[135.53497,34.69543],[135.53479,34.6954],[135.53443,34.69621],[135.53439,34.69631],[135.53434,34.6964],[135.5343,34.6965],[135.53426,34.6966],[135.53425,34.6966],[135.53421,34.69669],[135.53412,34.6969],[135.53447,34.69696],[135.53495,34.69698],[135.53567,34.69701],[135.53609,34.69707],[135.53733,34.69728],[135.53781,34.69738],[135.538,34.69741],[135.53819,34.69745],[135.53846,34.69752],[135.53858,34.69756],[135.53887,34.69764],[135.53919,34.69773],[135.53945,34.69779],[135.53963,34.69783],[135.53964,34.69783],[135.53977,34.69785],[135.5399,34.69786],[135.54001,34.69787],[135.54035,34.6979],[135.54042,34.6979],[135.5408,34.69792],[135.54111,34.69795],[135.5411,34.69756],[135.54109,34.69752],[135.54103,34.69746]]]}},{"type":"Feature","properties":{"name":"新喜多二丁目","setai":467,"jinko":860,"key":"27118010002","units":1},"geometry":{"type":"Polygon","coordinates":[[[135.5432,34.69762],[135.54417,34.69735],[135.54436,34.6973],[135.5448,34.69719],[135.54511,34.69713],[135.54533,34.69711],[135.54568,34.69714],[135.54622,34.69725],[135.54621,34.697],[135.54621,34.69678],[135.54588,34.69677],[135.54494,34.6966],[135.54485,34.69659],[135.54435,34.69649],[135.54375,34.69637],[135.54338,34.6963],[135.54308,34.69625],[135.54308,34.69626],[135.54282,34.69625],[135.54221,34.69625],[135.54075,34.69624],[135.54076,34.69698],[135.54076,34.69741],[135.54102,34.6974],[135.54103,34.69746],[135.54109,34.69752],[135.5411,34.69756],[135.54111,34.69795],[135.54151,34.69796],[135.54184,34.69795],[135.54187,34.6979],[135.54205,34.6979],[135.54223,34.69787],[135.5432,34.69762]]]}},{"type":"Feature","properties":{"name":"新喜多東一丁目","setai":1174,"jinko":2569,"key":"27118011001","units":1},"geometry":{"type":"Polygon","coordinates":[[[135.55131,34.69492],[135.55149,34.69475],[135.55168,34.69459],[135.5519,34.6944],[135.55177,34.69436],[135.55106,34.69403],[135.55102,34.69401],[135.55027,34.69358],[135.54989,34.69339],[135.54947,34.69318],[135.54924,34.69343],[135.54903,34.69367],[135.5489,34.69377],[135.54834,34.6943],[135.54791,34.69459],[135.54757,34.69482],[135.54752,34.69479],[135.54716,34.695],[135.54691,34.69515],[135.54679,34.69522],[135.54676,34.69522],[135.54647,34.69527],[135.54644,34.69528],[135.54624,34.69534],[135.54625,34.69536],[135.54625,34.69636],[135.54624,34.69678],[135.54665,34.69677],[135.54675,34.69677],[135.54732,34.69672],[135.5477,34.69666],[135.548,34.69656],[135.54836,34.69637],[135.54885,34.6961],[135.54878,34.69604],[135.54898,34.69593],[135.54905,34.69591],[135.54922,34.69584],[135.5495,34.69576],[135.54962,34.69573],[135.55001,34.69566],[135.55043,34.69557],[135.55089,34.69549],[135.55118,34.69547],[135.55119,34.69524],[135.5512,34.69514],[135.55119,34.69505],[135.55131,34.69492]]]}},{"type":"Feature","properties":{"name":"新喜多東二丁目","setai":1297,"jinko":3087,"key":"27118011002","units":1},"geometry":{"type":"Polygon","coordinates":[[[135.55434,34.69087],[135.55427,34.69023],[135.5539,34.69041],[135.55378,34.69047],[135.55374,34.69049],[135.5537,34.69051],[135.55364,34.69054],[135.5536,34.69056],[135.55357,34.69058],[135.5535,34.69062],[135.55346,34.69064],[135.55341,34.69067],[135.55334,34.6907],[135.55333,34.69071],[135.55331,34.69072],[135.5533,34.69073],[135.55329,34.69074],[135.55328,34.69074],[135.55327,34.69074],[135.55327,34.69075],[135.55325,34.69076],[135.55321,34.69078],[135.55301,34.69091],[135.55283,34.691],[135.55279,34.69102],[135.55272,34.69106],[135.55271,34.69106],[135.55264,34.69109],[135.55264,34.69109],[135.55261,34.6911],[135.55256,34.69112],[135.55245,34.69117],[135.55234,34.69122],[135.55233,34.69122],[135.55219,34.69127],[135.55183,34.6914],[135.55175,34.69143],[135.55135,34.69151],[135.55108,34.69155],[135.55075,34.69158],[135.55047,34.6916],[135.55031,34.6916],[135.55025,34.69161],[135.55015,34.69161],[135.55012,34.69174],[135.55012,34.69182],[135.55011,34.69187],[135.55011,34.69199],[135.55005,34.69218],[135.54985,34.6926],[135.54964,34.69297],[135.54962,34.69301],[135.54947,34.69318],[135.54989,34.69339],[135.55027,34.69358],[135.55102,34.69401],[135.55106,34.69403],[135.55177,34.69436],[135.5519,34.6944],[135.55197,34.69433],[135.55207,34.69429],[135.55292,34.69309],[135.55297,34.69303],[135.55342,34.6924],[135.55422,34.69127],[135.55436,34.69125],[135.55434,34.69087]]]}},{"type":"Feature","properties":{"name":"放出西一丁目","setai":717,"jinko":1852,"key":"27118012001","units":1},"geometry":{"type":"Polygon","coordinates":[[[135.55449,34.69564],[135.5546,34.69545],[135.55461,34.69528],[135.55461,34.69525],[135.55461,34.69523],[135.5546,34.69506],[135.5546,34.69482],[135.55459,34.69462],[135.55459,34.69443],[135.55459,34.69392],[135.55457,34.69373],[135.55457,34.69373],[135.55452,34.69331],[135.55448,34.69271],[135.55444,34.69231],[135.55436,34.69125],[135.55422,34.69127],[135.55342,34.6924],[135.55297,34.69303],[135.55292,34.69309],[135.55207,34.69429],[135.55197,34.69433],[135.5519,34.6944],[135.55168,34.69459],[135.55149,34.69475],[135.55131,34.69492],[135.55119,34.69505],[135.5512,34.69514],[135.55119,34.69524],[135.55118,34.69547],[135.55121,34.69547],[135.55156,34.69548],[135.55212,34.69551],[135.55255,34.69553],[135.55333,34.69557],[135.5538,34.6956],[135.55413,34.69562],[135.55423,34.69562],[135.55449,34.69564]]]}},{"type":"Feature","properties":{"name":"放出西二丁目","setai":812,"jinko":1993,"key":"27118012002","units":1},"geometry":{"type":"Polygon","coordinates":[[[135.55952,34.69303],[135.55944,34.69181],[135.55938,34.69181],[135.55907,34.69185],[135.55881,34.69187],[135.55823,34.69192],[135.55673,34.69208],[135.55672,34.69208],[135.5554,34.69221],[135.5554,34.69221],[135.55444,34.69231],[135.55448,34.69271],[135.55452,34.69331],[135.55457,34.69373],[135.55457,34.69373],[135.55459,34.69392],[135.55459,34.69443],[135.55459,34.69462],[135.5546,34.69482],[135.5546,34.69506],[135.55461,34.69523],[135.55461,34.69525],[135.55461,34.69528],[135.5546,34.69545],[135.55449,34.69564],[135.55463,34.69565],[135.55488,34.69566],[135.55547,34.69572],[135.55573,34.69574],[135.5564,34.69577],[135.55715,34.69581],[135.55788,34.69583],[135.55824,34.69584],[135.55962,34.69592],[135.55969,34.69593],[135.55966,34.69546],[135.55958,34.69415],[135.55956,34.69368],[135.55955,34.69355],[135.55952,34.69303]]]}},{"type":"Feature","properties":{"name":"放出西三丁目","setai":1104,"jinko":2279,"key":"27118012003","units":1},"geometry":{"type":"Polygon","coordinates":[[[135.55916,34.68866],[135.55915,34.68858],[135.55906,34.68859],[135.55876,34.68865],[135.55856,34.68869],[135.55848,34.68871],[135.55845,34.68872],[135.55842,34.68873],[135.55837,34.68874],[135.55829,34.68876],[135.55823,34.68877],[135.55818,34.68878],[135.55813,34.68879],[135.55801,34.68882],[135.55795,34.68883],[135.55793,34.68884],[135.55785,34.68886],[135.55772,34.68889],[135.55763,34.68891],[135.55761,34.68892],[135.55701,34.68906],[135.55652,34.68929],[135.55604,34.68949],[135.55548,34.68973],[135.55523,34.68982],[135.55467,34.69005],[135.55427,34.69023],[135.55434,34.69087],[135.55436,34.69125],[135.55444,34.69231],[135.5554,34.69221],[135.5554,34.69221],[135.55672,34.69208],[135.55673,34.69208],[135.55823,34.69192],[135.55881,34.69187],[135.55907,34.69185],[135.55938,34.69181],[135.55944,34.69181],[135.55944,34.69178],[135.55938,34.69143],[135.55937,34.69133],[135.55937,34.69131],[135.55937,34.69112],[135.55937,34.69096],[135.55937,34.69075],[135.55933,34.69036],[135.55932,34.69033],[135.55932,34.6903],[135.5593,34.69006],[135.55929,34.69],[135.55928,34.68994],[135.55927,34.6898],[135.55925,34.68959],[135.55924,34.68948],[135.55921,34.68921],[135.55919,34.689],[135.55916,34.68866]]]}},{"type":"Feature","properties":{"name":"天王田","setai":1013,"jinko":2098,"key":"271180130","units":1},"geometry":{"type":"Polygon","coordinates":[[[135.55301,34.69091],[135.55321,34.69078],[135.55325,34.69076],[135.55327,34.69075],[135.55327,34.69074],[135.55328,34.69074],[135.55329,34.69074],[135.5533,34.69073],[135.55331,34.69072],[135.55333,34.69071],[135.55334,34.6907],[135.55341,34.69067],[135.55346,34.69064],[135.5535,34.69062],[135.55357,34.69058],[135.5536,34.69056],[135.55364,34.69054],[135.5537,34.69051],[135.55374,34.69049],[135.55378,34.69047],[135.5539,34.69041],[135.55427,34.69023],[135.55426,34.69011],[135.55421,34.6895],[135.55417,34.68901],[135.55414,34.68863],[135.55414,34.68856],[135.55412,34.68831],[135.55409,34.688],[135.55368,34.68802],[135.55275,34.68806],[135.55148,34.68813],[135.5511,34.68815],[135.55087,34.68816],[135.55044,34.68818],[135.55021,34.6882],[135.55025,34.68876],[135.55027,34.68914],[135.55026,34.68952],[135.55025,34.68984],[135.55021,34.69028],[135.5502,34.69067],[135.55038,34.69079],[135.55042,34.69078],[135.55037,34.69093],[135.5503,34.69112],[135.55017,34.69151],[135.55015,34.69161],[135.55025,34.69161],[135.55031,34.6916],[135.55047,34.6916],[135.55075,34.69158],[135.55108,34.69155],[135.55135,34.69151],[135.55175,34.69143],[135.55183,34.6914],[135.55219,34.69127],[135.55233,34.69122],[135.55234,34.69122],[135.55245,34.69117],[135.55256,34.69112],[135.55261,34.6911],[135.55264,34.69109],[135.55264,34.69109],[135.55271,34.69106],[135.55272,34.69106],[135.55279,34.69102],[135.55283,34.691],[135.55301,34.69091]]]}},{"type":"Feature","properties":{"name":"鴫野東一丁目","setai":492,"jinko":985,"key":"27118014001","units":1},"geometry":{"type":"Polygon","coordinates":[[[135.54631,34.69382],[135.54633,34.69305],[135.54629,34.69287],[135.54623,34.69245],[135.54619,34.69226],[135.54553,34.69265],[135.54526,34.69282],[135.5451,34.69295],[135.54497,34.69305],[135.54474,34.69326],[135.54468,34.69322],[135.54458,34.69332],[135.54452,34.69338],[135.54427,34.6937],[135.54426,34.69371],[135.54408,34.69406],[135.54393,34.69443],[135.54383,34.69468],[135.54381,34.69472],[135.5436,34.69521],[135.54341,34.69569],[135.54343,34.6957],[135.54342,34.6957],[135.54308,34.69625],[135.54338,34.6963],[135.54375,34.69637],[135.54435,34.69649],[135.54485,34.69659],[135.54494,34.6966],[135.54588,34.69677],[135.54621,34.69678],[135.54624,34.69678],[135.54625,34.69636],[135.54625,34.69536],[135.54624,34.69534],[135.54644,34.69528],[135.54647,34.69527],[135.54644,34.69522],[135.54632,34.69502],[135.54632,34.69456],[135.54632,34.69445],[135.54633,34.69439],[135.54631,34.69382]]]}},{"type":"Feature","properties":{"name":"鴫野東二丁目","setai":664,"jinko":1531,"key":"27118014002","units":1},"geometry":{"type":"Polygon","coordinates":[[[135.54716,34.695],[135.54752,34.69479],[135.54757,34.69482],[135.54791,34.69459],[135.54834,34.6943],[135.5489,34.69377],[135.54903,34.69367],[135.54924,34.69343],[135.54947,34.69318],[135.54962,34.69301],[135.54964,34.69297],[135.54985,34.6926],[135.55005,34.69218],[135.55011,34.69199],[135.55011,34.69187],[135.55012,34.69182],[135.55012,34.69174],[135.55015,34.69161],[135.54975,34.69165],[135.54952,34.69167],[135.5495,34.69167],[135.54948,34.69167],[135.54903,34.69171],[135.54901,34.69171],[135.54877,34.69174],[135.54844,34.69179],[135.54824,34.69181],[135.54823,34.69182],[135.54772,34.69187],[135.54772,34.69187],[135.54728,34.69193],[135.54719,34.69192],[135.54709,34.69194],[135.54696,34.69196],[135.54679,34.69202],[135.54672,34.69205],[135.54619,34.69226],[135.54623,34.69245],[135.54629,34.69287],[135.54633,34.69305],[135.54631,34.69382],[135.54633,34.69439],[135.54632,34.69445],[135.54632,34.69456],[135.54632,34.69502],[135.54644,34.69522],[135.54647,34.69527],[135.54676,34.69522],[135.54679,34.69522],[135.54691,34.69515],[135.54716,34.695]]]}},{"type":"Feature","properties":{"name":"鴫野東三丁目","setai":887,"jinko":1867,"key":"27118014003","units":1},"geometry":{"type":"Polygon","coordinates":[[[135.54619,34.69226],[135.54672,34.69205],[135.54679,34.69202],[135.54696,34.69196],[135.54709,34.69194],[135.54719,34.69192],[135.54728,34.69193],[135.54772,34.69187],[135.54772,34.69187],[135.54823,34.69182],[135.54824,34.69181],[135.54844,34.69179],[135.54877,34.69174],[135.54901,34.69171],[135.54903,34.69171],[135.54948,34.69167],[135.5495,34.69167],[135.54952,34.69167],[135.54975,34.69165],[135.55015,34.69161],[135.55017,34.69151],[135.5503,34.69112],[135.55037,34.69093],[135.55042,34.69078],[135.55038,34.69079],[135.5502,34.69067],[135.55021,34.69028],[135.55025,34.68984],[135.55026,34.68952],[135.55027,34.68914],[135.55025,34.68876],[135.55021,34.6882],[135.55016,34.6882],[135.54971,34.68822],[135.54882,34.68825],[135.54807,34.68829],[135.5476,34.68833],[135.54684,34.68838],[135.5465,34.68841],[135.54634,34.68844],[135.54623,34.68845],[135.54561,34.6886],[135.54576,34.68976],[135.54581,34.69018],[135.54583,34.69035],[135.54585,34.69048],[135.54589,34.69082],[135.54596,34.6913],[135.54605,34.69201],[135.54607,34.69212],[135.54616,34.6921],[135.54619,34.69226]]]}},{"type":"Feature","properties":{"name":"鴫野西一丁目","setai":1103,"jinko":2211,"key":"27118015001","units":1},"geometry":{"type":"Polygon","coordinates":[[[135.53917,34.69403],[135.53928,34.69329],[135.53862,34.69323],[135.53838,34.69317],[135.53837,34.69323],[135.53834,34.69336],[135.53797,34.69333],[135.53654,34.6932],[135.53609,34.69314],[135.53608,34.69314],[135.53604,34.69313],[135.5361,34.69291],[135.53549,34.6929],[135.53549,34.69307],[135.53545,34.69325],[135.53539,34.69352],[135.53529,34.69387],[135.53512,34.69429],[135.53488,34.69483],[135.53481,34.695],[135.53473,34.69518],[135.53465,34.69536],[135.53479,34.6954],[135.53497,34.69543],[135.53538,34.69553],[135.5356,34.69557],[135.53593,34.69566],[135.53629,34.69575],[135.53678,34.69586],[135.53719,34.69597],[135.5374,34.69603],[135.53783,34.69611],[135.53805,34.69615],[135.5389,34.6962],[135.53892,34.69587],[135.53901,34.69519],[135.53903,34.69507],[135.53909,34.69461],[135.53917,34.69405],[135.53917,34.69403]]]}},{"type":"Feature","properties":{"name":"鴫野西二丁目","setai":1795,"jinko":3767,"key":"27118015002","units":1},"geometry":{"type":"Polygon","coordinates":[[[135.53837,34.69323],[135.53838,34.69317],[135.53862,34.69323],[135.53928,34.69329],[135.5393,34.69309],[135.5394,34.69231],[135.53952,34.69144],[135.53959,34.69086],[135.53967,34.6903],[135.53975,34.68974],[135.5398,34.68939],[135.53935,34.68943],[135.53872,34.68949],[135.5386,34.68949],[135.53779,34.68956],[135.53764,34.68958],[135.53727,34.68961],[135.5368,34.68964],[135.53586,34.6897],[135.53551,34.68972],[135.53509,34.68973],[135.5347,34.68977],[135.53472,34.68982],[135.53492,34.69052],[135.53499,34.69081],[135.53499,34.69083],[135.53501,34.69089],[135.53501,34.69089],[135.53502,34.69091],[135.5352,34.69154],[135.53528,34.6918],[135.53533,34.69197],[135.53538,34.69217],[135.5354,34.69233],[135.53544,34.69252],[135.53546,34.69271],[135.53547,34.69285],[135.53549,34.6929],[135.5361,34.69291],[135.53604,34.69313],[135.53608,34.69314],[135.53609,34.69314],[135.53654,34.6932],[135.53797,34.69333],[135.53834,34.69336],[135.53837,34.69323]]]}},{"type":"Feature","properties":{"name":"鴫野西三丁目","setai":1024,"jinko":2175,"key":"27118015003","units":1},"geometry":{"type":"Polygon","coordinates":[[[135.54308,34.69625],[135.54342,34.6957],[135.54343,34.6957],[135.54341,34.69569],[135.5436,34.69521],[135.54381,34.69472],[135.54383,34.69468],[135.54393,34.69443],[135.54408,34.69406],[135.54426,34.69371],[135.54347,34.69365],[135.54228,34.69355],[135.54189,34.69351],[135.54175,34.6935],[135.54056,34.6934],[135.5396,34.69332],[135.53928,34.69329],[135.53917,34.69403],[135.53917,34.69405],[135.53909,34.69461],[135.53903,34.69507],[135.53901,34.69519],[135.53892,34.69587],[135.5389,34.6962],[135.53996,34.69622],[135.54046,34.69623],[135.54075,34.69624],[135.54221,34.69625],[135.54282,34.69625],[135.54308,34.69626],[135.54308,34.69625]]]}},{"type":"Feature","properties":{"name":"鴫野西四丁目","setai":726,"jinko":2073,"key":"27118015004","units":1},"geometry":{"type":"Polygon","coordinates":[[[135.54226,34.68933],[135.5422,34.68901],[135.54218,34.68901],[135.54186,34.68908],[135.54168,34.68912],[135.54114,34.68923],[135.54081,34.6893],[135.54042,34.68933],[135.54018,34.68935],[135.5398,34.68939],[135.53975,34.68974],[135.53967,34.6903],[135.53959,34.69086],[135.53952,34.69144],[135.5394,34.69231],[135.5393,34.69309],[135.53928,34.69329],[135.5396,34.69332],[135.54056,34.6934],[135.54175,34.6935],[135.54181,34.69309],[135.54182,34.69303],[135.54186,34.69275],[135.54188,34.69258],[135.5419,34.69238],[135.54195,34.69235],[135.54199,34.69208],[135.54202,34.69183],[135.54209,34.69136],[135.54216,34.69086],[135.54219,34.69066],[135.54219,34.69063],[135.54226,34.69047],[135.5423,34.68999],[135.54231,34.68986],[135.54232,34.68961],[135.54231,34.68959],[135.54229,34.68945],[135.54226,34.68933]]]}},{"type":"Feature","properties":{"name":"鴫野西五丁目","setai":2174,"jinko":4538,"key":"27118015005","units":1},"geometry":{"type":"Polygon","coordinates":[[[135.54458,34.69332],[135.54468,34.69322],[135.54474,34.69326],[135.54497,34.69305],[135.5451,34.69295],[135.54526,34.69282],[135.54553,34.69265],[135.54619,34.69226],[135.54616,34.6921],[135.54607,34.69212],[135.54605,34.69201],[135.54596,34.6913],[135.54589,34.69082],[135.54585,34.69048],[135.54583,34.69035],[135.54581,34.69018],[135.54576,34.68976],[135.54561,34.6886],[135.54538,34.68864],[135.54524,34.68867],[135.54512,34.68869],[135.54478,34.68875],[135.54487,34.68872],[135.54466,34.68876],[135.54455,34.68879],[135.54429,34.68883],[135.54365,34.68891],[135.54339,34.68893],[135.54306,34.68894],[135.54276,34.68896],[135.54247,34.68898],[135.5422,34.68901],[135.54226,34.68933],[135.54229,34.68945],[135.54231,34.68959],[135.54232,34.68961],[135.54231,34.68986],[135.5423,34.68999],[135.54226,34.69047],[135.54219,34.69063],[135.54219,34.69066],[135.54216,34.69086],[135.54209,34.69136],[135.54202,34.69183],[135.54199,34.69208],[135.54195,34.69235],[135.5419,34.69238],[135.54188,34.69258],[135.54186,34.69275],[135.54182,34.69303],[135.54181,34.69309],[135.54175,34.6935],[135.54189,34.69351],[135.54228,34.69355],[135.54347,34.69365],[135.54426,34.69371],[135.54427,34.6937],[135.54452,34.69338],[135.54458,34.69332]]]}},{"type":"Feature","properties":{"name":"森之宮一丁目","setai":843,"jinko":1297,"key":"27118016001","units":1},"geometry":{"type":"Polygon","coordinates":[[[135.53759,34.6815],[135.53759,34.6815],[135.53688,34.68151],[135.53597,34.68153],[135.53516,34.68154],[135.53495,34.68155],[135.53493,34.68155],[135.53488,34.68155],[135.53434,34.68156],[135.53395,34.68157],[135.53392,34.68161],[135.5339,34.68179],[135.53391,34.68203],[135.53394,34.68245],[135.53406,34.68403],[135.53412,34.68481],[135.53421,34.68586],[135.53426,34.68661],[135.53433,34.68736],[135.53444,34.68854],[135.5345,34.68893],[135.53459,34.68933],[135.5347,34.68976],[135.5347,34.68977],[135.53509,34.68973],[135.53551,34.68972],[135.53586,34.6897],[135.5368,34.68964],[135.53727,34.68961],[135.53764,34.68958],[135.53779,34.68956],[135.53796,34.68911],[135.53796,34.68884],[135.53798,34.68826],[135.53798,34.68744],[135.53799,34.68651],[135.53798,34.68587],[135.53798,34.6852],[135.53799,34.68464],[135.538,34.68407],[135.538,34.68363],[135.53801,34.68324],[135.538,34.68309],[135.53801,34.68266],[135.53797,34.6826],[135.53796,34.68255],[135.53775,34.68195],[135.53759,34.6815]]]}},{"type":"Feature","properties":{"name":"森之宮二丁目","setai":2507,"jinko":4284,"key":"27118016002","units":1},"geometry":{"type":"Polygon","coordinates":[[[135.54019,34.68191],[135.54045,34.68143],[135.54046,34.68139],[135.54046,34.68137],[135.54032,34.68139],[135.54009,34.68141],[135.53999,34.68143],[135.53927,34.68149],[135.5388,34.6815],[135.53845,34.6815],[135.53838,34.6815],[135.53806,34.6815],[135.53778,34.6815],[135.53759,34.6815],[135.53759,34.6815],[135.53775,34.68195],[135.53796,34.68255],[135.53797,34.6826],[135.53801,34.68266],[135.538,34.68309],[135.53801,34.68324],[135.538,34.68363],[135.538,34.68407],[135.53799,34.68464],[135.53798,34.6852],[135.53798,34.68587],[135.53799,34.68651],[135.53798,34.68744],[135.53798,34.68826],[135.53796,34.68884],[135.53796,34.68911],[135.53779,34.68956],[135.5386,34.68949],[135.53872,34.68949],[135.53935,34.68943],[135.5398,34.68939],[135.54018,34.68935],[135.54068,34.68905],[135.5409,34.68888],[135.54115,34.68867],[135.54136,34.68838],[135.54138,34.68832],[135.54142,34.68824],[135.54145,34.6881],[135.54147,34.68798],[135.54145,34.68789],[135.54143,34.6878],[135.54128,34.68744],[135.54126,34.68738],[135.54112,34.68709],[135.54109,34.68702],[135.54106,34.68694],[135.54097,34.68673],[135.54083,34.68639],[135.54075,34.68613],[135.54066,34.68586],[135.54041,34.68517],[135.54022,34.68463],[135.54021,34.6846],[135.54018,34.68451],[135.5401,34.6843],[135.54009,34.68395],[135.54008,34.68373],[135.54012,34.68368],[135.54011,34.68237],[135.54012,34.68215],[135.54016,34.68198],[135.54017,34.68196],[135.54019,34.68191]]]}},{"type":"Feature","properties":{"name":"中浜一丁目","setai":641,"jinko":1390,"key":"27118017001","units":1},"geometry":{"type":"Polygon","coordinates":[[[135.54466,34.68876],[135.54487,34.68872],[135.54478,34.68875],[135.54512,34.68869],[135.54524,34.68867],[135.54538,34.68864],[135.54561,34.6886],[135.54551,34.68794],[135.54544,34.68738],[135.54541,34.68717],[135.54542,34.68713],[135.54537,34.68669],[135.54533,34.68643],[135.54532,34.68637],[135.54529,34.68617],[135.54526,34.68589],[135.54522,34.68562],[135.54421,34.6858],[135.54422,34.68582],[135.54297,34.68609],[135.54297,34.686],[135.54298,34.68595],[135.54295,34.68596],[135.54254,34.68597],[135.54238,34.68598],[135.54242,34.6862],[135.54229,34.68621],[135.54217,34.68622],[135.54187,34.68628],[135.54133,34.68643],[135.54141,34.68662],[135.54097,34.68673],[135.54106,34.68694],[135.54109,34.68702],[135.54112,34.68709],[135.54126,34.68738],[135.54128,34.68744],[135.54143,34.6878],[135.54145,34.68789],[135.54147,34.68798],[135.54145,34.6881],[135.54142,34.68824],[135.54138,34.68832],[135.54136,34.68838],[135.54115,34.68867],[135.5409,34.68888],[135.54068,34.68905],[135.54018,34.68935],[135.54042,34.68933],[135.54081,34.6893],[135.54114,34.68923],[135.54168,34.68912],[135.54186,34.68908],[135.54218,34.68901],[135.5422,34.68901],[135.54247,34.68898],[135.54276,34.68896],[135.54306,34.68894],[135.54339,34.68893],[135.54365,34.68891],[135.54429,34.68883],[135.54455,34.68879],[135.54466,34.68876]]]}},{"type":"Feature","properties":{"name":"中浜二丁目","setai":578,"jinko":1272,"key":"27118017002","units":1},"geometry":{"type":"Polygon","coordinates":[[[135.54295,34.68596],[135.54298,34.68595],[135.54297,34.686],[135.54297,34.68609],[135.54422,34.68582],[135.54421,34.6858],[135.54522,34.68562],[135.54522,34.68561],[135.54518,34.68534],[135.54514,34.68506],[135.54512,34.68486],[135.54507,34.68459],[135.545,34.68397],[135.54496,34.68367],[135.54459,34.68372],[135.54423,34.68377],[135.54423,34.68381],[135.54404,34.68385],[135.54379,34.68389],[135.54292,34.68404],[135.54292,34.68403],[135.54228,34.68402],[135.54206,34.68401],[135.54181,34.68401],[135.54179,34.68401],[135.54181,34.68484],[135.54144,34.68487],[135.54142,34.68488],[135.54118,34.68494],[135.5408,34.68508],[135.54089,34.68538],[135.54106,34.68573],[135.54066,34.68586],[135.54075,34.68613],[135.54083,34.68639],[135.54097,34.68673],[135.54141,34.68662],[135.54133,34.68643],[135.54187,34.68628],[135.54217,34.68622],[135.54229,34.68621],[135.54242,34.6862],[135.54238,34.68598],[135.54254,34.68597],[135.54295,34.68596]]]}},{"type":"Feature","properties":{"name":"中浜三丁目","setai":822,"jinko":1704,"key":"27118017003","units":1},"geometry":{"type":"Polygon","coordinates":[[[135.54181,34.68484],[135.54179,34.68401],[135.54181,34.68401],[135.54206,34.68401],[135.54228,34.68402],[135.54292,34.68403],[135.54292,34.68404],[135.54379,34.68389],[135.54404,34.68385],[135.54423,34.68381],[135.54423,34.68377],[135.54459,34.68372],[135.54496,34.68367],[135.54489,34.68319],[135.54482,34.68267],[135.54482,34.68267],[135.54477,34.68237],[135.54483,34.68237],[135.54481,34.68229],[135.54475,34.6819],[135.54474,34.68187],[135.54396,34.68197],[135.54368,34.68201],[135.54367,34.68201],[135.54324,34.68207],[135.54302,34.6821],[135.54195,34.68224],[135.54186,34.68225],[135.54165,34.68228],[135.54159,34.6823],[135.54144,34.6824],[135.54116,34.68267],[135.54099,34.68284],[135.54064,34.68319],[135.54061,34.68321],[135.54043,34.68339],[135.54012,34.68368],[135.54008,34.68373],[135.54009,34.68395],[135.5401,34.6843],[135.54018,34.68451],[135.54021,34.6846],[135.54022,34.68463],[135.54041,34.68517],[135.54066,34.68586],[135.54106,34.68573],[135.54089,34.68538],[135.5408,34.68508],[135.54118,34.68494],[135.54142,34.68488],[135.54144,34.68487],[135.54181,34.68484]]]}},{"type":"Feature","properties":{"name":"東中浜一丁目","setai":475,"jinko":932,"key":"27118018001","units":1},"geometry":{"type":"Polygon","coordinates":[[[135.54871,34.68656],[135.54868,34.68619],[135.54738,34.68626],[135.54626,34.68633],[135.54605,34.68634],[135.54605,34.68631],[135.54532,34.68637],[135.54533,34.68643],[135.54537,34.68669],[135.54542,34.68713],[135.54541,34.68717],[135.54544,34.68738],[135.54551,34.68794],[135.54561,34.6886],[135.54623,34.68845],[135.54634,34.68844],[135.5465,34.68841],[135.54684,34.68838],[135.5476,34.68833],[135.54807,34.68829],[135.54882,34.68825],[135.54877,34.68772],[135.54877,34.68771],[135.54874,34.68732],[135.54869,34.68695],[135.54875,34.68694],[135.54871,34.68656]]]}},{"type":"Feature","properties":{"name":"東中浜二丁目","setai":962,"jinko":1918,"key":"27118018002","units":1},"geometry":{"type":"Polygon","coordinates":[[[135.54532,34.68637],[135.54605,34.68631],[135.54605,34.68634],[135.54626,34.68633],[135.54738,34.68626],[135.54868,34.68619],[135.54864,34.6858],[135.54861,34.6854],[135.54857,34.68498],[135.54853,34.68455],[135.54849,34.68414],[135.54846,34.68374],[135.54845,34.68374],[135.54722,34.68381],[135.54714,34.68382],[135.54707,34.68382],[135.54658,34.68384],[135.54635,34.68385],[135.54633,34.68385],[135.54633,34.68383],[135.54585,34.68394],[135.54577,34.68395],[135.54569,34.68396],[135.54537,34.68399],[135.54536,34.68394],[135.545,34.68397],[135.54507,34.68459],[135.54512,34.68486],[135.54514,34.68506],[135.54518,34.68534],[135.54522,34.68561],[135.54522,34.68562],[135.54526,34.68589],[135.54529,34.68617],[135.54532,34.68637]]]}},{"type":"Feature","properties":{"name":"東中浜三丁目","setai":845,"jinko":1646,"key":"27118018003","units":1},"geometry":{"type":"Polygon","coordinates":[[[135.54577,34.68395],[135.54585,34.68394],[135.54633,34.68383],[135.54633,34.68385],[135.54635,34.68385],[135.54658,34.68384],[135.54707,34.68382],[135.54714,34.68382],[135.54722,34.68381],[135.54845,34.68374],[135.54841,34.68359],[135.54831,34.68333],[135.54819,34.68298],[135.54812,34.68266],[135.54804,34.68224],[135.54797,34.68188],[135.54791,34.68147],[135.54723,34.68157],[135.54708,34.68159],[135.54692,34.68162],[135.54625,34.6817],[135.54585,34.68173],[135.54545,34.6818],[135.54475,34.6819],[135.54481,34.68229],[135.54483,34.68237],[135.54477,34.68237],[135.54482,34.68267],[135.54482,34.68267],[135.54489,34.68319],[135.54496,34.68367],[135.545,34.68397],[135.54536,34.68394],[135.54537,34.68399],[135.54569,34.68396],[135.54577,34.68395]]]}},{"type":"Feature","properties":{"name":"東中浜四丁目","setai":236,"jinko":616,"key":"27118018004","units":1},"geometry":{"type":"Polygon","coordinates":[[[135.55138,34.68679],[135.55132,34.68604],[135.55129,34.68604],[135.55003,34.68611],[135.55002,34.68611],[135.54958,34.68614],[135.54868,34.68619],[135.54871,34.68656],[135.54875,34.68694],[135.54869,34.68695],[135.54874,34.68732],[135.54877,34.68771],[135.54877,34.68772],[135.54882,34.68825],[135.54971,34.68822],[135.55016,34.6882],[135.55021,34.6882],[135.55044,34.68818],[135.55087,34.68816],[135.5511,34.68815],[135.55148,34.68813],[135.55144,34.68755],[135.55141,34.68717],[135.55138,34.68679]]]}},{"type":"Feature","properties":{"name":"東中浜五丁目","setai":407,"jinko":943,"key":"27118018005","units":1},"geometry":{"type":"Polygon","coordinates":[[[135.55116,34.68401],[135.55113,34.68359],[135.55048,34.68362],[135.54979,34.68366],[135.54846,34.68374],[135.54849,34.68414],[135.54853,34.68455],[135.54857,34.68498],[135.54861,34.6854],[135.54864,34.6858],[135.54868,34.68619],[135.54958,34.68614],[135.55002,34.68611],[135.55003,34.68611],[135.55129,34.68604],[135.55132,34.68604],[135.55129,34.68564],[135.55126,34.68526],[135.55122,34.68482],[135.55119,34.6844],[135.55116,34.68401]]]}},{"type":"Feature","properties":{"name":"東中浜六丁目","setai":757,"jinko":1469,"key":"27118018006","units":1},"geometry":{"type":"Polygon","coordinates":[[[135.55099,34.68197],[135.55097,34.68162],[135.55092,34.68163],[135.55082,34.68107],[135.55049,34.68116],[135.55021,34.6812],[135.55001,34.68126],[135.54978,34.68126],[135.5496,34.68125],[135.54948,34.68129],[135.54929,34.6813],[135.54903,34.68134],[135.54885,34.68138],[135.54858,34.68141],[135.5482,34.68144],[135.54791,34.68147],[135.54797,34.68188],[135.54804,34.68224],[135.54812,34.68266],[135.54819,34.68298],[135.54831,34.68333],[135.54841,34.68359],[135.54845,34.68374],[135.54846,34.68374],[135.54979,34.68366],[135.55048,34.68362],[135.55113,34.68359],[135.55109,34.68318],[135.55106,34.68278],[135.55104,34.68254],[135.55103,34.68238],[135.55103,34.68237],[135.55102,34.68223],[135.551,34.68212],[135.55099,34.68197]]]}},{"type":"Feature","properties":{"name":"東中浜七丁目","setai":101,"jinko":318,"key":"27118018007","units":1},"geometry":{"type":"Polygon","coordinates":[[[135.55397,34.68624],[135.55394,34.68586],[135.55281,34.68593],[135.55277,34.68593],[135.55258,34.68594],[135.55165,34.68601],[135.55132,34.68604],[135.55138,34.68679],[135.55141,34.68717],[135.55144,34.68755],[135.55148,34.68813],[135.55275,34.68806],[135.55368,34.68802],[135.55409,34.688],[135.55409,34.68796],[135.55405,34.6874],[135.55402,34.687],[135.554,34.68664],[135.55397,34.68624]]]}},{"type":"Feature","properties":{"name":"東中浜八丁目","setai":819,"jinko":2063,"key":"27118018008","units":1},"geometry":{"type":"Polygon","coordinates":[[[135.55377,34.68345],[135.55377,34.68345],[135.55239,34.68352],[135.55113,34.68359],[135.55116,34.68401],[135.55119,34.6844],[135.55122,34.68482],[135.55126,34.68526],[135.55129,34.68564],[135.55132,34.68604],[135.55165,34.68601],[135.55258,34.68594],[135.55277,34.68593],[135.55281,34.68593],[135.55394,34.68586],[135.55392,34.6855],[135.55389,34.68508],[135.55389,34.68506],[135.55387,34.68483],[135.55386,34.68464],[135.55386,34.68462],[135.55385,34.68441],[135.55384,34.68426],[135.55383,34.68423],[135.55381,34.68395],[135.5538,34.68385],[135.5538,34.68368],[135.55377,34.68345]]]}},{"type":"Feature","properties":{"name":"東中浜九丁目","setai":687,"jinko":1339,"key":"27118018009","units":1},"geometry":{"type":"Polygon","coordinates":[[[135.55366,34.6818],[135.55362,34.68139],[135.55359,34.68085],[135.55358,34.68077],[135.55355,34.68077],[135.55306,34.68082],[135.55287,34.68082],[135.5522,34.68085],[135.552,34.68087],[135.5515,34.68093],[135.55116,34.68097],[135.55082,34.68107],[135.55092,34.68163],[135.55097,34.68162],[135.55099,34.68197],[135.551,34.68212],[135.55102,34.68223],[135.55103,34.68237],[135.55103,34.68238],[135.55104,34.68254],[135.55106,34.68278],[135.55109,34.68318],[135.55113,34.68359],[135.55239,34.68352],[135.55377,34.68345],[135.55374,34.68302],[135.55371,34.68263],[135.5537,34.68254],[135.55368,34.68222],[135.55367,34.68205],[135.55366,34.68187],[135.55366,34.68183],[135.55366,34.6818]]]}},{"type":"Feature","properties":{"name":"永田一丁目","setai":305,"jinko":759,"key":"27118019001","units":1},"geometry":{"type":"Polygon","coordinates":[[[135.55915,34.68831],[135.55908,34.68761],[135.55841,34.68769],[135.55701,34.68783],[135.55697,34.68784],[135.55562,34.68788],[135.55409,34.68796],[135.55409,34.688],[135.55412,34.68831],[135.55414,34.68856],[135.55414,34.68863],[135.55417,34.68901],[135.55421,34.6895],[135.55426,34.69011],[135.55427,34.69023],[135.55467,34.69005],[135.55523,34.68982],[135.55548,34.68973],[135.55604,34.68949],[135.55652,34.68929],[135.55701,34.68906],[135.55761,34.68892],[135.55763,34.68891],[135.55772,34.68889],[135.55785,34.68886],[135.55793,34.68884],[135.55795,34.68883],[135.55801,34.68882],[135.55813,34.68879],[135.55818,34.68878],[135.55823,34.68877],[135.55829,34.68876],[135.55837,34.68874],[135.55842,34.68873],[135.55845,34.68872],[135.55848,34.68871],[135.55856,34.68869],[135.55876,34.68865],[135.55906,34.68859],[135.55915,34.68858],[135.55918,34.68858],[135.55915,34.68831]]]}},{"type":"Feature","properties":{"name":"永田二丁目","setai":785,"jinko":1889,"key":"27118019002","units":1},"geometry":{"type":"Polygon","coordinates":[[[135.55868,34.6841],[135.55866,34.68401],[135.55796,34.68406],[135.55669,34.68415],[135.5563,34.68416],[135.55573,34.68419],[135.55532,34.6842],[135.55471,34.68423],[135.55384,34.68426],[135.55385,34.68441],[135.55386,34.68462],[135.55386,34.68464],[135.55387,34.68483],[135.55389,34.68506],[135.55389,34.68508],[135.55392,34.6855],[135.55394,34.68586],[135.55397,34.68624],[135.554,34.68664],[135.55402,34.687],[135.55405,34.6874],[135.55409,34.68796],[135.55562,34.68788],[135.55697,34.68784],[135.55701,34.68783],[135.55841,34.68769],[135.55908,34.68761],[135.559,34.68687],[135.5589,34.686],[135.55886,34.6856],[135.55886,34.68555],[135.55885,34.68551],[135.55883,34.68522],[135.55878,34.6848],[135.55873,34.68449],[135.55871,34.68432],[135.55868,34.6841]]]}},{"type":"Feature","properties":{"name":"永田三丁目","setai":1110,"jinko":2387,"key":"27118019003","units":1},"geometry":{"type":"Polygon","coordinates":[[[135.55837,34.68184],[135.55832,34.68148],[135.5579,34.68153],[135.5576,34.68156],[135.5565,34.68168],[135.55578,34.68171],[135.55514,34.68175],[135.55366,34.68183],[135.55366,34.68187],[135.55367,34.68205],[135.55368,34.68222],[135.5537,34.68254],[135.55371,34.68263],[135.55374,34.68302],[135.55377,34.68345],[135.55377,34.68345],[135.5538,34.68368],[135.5538,34.68385],[135.55381,34.68395],[135.55383,34.68423],[135.55384,34.68426],[135.55471,34.68423],[135.55532,34.6842],[135.55573,34.68419],[135.5563,34.68416],[135.55669,34.68415],[135.55796,34.68406],[135.55866,34.68401],[135.55855,34.68318],[135.55855,34.68313],[135.55848,34.68269],[135.55847,34.68263],[135.55846,34.68256],[135.55845,34.6825],[135.55845,34.68245],[135.55843,34.6823],[135.55843,34.6823],[135.55837,34.68184]]]}},{"type":"Feature","properties":{"name":"永田四丁目","setai":730,"jinko":1324,"key":"27118019004","units":1},"geometry":{"type":"Polygon","coordinates":[[[135.55804,34.67944],[135.55801,34.67927],[135.55799,34.67928],[135.5576,34.6794],[135.5573,34.67948],[135.55676,34.67964],[135.55649,34.67972],[135.55642,34.67975],[135.55618,34.67986],[135.55584,34.68007],[135.55558,34.68018],[135.55496,34.68042],[135.55481,34.68048],[135.55422,34.6807],[135.55417,34.68071],[135.55358,34.68077],[135.55359,34.68085],[135.55362,34.68139],[135.55366,34.6818],[135.55366,34.68183],[135.55514,34.68175],[135.55578,34.68171],[135.5565,34.68168],[135.5576,34.68156],[135.5579,34.68153],[135.55832,34.68148],[135.55822,34.68073],[135.55818,34.68054],[135.55816,34.68037],[135.5581,34.67993],[135.55806,34.67963],[135.55804,34.67944]]]}},{"type":"Feature","properties":{"name":"諏訪一丁目","setai":808,"jinko":1647,"key":"27118020001","units":1},"geometry":{"type":"Polygon","coordinates":[[[135.56585,34.68775],[135.56663,34.68774],[135.56684,34.68774],[135.5668,34.68773],[135.56651,34.68759],[135.56648,34.68758],[135.56575,34.6875],[135.56545,34.68746],[135.56539,34.68745],[135.56538,34.68745],[135.56534,34.68734],[135.56535,34.68734],[135.56577,34.68739],[135.56577,34.68738],[135.56631,34.68744],[135.56696,34.68749],[135.56717,34.68749],[135.56717,34.68742],[135.56687,34.68741],[135.56687,34.68739],[135.56674,34.68737],[135.56671,34.6874],[135.56584,34.6873],[135.56583,34.68722],[135.56562,34.68721],[135.5653,34.68726],[135.56526,34.68717],[135.56508,34.68722],[135.56504,34.68715],[135.56501,34.68712],[135.5648,34.68689],[135.56477,34.68687],[135.56452,34.6866],[135.56445,34.68652],[135.56491,34.68631],[135.56468,34.68598],[135.56466,34.68595],[135.56466,34.68594],[135.56463,34.68593],[135.56453,34.68581],[135.5645,34.68564],[135.56457,34.68563],[135.56457,34.68552],[135.56449,34.68552],[135.56449,34.68534],[135.56438,34.68534],[135.56438,34.68519],[135.56439,34.68515],[135.56439,34.68508],[135.56421,34.68484],[135.5642,34.68482],[135.5641,34.68464],[135.5639,34.68483],[135.56367,34.68504],[135.56359,34.68512],[135.56345,34.68529],[135.56328,34.68548],[135.56313,34.6856],[135.56309,34.68562],[135.56299,34.68566],[135.5629,34.68567],[135.56282,34.68568],[135.56227,34.68572],[135.56186,34.68574],[135.56186,34.68575],[135.56119,34.68576],[135.56094,34.68576],[135.56089,34.68576],[135.56062,34.68575],[135.5605,34.68581],[135.56025,34.68592],[135.55989,34.68602],[135.55968,34.68601],[135.55949,34.68598],[135.5589,34.686],[135.559,34.68687],[135.55908,34.68761],[135.55928,34.68758],[135.55939,34.68757],[135.55946,34.68755],[135.55981,34.6875],[135.55984,34.68749],[135.56012,34.68746],[135.56074,34.68738],[135.56084,34.68736],[135.56152,34.68728],[135.56189,34.68723],[135.56225,34.68718],[135.56236,34.68717],[135.56336,34.68704],[135.56359,34.68701],[135.56378,34.687],[135.56398,34.68701],[135.56415,34.68707],[135.56435,34.68718],[135.5644,34.68721],[135.56459,34.68735],[135.56467,34.68742],[135.56476,34.6875],[135.56496,34.68764],[135.56496,34.68764],[135.5651,34.68772],[135.56521,34.68774],[135.56532,34.68775],[135.56585,34.68775]]]}},{"type":"Feature","properties":{"name":"諏訪二丁目","setai":905,"jinko":1821,"key":"27118020002","units":1},"geometry":{"type":"Polygon","coordinates":[[[135.55989,34.68602],[135.56025,34.68592],[135.5605,34.68581],[135.56062,34.68575],[135.56089,34.68576],[135.56094,34.68576],[135.56119,34.68576],[135.56186,34.68575],[135.56186,34.68574],[135.56227,34.68572],[135.56282,34.68568],[135.5629,34.68567],[135.56299,34.68566],[135.56309,34.68562],[135.56313,34.6856],[135.56328,34.68548],[135.56345,34.68529],[135.56359,34.68512],[135.56367,34.68504],[135.5639,34.68483],[135.5641,34.68464],[135.56408,34.68457],[135.56408,34.68457],[135.56408,34.68456],[135.56408,34.68454],[135.56408,34.68453],[135.56409,34.68451],[135.56409,34.6845],[135.56409,34.68449],[135.56409,34.68447],[135.56409,34.68446],[135.56419,34.68445],[135.56419,34.68445],[135.56419,34.68444],[135.56419,34.68443],[135.56421,34.68433],[135.56421,34.68433],[135.56421,34.68432],[135.56421,34.68432],[135.5642,34.68432],[135.5642,34.68432],[135.5642,34.68432],[135.56419,34.68431],[135.56419,34.68431],[135.56419,34.68431],[135.56418,34.68431],[135.56423,34.68424],[135.56428,34.68418],[135.56433,34.68407],[135.56437,34.684],[135.56443,34.6839],[135.56447,34.68383],[135.56449,34.68379],[135.5645,34.68376],[135.56442,34.68373],[135.56444,34.68369],[135.56448,34.68362],[135.56452,34.68347],[135.56409,34.68349],[135.56245,34.68364],[135.56205,34.68368],[135.56173,34.68371],[135.56087,34.68379],[135.56054,34.68382],[135.56016,34.68386],[135.55938,34.68394],[135.55866,34.68401],[135.55868,34.6841],[135.55871,34.68432],[135.55873,34.68449],[135.55878,34.6848],[135.55883,34.68522],[135.55885,34.68551],[135.55886,34.68555],[135.55886,34.6856],[135.5589,34.686],[135.55949,34.68598],[135.55968,34.68601],[135.55989,34.68602]]]}},{"type":"Feature","properties":{"name":"諏訪三丁目","setai":828,"jinko":1858,"key":"27118020003","units":1},"geometry":{"type":"Polygon","coordinates":[[[135.56376,34.68141],[135.56366,34.68102],[135.5624,34.68112],[135.56209,34.68115],[135.56052,34.68129],[135.56,34.68134],[135.55904,34.68142],[135.55832,34.68148],[135.55837,34.68184],[135.55843,34.6823],[135.55843,34.6823],[135.55845,34.68245],[135.55845,34.6825],[135.55846,34.68256],[135.55847,34.68263],[135.55848,34.68269],[135.55855,34.68313],[135.55855,34.68318],[135.55866,34.68401],[135.55938,34.68394],[135.56016,34.68386],[135.56054,34.68382],[135.56087,34.68379],[135.56173,34.68371],[135.56205,34.68368],[135.56245,34.68364],[135.56409,34.68349],[135.56452,34.68347],[135.56453,34.68344],[135.56456,34.68328],[135.56455,34.68321],[135.5645,34.68311],[135.56442,34.68303],[135.56442,34.68302],[135.5643,34.68292],[135.56408,34.68266],[135.56402,34.68262],[135.56384,34.68243],[135.56369,34.68225],[135.56366,34.68217],[135.56376,34.68197],[135.56381,34.68182],[135.56381,34.68181],[135.56381,34.68164],[135.56376,34.68141]]]}},{"type":"Feature","properties":{"name":"諏訪四丁目","setai":1867,"jinko":3238,"key":"27118020004","units":1},"geometry":{"type":"Polygon","coordinates":[[[135.56336,34.67856],[135.56333,34.67828],[135.56166,34.67855],[135.56016,34.67885],[135.55985,34.67889],[135.55955,34.67893],[135.55929,34.679],[135.55873,34.6791],[135.55872,34.6791],[135.55825,34.67919],[135.55801,34.67927],[135.55804,34.67944],[135.55806,34.67963],[135.5581,34.67993],[135.55816,34.68037],[135.55818,34.68054],[135.55822,34.68073],[135.55832,34.68148],[135.55904,34.68142],[135.56,34.68134],[135.56052,34.68129],[135.56209,34.68115],[135.5624,34.68112],[135.56366,34.68102],[135.56354,34.68062],[135.56346,34.68025],[135.56342,34.68013],[135.5634,34.67986],[135.56338,34.67947],[135.56337,34.67914],[135.56336,34.67882],[135.56336,34.67882],[135.56336,34.67856]]]}}]}