{"type":"FeatureCollection","features":[{"type":"Feature","properties":{"name":"大字脚折","setai":2260,"jinko":5604,"key":"112410010","units":1},"geometry":{"type":"Polygon","coordinates":[[[139.38791,35.95037],[139.38789,35.9502],[139.38786,35.95],[139.38784,35.94987],[139.38783,35.94982],[139.38778,35.94935],[139.38773,35.94903],[139.38771,35.94885],[139.38769,35.94873],[139.38763,35.94823],[139.38758,35.94791],[139.38757,35.94783],[139.38752,35.94751],[139.38751,35.94741],[139.38745,35.94717],[139.3874,35.94697],[139.38737,35.94686],[139.38733,35.94674],[139.38728,35.94658],[139.38724,35.94643],[139.38718,35.94625],[139.38714,35.94614],[139.38712,35.94607],[139.38712,35.94602],[139.38707,35.94567],[139.38708,35.94554],[139.38709,35.94539],[139.38711,35.9453],[139.38712,35.94524],[139.38712,35.94521],[139.38715,35.94511],[139.38715,35.9451],[139.38717,35.94501],[139.38723,35.94485],[139.38726,35.94477],[139.38728,35.94473],[139.38735,35.94459],[139.38745,35.94439],[139.38754,35.94419],[139.38769,35.94389],[139.38779,35.94371],[139.38793,35.94345],[139.38796,35.94339],[139.38798,35.94336],[139.38803,35.94325],[139.38813,35.94307],[139.38828,35.94279],[139.38834,35.94267],[139.38842,35.94253],[139.38852,35.94231],[139.38863,35.9421],[139.38872,35.94186],[139.38874,35.9418],[139.38879,35.94168],[139.38884,35.94144],[139.38886,35.94121],[139.38886,35.94096],[139.38886,35.94088],[139.38885,35.9407],[139.38883,35.9405],[139.3888,35.94022],[139.38877,35.93993],[139.38873,35.93963],[139.3887,35.93951],[139.3888,35.93942],[139.38886,35.93943],[139.38898,35.93943],[139.38913,35.93945],[139.38928,35.93948],[139.3894,35.9395],[139.38956,35.93956],[139.3897,35.93961],[139.38999,35.93972],[139.39026,35.93984],[139.39039,35.93991],[139.39047,35.93998],[139.39053,35.94007],[139.39056,35.94017],[139.3906,35.94025],[139.39062,35.94027],[139.39066,35.94036],[139.39073,35.94044],[139.39079,35.94048],[139.39082,35.94051],[139.39095,35.94058],[139.39113,35.94068],[139.39132,35.94078],[139.39152,35.94089],[139.39173,35.94101],[139.39206,35.94119],[139.39223,35.94128],[139.39231,35.94133],[139.3924,35.94138],[139.39253,35.94143],[139.39267,35.94148],[139.39285,35.94151],[139.39309,35.94151],[139.39333,35.94151],[139.39353,35.94151],[139.39369,35.9415],[139.39391,35.94149],[139.3942,35.9415],[139.39443,35.94149],[139.39484,35.94157],[139.39524,35.94169],[139.3957,35.9418],[139.396,35.94188],[139.39616,35.94193],[139.39647,35.94201],[139.39672,35.94207],[139.3972,35.94224],[139.39751,35.94244],[139.39762,35.9425],[139.39783,35.94271],[139.39795,35.94282],[139.39836,35.94317],[139.39867,35.94343],[139.39912,35.94379],[139.39939,35.94407],[139.39968,35.94439],[139.39999,35.94484],[139.4001,35.94501],[139.40019,35.94514],[139.40027,35.94532],[139.40035,35.94548],[139.4004,35.94547],[139.40041,35.94544],[139.40042,35.94538],[139.40053,35.94492],[139.40055,35.94482],[139.40065,35.94445],[139.40075,35.94441],[139.40188,35.94458],[139.40309,35.94479],[139.40321,35.9443],[139.40334,35.94381],[139.40353,35.94308],[139.40358,35.94286],[139.4032,35.94251],[139.40296,35.9423],[139.40256,35.94196],[139.40252,35.94192],[139.40239,35.9418],[139.40188,35.94137],[139.40122,35.94077],[139.40111,35.94067],[139.40057,35.94018],[139.40017,35.93983],[139.39945,35.93919],[139.39754,35.93749],[139.3971,35.93711],[139.39676,35.93681],[139.3965,35.93657],[139.39614,35.93624],[139.39574,35.9359],[139.39566,35.93582],[139.39404,35.93625],[139.39368,35.93638],[139.39337,35.93645],[139.39318,35.93651],[139.39272,35.93663],[139.39249,35.93665],[139.392,35.93665],[139.39166,35.93666],[139.39087,35.9367],[139.39018,35.93677],[139.38984,35.93681],[139.38976,35.93682],[139.38969,35.93673],[139.38945,35.93659],[139.38923,35.93647],[139.389,35.93639],[139.38884,35.9363],[139.38856,35.93622],[139.3884,35.93625],[139.38831,35.93626],[139.38817,35.93626],[139.38797,35.93627],[139.38789,35.93609],[139.38774,35.93583],[139.3874,35.93527],[139.38691,35.93544],[139.38654,35.93559],[139.38622,35.93569],[139.38613,35.93572],[139.38591,35.93543],[139.38552,35.93523],[139.38545,35.93519],[139.38536,35.93504],[139.38526,35.93486],[139.38528,35.93476],[139.38526,35.93465],[139.3853,35.93456],[139.38546,35.93447],[139.38536,35.93429],[139.38529,35.93416],[139.38515,35.93426],[139.38501,35.93435],[139.38498,35.93444],[139.38495,35.93454],[139.38488,35.93468],[139.38464,35.93513],[139.38457,35.93534],[139.38453,35.93557],[139.38439,35.93588],[139.38438,35.93599],[139.38444,35.93612],[139.3845,35.93624],[139.38453,35.93633],[139.38451,35.93644],[139.38438,35.93664],[139.38423,35.93684],[139.38396,35.93717],[139.38371,35.93746],[139.38412,35.93767],[139.38404,35.93776],[139.38392,35.93792],[139.38397,35.93799],[139.38419,35.93813],[139.38448,35.93826],[139.38449,35.9383],[139.38453,35.93836],[139.38457,35.93846],[139.38461,35.93854],[139.38462,35.93866],[139.38461,35.93873],[139.38465,35.93893],[139.38471,35.9394],[139.3847,35.93942],[139.38451,35.93952],[139.3845,35.93954],[139.3845,35.93957],[139.38451,35.93959],[139.38463,35.93982],[139.38462,35.93987],[139.38416,35.94013],[139.3835,35.94066],[139.38328,35.9405],[139.38315,35.94064],[139.3834,35.94081],[139.3837,35.94105],[139.38385,35.94123],[139.38406,35.9414],[139.38383,35.94184],[139.38323,35.94273],[139.38281,35.94288],[139.38294,35.94347],[139.38278,35.9435],[139.38283,35.94367],[139.38311,35.94362],[139.38337,35.94357],[139.38339,35.94398],[139.38353,35.94404],[139.38353,35.94428],[139.38341,35.94431],[139.38343,35.9446],[139.38345,35.94469],[139.38347,35.94478],[139.38328,35.94485],[139.3835,35.94515],[139.3838,35.94551],[139.38388,35.94546],[139.38414,35.94528],[139.38435,35.94553],[139.38429,35.94559],[139.38421,35.94565],[139.38417,35.94569],[139.38412,35.94574],[139.38431,35.94582],[139.38461,35.94593],[139.38485,35.94599],[139.38503,35.94604],[139.38511,35.94606],[139.38521,35.94607],[139.38559,35.94651],[139.38549,35.94657],[139.38556,35.94671],[139.38521,35.94682],[139.38502,35.94697],[139.38492,35.94762],[139.38485,35.94762],[139.38487,35.94788],[139.38482,35.94788],[139.38482,35.94795],[139.38487,35.94795],[139.38487,35.94798],[139.38478,35.94802],[139.38496,35.9483],[139.38503,35.9483],[139.38514,35.94847],[139.38543,35.94841],[139.38543,35.94831],[139.3863,35.94832],[139.38637,35.94861],[139.38646,35.94909],[139.38666,35.94907],[139.38666,35.9491],[139.38668,35.94918],[139.38668,35.94923],[139.38671,35.94956],[139.38671,35.94956],[139.38649,35.9496],[139.38627,35.94965],[139.38598,35.94972],[139.38618,35.94996],[139.38627,35.95007],[139.38655,35.95003],[139.38661,35.95019],[139.38665,35.95017],[139.3867,35.95015],[139.38673,35.95014],[139.38677,35.95012],[139.38683,35.9501],[139.38695,35.95006],[139.38708,35.95004],[139.38711,35.95015],[139.38716,35.95029],[139.38736,35.95029],[139.38735,35.95024],[139.38747,35.95023],[139.38758,35.95067],[139.38796,35.95064],[139.38791,35.95037]]]}},{"type":"Feature","properties":{"name":"脚折町一丁目","setai":1018,"jinko":1846,"key":"11241002001","units":1},"geometry":{"type":"Polygon","coordinates":[[[139.39821,35.95363],[139.39823,35.95359],[139.39824,35.95354],[139.3982,35.95334],[139.3982,35.95318],[139.39821,35.95313],[139.3984,35.95266],[139.39841,35.95263],[139.39846,35.9525],[139.39847,35.95235],[139.39847,35.95231],[139.39846,35.95216],[139.39837,35.95196],[139.39817,35.95165],[139.39803,35.95148],[139.39798,35.95141],[139.39797,35.95135],[139.39804,35.95112],[139.39806,35.95104],[139.39808,35.95096],[139.39807,35.95076],[139.39807,35.95072],[139.39806,35.95065],[139.39802,35.95054],[139.39797,35.95043],[139.39794,35.9503],[139.39793,35.95026],[139.3979,35.95009],[139.39781,35.94981],[139.39779,35.94975],[139.39776,35.94962],[139.39775,35.94951],[139.39775,35.94947],[139.39775,35.94936],[139.39779,35.94924],[139.39787,35.94913],[139.39772,35.94904],[139.3976,35.94897],[139.39744,35.94909],[139.39729,35.94922],[139.3971,35.94939],[139.39691,35.94959],[139.39672,35.94985],[139.39665,35.95],[139.39663,35.95009],[139.39661,35.95024],[139.39662,35.95037],[139.39655,35.95038],[139.39653,35.95032],[139.39618,35.94929],[139.39576,35.94802],[139.39575,35.94796],[139.39566,35.94802],[139.39501,35.94846],[139.39454,35.94874],[139.39425,35.94892],[139.39402,35.94905],[139.39355,35.9493],[139.39311,35.94954],[139.39261,35.94982],[139.39213,35.95006],[139.39181,35.95023],[139.39128,35.95048],[139.39065,35.95076],[139.39041,35.95084],[139.39031,35.9509],[139.39015,35.95099],[139.38999,35.95108],[139.38986,35.95117],[139.38972,35.95126],[139.38965,35.9513],[139.38946,35.9514],[139.38923,35.95152],[139.38915,35.95156],[139.38884,35.95173],[139.38829,35.95203],[139.3883,35.95206],[139.38854,35.95247],[139.38851,35.95249],[139.38918,35.95253],[139.38943,35.95252],[139.38955,35.95252],[139.38972,35.95253],[139.38975,35.95253],[139.38994,35.95254],[139.39022,35.95269],[139.39043,35.95276],[139.39078,35.95287],[139.39097,35.95293],[139.39103,35.95298],[139.39171,35.95316],[139.39173,35.95316],[139.39177,35.95316],[139.39276,35.95306],[139.39325,35.95301],[139.39336,35.95299],[139.39386,35.95296],[139.39386,35.95293],[139.39414,35.95293],[139.3943,35.95292],[139.39444,35.95293],[139.39458,35.95295],[139.39487,35.95294],[139.39507,35.95293],[139.3954,35.95291],[139.39559,35.95291],[139.39588,35.95301],[139.39604,35.95304],[139.39638,35.95317],[139.39708,35.95344],[139.39706,35.95362],[139.39785,35.95366],[139.39794,35.95366],[139.39795,35.9536],[139.39806,35.95374],[139.39816,35.95371],[139.39818,35.95367],[139.39821,35.95363]]]}},{"type":"Feature","properties":{"name":"脚折町二丁目","setai":557,"jinko":1148,"key":"11241002002","units":1},"geometry":{"type":"Polygon","coordinates":[[[139.3921,35.94825],[139.39196,35.94779],[139.39132,35.94787],[139.39107,35.94791],[139.39033,35.94798],[139.38989,35.94805],[139.38934,35.94812],[139.38915,35.94813],[139.38864,35.94817],[139.38763,35.94823],[139.38769,35.94873],[139.38771,35.94885],[139.38773,35.94903],[139.38778,35.94935],[139.38783,35.94982],[139.38784,35.94987],[139.38786,35.95],[139.38789,35.9502],[139.38791,35.95037],[139.38796,35.95064],[139.38796,35.95065],[139.38798,35.95077],[139.388,35.95083],[139.38803,35.951],[139.38807,35.95109],[139.38811,35.95133],[139.38814,35.95147],[139.38829,35.95203],[139.38884,35.95173],[139.38915,35.95156],[139.38923,35.95152],[139.38946,35.9514],[139.38965,35.9513],[139.38972,35.95126],[139.38986,35.95117],[139.38999,35.95108],[139.39015,35.95099],[139.39031,35.9509],[139.39041,35.95084],[139.39065,35.95076],[139.39128,35.95048],[139.39181,35.95023],[139.39213,35.95006],[139.39261,35.94982],[139.39232,35.94896],[139.39227,35.94879],[139.3921,35.94825]]]}},{"type":"Feature","properties":{"name":"脚折町三丁目","setai":625,"jinko":1416,"key":"11241002003","units":1},"geometry":{"type":"Polygon","coordinates":[[[139.38799,35.94391],[139.38769,35.94389],[139.38754,35.94419],[139.38745,35.94439],[139.38735,35.94459],[139.38728,35.94473],[139.38726,35.94477],[139.38723,35.94485],[139.38717,35.94501],[139.38715,35.9451],[139.38715,35.94511],[139.38712,35.94521],[139.38712,35.94524],[139.38711,35.9453],[139.38709,35.94539],[139.38708,35.94554],[139.38707,35.94567],[139.38712,35.94602],[139.38712,35.94607],[139.38714,35.94614],[139.38718,35.94625],[139.38724,35.94643],[139.38728,35.94658],[139.38733,35.94674],[139.38737,35.94686],[139.3874,35.94697],[139.38745,35.94717],[139.38751,35.94741],[139.38752,35.94751],[139.38757,35.94783],[139.38758,35.94791],[139.38763,35.94823],[139.38864,35.94817],[139.38915,35.94813],[139.38934,35.94812],[139.38989,35.94805],[139.39033,35.94798],[139.39107,35.94791],[139.39132,35.94787],[139.39196,35.94779],[139.39171,35.94692],[139.39146,35.94621],[139.39124,35.94547],[139.39113,35.94512],[139.391,35.94469],[139.39085,35.94413],[139.3894,35.94401],[139.3889,35.94398],[139.38869,35.94396],[139.38799,35.94391]]]}},{"type":"Feature","properties":{"name":"脚折町四丁目","setai":418,"jinko":1039,"key":"11241002004","units":1},"geometry":{"type":"Polygon","coordinates":[[[139.39157,35.94418],[139.39085,35.94413],[139.391,35.94469],[139.39113,35.94512],[139.39124,35.94547],[139.39146,35.94621],[139.39171,35.94692],[139.39196,35.94779],[139.3921,35.94825],[139.39227,35.94879],[139.39232,35.94896],[139.39261,35.94982],[139.39311,35.94954],[139.39355,35.9493],[139.39402,35.94905],[139.39425,35.94892],[139.39454,35.94874],[139.39501,35.94846],[139.39566,35.94802],[139.39575,35.94796],[139.39545,35.94711],[139.39526,35.94642],[139.39506,35.94586],[139.39491,35.94538],[139.39465,35.94451],[139.39463,35.94445],[139.39378,35.94436],[139.3923,35.94424],[139.39157,35.94418]]]}},{"type":"Feature","properties":{"name":"脚折町五丁目","setai":286,"jinko":625,"key":"11241002005","units":1},"geometry":{"type":"Polygon","coordinates":[[[139.39999,35.94484],[139.39968,35.94439],[139.39939,35.94407],[139.39912,35.94379],[139.39867,35.94343],[139.39836,35.94317],[139.39795,35.94282],[139.39783,35.94271],[139.39762,35.9425],[139.39751,35.94244],[139.3972,35.94224],[139.39672,35.94207],[139.39647,35.94201],[139.39616,35.94193],[139.396,35.94188],[139.3957,35.9418],[139.39524,35.94169],[139.39484,35.94157],[139.39443,35.94149],[139.3942,35.9415],[139.39391,35.94149],[139.39369,35.9415],[139.39388,35.94217],[139.39404,35.94265],[139.39419,35.94311],[139.39424,35.94326],[139.39459,35.94434],[139.3946,35.94437],[139.39473,35.94446],[139.39463,35.94445],[139.39465,35.94451],[139.39491,35.94538],[139.39506,35.94586],[139.39526,35.94642],[139.39545,35.94711],[139.39575,35.94796],[139.39576,35.94802],[139.39618,35.94929],[139.39653,35.95032],[139.39655,35.95038],[139.39662,35.95037],[139.39661,35.95024],[139.39663,35.95009],[139.39665,35.95],[139.39672,35.94985],[139.39691,35.94959],[139.3971,35.94939],[139.39729,35.94922],[139.39744,35.94909],[139.3976,35.94897],[139.39772,35.94887],[139.39799,35.94868],[139.39832,35.94846],[139.39851,35.94826],[139.39888,35.94797],[139.39896,35.94788],[139.39905,35.94779],[139.39912,35.94768],[139.39918,35.94753],[139.39919,35.94734],[139.39919,35.94723],[139.39916,35.9471],[139.39912,35.94691],[139.39907,35.94669],[139.39907,35.94668],[139.39907,35.94667],[139.39906,35.94648],[139.39909,35.94624],[139.39916,35.94604],[139.39931,35.94584],[139.39948,35.94565],[139.39954,35.94559],[139.39974,35.9454],[139.4001,35.94501],[139.39999,35.94484]]]}},{"type":"Feature","properties":{"name":"脚折町六丁目","setai":272,"jinko":724,"key":"11241002006","units":1},"geometry":{"type":"Polygon","coordinates":[[[139.39388,35.94217],[139.39369,35.9415],[139.39353,35.94151],[139.39333,35.94151],[139.39309,35.94151],[139.39285,35.94151],[139.39267,35.94148],[139.39253,35.94143],[139.3924,35.94138],[139.39231,35.94133],[139.39223,35.94128],[139.39206,35.94119],[139.39173,35.94101],[139.39152,35.94089],[139.39132,35.94078],[139.39113,35.94068],[139.39095,35.94058],[139.39082,35.94051],[139.39079,35.94048],[139.39073,35.94044],[139.39066,35.94036],[139.39062,35.94027],[139.3906,35.94025],[139.39056,35.94017],[139.39053,35.94007],[139.39047,35.93998],[139.39039,35.93991],[139.39026,35.93984],[139.38999,35.93972],[139.3897,35.93961],[139.38956,35.93956],[139.3894,35.9395],[139.38928,35.93948],[139.38913,35.93945],[139.38898,35.93943],[139.38886,35.93943],[139.3888,35.93942],[139.3887,35.93951],[139.38873,35.93963],[139.38877,35.93993],[139.3888,35.94022],[139.38883,35.9405],[139.38885,35.9407],[139.38886,35.94088],[139.38886,35.94096],[139.38886,35.94121],[139.38884,35.94144],[139.38879,35.94168],[139.38874,35.9418],[139.38872,35.94186],[139.38863,35.9421],[139.38852,35.94231],[139.38842,35.94253],[139.38834,35.94267],[139.38828,35.94279],[139.38813,35.94307],[139.38803,35.94325],[139.38798,35.94336],[139.38796,35.94339],[139.38793,35.94345],[139.38779,35.94371],[139.38769,35.94389],[139.38799,35.94391],[139.38869,35.94396],[139.3889,35.94398],[139.3894,35.94401],[139.39085,35.94413],[139.39157,35.94418],[139.3923,35.94424],[139.39378,35.94436],[139.39463,35.94445],[139.39473,35.94446],[139.3946,35.94437],[139.39459,35.94434],[139.39424,35.94326],[139.39419,35.94311],[139.39404,35.94265],[139.39388,35.94217]]]}},{"type":"Feature","properties":{"name":"共栄町","setai":200,"jinko":431,"key":"112410030","units":1},"geometry":{"type":"Polygon","coordinates":[[[139.39917,35.94805],[139.39933,35.94793],[139.39974,35.94808],[139.40001,35.94817],[139.40002,35.94818],[139.40017,35.94772],[139.40025,35.9475],[139.40027,35.94737],[139.4003,35.9473],[139.40035,35.94702],[139.40039,35.94686],[139.40046,35.94643],[139.40049,35.94633],[139.40051,35.94617],[139.40053,35.94609],[139.40053,35.94598],[139.40046,35.94576],[139.40041,35.94566],[139.40039,35.9456],[139.40035,35.94549],[139.40035,35.94548],[139.40027,35.94532],[139.40019,35.94514],[139.4001,35.94501],[139.39974,35.9454],[139.39954,35.94559],[139.39948,35.94565],[139.39931,35.94584],[139.39916,35.94604],[139.39909,35.94624],[139.39906,35.94648],[139.39907,35.94667],[139.39907,35.94668],[139.39907,35.94669],[139.39912,35.94691],[139.39916,35.9471],[139.39919,35.94723],[139.39919,35.94734],[139.39918,35.94753],[139.39912,35.94768],[139.39905,35.94779],[139.39896,35.94788],[139.39888,35.94797],[139.39851,35.94826],[139.39832,35.94846],[139.39799,35.94868],[139.39772,35.94887],[139.3976,35.94897],[139.39772,35.94904],[139.39787,35.94913],[139.39793,35.94905],[139.398,35.94898],[139.39811,35.94888],[139.3983,35.94873],[139.3983,35.94873],[139.39853,35.94855],[139.39854,35.94854],[139.39868,35.94844],[139.39869,35.94843],[139.39917,35.94805]]]}},{"type":"Feature","properties":{"name":"大字高倉","setai":341,"jinko":1063,"key":"112410040","units":1},"geometry":{"type":"Polygon","coordinates":[[[139.3835,35.94066],[139.38416,35.94013],[139.38462,35.93987],[139.38463,35.93982],[139.38451,35.93959],[139.3845,35.93957],[139.3845,35.93954],[139.38451,35.93952],[139.3847,35.93942],[139.38471,35.9394],[139.38465,35.93893],[139.38461,35.93873],[139.38462,35.93866],[139.38461,35.93854],[139.38457,35.93846],[139.38453,35.93836],[139.38449,35.9383],[139.38448,35.93826],[139.38419,35.93813],[139.38397,35.93799],[139.38392,35.93792],[139.38404,35.93776],[139.38412,35.93767],[139.38371,35.93746],[139.38396,35.93717],[139.38423,35.93684],[139.38438,35.93664],[139.38451,35.93644],[139.38453,35.93633],[139.3845,35.93624],[139.38444,35.93612],[139.38438,35.93599],[139.38439,35.93588],[139.38453,35.93557],[139.38457,35.93534],[139.38464,35.93513],[139.38488,35.93468],[139.38495,35.93454],[139.38498,35.93444],[139.38501,35.93435],[139.38515,35.93426],[139.38529,35.93416],[139.38536,35.93429],[139.38546,35.93447],[139.3853,35.93456],[139.38526,35.93465],[139.38528,35.93476],[139.38526,35.93486],[139.38536,35.93504],[139.38545,35.93519],[139.38552,35.93523],[139.38591,35.93543],[139.38613,35.93572],[139.38622,35.93569],[139.38654,35.93559],[139.38691,35.93544],[139.3874,35.93527],[139.38774,35.93583],[139.38829,35.93516],[139.38939,35.93389],[139.38967,35.93351],[139.38956,35.93344],[139.38907,35.93318],[139.3882,35.9327],[139.38727,35.9322],[139.3871,35.93069],[139.38697,35.93071],[139.38681,35.93075],[139.38672,35.93039],[139.38666,35.93004],[139.38664,35.92996],[139.38662,35.92984],[139.38624,35.92984],[139.38619,35.92947],[139.3859,35.92954],[139.38566,35.92961],[139.38555,35.92894],[139.38529,35.92705],[139.38513,35.9273],[139.38508,35.9274],[139.38505,35.92747],[139.38494,35.92768],[139.38446,35.92776],[139.3842,35.92747],[139.38411,35.92742],[139.38403,35.92739],[139.38379,35.92728],[139.38332,35.92713],[139.3832,35.92709],[139.38239,35.9254],[139.38247,35.92538],[139.38271,35.92534],[139.38315,35.92525],[139.38317,35.92508],[139.38319,35.9245],[139.38323,35.92433],[139.38323,35.9243],[139.38288,35.92429],[139.3829,35.92425],[139.38185,35.9243],[139.38181,35.92423],[139.3817,35.92399],[139.38166,35.9239],[139.38091,35.9223],[139.38091,35.92225],[139.38037,35.92123],[139.3802,35.9209],[139.37993,35.92041],[139.37993,35.9204],[139.37961,35.91981],[139.37957,35.91973],[139.37955,35.91969],[139.37793,35.92058],[139.37684,35.92121],[139.37681,35.92123],[139.37635,35.92149],[139.37562,35.92189],[139.3747,35.9224],[139.37406,35.92274],[139.373,35.92332],[139.37276,35.92345],[139.37137,35.92421],[139.37137,35.92439],[139.37137,35.92467],[139.37136,35.92504],[139.37136,35.92507],[139.37173,35.9256],[139.37052,35.92628],[139.37007,35.92651],[139.37034,35.92659],[139.37049,35.92664],[139.37189,35.92704],[139.3745,35.92781],[139.37429,35.92828],[139.37414,35.92864],[139.37386,35.92925],[139.3741,35.92933],[139.3741,35.92963],[139.3741,35.92965],[139.37412,35.92989],[139.37356,35.9307],[139.37332,35.93092],[139.37308,35.93111],[139.37276,35.93174],[139.37261,35.93171],[139.37255,35.93184],[139.37287,35.93191],[139.3733,35.93207],[139.37349,35.93218],[139.37354,35.93221],[139.37389,35.93246],[139.37391,35.93248],[139.37434,35.93283],[139.37403,35.93312],[139.37375,35.93329],[139.37361,35.93335],[139.37359,35.93336],[139.3727,35.93382],[139.37317,35.93452],[139.37323,35.93454],[139.37333,35.93459],[139.37429,35.9353],[139.37456,35.9355],[139.37423,35.93581],[139.37417,35.93588],[139.37483,35.93613],[139.37598,35.93702],[139.37612,35.93713],[139.37633,35.93732],[139.37686,35.93774],[139.3772,35.93798],[139.37762,35.93822],[139.37807,35.93842],[139.379,35.93872],[139.38006,35.93906],[139.38063,35.93925],[139.38094,35.93936],[139.3816,35.93956],[139.38221,35.93971],[139.38246,35.93978],[139.38258,35.93981],[139.38271,35.93983],[139.3824,35.93995],[139.38263,35.94023],[139.38282,35.94013],[139.38308,35.93997],[139.38316,35.93993],[139.38316,35.93993],[139.38332,35.9399],[139.38343,35.94],[139.38328,35.94015],[139.38323,35.94021],[139.38328,35.94024],[139.38331,35.94026],[139.38328,35.94033],[139.38337,35.9404],[139.38332,35.94045],[139.38329,35.94043],[139.38322,35.94038],[139.38319,35.94041],[139.38304,35.94058],[139.38304,35.94058],[139.38312,35.94062],[139.38315,35.94064],[139.38328,35.9405],[139.3835,35.94066]]]}},{"type":"Feature","properties":{"name":"大字下新田","setai":1727,"jinko":3921,"key":"112410050","units":1},"geometry":{"type":"Polygon","coordinates":[[[139.38798,35.95077],[139.38796,35.95065],[139.38796,35.95064],[139.38758,35.95067],[139.38747,35.95023],[139.38735,35.95024],[139.38736,35.95029],[139.38716,35.95029],[139.38711,35.95015],[139.38708,35.95004],[139.38695,35.95006],[139.38683,35.9501],[139.38677,35.95012],[139.38673,35.95014],[139.3867,35.95015],[139.38665,35.95017],[139.38661,35.95019],[139.38655,35.95003],[139.38627,35.95007],[139.38618,35.94996],[139.38598,35.94972],[139.38627,35.94965],[139.38649,35.9496],[139.38671,35.94956],[139.38671,35.94956],[139.38668,35.94923],[139.38668,35.94918],[139.38666,35.9491],[139.38666,35.94907],[139.38646,35.94909],[139.38637,35.94861],[139.3863,35.94832],[139.38543,35.94831],[139.38543,35.94841],[139.38514,35.94847],[139.38503,35.9483],[139.38496,35.9483],[139.38478,35.94802],[139.38487,35.94798],[139.38487,35.94795],[139.38482,35.94795],[139.38482,35.94788],[139.38487,35.94788],[139.38485,35.94762],[139.38492,35.94762],[139.38502,35.94697],[139.38521,35.94682],[139.38556,35.94671],[139.38549,35.94657],[139.38559,35.94651],[139.38521,35.94607],[139.38511,35.94606],[139.38503,35.94604],[139.38485,35.94599],[139.38461,35.94593],[139.38431,35.94582],[139.38412,35.94574],[139.38417,35.94569],[139.38421,35.94565],[139.38429,35.94559],[139.38435,35.94553],[139.38414,35.94528],[139.38388,35.94546],[139.3838,35.94551],[139.3835,35.94515],[139.38328,35.94485],[139.38347,35.94478],[139.38345,35.94469],[139.38343,35.9446],[139.38341,35.94431],[139.38353,35.94428],[139.38353,35.94404],[139.38339,35.94398],[139.38337,35.94357],[139.38311,35.94362],[139.38283,35.94367],[139.38278,35.9435],[139.38294,35.94347],[139.38281,35.94288],[139.38323,35.94273],[139.38383,35.94184],[139.38406,35.9414],[139.38385,35.94123],[139.3837,35.94105],[139.3834,35.94081],[139.38315,35.94064],[139.38312,35.94062],[139.38304,35.94058],[139.38304,35.94058],[139.38319,35.94041],[139.38322,35.94038],[139.38329,35.94043],[139.38332,35.94045],[139.38337,35.9404],[139.38328,35.94033],[139.38331,35.94026],[139.38328,35.94024],[139.38323,35.94021],[139.38328,35.94015],[139.38343,35.94],[139.38332,35.9399],[139.38316,35.93993],[139.38316,35.93993],[139.38308,35.93997],[139.38282,35.94013],[139.38263,35.94023],[139.3824,35.93995],[139.38271,35.93983],[139.38258,35.93981],[139.38246,35.93978],[139.38221,35.93971],[139.3816,35.93956],[139.38094,35.93936],[139.38063,35.93925],[139.38006,35.93906],[139.379,35.93872],[139.37807,35.93842],[139.37762,35.93822],[139.3772,35.93798],[139.37686,35.93774],[139.37633,35.93732],[139.37612,35.93713],[139.37598,35.93702],[139.37587,35.93727],[139.37574,35.93757],[139.37571,35.9376],[139.37535,35.9379],[139.3756,35.93824],[139.37587,35.93847],[139.37531,35.93913],[139.37531,35.93918],[139.37526,35.9399],[139.37514,35.94022],[139.37508,35.94031],[139.37492,35.94058],[139.37485,35.94053],[139.3737,35.93969],[139.3735,35.93987],[139.37345,35.93993],[139.37338,35.94],[139.37333,35.94008],[139.37329,35.94018],[139.37326,35.94026],[139.37322,35.94035],[139.37317,35.94044],[139.37306,35.94066],[139.37296,35.9409],[139.37289,35.94106],[139.37279,35.94123],[139.37252,35.94162],[139.37226,35.94151],[139.37204,35.94142],[139.37208,35.94134],[139.3719,35.94126],[139.37177,35.9412],[139.37174,35.94125],[139.37167,35.94124],[139.37163,35.94128],[139.37141,35.94128],[139.3714,35.94128],[139.37134,35.94135],[139.37134,35.94139],[139.37133,35.94153],[139.37114,35.94157],[139.37115,35.94164],[139.37119,35.94169],[139.37122,35.94176],[139.37122,35.94182],[139.37122,35.94188],[139.37119,35.94197],[139.37104,35.94196],[139.37086,35.94194],[139.37007,35.94189],[139.36996,35.94188],[139.36944,35.94184],[139.36921,35.94181],[139.36905,35.94183],[139.36899,35.94186],[139.36895,35.9419],[139.3691,35.94207],[139.3695,35.94251],[139.36976,35.94278],[139.36995,35.94297],[139.37006,35.94307],[139.37065,35.94363],[139.37085,35.94382],[139.37114,35.94409],[139.37155,35.9445],[139.37203,35.94499],[139.3722,35.94515],[139.37225,35.94507],[139.37238,35.94472],[139.37253,35.94443],[139.37276,35.9442],[139.37289,35.94407],[139.37305,35.94384],[139.3733,35.94396],[139.37343,35.94399],[139.37357,35.94401],[139.37372,35.94401],[139.3739,35.94402],[139.37408,35.94408],[139.37418,35.9441],[139.37433,35.9441],[139.37461,35.94419],[139.3747,35.94408],[139.37482,35.94395],[139.375,35.94377],[139.37507,35.9437],[139.37513,35.94363],[139.37525,35.94355],[139.37552,35.94342],[139.37559,35.94339],[139.37574,35.94334],[139.37589,35.94331],[139.37596,35.9433],[139.37604,35.9433],[139.37616,35.9433],[139.37622,35.94328],[139.37626,35.94326],[139.37652,35.94303],[139.37705,35.94262],[139.37738,35.94233],[139.37782,35.94287],[139.37801,35.94316],[139.37832,35.9437],[139.37852,35.94398],[139.37884,35.94447],[139.37892,35.94497],[139.37895,35.94505],[139.37901,35.94512],[139.37923,35.94527],[139.37949,35.94549],[139.37991,35.9461],[139.38004,35.94647],[139.38044,35.94716],[139.38064,35.94742],[139.38093,35.94778],[139.38113,35.94801],[139.38122,35.94813],[139.38128,35.94839],[139.38128,35.94844],[139.38164,35.94871],[139.38162,35.94873],[139.38172,35.94879],[139.38266,35.94944],[139.38301,35.9497],[139.3835,35.95006],[139.38441,35.95072],[139.38503,35.95118],[139.38522,35.95133],[139.38525,35.95133],[139.38561,35.95135],[139.38587,35.95136],[139.38603,35.95137],[139.3862,35.95137],[139.38685,35.95127],[139.38722,35.95122],[139.38807,35.95109],[139.38803,35.951],[139.388,35.95083],[139.38798,35.95077]]]}},{"type":"Feature","properties":{"name":"羽折町","setai":313,"jinko":667,"key":"112410060","units":1},"geometry":{"type":"Polygon","coordinates":[[[139.38285,35.95183],[139.38299,35.95136],[139.38302,35.95136],[139.38306,35.95136],[139.38326,35.95094],[139.38329,35.95095],[139.38375,35.95107],[139.38437,35.95124],[139.38473,35.95128],[139.3851,35.95131],[139.38522,35.95133],[139.38503,35.95118],[139.38441,35.95072],[139.3835,35.95006],[139.38301,35.9497],[139.38266,35.94944],[139.38172,35.94879],[139.38162,35.94873],[139.3816,35.94874],[139.38151,35.94881],[139.38155,35.94884],[139.38146,35.94891],[139.38143,35.94892],[139.38149,35.94894],[139.3817,35.94922],[139.38159,35.94931],[139.3816,35.94932],[139.38157,35.94934],[139.3816,35.94936],[139.38161,35.94937],[139.38154,35.94941],[139.38149,35.94938],[139.38117,35.94962],[139.38115,35.94964],[139.3809,35.94977],[139.38066,35.94992],[139.38027,35.95056],[139.38014,35.95074],[139.38005,35.95087],[139.38002,35.95086],[139.37999,35.95087],[139.37997,35.95089],[139.38001,35.95092],[139.38058,35.95121],[139.38087,35.95136],[139.3813,35.95155],[139.38141,35.9516],[139.38143,35.95157],[139.38195,35.95175],[139.38247,35.95187],[139.38251,35.95188],[139.38255,35.95189],[139.38275,35.95194],[139.38285,35.95183]]]}},{"type":"Feature","properties":{"name":"大字中新田","setai":848,"jinko":1891,"key":"112410070","units":1},"geometry":{"type":"Polygon","coordinates":[[[139.37122,35.94188],[139.37122,35.94182],[139.37122,35.94176],[139.37119,35.94169],[139.37115,35.94164],[139.37114,35.94157],[139.37133,35.94153],[139.37134,35.94139],[139.37134,35.94135],[139.3714,35.94128],[139.37141,35.94128],[139.37163,35.94128],[139.37167,35.94124],[139.37174,35.94125],[139.37177,35.9412],[139.3719,35.94126],[139.37208,35.94134],[139.37204,35.94142],[139.37226,35.94151],[139.37252,35.94162],[139.37279,35.94123],[139.37289,35.94106],[139.37296,35.9409],[139.37306,35.94066],[139.37317,35.94044],[139.37322,35.94035],[139.37326,35.94026],[139.37329,35.94018],[139.37333,35.94008],[139.37338,35.94],[139.37345,35.93993],[139.3735,35.93987],[139.3737,35.93969],[139.37361,35.93963],[139.373,35.93917],[139.37288,35.93909],[139.37268,35.93893],[139.37204,35.93845],[139.37117,35.93785],[139.3708,35.93759],[139.37034,35.93726],[139.37027,35.93721],[139.3695,35.93665],[139.36886,35.93618],[139.3686,35.936],[139.36827,35.93577],[139.36771,35.93535],[139.36729,35.93504],[139.367,35.93512],[139.36656,35.93529],[139.36631,35.93547],[139.36604,35.93574],[139.36596,35.93579],[139.36586,35.93582],[139.3655,35.93579],[139.36532,35.93578],[139.36516,35.93585],[139.36498,35.93594],[139.36479,35.93606],[139.36458,35.93612],[139.36431,35.9362],[139.36406,35.93626],[139.36376,35.93635],[139.36356,35.93639],[139.36324,35.9364],[139.36377,35.93687],[139.36425,35.93728],[139.36464,35.93764],[139.36495,35.93793],[139.36573,35.93855],[139.36612,35.93886],[139.36636,35.93913],[139.36638,35.93915],[139.36681,35.93961],[139.36732,35.94016],[139.36734,35.94018],[139.36778,35.94066],[139.36823,35.94114],[139.36882,35.94176],[139.36886,35.94181],[139.36895,35.9419],[139.36899,35.94186],[139.36905,35.94183],[139.36921,35.94181],[139.36944,35.94184],[139.36996,35.94188],[139.37007,35.94189],[139.37086,35.94194],[139.37104,35.94196],[139.37119,35.94197],[139.37122,35.94188]]]}},{"type":"Feature","properties":{"name":"大字上新田","setai":212,"jinko":513,"key":"112410080","units":1},"geometry":{"type":"Polygon","coordinates":[[[139.36516,35.93585],[139.36532,35.93578],[139.3655,35.93579],[139.36586,35.93582],[139.36596,35.93579],[139.36604,35.93574],[139.36631,35.93547],[139.36656,35.93529],[139.367,35.93512],[139.36729,35.93504],[139.36688,35.93476],[139.36635,35.93438],[139.3662,35.93427],[139.36563,35.93386],[139.36535,35.93366],[139.36592,35.93311],[139.366,35.93303],[139.36631,35.93261],[139.3671,35.93152],[139.36728,35.93128],[139.36759,35.93085],[139.36799,35.9303],[139.36834,35.93052],[139.36837,35.93054],[139.36844,35.93056],[139.36879,35.93063],[139.36943,35.93081],[139.37078,35.93122],[139.37176,35.93148],[139.37193,35.93152],[139.37244,35.93168],[139.37261,35.93171],[139.37276,35.93174],[139.37308,35.93111],[139.37332,35.93092],[139.37356,35.9307],[139.37412,35.92989],[139.3741,35.92965],[139.3741,35.92963],[139.3741,35.92933],[139.37386,35.92925],[139.37414,35.92864],[139.37429,35.92828],[139.3745,35.92781],[139.37189,35.92704],[139.37049,35.92664],[139.37034,35.92659],[139.37007,35.92651],[139.36995,35.9266],[139.36953,35.92681],[139.36936,35.92649],[139.3688,35.9273],[139.36849,35.92715],[139.36808,35.92698],[139.36778,35.92684],[139.36763,35.9267],[139.36742,35.92684],[139.36646,35.92749],[139.36562,35.92815],[139.36517,35.92849],[139.36469,35.92867],[139.36384,35.92898],[139.3637,35.92903],[139.36272,35.92946],[139.36151,35.92986],[139.36065,35.93015],[139.3601,35.93033],[139.35946,35.93054],[139.35853,35.93085],[139.35822,35.93098],[139.35795,35.93106],[139.35771,35.93115],[139.35734,35.93131],[139.357,35.93144],[139.35688,35.9315],[139.35701,35.93165],[139.35727,35.93185],[139.35737,35.93197],[139.35746,35.93216],[139.35755,35.93224],[139.35774,35.93235],[139.35794,35.93249],[139.35833,35.93279],[139.35854,35.93294],[139.3588,35.93308],[139.35931,35.93335],[139.36003,35.93378],[139.36043,35.93404],[139.36065,35.9342],[139.36117,35.93467],[139.36158,35.935],[139.36202,35.93534],[139.36207,35.93545],[139.3622,35.93559],[139.36238,35.93574],[139.36278,35.93601],[139.36315,35.93631],[139.36322,35.93638],[139.36324,35.9364],[139.36356,35.93639],[139.36376,35.93635],[139.36406,35.93626],[139.36431,35.9362],[139.36458,35.93612],[139.36479,35.93606],[139.36498,35.93594],[139.36516,35.93585]]]}},{"type":"Feature","properties":{"name":"大字町屋","setai":269,"jinko":680,"key":"112410090","units":1},"geometry":{"type":"Polygon","coordinates":[[[139.36602,35.92713],[139.3646,35.92593],[139.36443,35.92605],[139.36374,35.92659],[139.36198,35.92512],[139.36179,35.92498],[139.36156,35.92477],[139.36156,35.92472],[139.36145,35.92471],[139.3615,35.92434],[139.361,35.9242],[139.36089,35.92406],[139.36072,35.92394],[139.36052,35.92382],[139.36034,35.9237],[139.36026,35.92403],[139.36015,35.92449],[139.35994,35.92446],[139.35905,35.92433],[139.35931,35.92312],[139.35878,35.92301],[139.35874,35.9231],[139.35849,35.9231],[139.35809,35.92309],[139.35782,35.92312],[139.3576,35.92313],[139.35748,35.92314],[139.35741,35.92317],[139.35731,35.92324],[139.35727,35.92331],[139.3572,35.92349],[139.35715,35.92363],[139.35676,35.92358],[139.35673,35.92377],[139.35674,35.92398],[139.35674,35.92401],[139.35667,35.9241],[139.35659,35.92423],[139.3565,35.92437],[139.3564,35.92448],[139.3563,35.92458],[139.35598,35.92443],[139.35464,35.92436],[139.35422,35.92435],[139.35392,35.92441],[139.35338,35.92442],[139.3533,35.9244],[139.35312,35.92435],[139.35302,35.92436],[139.35279,35.92438],[139.35251,35.92442],[139.35256,35.92448],[139.35263,35.92469],[139.35276,35.92495],[139.35283,35.9252],[139.35293,35.9255],[139.35301,35.92568],[139.3531,35.92594],[139.35321,35.92622],[139.35328,35.92655],[139.35331,35.92678],[139.3534,35.92696],[139.35338,35.92703],[139.3533,35.92712],[139.35312,35.92735],[139.35263,35.928],[139.35257,35.9281],[139.3524,35.92831],[139.3525,35.92838],[139.35288,35.92863],[139.35377,35.92929],[139.354,35.92947],[139.35462,35.92989],[139.35491,35.93014],[139.35496,35.93019],[139.35503,35.93025],[139.3553,35.93052],[139.35557,35.93083],[139.35558,35.93087],[139.35608,35.93104],[139.35627,35.93133],[139.3564,35.93148],[139.35656,35.93159],[139.3567,35.93163],[139.35688,35.9315],[139.357,35.93144],[139.35734,35.93131],[139.35771,35.93115],[139.35795,35.93106],[139.35822,35.93098],[139.35853,35.93085],[139.35946,35.93054],[139.3601,35.93033],[139.36065,35.93015],[139.36151,35.92986],[139.36272,35.92946],[139.3637,35.92903],[139.36384,35.92898],[139.36469,35.92867],[139.36517,35.92849],[139.36562,35.92815],[139.36646,35.92749],[139.36602,35.92713]]]}},{"type":"Feature","properties":{"name":"大字三ツ木","setai":325,"jinko":956,"key":"112410100","units":1},"geometry":{"type":"MultiPolygon","coordinates":[[[[139.39166,35.93666],[139.392,35.93665],[139.39249,35.93665],[139.39272,35.93663],[139.39318,35.93651],[139.39337,35.93645],[139.39368,35.93638],[139.39404,35.93625],[139.39566,35.93582],[139.39586,35.93575],[139.39605,35.93563],[139.39646,35.9352],[139.39667,35.93498],[139.39693,35.93472],[139.39679,35.93465],[139.39664,35.93459],[139.39688,35.93422],[139.39715,35.9339],[139.39733,35.9338],[139.39742,35.93377],[139.3975,35.93375],[139.39757,35.93371],[139.39741,35.93364],[139.39742,35.93356],[139.39748,35.93342],[139.39768,35.93312],[139.39791,35.93269],[139.39841,35.93182],[139.39851,35.93113],[139.39847,35.93072],[139.39847,35.9305],[139.39845,35.93036],[139.39844,35.93022],[139.39847,35.93011],[139.3985,35.93001],[139.39848,35.92986],[139.39841,35.92956],[139.39829,35.92938],[139.39824,35.92933],[139.39814,35.92923],[139.39806,35.92907],[139.39805,35.92896],[139.39803,35.92882],[139.39802,35.92869],[139.39791,35.92837],[139.39766,35.92794],[139.39731,35.92738],[139.39691,35.92668],[139.39664,35.92616],[139.39657,35.9262],[139.39639,35.92628],[139.39602,35.92645],[139.39565,35.92666],[139.39525,35.92692],[139.39506,35.92705],[139.39468,35.92742],[139.3946,35.92757],[139.3944,35.92798],[139.39415,35.92837],[139.39385,35.92885],[139.39185,35.92659],[139.39139,35.92611],[139.3897,35.92434],[139.38883,35.92333],[139.38771,35.92367],[139.38752,35.92374],[139.38655,35.92415],[139.38645,35.92402],[139.38623,35.92398],[139.38602,35.92391],[139.38596,35.92384],[139.38585,35.92372],[139.38584,35.92345],[139.38591,35.92321],[139.38597,35.92274],[139.38584,35.92243],[139.38571,35.92212],[139.38563,35.92194],[139.38551,35.92185],[139.38515,35.92163],[139.38489,35.92134],[139.38486,35.9215],[139.38474,35.92159],[139.38472,35.92159],[139.38471,35.92159],[139.38459,35.92153],[139.38431,35.92143],[139.38428,35.92142],[139.38422,35.92142],[139.3842,35.92142],[139.38389,35.92162],[139.38387,35.92164],[139.38385,35.9217],[139.38375,35.9224],[139.38372,35.9224],[139.38371,35.92241],[139.38367,35.92268],[139.38361,35.9229],[139.38349,35.92332],[139.38345,35.92349],[139.3833,35.92402],[139.38326,35.92417],[139.38323,35.9243],[139.38323,35.92433],[139.38319,35.9245],[139.38317,35.92508],[139.38315,35.92525],[139.38271,35.92534],[139.38247,35.92538],[139.38239,35.9254],[139.3832,35.92709],[139.38332,35.92713],[139.38379,35.92728],[139.38403,35.92739],[139.38411,35.92742],[139.3842,35.92747],[139.38446,35.92776],[139.38494,35.92768],[139.38505,35.92747],[139.38508,35.9274],[139.38513,35.9273],[139.38529,35.92705],[139.38555,35.92894],[139.38566,35.92961],[139.3859,35.92954],[139.38619,35.92947],[139.38624,35.92984],[139.38662,35.92984],[139.38664,35.92996],[139.38666,35.93004],[139.38672,35.93039],[139.38681,35.93075],[139.38697,35.93071],[139.3871,35.93069],[139.38727,35.9322],[139.3882,35.9327],[139.38907,35.93318],[139.38956,35.93344],[139.38967,35.93351],[139.38939,35.93389],[139.38829,35.93516],[139.38774,35.93583],[139.38789,35.93609],[139.38797,35.93627],[139.38817,35.93626],[139.38831,35.93626],[139.3884,35.93625],[139.38856,35.93622],[139.38884,35.9363],[139.389,35.93639],[139.38923,35.93647],[139.38945,35.93659],[139.38969,35.93673],[139.38976,35.93682],[139.38984,35.93681],[139.39018,35.93677],[139.39087,35.9367],[139.39166,35.93666]]],[[[139.38727,35.91443],[139.38726,35.91443],[139.38669,35.91521],[139.38634,35.91556],[139.38599,35.9159],[139.38553,35.91645],[139.38574,35.91658],[139.38566,35.91674],[139.38528,35.91719],[139.38542,35.91742],[139.38545,35.91746],[139.38547,35.91749],[139.38555,35.91753],[139.3857,35.91757],[139.38687,35.91734],[139.38746,35.91722],[139.38809,35.91715],[139.38811,35.91704],[139.38812,35.91675],[139.38816,35.91619],[139.38829,35.91553],[139.38836,35.9152],[139.38843,35.91475],[139.38843,35.91465],[139.38789,35.91459],[139.38772,35.91456],[139.38763,35.91454],[139.3873,35.91444],[139.38727,35.91443]]]]}},{"type":"Feature","properties":{"name":"大字三ツ木新田","setai":3,"jinko":10,"key":"112410110","units":1},"geometry":{"type":"Polygon","coordinates":[[[139.38185,35.9243],[139.3829,35.92425],[139.38288,35.92429],[139.38323,35.9243],[139.38326,35.92417],[139.3833,35.92402],[139.38345,35.92349],[139.38349,35.92332],[139.38361,35.9229],[139.38367,35.92268],[139.38371,35.92241],[139.38098,35.92228],[139.38095,35.92228],[139.38094,35.92227],[139.38091,35.92225],[139.38091,35.9223],[139.38166,35.9239],[139.3817,35.92399],[139.38181,35.92423],[139.38185,35.9243]]]}},{"type":"Feature","properties":{"name":"大字太田ヶ谷","setai":618,"jinko":1676,"key":"112410120","units":1},"geometry":{"type":"Polygon","coordinates":[[[139.39955,35.93239],[139.40051,35.93233],[139.40166,35.93234],[139.40204,35.93235],[139.40287,35.93235],[139.40371,35.93236],[139.4043,35.93233],[139.40534,35.93214],[139.40554,35.93211],[139.40618,35.93199],[139.40664,35.93191],[139.40698,35.93185],[139.40749,35.93175],[139.40819,35.93163],[139.40904,35.93152],[139.40903,35.93144],[139.40933,35.9313],[139.40946,35.93125],[139.40974,35.93116],[139.40986,35.93113],[139.41009,35.93108],[139.41036,35.93102],[139.41064,35.93098],[139.41104,35.93094],[139.41119,35.93091],[139.41135,35.9309],[139.41145,35.9309],[139.41157,35.93088],[139.41168,35.93086],[139.41186,35.93081],[139.412,35.93077],[139.41245,35.93065],[139.41263,35.9306],[139.41278,35.93056],[139.4129,35.93051],[139.41297,35.93058],[139.41304,35.93065],[139.41312,35.93072],[139.41335,35.93062],[139.41357,35.93054],[139.41371,35.93046],[139.41387,35.93039],[139.41402,35.93032],[139.41426,35.93021],[139.41445,35.93013],[139.41453,35.93005],[139.41469,35.92982],[139.41456,35.92972],[139.41449,35.92968],[139.41444,35.92965],[139.41436,35.9296],[139.41428,35.92953],[139.41423,35.92947],[139.4143,35.92944],[139.41436,35.92939],[139.41444,35.92933],[139.41448,35.9293],[139.41452,35.92924],[139.41455,35.92918],[139.41459,35.9291],[139.41461,35.92905],[139.41455,35.92902],[139.41449,35.929],[139.41442,35.92898],[139.41433,35.92896],[139.4142,35.92891],[139.414,35.92883],[139.41374,35.92872],[139.41352,35.9286],[139.41324,35.92844],[139.41304,35.9283],[139.41288,35.92821],[139.41279,35.92814],[139.41256,35.92797],[139.41249,35.92806],[139.41232,35.92821],[139.4124,35.9283],[139.41225,35.92854],[139.41206,35.92888],[139.41198,35.92887],[139.41178,35.92883],[139.41142,35.92876],[139.41127,35.92873],[139.41089,35.92865],[139.41077,35.92863],[139.41058,35.92859],[139.41042,35.92857],[139.41011,35.92852],[139.41001,35.9285],[139.40996,35.92847],[139.40991,35.92843],[139.40987,35.92839],[139.40983,35.92833],[139.40979,35.92829],[139.4097,35.92819],[139.40965,35.92809],[139.40956,35.92794],[139.40953,35.92787],[139.40948,35.92774],[139.40938,35.92759],[139.40927,35.92747],[139.40918,35.92735],[139.40907,35.9273],[139.40897,35.92724],[139.40879,35.92722],[139.40868,35.9272],[139.40862,35.92717],[139.40858,35.92714],[139.40855,35.92711],[139.40852,35.92707],[139.40845,35.92703],[139.40832,35.92699],[139.40822,35.92701],[139.40812,35.92699],[139.40798,35.92697],[139.40778,35.92694],[139.40771,35.92686],[139.40759,35.92672],[139.40746,35.92658],[139.40745,35.92647],[139.40743,35.92642],[139.40738,35.92635],[139.40734,35.92628],[139.40731,35.92623],[139.40721,35.92611],[139.40712,35.92598],[139.40703,35.92587],[139.40677,35.9258],[139.40654,35.92569],[139.40637,35.92558],[139.40626,35.92551],[139.4061,35.92542],[139.40597,35.92536],[139.40586,35.9253],[139.40574,35.92524],[139.40561,35.92519],[139.40545,35.92514],[139.40529,35.9251],[139.40514,35.92508],[139.40496,35.92503],[139.40483,35.92501],[139.40484,35.92446],[139.40485,35.92398],[139.40486,35.92383],[139.40486,35.92347],[139.40485,35.92312],[139.40485,35.92297],[139.40485,35.9228],[139.40483,35.92262],[139.40483,35.9224],[139.40483,35.92217],[139.40483,35.92207],[139.40478,35.92143],[139.40478,35.92124],[139.40478,35.92124],[139.40463,35.92112],[139.40418,35.92077],[139.40417,35.92075],[139.40302,35.91971],[139.40234,35.91922],[139.40166,35.91884],[139.4009,35.91851],[139.39923,35.91786],[139.39803,35.91734],[139.39778,35.91725],[139.39774,35.91724],[139.39668,35.91687],[139.39581,35.91659],[139.39417,35.91601],[139.39352,35.91575],[139.3929,35.91559],[139.39244,35.91545],[139.39176,35.91521],[139.39138,35.91501],[139.39129,35.91496],[139.38978,35.91434],[139.38963,35.91428],[139.38914,35.91414],[139.38883,35.91406],[139.38883,35.91407],[139.38873,35.91424],[139.38868,35.91436],[139.38859,35.91466],[139.38858,35.91467],[139.38843,35.91465],[139.38843,35.91475],[139.38836,35.9152],[139.38829,35.91553],[139.38816,35.91619],[139.38812,35.91675],[139.38811,35.91704],[139.38809,35.91715],[139.3882,35.9172],[139.38909,35.91894],[139.38924,35.91921],[139.38938,35.91942],[139.38957,35.91957],[139.39005,35.91987],[139.39062,35.92022],[139.39096,35.92043],[139.39232,35.92127],[139.39302,35.92174],[139.39373,35.92222],[139.39446,35.92271],[139.39518,35.92312],[139.39552,35.92363],[139.39562,35.92378],[139.39621,35.92471],[139.39633,35.9249],[139.39659,35.92534],[139.39714,35.92598],[139.39664,35.92616],[139.39691,35.92668],[139.39731,35.92738],[139.39766,35.92794],[139.39791,35.92837],[139.39802,35.92869],[139.39803,35.92882],[139.39805,35.92896],[139.39806,35.92907],[139.39814,35.92923],[139.39824,35.92933],[139.39829,35.92938],[139.39841,35.92956],[139.39848,35.92986],[139.3985,35.93001],[139.39847,35.93011],[139.39844,35.93022],[139.39845,35.93036],[139.39847,35.9305],[139.39847,35.93072],[139.39851,35.93113],[139.39841,35.93182],[139.39791,35.93269],[139.39768,35.93312],[139.39822,35.93287],[139.39879,35.9326],[139.39911,35.93248],[139.39955,35.93239]]]}},{"type":"Feature","properties":{"name":"大字藤金","setai":4239,"jinko":9970,"key":"112410130","units":1},"geometry":{"type":"Polygon","coordinates":[[[139.40468,35.94887],[139.40469,35.94887],[139.40474,35.94887],[139.40481,35.94888],[139.40482,35.94888],[139.40498,35.94866],[139.40511,35.94893],[139.40512,35.94894],[139.40533,35.94927],[139.40535,35.94929],[139.40535,35.9493],[139.40539,35.94926],[139.40548,35.94932],[139.40556,35.94936],[139.40556,35.94936],[139.40578,35.94915],[139.40578,35.94915],[139.4058,35.94916],[139.40582,35.94917],[139.40591,35.94907],[139.40593,35.94908],[139.40593,35.94908],[139.40601,35.94903],[139.40608,35.94898],[139.40611,35.949],[139.4062,35.94891],[139.40622,35.9489],[139.40629,35.94895],[139.40629,35.94894],[139.40642,35.94881],[139.40644,35.94879],[139.40661,35.94872],[139.40666,35.94875],[139.40668,35.94873],[139.40678,35.94862],[139.40689,35.94855],[139.40706,35.94867],[139.40721,35.94877],[139.40735,35.9489],[139.4081,35.94947],[139.4081,35.94946],[139.40845,35.9492],[139.40864,35.94904],[139.40897,35.94877],[139.40911,35.9489],[139.40948,35.94862],[139.40959,35.94857],[139.40973,35.94847],[139.41005,35.94823],[139.4096,35.94792],[139.40931,35.94773],[139.40922,35.94766],[139.40914,35.94762],[139.40913,35.94761],[139.40881,35.9474],[139.40816,35.94698],[139.40804,35.9469],[139.4079,35.94681],[139.40783,35.94677],[139.40752,35.94657],[139.40686,35.94615],[139.4072,35.94582],[139.4074,35.94563],[139.40796,35.94507],[139.4081,35.9449],[139.40818,35.94479],[139.40837,35.94451],[139.40855,35.94424],[139.40872,35.944],[139.40872,35.94396],[139.40872,35.94391],[139.40877,35.94382],[139.40881,35.9437],[139.40939,35.94288],[139.41052,35.94138],[139.41113,35.94059],[139.41172,35.93984],[139.412,35.93948],[139.41209,35.93941],[139.41226,35.93919],[139.4124,35.93904],[139.41267,35.93884],[139.41298,35.93855],[139.41324,35.93822],[139.41327,35.93817],[139.41336,35.93802],[139.41338,35.9379],[139.41338,35.93789],[139.41337,35.93772],[139.41338,35.93766],[139.41339,35.93754],[139.41343,35.93738],[139.41331,35.93734],[139.41325,35.93731],[139.41317,35.93729],[139.4131,35.93726],[139.413,35.93722],[139.41291,35.93719],[139.41282,35.93708],[139.41275,35.93698],[139.41265,35.93683],[139.41244,35.93654],[139.41235,35.93642],[139.41227,35.93632],[139.41217,35.93623],[139.41208,35.93616],[139.41198,35.93607],[139.41183,35.93598],[139.41172,35.93591],[139.41161,35.93587],[139.41145,35.93581],[139.41132,35.93576],[139.41131,35.93563],[139.41129,35.93556],[139.41126,35.93548],[139.41125,35.93537],[139.41126,35.93526],[139.4113,35.93508],[139.41133,35.93485],[139.41134,35.93471],[139.41136,35.93448],[139.41135,35.93438],[139.41131,35.93424],[139.41121,35.9341],[139.41117,35.93398],[139.4111,35.93373],[139.41107,35.93358],[139.41103,35.9334],[139.41107,35.93331],[139.41114,35.93319],[139.41119,35.93311],[139.41127,35.93301],[139.41132,35.93291],[139.41119,35.93288],[139.41106,35.93278],[139.41083,35.93262],[139.41061,35.93247],[139.41039,35.93229],[139.41023,35.93214],[139.41014,35.93202],[139.41005,35.93187],[139.41004,35.93185],[139.40993,35.93165],[139.40983,35.93147],[139.40979,35.93134],[139.40974,35.93116],[139.40946,35.93125],[139.40933,35.9313],[139.40903,35.93144],[139.40904,35.93152],[139.40819,35.93163],[139.40749,35.93175],[139.40698,35.93185],[139.40664,35.93191],[139.40618,35.93199],[139.40554,35.93211],[139.40534,35.93214],[139.4043,35.93233],[139.40371,35.93236],[139.40287,35.93235],[139.40204,35.93235],[139.40166,35.93234],[139.40051,35.93233],[139.39955,35.93239],[139.39911,35.93248],[139.39879,35.9326],[139.39822,35.93287],[139.39768,35.93312],[139.39748,35.93342],[139.39742,35.93356],[139.39741,35.93364],[139.39757,35.93371],[139.3975,35.93375],[139.39742,35.93377],[139.39733,35.9338],[139.39715,35.9339],[139.39688,35.93422],[139.39664,35.93459],[139.39679,35.93465],[139.39693,35.93472],[139.39667,35.93498],[139.39646,35.9352],[139.39605,35.93563],[139.39586,35.93575],[139.39566,35.93582],[139.39574,35.9359],[139.39614,35.93624],[139.3965,35.93657],[139.39676,35.93681],[139.3971,35.93711],[139.39754,35.93749],[139.39945,35.93919],[139.40017,35.93983],[139.40057,35.94018],[139.40111,35.94067],[139.40122,35.94077],[139.40188,35.94137],[139.40239,35.9418],[139.40252,35.94192],[139.40256,35.94196],[139.40296,35.9423],[139.4032,35.94251],[139.40358,35.94286],[139.40353,35.94308],[139.40334,35.94381],[139.40321,35.9443],[139.40309,35.94479],[139.40188,35.94458],[139.40075,35.94441],[139.40065,35.94445],[139.40055,35.94482],[139.40053,35.94492],[139.40042,35.94538],[139.40041,35.94544],[139.4004,35.94547],[139.40035,35.94548],[139.40035,35.94549],[139.40039,35.9456],[139.40041,35.94566],[139.40046,35.94576],[139.40053,35.94598],[139.40053,35.94609],[139.40051,35.94617],[139.40049,35.94633],[139.40046,35.94643],[139.40039,35.94686],[139.40035,35.94702],[139.4003,35.9473],[139.40027,35.94737],[139.40025,35.9475],[139.40017,35.94772],[139.40002,35.94818],[139.40008,35.94822],[139.40042,35.94835],[139.4009,35.94851],[139.40114,35.9486],[139.40127,35.94866],[139.40179,35.94893],[139.40184,35.94898],[139.402,35.94905],[139.40203,35.94907],[139.40213,35.94877],[139.40219,35.94859],[139.40226,35.94858],[139.40278,35.94887],[139.40305,35.94902],[139.40307,35.94903],[139.40318,35.9491],[139.40325,35.94914],[139.40329,35.94918],[139.40358,35.94947],[139.40379,35.94968],[139.40383,35.94972],[139.40456,35.94903],[139.40462,35.9489],[139.40468,35.94887]]]}},{"type":"Feature","properties":{"name":"大字上広谷","setai":4432,"jinko":9536,"key":"112410140","units":1},"geometry":{"type":"Polygon","coordinates":[[[139.41265,35.94581],[139.41275,35.94574],[139.41283,35.94582],[139.41319,35.9461],[139.41361,35.94644],[139.41366,35.94649],[139.41372,35.94645],[139.41437,35.946],[139.41461,35.94584],[139.41531,35.9454],[139.41598,35.94499],[139.41621,35.94481],[139.41635,35.94472],[139.41696,35.94424],[139.41726,35.94402],[139.41748,35.94388],[139.41762,35.9438],[139.41782,35.94376],[139.41788,35.94374],[139.41845,35.94366],[139.41896,35.94358],[139.41938,35.94353],[139.42002,35.94349],[139.4204,35.94349],[139.42062,35.94349],[139.42082,35.94349],[139.42112,35.9435],[139.42141,35.94344],[139.42151,35.94341],[139.42157,35.94338],[139.42161,35.94336],[139.42169,35.9433],[139.42177,35.94325],[139.42195,35.94311],[139.42202,35.94302],[139.42208,35.94294],[139.42212,35.94292],[139.42219,35.94288],[139.42237,35.9427],[139.42249,35.94254],[139.42263,35.94234],[139.42263,35.94223],[139.42265,35.94214],[139.42268,35.94198],[139.42272,35.94189],[139.42275,35.94182],[139.42283,35.94174],[139.42297,35.94164],[139.42317,35.94151],[139.42345,35.94132],[139.42361,35.94125],[139.42389,35.94114],[139.424,35.94108],[139.42416,35.94102],[139.42429,35.94097],[139.42436,35.94094],[139.42443,35.94092],[139.42448,35.94079],[139.42449,35.94077],[139.42464,35.94055],[139.42476,35.94034],[139.42488,35.94014],[139.42495,35.94005],[139.42514,35.93977],[139.42522,35.93967],[139.42533,35.93962],[139.42543,35.93963],[139.4256,35.93967],[139.42595,35.93976],[139.42626,35.93985],[139.42647,35.93991],[139.42661,35.93995],[139.42687,35.94003],[139.42703,35.94011],[139.42745,35.94022],[139.42753,35.94023],[139.42764,35.94025],[139.42786,35.94026],[139.42809,35.9403],[139.42867,35.9404],[139.42888,35.94041],[139.42781,35.93975],[139.42768,35.93967],[139.42768,35.93967],[139.42761,35.93976],[139.42753,35.93971],[139.4276,35.93963],[139.4276,35.93963],[139.42704,35.93928],[139.42611,35.93869],[139.42581,35.93849],[139.42578,35.93848],[139.4254,35.93825],[139.42528,35.93817],[139.4251,35.93833],[139.42495,35.93824],[139.42512,35.93808],[139.42509,35.93806],[139.42505,35.93804],[139.42498,35.938],[139.42491,35.93795],[139.42459,35.93776],[139.42442,35.93765],[139.42377,35.93723],[139.42368,35.93693],[139.42365,35.93685],[139.42311,35.93718],[139.42297,35.93704],[139.42229,35.93739],[139.42219,35.93731],[139.42215,35.93734],[139.42211,35.93732],[139.42191,35.93719],[139.42169,35.93704],[139.42169,35.93704],[139.42168,35.93703],[139.42144,35.93687],[139.42138,35.93681],[139.42123,35.93692],[139.42107,35.93704],[139.42088,35.93717],[139.42086,35.93718],[139.42063,35.93696],[139.42031,35.93715],[139.41997,35.93683],[139.4199,35.93675],[139.41951,35.93638],[139.4191,35.93599],[139.41894,35.93582],[139.41875,35.93563],[139.41877,35.93556],[139.4188,35.93535],[139.41886,35.93501],[139.41884,35.93491],[139.41882,35.93486],[139.41878,35.93482],[139.4187,35.93475],[139.41864,35.9347],[139.41852,35.9346],[139.41849,35.93458],[139.41827,35.93479],[139.41823,35.93476],[139.41818,35.93473],[139.41805,35.93487],[139.41797,35.93487],[139.41799,35.93482],[139.418,35.93478],[139.418,35.93469],[139.41796,35.93463],[139.4179,35.93457],[139.41782,35.9345],[139.41771,35.93443],[139.4176,35.93439],[139.41751,35.93439],[139.41744,35.93439],[139.41736,35.93438],[139.41729,35.93437],[139.41716,35.93428],[139.41708,35.93422],[139.41687,35.93409],[139.41667,35.93399],[139.41648,35.93386],[139.4164,35.9338],[139.41633,35.93377],[139.41624,35.93377],[139.4161,35.93372],[139.41593,35.93362],[139.4159,35.93365],[139.41586,35.93372],[139.41584,35.9338],[139.4158,35.93387],[139.41563,35.93399],[139.41573,35.93422],[139.41564,35.93428],[139.41567,35.9343],[139.41573,35.93436],[139.41589,35.93451],[139.41597,35.93457],[139.41606,35.93466],[139.41613,35.93472],[139.41618,35.93475],[139.41627,35.93479],[139.41634,35.93482],[139.4164,35.93484],[139.41649,35.93487],[139.41647,35.93492],[139.41636,35.93489],[139.41621,35.93486],[139.41614,35.93504],[139.41609,35.9352],[139.4164,35.93525],[139.41639,35.93532],[139.41638,35.93541],[139.41632,35.93568],[139.41631,35.93571],[139.41631,35.93578],[139.41634,35.93582],[139.41638,35.93586],[139.41645,35.93589],[139.41656,35.93592],[139.41663,35.93597],[139.4166,35.93607],[139.41658,35.93615],[139.41656,35.93618],[139.41657,35.9363],[139.41659,35.93645],[139.41657,35.93657],[139.41653,35.93682],[139.4165,35.937],[139.41648,35.93718],[139.41646,35.93741],[139.41644,35.9375],[139.41642,35.93764],[139.4164,35.93773],[139.41637,35.93785],[139.41636,35.93793],[139.41632,35.93804],[139.41626,35.93814],[139.41617,35.9383],[139.4161,35.93839],[139.41602,35.93855],[139.4159,35.93855],[139.41587,35.93845],[139.41583,35.93836],[139.41577,35.93829],[139.41567,35.93821],[139.4155,35.93809],[139.4154,35.93801],[139.41526,35.93783],[139.41514,35.93771],[139.41505,35.93761],[139.415,35.93754],[139.41491,35.93745],[139.41481,35.93734],[139.41459,35.93717],[139.41447,35.93708],[139.41431,35.93695],[139.41397,35.93666],[139.41391,35.93671],[139.41378,35.93686],[139.41369,35.93697],[139.41355,35.93719],[139.41351,35.93724],[139.41343,35.93738],[139.41339,35.93754],[139.41338,35.93766],[139.41337,35.93772],[139.41338,35.93789],[139.41338,35.9379],[139.41336,35.93802],[139.41327,35.93817],[139.41324,35.93822],[139.41298,35.93855],[139.41267,35.93884],[139.4124,35.93904],[139.41226,35.93919],[139.41209,35.93941],[139.412,35.93948],[139.41172,35.93984],[139.41113,35.94059],[139.41052,35.94138],[139.40939,35.94288],[139.40881,35.9437],[139.40877,35.94382],[139.40872,35.94391],[139.40872,35.94396],[139.40872,35.944],[139.40855,35.94424],[139.40837,35.94451],[139.40818,35.94479],[139.4081,35.9449],[139.40796,35.94507],[139.4074,35.94563],[139.4072,35.94582],[139.40686,35.94615],[139.40752,35.94657],[139.40783,35.94677],[139.4079,35.94681],[139.40804,35.9469],[139.40816,35.94698],[139.40881,35.9474],[139.40913,35.94761],[139.40914,35.94762],[139.40922,35.94766],[139.40931,35.94773],[139.4096,35.94792],[139.41005,35.94823],[139.41015,35.94807],[139.41038,35.94785],[139.41045,35.94777],[139.41059,35.94763],[139.41076,35.94745],[139.41092,35.94731],[139.41103,35.94721],[139.41111,35.94713],[139.41119,35.94705],[139.41142,35.94684],[139.4115,35.94677],[139.41184,35.94649],[139.41214,35.94623],[139.41265,35.94581]]]}},{"type":"Feature","properties":{"name":"大字五味ヶ谷","setai":1251,"jinko":2948,"key":"112410150","units":1},"geometry":{"type":"Polygon","coordinates":[[[139.42374,35.95088],[139.42386,35.95051],[139.42393,35.95051],[139.42405,35.95014],[139.42421,35.95016],[139.42439,35.94955],[139.4248,35.94965],[139.42491,35.94968],[139.42484,35.94956],[139.425,35.94922],[139.42504,35.94905],[139.42504,35.94895],[139.42503,35.94885],[139.42507,35.94876],[139.42511,35.94874],[139.42515,35.94873],[139.42519,35.94875],[139.42521,35.94878],[139.42536,35.94889],[139.4257,35.94899],[139.42572,35.949],[139.42579,35.949],[139.42578,35.94894],[139.42576,35.9489],[139.42577,35.94885],[139.42577,35.94882],[139.42577,35.94881],[139.42558,35.9488],[139.42558,35.94875],[139.42557,35.94868],[139.42556,35.94862],[139.42553,35.94856],[139.42558,35.94856],[139.42564,35.94856],[139.42571,35.94855],[139.42577,35.94854],[139.4258,35.94854],[139.42584,35.94852],[139.4259,35.94848],[139.42596,35.94845],[139.426,35.9484],[139.42603,35.94836],[139.42603,35.94831],[139.42606,35.94826],[139.4261,35.94822],[139.42621,35.94814],[139.42625,35.94811],[139.42625,35.9481],[139.42625,35.94809],[139.42619,35.94796],[139.42615,35.94789],[139.42611,35.94783],[139.42616,35.94778],[139.42625,35.94783],[139.42636,35.94742],[139.42637,35.94741],[139.42639,35.94731],[139.42641,35.94723],[139.42641,35.94716],[139.42665,35.94708],[139.42666,35.94704],[139.42667,35.94702],[139.42668,35.94697],[139.42676,35.94696],[139.42687,35.94694],[139.4269,35.94678],[139.42693,35.94654],[139.42695,35.94652],[139.427,35.94652],[139.42736,35.94637],[139.42738,35.94633],[139.42739,35.94627],[139.42736,35.94623],[139.42731,35.94616],[139.42726,35.94609],[139.42714,35.94595],[139.42707,35.94586],[139.42702,35.9455],[139.42717,35.94542],[139.42746,35.94529],[139.42778,35.94513],[139.42815,35.94495],[139.42781,35.94458],[139.42759,35.94438],[139.4274,35.94424],[139.42715,35.94407],[139.42718,35.94403],[139.42721,35.944],[139.42717,35.9437],[139.42734,35.94357],[139.42738,35.94354],[139.42756,35.94323],[139.42765,35.94296],[139.42715,35.94282],[139.42726,35.94257],[139.42732,35.94239],[139.42787,35.94249],[139.42804,35.94189],[139.42811,35.94176],[139.42825,35.94156],[139.42828,35.94152],[139.4283,35.9415],[139.42857,35.94098],[139.42881,35.94052],[139.42886,35.94046],[139.42888,35.94041],[139.42867,35.9404],[139.42809,35.9403],[139.42786,35.94026],[139.42764,35.94025],[139.42753,35.94023],[139.42745,35.94022],[139.42703,35.94011],[139.42687,35.94003],[139.42661,35.93995],[139.42647,35.93991],[139.42626,35.93985],[139.42595,35.93976],[139.4256,35.93967],[139.42543,35.93963],[139.42533,35.93962],[139.42522,35.93967],[139.42514,35.93977],[139.42495,35.94005],[139.42488,35.94014],[139.42476,35.94034],[139.42464,35.94055],[139.42449,35.94077],[139.42448,35.94079],[139.42443,35.94092],[139.42436,35.94094],[139.42429,35.94097],[139.42416,35.94102],[139.424,35.94108],[139.42389,35.94114],[139.42361,35.94125],[139.42345,35.94132],[139.42317,35.94151],[139.42297,35.94164],[139.42283,35.94174],[139.42275,35.94182],[139.42272,35.94189],[139.42268,35.94198],[139.42265,35.94214],[139.42263,35.94223],[139.42263,35.94234],[139.42249,35.94254],[139.42237,35.9427],[139.42219,35.94288],[139.42212,35.94292],[139.42208,35.94294],[139.42202,35.94302],[139.42195,35.94311],[139.42177,35.94325],[139.42169,35.9433],[139.42161,35.94336],[139.42157,35.94338],[139.42151,35.94341],[139.42141,35.94344],[139.42112,35.9435],[139.42082,35.94349],[139.42062,35.94349],[139.4204,35.94349],[139.42002,35.94349],[139.41938,35.94353],[139.41896,35.94358],[139.41845,35.94366],[139.41788,35.94374],[139.41782,35.94376],[139.41762,35.9438],[139.41748,35.94388],[139.41726,35.94402],[139.41696,35.94424],[139.41635,35.94472],[139.41621,35.94481],[139.41598,35.94499],[139.41531,35.9454],[139.41461,35.94584],[139.41437,35.946],[139.41372,35.94645],[139.41366,35.94649],[139.41376,35.94662],[139.41401,35.9468],[139.41411,35.94688],[139.4143,35.94704],[139.41442,35.94714],[139.41462,35.9473],[139.41479,35.94744],[139.41479,35.94744],[139.415,35.94731],[139.41508,35.94736],[139.41511,35.9474],[139.41515,35.94746],[139.4152,35.94754],[139.41522,35.94762],[139.41524,35.94769],[139.41525,35.94773],[139.41528,35.94777],[139.41531,35.9478],[139.41538,35.94783],[139.41543,35.94785],[139.41565,35.94801],[139.4156,35.94808],[139.41572,35.94818],[139.41613,35.9485],[139.41655,35.94885],[139.41692,35.94918],[139.4173,35.94953],[139.41733,35.94957],[139.41868,35.94959],[139.41945,35.9496],[139.4201,35.94963],[139.42094,35.94963],[139.42157,35.94965],[139.42174,35.94963],[139.42213,35.94992],[139.4225,35.95022],[139.42311,35.95073],[139.42331,35.9509],[139.42333,35.95088],[139.42374,35.95088]]]}},{"type":"Feature","properties":{"name":"大字富士見","setai":1,"jinko":4,"key":"112410160","units":1},"geometry":{"type":"Polygon","coordinates":[[[139.41479,35.94744],[139.41507,35.94766],[139.41518,35.94775],[139.41528,35.94782],[139.41545,35.94796],[139.4156,35.94808],[139.41565,35.94801],[139.41543,35.94785],[139.41538,35.94783],[139.41531,35.9478],[139.41528,35.94777],[139.41525,35.94773],[139.41524,35.94769],[139.41522,35.94762],[139.4152,35.94754],[139.41515,35.94746],[139.41511,35.9474],[139.41508,35.94736],[139.415,35.94731],[139.41479,35.94744]]]}},{"type":"Feature","properties":{"name":"富士見一丁目","setai":891,"jinko":1816,"key":"11241017001","units":1},"geometry":{"type":"Polygon","coordinates":[[[139.41243,35.94957],[139.4129,35.94923],[139.41332,35.94892],[139.41369,35.94865],[139.41432,35.94821],[139.41459,35.948],[139.41507,35.94766],[139.41479,35.94744],[139.41479,35.94744],[139.41462,35.9473],[139.41442,35.94714],[139.4143,35.94704],[139.41411,35.94688],[139.41401,35.9468],[139.41376,35.94662],[139.41366,35.94649],[139.41361,35.94644],[139.41319,35.9461],[139.41283,35.94582],[139.41275,35.94574],[139.41265,35.94581],[139.41214,35.94623],[139.41184,35.94649],[139.4115,35.94677],[139.41142,35.94684],[139.41119,35.94705],[139.41111,35.94713],[139.41103,35.94721],[139.41092,35.94731],[139.41076,35.94745],[139.41059,35.94763],[139.41045,35.94777],[139.41038,35.94785],[139.41015,35.94807],[139.41005,35.94823],[139.40973,35.94847],[139.40959,35.94857],[139.40948,35.94862],[139.40911,35.9489],[139.40919,35.94898],[139.40948,35.94926],[139.40952,35.94927],[139.40955,35.94927],[139.40959,35.94926],[139.40968,35.94934],[139.40974,35.94938],[139.40973,35.94947],[139.40976,35.94951],[139.40998,35.9497],[139.41096,35.95062],[139.41132,35.95037],[139.41243,35.94957]]]}},{"type":"Feature","properties":{"name":"富士見二丁目","setai":1056,"jinko":2232,"key":"11241017002","units":1},"geometry":{"type":"Polygon","coordinates":[[[139.41525,35.95214],[139.41573,35.9518],[139.4162,35.95145],[139.4175,35.95051],[139.41799,35.95015],[139.41795,35.95012],[139.41733,35.94957],[139.4173,35.94953],[139.41692,35.94918],[139.41655,35.94885],[139.41613,35.9485],[139.41572,35.94818],[139.4156,35.94808],[139.41545,35.94796],[139.41528,35.94782],[139.41518,35.94775],[139.41507,35.94766],[139.41459,35.948],[139.41432,35.94821],[139.41369,35.94865],[139.41332,35.94892],[139.4129,35.94923],[139.41243,35.94957],[139.41132,35.95037],[139.41096,35.95062],[139.41195,35.95153],[139.41197,35.95155],[139.41225,35.9518],[139.41229,35.9518],[139.41234,35.95187],[139.4124,35.95197],[139.41232,35.95203],[139.41223,35.9521],[139.41218,35.95209],[139.4119,35.9523],[139.4119,35.9523],[139.41186,35.95232],[139.41126,35.95276],[139.41123,35.95278],[139.41068,35.95318],[139.41054,35.95329],[139.41034,35.95344],[139.41065,35.95373],[139.41167,35.95466],[139.41168,35.95467],[139.41204,35.9544],[139.41228,35.95423],[139.41268,35.95395],[139.41299,35.95374],[139.41322,35.95357],[139.41326,35.95355],[139.4133,35.95351],[139.41366,35.95325],[139.41375,35.95319],[139.41407,35.95293],[139.41438,35.95271],[139.41525,35.95214]]]}},{"type":"Feature","properties":{"name":"富士見三丁目","setai":833,"jinko":1662,"key":"11241017003","units":1},"geometry":{"type":"Polygon","coordinates":[[[139.41378,35.95322],[139.41375,35.95319],[139.41366,35.95325],[139.4133,35.95351],[139.41326,35.95355],[139.41322,35.95357],[139.41299,35.95374],[139.41268,35.95395],[139.41228,35.95423],[139.41204,35.9544],[139.41168,35.95467],[139.41215,35.95511],[139.41231,35.95526],[139.41246,35.9554],[139.41277,35.95569],[139.4128,35.95572],[139.4131,35.95599],[139.41332,35.95618],[139.41344,35.95629],[139.41374,35.95657],[139.41384,35.95667],[139.41424,35.95702],[139.41468,35.9574],[139.41473,35.95745],[139.41548,35.95691],[139.41551,35.95688],[139.41557,35.95685],[139.41611,35.95645],[139.41667,35.95604],[139.41678,35.95596],[139.41646,35.95568],[139.41646,35.95568],[139.4164,35.95562],[139.41616,35.9554],[139.41567,35.95494],[139.41511,35.95444],[139.41509,35.95442],[139.41464,35.954],[139.41444,35.95382],[139.41438,35.95376],[139.41378,35.95322]]]}},{"type":"Feature","properties":{"name":"富士見四丁目","setai":600,"jinko":1422,"key":"11241017004","units":1},"geometry":{"type":"Polygon","coordinates":[[[139.41807,35.95023],[139.41799,35.95015],[139.4175,35.95051],[139.4162,35.95145],[139.41573,35.9518],[139.41525,35.95214],[139.41438,35.95271],[139.41407,35.95293],[139.41375,35.95319],[139.41378,35.95322],[139.41438,35.95376],[139.41444,35.95382],[139.41464,35.954],[139.41509,35.95442],[139.41511,35.95444],[139.41567,35.95494],[139.41616,35.9554],[139.4164,35.95562],[139.41646,35.95568],[139.41646,35.95568],[139.41678,35.95596],[139.41711,35.95572],[139.41775,35.95524],[139.41786,35.95516],[139.41871,35.95455],[139.41956,35.95394],[139.42028,35.95341],[139.42091,35.95296],[139.4207,35.95275],[139.42077,35.9527],[139.42059,35.95254],[139.41933,35.95137],[139.4189,35.95099],[139.41807,35.95023]]]}},{"type":"Feature","properties":{"name":"富士見五丁目","setai":703,"jinko":1526,"key":"11241017005","units":1},"geometry":{"type":"Polygon","coordinates":[[[139.42213,35.94992],[139.42174,35.94963],[139.42157,35.94965],[139.42094,35.94963],[139.4201,35.94963],[139.41945,35.9496],[139.41868,35.94959],[139.41733,35.94957],[139.41795,35.95012],[139.41799,35.95015],[139.41807,35.95023],[139.4189,35.95099],[139.41933,35.95137],[139.42059,35.95254],[139.42077,35.9527],[139.42131,35.95231],[139.42132,35.9523],[139.42206,35.95177],[139.42208,35.95176],[139.42284,35.95121],[139.42285,35.9512],[139.42331,35.9509],[139.42311,35.95073],[139.4225,35.95022],[139.42213,35.94992]]]}},{"type":"Feature","properties":{"name":"富士見六丁目","setai":0,"jinko":0,"key":"11241017006","units":1},"geometry":{"type":"Polygon","coordinates":[[[139.42268,35.95457],[139.42091,35.95296],[139.42028,35.95341],[139.41956,35.95394],[139.41871,35.95455],[139.41786,35.95516],[139.41775,35.95524],[139.41711,35.95572],[139.41678,35.95596],[139.41667,35.95604],[139.41611,35.95645],[139.41557,35.95685],[139.41551,35.95688],[139.4155,35.95696],[139.41622,35.95765],[139.41715,35.95848],[139.4172,35.95853],[139.41728,35.95862],[139.41803,35.95807],[139.41849,35.95772],[139.41857,35.95765],[139.42021,35.95647],[139.42117,35.95578],[139.4211,35.95571],[139.42268,35.95457]]]}},{"type":"Feature","properties":{"name":"大字鶴ケ丘","setai":1824,"jinko":3839,"key":"112410180","units":1},"geometry":{"type":"Polygon","coordinates":[[[139.41653,35.93682],[139.41657,35.93657],[139.41659,35.93645],[139.41657,35.9363],[139.41656,35.93618],[139.41658,35.93615],[139.4166,35.93607],[139.41663,35.93597],[139.41656,35.93592],[139.41645,35.93589],[139.41638,35.93586],[139.41634,35.93582],[139.41631,35.93578],[139.41631,35.93571],[139.41632,35.93568],[139.41638,35.93541],[139.41639,35.93532],[139.4164,35.93525],[139.41609,35.9352],[139.41614,35.93504],[139.41621,35.93486],[139.41636,35.93489],[139.41647,35.93492],[139.41649,35.93487],[139.4164,35.93484],[139.41634,35.93482],[139.41627,35.93479],[139.41618,35.93475],[139.41613,35.93472],[139.41606,35.93466],[139.41597,35.93457],[139.41589,35.93451],[139.41573,35.93436],[139.41567,35.9343],[139.41564,35.93428],[139.41573,35.93422],[139.41563,35.93399],[139.4158,35.93387],[139.41584,35.9338],[139.41586,35.93372],[139.4159,35.93365],[139.41593,35.93362],[139.4161,35.93372],[139.41624,35.93377],[139.41633,35.93377],[139.4164,35.9338],[139.41648,35.93386],[139.41667,35.93399],[139.41687,35.93409],[139.41708,35.93422],[139.41716,35.93428],[139.41729,35.93437],[139.41736,35.93438],[139.41744,35.93439],[139.41751,35.93439],[139.4176,35.93439],[139.41771,35.93443],[139.41782,35.9345],[139.4179,35.93457],[139.41796,35.93463],[139.418,35.93469],[139.418,35.93478],[139.41799,35.93482],[139.41797,35.93487],[139.41805,35.93487],[139.41818,35.93473],[139.41823,35.93476],[139.41827,35.93479],[139.41849,35.93458],[139.41852,35.9346],[139.41864,35.9347],[139.4187,35.93475],[139.41878,35.93482],[139.41882,35.93486],[139.41884,35.93491],[139.41886,35.93501],[139.4188,35.93535],[139.41877,35.93556],[139.41875,35.93563],[139.41894,35.93582],[139.4191,35.93599],[139.41951,35.93638],[139.4199,35.93675],[139.41997,35.93683],[139.42031,35.93715],[139.42063,35.93696],[139.42086,35.93718],[139.42088,35.93717],[139.42107,35.93704],[139.42123,35.93692],[139.42138,35.93681],[139.42144,35.93687],[139.42168,35.93703],[139.42169,35.93704],[139.42169,35.93704],[139.42191,35.93719],[139.42211,35.93732],[139.42215,35.93734],[139.42219,35.93731],[139.42216,35.93729],[139.42287,35.93692],[139.42272,35.93675],[139.42243,35.93647],[139.42207,35.93609],[139.42168,35.93565],[139.42164,35.93567],[139.42163,35.93566],[139.42141,35.9358],[139.42129,35.93587],[139.42091,35.93548],[139.42075,35.93532],[139.4205,35.93507],[139.4205,35.93507],[139.42047,35.93509],[139.42038,35.935],[139.42032,35.93494],[139.4201,35.93472],[139.42047,35.93448],[139.42002,35.93402],[139.41969,35.93369],[139.41931,35.93328],[139.41908,35.93303],[139.41892,35.93284],[139.41857,35.93247],[139.4182,35.93208],[139.4185,35.93189],[139.41847,35.93187],[139.41822,35.9316],[139.41781,35.93117],[139.4178,35.93116],[139.41777,35.93118],[139.4177,35.93122],[139.41763,35.93115],[139.41759,35.93118],[139.41742,35.93129],[139.41725,35.93111],[139.41704,35.93089],[139.41701,35.93086],[139.41698,35.93083],[139.41647,35.93029],[139.41627,35.93009],[139.41628,35.93009],[139.41646,35.92997],[139.41654,35.92992],[139.41633,35.92991],[139.41617,35.92991],[139.41584,35.92991],[139.4156,35.92992],[139.41536,35.92992],[139.41515,35.92991],[139.415,35.92992],[139.41487,35.92994],[139.41483,35.92997],[139.41468,35.93004],[139.41458,35.93007],[139.41453,35.93005],[139.41445,35.93013],[139.41426,35.93021],[139.41402,35.93032],[139.41387,35.93039],[139.41371,35.93046],[139.41357,35.93054],[139.41335,35.93062],[139.41312,35.93072],[139.41304,35.93065],[139.41297,35.93058],[139.4129,35.93051],[139.41278,35.93056],[139.41263,35.9306],[139.41245,35.93065],[139.412,35.93077],[139.41186,35.93081],[139.41168,35.93086],[139.41157,35.93088],[139.41145,35.9309],[139.41135,35.9309],[139.41119,35.93091],[139.41104,35.93094],[139.41064,35.93098],[139.41036,35.93102],[139.41009,35.93108],[139.40986,35.93113],[139.40974,35.93116],[139.40979,35.93134],[139.40983,35.93147],[139.40993,35.93165],[139.41004,35.93185],[139.41005,35.93187],[139.41014,35.93202],[139.41023,35.93214],[139.41039,35.93229],[139.41061,35.93247],[139.41083,35.93262],[139.41106,35.93278],[139.41119,35.93288],[139.41132,35.93291],[139.41127,35.93301],[139.41119,35.93311],[139.41114,35.93319],[139.41107,35.93331],[139.41103,35.9334],[139.41107,35.93358],[139.4111,35.93373],[139.41117,35.93398],[139.41121,35.9341],[139.41131,35.93424],[139.41135,35.93438],[139.41136,35.93448],[139.41134,35.93471],[139.41133,35.93485],[139.4113,35.93508],[139.41126,35.93526],[139.41125,35.93537],[139.41126,35.93548],[139.41129,35.93556],[139.41131,35.93563],[139.41132,35.93576],[139.41145,35.93581],[139.41161,35.93587],[139.41172,35.93591],[139.41183,35.93598],[139.41198,35.93607],[139.41208,35.93616],[139.41217,35.93623],[139.41227,35.93632],[139.41235,35.93642],[139.41244,35.93654],[139.41265,35.93683],[139.41275,35.93698],[139.41282,35.93708],[139.41291,35.93719],[139.413,35.93722],[139.4131,35.93726],[139.41317,35.93729],[139.41325,35.93731],[139.41331,35.93734],[139.41343,35.93738],[139.41351,35.93724],[139.41355,35.93719],[139.41369,35.93697],[139.41378,35.93686],[139.41391,35.93671],[139.41397,35.93666],[139.41431,35.93695],[139.41447,35.93708],[139.41459,35.93717],[139.41481,35.93734],[139.41491,35.93745],[139.415,35.93754],[139.41505,35.93761],[139.41514,35.93771],[139.41526,35.93783],[139.4154,35.93801],[139.4155,35.93809],[139.41567,35.93821],[139.41577,35.93829],[139.41583,35.93836],[139.41587,35.93845],[139.4159,35.93855],[139.41602,35.93855],[139.4161,35.93839],[139.41617,35.9383],[139.41626,35.93814],[139.41632,35.93804],[139.41636,35.93793],[139.41637,35.93785],[139.4164,35.93773],[139.41642,35.93764],[139.41644,35.9375],[139.41646,35.93741],[139.41648,35.93718],[139.4165,35.937],[139.41653,35.93682]]]}},{"type":"Feature","properties":{"name":"松ケ丘一丁目","setai":287,"jinko":618,"key":"11241019001","units":1},"geometry":{"type":"Polygon","coordinates":[[[139.415,35.92992],[139.41515,35.92991],[139.41536,35.92992],[139.4156,35.92992],[139.41584,35.92991],[139.41617,35.92991],[139.41633,35.92991],[139.41654,35.92992],[139.41662,35.92986],[139.41683,35.92986],[139.41684,35.92986],[139.41766,35.92985],[139.41777,35.92985],[139.41735,35.92944],[139.41658,35.92864],[139.41581,35.92783],[139.41501,35.92703],[139.41457,35.92732],[139.41447,35.92738],[139.41426,35.92752],[139.41394,35.92772],[139.41363,35.92792],[139.41326,35.92817],[139.41312,35.92826],[139.41304,35.9283],[139.41324,35.92844],[139.41352,35.9286],[139.41374,35.92872],[139.414,35.92883],[139.4142,35.92891],[139.41433,35.92896],[139.41442,35.92898],[139.41449,35.929],[139.41455,35.92902],[139.41461,35.92905],[139.41459,35.9291],[139.41455,35.92918],[139.41452,35.92924],[139.41448,35.9293],[139.41444,35.92933],[139.41436,35.92939],[139.4143,35.92944],[139.41423,35.92947],[139.41428,35.92953],[139.41436,35.9296],[139.41444,35.92965],[139.41449,35.92968],[139.41456,35.92972],[139.41469,35.92982],[139.41453,35.93005],[139.41458,35.93007],[139.41468,35.93004],[139.41483,35.92997],[139.41487,35.92994],[139.415,35.92992]]]}},{"type":"Feature","properties":{"name":"松ケ丘二丁目","setai":232,"jinko":494,"key":"11241019002","units":1},"geometry":{"type":"Polygon","coordinates":[[[139.41899,35.92751],[139.41931,35.9273],[139.41908,35.92707],[139.41907,35.92706],[139.41879,35.92677],[139.41789,35.92734],[139.41763,35.92708],[139.41754,35.92696],[139.4175,35.92694],[139.41738,35.92682],[139.41669,35.92612],[139.41659,35.92601],[139.41647,35.92609],[139.41637,35.92616],[139.41632,35.92619],[139.41616,35.9263],[139.41599,35.92641],[139.41591,35.92646],[139.41574,35.92657],[139.41533,35.92684],[139.41501,35.92703],[139.41581,35.92783],[139.41658,35.92864],[139.41735,35.92944],[139.41777,35.92985],[139.41778,35.92985],[139.41801,35.92985],[139.41808,35.92973],[139.41811,35.92969],[139.41796,35.92954],[139.41767,35.92924],[139.4172,35.92873],[139.41716,35.92869],[139.41749,35.92847],[139.41808,35.92808],[139.4183,35.92794],[139.41899,35.92751]]]}},{"type":"Feature","properties":{"name":"松ケ丘三丁目","setai":400,"jinko":955,"key":"11241019003","units":1},"geometry":{"type":"Polygon","coordinates":[[[139.41837,35.92614],[139.41891,35.9258],[139.41893,35.92579],[139.41925,35.92558],[139.4193,35.92555],[139.41962,35.92534],[139.42018,35.92498],[139.42025,35.92494],[139.42026,35.92494],[139.42047,35.92481],[139.41881,35.92423],[139.41796,35.92394],[139.41791,35.924],[139.41782,35.92394],[139.41773,35.92383],[139.41772,35.92382],[139.41763,35.92374],[139.4175,35.92364],[139.4173,35.9235],[139.41713,35.9234],[139.41693,35.92331],[139.41666,35.9232],[139.41599,35.92296],[139.41597,35.92299],[139.41575,35.92342],[139.41573,35.92345],[139.41612,35.92358],[139.41616,35.9236],[139.416,35.92389],[139.41596,35.92392],[139.41566,35.92411],[139.41533,35.92433],[139.41499,35.92401],[139.4147,35.9242],[139.41468,35.92421],[139.41484,35.92439],[139.41518,35.92475],[139.41527,35.92485],[139.41536,35.92493],[139.4155,35.92508],[139.41572,35.9253],[139.41602,35.92563],[139.41609,35.9257],[139.41624,35.92585],[139.41647,35.92609],[139.41659,35.92601],[139.41669,35.92612],[139.41738,35.92682],[139.4175,35.92694],[139.41754,35.92696],[139.41771,35.92676],[139.41799,35.92644],[139.41812,35.92629],[139.41837,35.92614]]]}},{"type":"Feature","properties":{"name":"松ケ丘四丁目","setai":668,"jinko":1482,"key":"11241019004","units":1},"geometry":{"type":"Polygon","coordinates":[[[139.41484,35.92439],[139.41468,35.92421],[139.41466,35.92423],[139.41462,35.92419],[139.4142,35.92375],[139.41362,35.92314],[139.41359,35.92311],[139.41355,35.92316],[139.4135,35.92321],[139.41326,35.92348],[139.41314,35.92362],[139.41305,35.92374],[139.41298,35.92383],[139.41287,35.92379],[139.41283,35.92383],[139.41236,35.92441],[139.41265,35.92465],[139.41298,35.92493],[139.41318,35.92513],[139.41325,35.92521],[139.41366,35.92562],[139.41378,35.92575],[139.41386,35.92585],[139.41419,35.92617],[139.41421,35.9262],[139.41436,35.92637],[139.41452,35.92652],[139.41501,35.92703],[139.41533,35.92684],[139.41574,35.92657],[139.41591,35.92646],[139.41599,35.92641],[139.41616,35.9263],[139.41632,35.92619],[139.41637,35.92616],[139.41647,35.92609],[139.41624,35.92585],[139.41609,35.9257],[139.41602,35.92563],[139.41572,35.9253],[139.4155,35.92508],[139.41536,35.92493],[139.41527,35.92485],[139.41518,35.92475],[139.41484,35.92439]]]}},{"type":"Feature","properties":{"name":"松ケ丘五丁目","setai":404,"jinko":953,"key":"11241019005","units":1},"geometry":{"type":"Polygon","coordinates":[[[139.41249,35.92806],[139.41256,35.92797],[139.41279,35.92814],[139.41288,35.92821],[139.41304,35.9283],[139.41312,35.92826],[139.41326,35.92817],[139.41363,35.92792],[139.41394,35.92772],[139.41426,35.92752],[139.41447,35.92738],[139.41457,35.92732],[139.41501,35.92703],[139.41452,35.92652],[139.41436,35.92637],[139.41421,35.9262],[139.41419,35.92617],[139.41386,35.92585],[139.41378,35.92575],[139.41366,35.92562],[139.41325,35.92521],[139.41318,35.92513],[139.41298,35.92493],[139.41265,35.92465],[139.41236,35.92441],[139.4115,35.92554],[139.41146,35.9256],[139.41151,35.92566],[139.41122,35.92607],[139.41113,35.92621],[139.41085,35.92662],[139.41065,35.9269],[139.41051,35.92712],[139.41037,35.92737],[139.41017,35.92771],[139.40996,35.92805],[139.40986,35.9282],[139.40979,35.92829],[139.40983,35.92833],[139.40987,35.92839],[139.40991,35.92843],[139.40996,35.92847],[139.41001,35.9285],[139.41011,35.92852],[139.41042,35.92857],[139.41058,35.92859],[139.41077,35.92863],[139.41089,35.92865],[139.41127,35.92873],[139.41142,35.92876],[139.41178,35.92883],[139.41198,35.92887],[139.41206,35.92888],[139.41225,35.92854],[139.4124,35.9283],[139.41232,35.92821],[139.41249,35.92806]]]}},{"type":"Feature","properties":{"name":"南町一丁目","setai":248,"jinko":629,"key":"11241020001","units":1},"geometry":{"type":"Polygon","coordinates":[[[139.41051,35.92712],[139.41065,35.9269],[139.41085,35.92662],[139.41113,35.92621],[139.41122,35.92607],[139.41151,35.92566],[139.41146,35.9256],[139.4115,35.92554],[139.41236,35.92441],[139.41283,35.92383],[139.41287,35.92379],[139.41298,35.92383],[139.41305,35.92374],[139.41314,35.92362],[139.41326,35.92348],[139.4135,35.92321],[139.41345,35.92318],[139.41315,35.92304],[139.41289,35.92289],[139.41262,35.92318],[139.41209,35.92377],[139.41191,35.92402],[139.41186,35.92406],[139.41116,35.92366],[139.41103,35.92361],[139.41044,35.92339],[139.41024,35.92377],[139.41023,35.9238],[139.41003,35.92415],[139.41001,35.92419],[139.40998,35.92424],[139.40993,35.92427],[139.40984,35.92433],[139.40972,35.92441],[139.40963,35.92446],[139.40955,35.92451],[139.40931,35.92467],[139.40915,35.92474],[139.409,35.92476],[139.40888,35.92474],[139.40874,35.92471],[139.40859,35.92467],[139.40804,35.92449],[139.40753,35.92432],[139.40696,35.92414],[139.40618,35.92388],[139.40543,35.92364],[139.40486,35.92347],[139.40486,35.92383],[139.40485,35.92398],[139.40484,35.92446],[139.40483,35.92501],[139.40496,35.92503],[139.40514,35.92508],[139.40529,35.9251],[139.40545,35.92514],[139.40561,35.92519],[139.40574,35.92524],[139.40586,35.9253],[139.40597,35.92536],[139.4061,35.92542],[139.40626,35.92551],[139.40637,35.92558],[139.40654,35.92569],[139.40677,35.9258],[139.40703,35.92587],[139.40712,35.92598],[139.40721,35.92611],[139.40731,35.92623],[139.40734,35.92628],[139.40738,35.92635],[139.40743,35.92642],[139.40745,35.92647],[139.40746,35.92658],[139.40759,35.92672],[139.40771,35.92686],[139.40778,35.92694],[139.40798,35.92697],[139.40812,35.92699],[139.40822,35.92701],[139.40832,35.92699],[139.40845,35.92703],[139.40852,35.92707],[139.40855,35.92711],[139.40858,35.92714],[139.40862,35.92717],[139.40868,35.9272],[139.40879,35.92722],[139.40897,35.92724],[139.40907,35.9273],[139.40918,35.92735],[139.40927,35.92747],[139.40938,35.92759],[139.40948,35.92774],[139.40953,35.92787],[139.40956,35.92794],[139.40965,35.92809],[139.4097,35.92819],[139.40979,35.92829],[139.40986,35.9282],[139.40996,35.92805],[139.41017,35.92771],[139.41037,35.92737],[139.41051,35.92712]]]}},{"type":"Feature","properties":{"name":"南町二丁目","setai":531,"jinko":1235,"key":"11241020002","units":1},"geometry":{"type":"Polygon","coordinates":[[[139.40953,35.92304],[139.40945,35.92301],[139.40935,35.92302],[139.40914,35.92294],[139.40861,35.92275],[139.40806,35.92256],[139.40773,35.92245],[139.40706,35.92222],[139.40687,35.92258],[139.40679,35.92272],[139.40666,35.92296],[139.40659,35.92309],[139.40653,35.9232],[139.40647,35.92331],[139.40639,35.92347],[139.40618,35.92388],[139.40696,35.92414],[139.40753,35.92432],[139.40804,35.92449],[139.40859,35.92467],[139.40874,35.92471],[139.40888,35.92474],[139.409,35.92476],[139.40915,35.92474],[139.40931,35.92467],[139.40955,35.92451],[139.40963,35.92446],[139.40972,35.92441],[139.40984,35.92433],[139.40993,35.92427],[139.40998,35.92424],[139.41001,35.92419],[139.41003,35.92415],[139.41023,35.9238],[139.41024,35.92377],[139.41044,35.92339],[139.40975,35.92315],[139.40969,35.92309],[139.40953,35.92304]]]}},{"type":"Feature","properties":{"name":"南町三丁目","setai":184,"jinko":450,"key":"11241020003","units":1},"geometry":{"type":"Polygon","coordinates":[[[139.40574,35.92176],[139.40478,35.92143],[139.40483,35.92207],[139.40483,35.92217],[139.40483,35.9224],[139.40483,35.92262],[139.40485,35.9228],[139.40485,35.92297],[139.40485,35.92312],[139.40486,35.92347],[139.40543,35.92364],[139.40618,35.92388],[139.40639,35.92347],[139.40647,35.92331],[139.40653,35.9232],[139.40659,35.92309],[139.40666,35.92296],[139.40679,35.92272],[139.40687,35.92258],[139.40706,35.92222],[139.40702,35.92221],[139.40574,35.92176]]]}},{"type":"Feature","properties":{"name":"新町一丁目","setai":272,"jinko":810,"key":"11241021001","units":1},"geometry":{"type":"Polygon","coordinates":[[[139.37483,35.93613],[139.37417,35.93588],[139.37407,35.93599],[139.37377,35.93636],[139.37349,35.9367],[139.37312,35.93714],[139.37233,35.93811],[139.37204,35.93845],[139.37268,35.93893],[139.37288,35.93909],[139.373,35.93917],[139.37361,35.93963],[139.3737,35.93969],[139.37485,35.94053],[139.37492,35.94058],[139.37508,35.94031],[139.37514,35.94022],[139.37526,35.9399],[139.37531,35.93918],[139.37531,35.93913],[139.37587,35.93847],[139.3756,35.93824],[139.37535,35.9379],[139.37571,35.9376],[139.37574,35.93757],[139.37587,35.93727],[139.37598,35.93702],[139.37483,35.93613]]]}},{"type":"Feature","properties":{"name":"新町二丁目","setai":306,"jinko":847,"key":"11241021002","units":1},"geometry":{"type":"Polygon","coordinates":[[[139.37138,35.93414],[139.37137,35.93413],[139.37033,35.93484],[139.36901,35.93573],[139.3686,35.936],[139.36886,35.93618],[139.3695,35.93665],[139.37027,35.93721],[139.37034,35.93726],[139.3708,35.93759],[139.37117,35.93785],[139.37204,35.93845],[139.37233,35.93811],[139.37312,35.93714],[139.37349,35.9367],[139.37377,35.93636],[139.37407,35.93599],[139.37407,35.93599],[139.37341,35.93553],[139.37268,35.93504],[139.37183,35.93445],[139.37138,35.93414]]]}},{"type":"Feature","properties":{"name":"新町三丁目","setai":493,"jinko":1392,"key":"11241021003","units":1},"geometry":{"type":"Polygon","coordinates":[[[139.36834,35.93052],[139.36799,35.9303],[139.36759,35.93085],[139.36728,35.93128],[139.36888,35.93233],[139.36951,35.93278],[139.37013,35.93323],[139.37098,35.93385],[139.37137,35.93413],[139.37138,35.93414],[139.37183,35.93445],[139.37268,35.93504],[139.37341,35.93553],[139.37407,35.93599],[139.37407,35.93599],[139.37417,35.93588],[139.37423,35.93581],[139.37456,35.9355],[139.37429,35.9353],[139.37333,35.93459],[139.37323,35.93454],[139.37317,35.93452],[139.3727,35.93382],[139.37359,35.93336],[139.37361,35.93335],[139.37375,35.93329],[139.37403,35.93312],[139.37434,35.93283],[139.37391,35.93248],[139.37389,35.93246],[139.37354,35.93221],[139.37349,35.93218],[139.3733,35.93207],[139.37287,35.93191],[139.37255,35.93184],[139.37261,35.93171],[139.37244,35.93168],[139.37193,35.93152],[139.37176,35.93148],[139.37078,35.93122],[139.36943,35.93081],[139.36879,35.93063],[139.36844,35.93056],[139.36837,35.93054],[139.36834,35.93052]]]}},{"type":"Feature","properties":{"name":"新町四丁目","setai":264,"jinko":764,"key":"11241021004","units":1},"geometry":{"type":"Polygon","coordinates":[[[139.36888,35.93233],[139.36728,35.93128],[139.3671,35.93152],[139.36631,35.93261],[139.366,35.93303],[139.36592,35.93311],[139.36535,35.93366],[139.36563,35.93386],[139.3662,35.93427],[139.36635,35.93438],[139.36688,35.93476],[139.36729,35.93504],[139.36771,35.93535],[139.36827,35.93577],[139.3686,35.936],[139.36901,35.93573],[139.37033,35.93484],[139.37137,35.93413],[139.37098,35.93385],[139.37013,35.93323],[139.36951,35.93278],[139.36888,35.93233]]]}},{"type":"Feature","properties":{"name":"三ツ木新町一丁目","setai":0,"jinko":0,"key":"11241022001","units":1},"geometry":{"type":"Polygon","coordinates":[[[139.39023,35.92303],[139.39015,35.92284],[139.38883,35.92333],[139.3897,35.92434],[139.39139,35.92611],[139.39185,35.92659],[139.39385,35.92885],[139.39415,35.92837],[139.3944,35.92798],[139.3946,35.92757],[139.39468,35.92742],[139.39283,35.9256],[139.39261,35.9254],[139.39157,35.92446],[139.39023,35.92303]]]}},{"type":"Feature","properties":{"name":"三ツ木新町二丁目","setai":27,"jinko":77,"key":"11241022002","units":1},"geometry":{"type":"Polygon","coordinates":[[[139.3889,35.92133],[139.3885,35.92078],[139.38778,35.92094],[139.38744,35.92094],[139.38714,35.92081],[139.38704,35.92072],[139.38693,35.92062],[139.38687,35.9203],[139.3869,35.92005],[139.38706,35.91979],[139.3873,35.91949],[139.38737,35.9192],[139.38732,35.91884],[139.3871,35.9182],[139.38687,35.91734],[139.3857,35.91757],[139.38555,35.91767],[139.3855,35.91771],[139.38549,35.91776],[139.38548,35.91786],[139.38548,35.91795],[139.38547,35.918],[139.38545,35.91804],[139.38542,35.91813],[139.3854,35.91822],[139.38536,35.91833],[139.3853,35.91849],[139.38524,35.91865],[139.38522,35.91875],[139.38516,35.91887],[139.38514,35.91892],[139.38512,35.91902],[139.38508,35.91914],[139.38508,35.91916],[139.38507,35.91923],[139.38504,35.9194],[139.38501,35.91961],[139.38497,35.91974],[139.38495,35.9198],[139.38493,35.91988],[139.38488,35.91999],[139.38487,35.92002],[139.38476,35.92027],[139.38473,35.92035],[139.38471,35.92042],[139.38469,35.9205],[139.38468,35.92063],[139.38469,35.92077],[139.38467,35.92086],[139.38479,35.92124],[139.3848,35.92126],[139.38489,35.92134],[139.38515,35.92163],[139.38551,35.92185],[139.38563,35.92194],[139.38571,35.92212],[139.38584,35.92243],[139.38597,35.92274],[139.38591,35.92321],[139.38584,35.92345],[139.38585,35.92372],[139.38596,35.92384],[139.38602,35.92391],[139.38623,35.92398],[139.38645,35.92402],[139.38655,35.92415],[139.38752,35.92374],[139.38771,35.92367],[139.38883,35.92333],[139.39015,35.92284],[139.3889,35.92133]]]}},{"type":"Feature","properties":{"name":"柳戸町","setai":99,"jinko":246,"key":"112410230","units":1},"geometry":{"type":"Polygon","coordinates":[[[139.39232,35.92127],[139.39096,35.92043],[139.39062,35.92022],[139.39005,35.91987],[139.38957,35.91957],[139.38938,35.91942],[139.38924,35.91921],[139.38909,35.91894],[139.3882,35.9172],[139.38809,35.91715],[139.38746,35.91722],[139.38687,35.91734],[139.3871,35.9182],[139.38732,35.91884],[139.38737,35.9192],[139.3873,35.91949],[139.38706,35.91979],[139.3869,35.92005],[139.38687,35.9203],[139.38693,35.92062],[139.38704,35.92072],[139.38714,35.92081],[139.38744,35.92094],[139.38778,35.92094],[139.3885,35.92078],[139.3889,35.92133],[139.39015,35.92284],[139.39023,35.92303],[139.39157,35.92446],[139.39261,35.9254],[139.39283,35.9256],[139.39468,35.92742],[139.39506,35.92705],[139.39525,35.92692],[139.39565,35.92666],[139.39602,35.92645],[139.39639,35.92628],[139.39657,35.9262],[139.39664,35.92616],[139.39714,35.92598],[139.39659,35.92534],[139.39633,35.9249],[139.39621,35.92471],[139.39562,35.92378],[139.39552,35.92363],[139.39518,35.92312],[139.39446,35.92271],[139.39373,35.92222],[139.39302,35.92174],[139.39232,35.92127]]]}}]}