{"type":"FeatureCollection","features":[{"type":"Feature","properties":{"name":"沓掛町小廻間","setai":567,"jinko":1699,"key":"23229001001","units":1},"geometry":{"type":"Polygon","coordinates":[[[137.01581,35.07844],[137.01671,35.07737],[137.01726,35.07673],[137.01753,35.07641],[137.01721,35.07637],[137.01698,35.07633],[137.01696,35.0762],[137.01692,35.07596],[137.01692,35.07583],[137.01694,35.07547],[137.01696,35.07534],[137.01717,35.07503],[137.01682,35.07486],[137.01654,35.07472],[137.01642,35.07508],[137.01616,35.07502],[137.01566,35.07483],[137.0156,35.07481],[137.01545,35.07477],[137.01527,35.07471],[137.01501,35.0746],[137.01487,35.07453],[137.01472,35.0745],[137.01451,35.07446],[137.01462,35.07436],[137.01503,35.07404],[137.01529,35.07386],[137.01532,35.07377],[137.01527,35.07364],[137.01517,35.07356],[137.01506,35.0735],[137.01492,35.07347],[137.01456,35.07342],[137.01441,35.07352],[137.01428,35.07349],[137.01352,35.0737],[137.01348,35.07387],[137.01306,35.07392],[137.01282,35.07389],[137.01275,35.07405],[137.01269,35.07425],[137.01269,35.07437],[137.01267,35.07457],[137.01262,35.07464],[137.0126,35.07474],[137.0126,35.07502],[137.01258,35.07516],[137.01253,35.07532],[137.01246,35.07549],[137.01238,35.07562],[137.01229,35.07573],[137.01216,35.07588],[137.01192,35.07616],[137.01128,35.07576],[137.01051,35.07532],[137.00996,35.07501],[137.00985,35.0752],[137.00969,35.07537],[137.00932,35.07568],[137.00943,35.07582],[137.00948,35.07609],[137.00961,35.07641],[137.0098,35.07675],[137.01006,35.07716],[137.01018,35.07732],[137.01033,35.07752],[137.01046,35.07779],[137.0106,35.07816],[137.01068,35.0783],[137.0112,35.07815],[137.0115,35.07808],[137.0119,35.07801],[137.01224,35.078],[137.01248,35.07801],[137.01274,35.07805],[137.01305,35.07812],[137.01317,35.07811],[137.01334,35.07806],[137.01349,35.07802],[137.01362,35.07802],[137.01399,35.07812],[137.01406,35.0781],[137.01415,35.07806],[137.01453,35.07842],[137.0153,35.07908],[137.01564,35.07865],[137.01581,35.07844]]]}},{"type":"Feature","properties":{"name":"沓掛町寺内","setai":2245,"jinko":6746,"key":"23229001002","units":1},"geometry":{"type":"Polygon","coordinates":[[[137.01862,35.09506],[137.01912,35.09484],[137.01917,35.09486],[137.01953,35.09503],[137.01992,35.09459],[137.01998,35.0945],[137.02001,35.09445],[137.02016,35.09426],[137.02034,35.09406],[137.02048,35.09382],[137.02051,35.0937],[137.02053,35.09365],[137.0206,35.09354],[137.02053,35.09347],[137.02063,35.09331],[137.02066,35.09325],[137.02069,35.09303],[137.02067,35.09265],[137.02066,35.09255],[137.02064,35.09247],[137.02054,35.09208],[137.02052,35.09192],[137.02053,35.09159],[137.02062,35.09122],[137.02061,35.09104],[137.02058,35.09096],[137.02061,35.09094],[137.02066,35.0909],[137.02118,35.09098],[137.0214,35.09102],[137.02145,35.09103],[137.02222,35.09006],[137.02224,35.09004],[137.02257,35.08968],[137.02268,35.08955],[137.02303,35.08909],[137.02309,35.08902],[137.02309,35.08901],[137.02338,35.08934],[137.02342,35.08933],[137.02356,35.08929],[137.02357,35.08929],[137.02391,35.08927],[137.0241,35.08927],[137.0245,35.08935],[137.02467,35.08941],[137.02495,35.08954],[137.02518,35.0897],[137.02537,35.08984],[137.02537,35.08984],[137.02557,35.09005],[137.0256,35.08987],[137.02559,35.0898],[137.02561,35.08977],[137.02561,35.08976],[137.02562,35.08975],[137.02564,35.08977],[137.02585,35.08992],[137.02587,35.08993],[137.02593,35.08995],[137.02611,35.09001],[137.02619,35.09005],[137.02624,35.09007],[137.02657,35.09054],[137.02661,35.0906],[137.02669,35.09072],[137.02673,35.09074],[137.02696,35.09088],[137.02741,35.09115],[137.02748,35.09121],[137.02755,35.0913],[137.02765,35.09126],[137.02785,35.09108],[137.02794,35.091],[137.02816,35.09083],[137.02818,35.09081],[137.02822,35.09077],[137.02842,35.09075],[137.02833,35.09059],[137.02828,35.09051],[137.02812,35.09033],[137.02809,35.0903],[137.02779,35.09017],[137.02774,35.09007],[137.02753,35.08973],[137.02751,35.08946],[137.02751,35.08946],[137.0275,35.08929],[137.02749,35.08925],[137.02747,35.08917],[137.02733,35.08867],[137.02735,35.08854],[137.02738,35.08836],[137.02737,35.08831],[137.02736,35.08831],[137.02731,35.08812],[137.02726,35.08794],[137.02725,35.08791],[137.02725,35.08791],[137.02723,35.08789],[137.02708,35.08779],[137.02702,35.08767],[137.02698,35.08749],[137.02692,35.08739],[137.0268,35.08715],[137.02675,35.08708],[137.02672,35.08699],[137.02672,35.08691],[137.02679,35.08681],[137.02692,35.08665],[137.02692,35.08661],[137.02717,35.08633],[137.0272,35.08633],[137.02728,35.08624],[137.02731,35.08621],[137.02731,35.08618],[137.02727,35.08617],[137.02728,35.08591],[137.02732,35.08591],[137.02729,35.08575],[137.02739,35.0853],[137.02806,35.08526],[137.02859,35.08518],[137.02868,35.08516],[137.02877,35.08513],[137.02885,35.08508],[137.02888,35.08503],[137.02888,35.08496],[137.02881,35.08473],[137.02882,35.08466],[137.02883,35.08456],[137.02888,35.08445],[137.02893,35.08437],[137.02912,35.08419],[137.0293,35.08404],[137.02935,35.08409],[137.02935,35.08409],[137.02939,35.08434],[137.02991,35.08456],[137.03022,35.08481],[137.03024,35.0848],[137.03073,35.0845],[137.03082,35.08452],[137.03121,35.08459],[137.03209,35.08474],[137.03211,35.08478],[137.03214,35.08483],[137.03307,35.08442],[137.03342,35.08427],[137.03352,35.08424],[137.03362,35.08423],[137.03422,35.08432],[137.03431,35.08432],[137.03432,35.08432],[137.03453,35.0843],[137.03483,35.08424],[137.03526,35.08407],[137.03542,35.08384],[137.03563,35.08355],[137.03569,35.08347],[137.03574,35.08337],[137.03576,35.08326],[137.03577,35.08317],[137.03579,35.08312],[137.03582,35.08307],[137.03602,35.0829],[137.0362,35.08268],[137.03626,35.08261],[137.03648,35.08244],[137.03655,35.08236],[137.03667,35.08219],[137.0367,35.0821],[137.03674,35.08198],[137.03677,35.08187],[137.03684,35.08165],[137.03695,35.08135],[137.03699,35.08128],[137.0371,35.08114],[137.03721,35.08098],[137.03725,35.08093],[137.03747,35.08077],[137.03771,35.0806],[137.0382,35.08029],[137.03858,35.08008],[137.03858,35.08007],[137.03872,35.07999],[137.03905,35.07983],[137.03934,35.0797],[137.03946,35.07965],[137.03957,35.07962],[137.04003,35.07962],[137.04036,35.07962],[137.04057,35.07956],[137.04095,35.07946],[137.04125,35.07938],[137.04138,35.07934],[137.04138,35.07925],[137.04146,35.07911],[137.04146,35.0791],[137.04146,35.07905],[137.04145,35.07894],[137.0414,35.07886],[137.04128,35.07876],[137.04123,35.0787],[137.0412,35.07867],[137.04113,35.07854],[137.041,35.07816],[137.04095,35.07805],[137.04085,35.07787],[137.04079,35.07777],[137.04076,35.0777],[137.04068,35.07757],[137.04078,35.07751],[137.04091,35.0774],[137.04116,35.07706],[137.04138,35.07678],[137.04162,35.07645],[137.04171,35.07634],[137.04155,35.07623],[137.04145,35.07617],[137.04123,35.07601],[137.0408,35.0757],[137.04067,35.0756],[137.04063,35.07554],[137.04061,35.07547],[137.0406,35.0754],[137.04062,35.0753],[137.04068,35.07519],[137.04075,35.07514],[137.04084,35.07511],[137.04131,35.07491],[137.04155,35.07493],[137.04163,35.07495],[137.04175,35.07502],[137.04189,35.07509],[137.04195,35.07512],[137.04197,35.07513],[137.04209,35.07498],[137.04217,35.07495],[137.04228,35.07492],[137.0424,35.07488],[137.04251,35.07485],[137.04267,35.07477],[137.04274,35.07472],[137.04272,35.07468],[137.04268,35.07461],[137.04263,35.07455],[137.04263,35.07455],[137.04263,35.07455],[137.04262,35.07451],[137.04261,35.07445],[137.04261,35.07438],[137.04258,35.07418],[137.04266,35.07401],[137.04266,35.07388],[137.04259,35.07376],[137.04249,35.07365],[137.04245,35.07362],[137.04244,35.07353],[137.04238,35.07346],[137.04223,35.07339],[137.04206,35.0733],[137.04183,35.07314],[137.04164,35.07296],[137.0415,35.07292],[137.04138,35.07289],[137.04105,35.07286],[137.04108,35.07279],[137.04115,35.07261],[137.04124,35.07236],[137.04128,35.07228],[137.04134,35.07214],[137.04148,35.07198],[137.04169,35.07184],[137.04188,35.07175],[137.04203,35.07172],[137.04231,35.0717],[137.04248,35.07166],[137.04255,35.07161],[137.04264,35.07154],[137.04272,35.07146],[137.04274,35.07139],[137.04272,35.0713],[137.04271,35.07122],[137.04275,35.07115],[137.04286,35.07106],[137.04301,35.07099],[137.0431,35.07093],[137.04314,35.0709],[137.04325,35.07065],[137.04331,35.07049],[137.04323,35.0704],[137.04318,35.07033],[137.04312,35.07023],[137.04305,35.07007],[137.04293,35.06984],[137.04288,35.06971],[137.04285,35.06959],[137.04285,35.06943],[137.04284,35.06929],[137.04279,35.06899],[137.04279,35.06881],[137.04279,35.06873],[137.04278,35.06846],[137.04279,35.06839],[137.04307,35.06808],[137.04305,35.06806],[137.04247,35.06759],[137.04207,35.06717],[137.0418,35.06691],[137.04152,35.06648],[137.04148,35.06627],[137.04148,35.06615],[137.04161,35.06577],[137.04165,35.06568],[137.04166,35.06564],[137.04169,35.06557],[137.04175,35.06545],[137.04203,35.06499],[137.04231,35.06451],[137.04247,35.06416],[137.04263,35.06375],[137.04275,35.06343],[137.04282,35.06313],[137.04284,35.06292],[137.04284,35.06273],[137.04279,35.0625],[137.04273,35.06236],[137.04268,35.06227],[137.0426,35.06214],[137.04237,35.06186],[137.04219,35.06161],[137.04194,35.06136],[137.04118,35.06059],[137.04079,35.06026],[137.04041,35.05991],[137.03996,35.05948],[137.03962,35.05916],[137.03954,35.05908],[137.03943,35.05897],[137.03898,35.05854],[137.0386,35.05816],[137.03822,35.05781],[137.03811,35.05774],[137.03796,35.05766],[137.03758,35.05752],[137.03737,35.05741],[137.03705,35.05722],[137.03693,35.05714],[137.03674,35.05702],[137.03646,35.05684],[137.03626,35.05661],[137.03622,35.05657],[137.03599,35.0563],[137.03589,35.05606],[137.03576,35.05574],[137.03566,35.05539],[137.03554,35.05507],[137.0354,35.05472],[137.03505,35.05413],[137.03505,35.05412],[137.03479,35.05383],[137.03461,35.05369],[137.03455,35.05367],[137.03446,35.05364],[137.03439,35.05362],[137.03415,35.05354],[137.03372,35.05339],[137.03365,35.05338],[137.03345,35.05335],[137.03327,35.05332],[137.03314,35.05329],[137.03293,35.05325],[137.03277,35.05322],[137.03255,35.05317],[137.03235,35.05313],[137.03211,35.0531],[137.03188,35.05306],[137.03167,35.05303],[137.03144,35.05304],[137.03127,35.05305],[137.03106,35.05303],[137.0308,35.053],[137.03053,35.05298],[137.03033,35.05294],[137.03017,35.05291],[137.03003,35.05289],[137.02982,35.05283],[137.0296,35.05274],[137.02935,35.05265],[137.02915,35.05256],[137.02897,35.05248],[137.02875,35.05236],[137.02851,35.05263],[137.02889,35.05293],[137.02933,35.05328],[137.02952,35.05345],[137.02975,35.0537],[137.02985,35.05389],[137.02998,35.05415],[137.03025,35.05475],[137.02796,35.05562],[137.02794,35.0556],[137.0279,35.05561],[137.02775,35.05567],[137.02785,35.05578],[137.02742,35.05667],[137.02697,35.05758],[137.02658,35.05759],[137.02661,35.05722],[137.0245,35.05558],[137.02305,35.05734],[137.023,35.05731],[137.02165,35.059],[137.02075,35.06012],[137.02026,35.05976],[137.01965,35.05932],[137.01934,35.0591],[137.01852,35.0585],[137.01736,35.05765],[137.01627,35.05685],[137.01586,35.05723],[137.01493,35.05808],[137.01447,35.05853],[137.01436,35.05855],[137.01447,35.05882],[137.01504,35.05977],[137.01551,35.06055],[137.01513,35.06076],[137.015,35.06083],[137.0153,35.06145],[137.01568,35.06158],[137.01688,35.06203],[137.01677,35.06221],[137.01616,35.06325],[137.01601,35.06343],[137.01592,35.06353],[137.01585,35.06356],[137.01578,35.0636],[137.01572,35.06365],[137.0156,35.06379],[137.01551,35.06393],[137.01545,35.06413],[137.01539,35.06432],[137.01532,35.06445],[137.0152,35.06456],[137.01512,35.06467],[137.01505,35.06479],[137.01502,35.06491],[137.01485,35.06534],[137.01457,35.066],[137.01377,35.06588],[137.01356,35.06585],[137.01282,35.06588],[137.01259,35.06603],[137.01246,35.06607],[137.01242,35.0661],[137.01238,35.06614],[137.0123,35.06624],[137.01215,35.06634],[137.01194,35.06646],[137.01186,35.06649],[137.01182,35.06659],[137.01183,35.06666],[137.01193,35.06677],[137.01193,35.06681],[137.01188,35.06686],[137.01183,35.06689],[137.01166,35.06703],[137.01154,35.06711],[137.01172,35.06722],[137.01186,35.06707],[137.0121,35.06678],[137.01271,35.06697],[137.01278,35.06684],[137.01315,35.06701],[137.01322,35.06694],[137.0136,35.06713],[137.01421,35.06745],[137.01438,35.06753],[137.01429,35.06767],[137.01425,35.06774],[137.01401,35.06819],[137.01398,35.06823],[137.01347,35.06855],[137.01323,35.06871],[137.01308,35.06882],[137.0134,35.06912],[137.0131,35.0695],[137.01357,35.06985],[137.01352,35.06991],[137.01322,35.07018],[137.01341,35.0703],[137.01305,35.07114],[137.01304,35.07121],[137.01303,35.0713],[137.01305,35.07139],[137.01309,35.07152],[137.01328,35.07211],[137.0133,35.07217],[137.01307,35.07221],[137.01289,35.07251],[137.0124,35.07234],[137.01245,35.07208],[137.01091,35.07223],[137.01079,35.07231],[137.01076,35.07224],[137.01055,35.07226],[137.01051,35.0721],[137.01033,35.07211],[137.01012,35.07203],[137.01013,35.07182],[137.01007,35.07181],[137.01016,35.07133],[137.0102,35.0713],[137.01063,35.07098],[137.0103,35.07072],[137.00983,35.07032],[137.01027,35.07018],[137.01006,35.06968],[137.00921,35.06983],[137.00858,35.0694],[137.00839,35.06928],[137.008,35.06915],[137.00749,35.06911],[137.00733,35.06925],[137.00716,35.06935],[137.00622,35.06968],[137.00624,35.0692],[137.00611,35.06868],[137.00559,35.06876],[137.00527,35.0688],[137.00473,35.06902],[137.00448,35.06911],[137.00429,35.06917],[137.00399,35.06882],[137.00376,35.06854],[137.0036,35.06832],[137.00432,35.06792],[137.00445,35.06792],[137.00472,35.06783],[137.00474,35.06776],[137.00485,35.06764],[137.00498,35.06765],[137.00498,35.06757],[137.00508,35.06749],[137.00526,35.06732],[137.00534,35.06719],[137.00552,35.06688],[137.00554,35.06684],[137.00507,35.06682],[137.00466,35.06696],[137.00451,35.06705],[137.00421,35.06724],[137.00406,35.06735],[137.00357,35.06775],[137.00338,35.06786],[137.00331,35.06793],[137.00315,35.06803],[137.00298,35.0681],[137.00279,35.06848],[137.00269,35.06873],[137.00232,35.06913],[137.00152,35.06882],[137.00148,35.0688],[137.00144,35.06878],[137.00141,35.06879],[137.00139,35.06881],[137.00136,35.06885],[137.00132,35.0689],[137.00123,35.06892],[137.0007,35.06902],[137.00027,35.06884],[137.00004,35.06878],[136.99979,35.06875],[136.99969,35.06888],[136.9996,35.06923],[136.99954,35.06949],[136.99943,35.06972],[136.99929,35.07021],[136.99934,35.07042],[136.9994,35.07046],[136.99958,35.07049],[136.99965,35.07054],[136.99969,35.07061],[136.99968,35.07079],[136.99961,35.07104],[136.99945,35.07143],[136.99941,35.0718],[136.9995,35.07182],[136.99969,35.0719],[136.9998,35.07197],[137.0002,35.0721],[137.00032,35.07211],[137.00056,35.07212],[137.0006,35.07231],[137.00068,35.07241],[137.00063,35.07259],[137.00059,35.07268],[137.00068,35.07266],[137.00084,35.07264],[137.00112,35.07253],[137.00142,35.0724],[137.00182,35.07236],[137.00243,35.07214],[137.00273,35.07202],[137.00298,35.0719],[137.00302,35.07188],[137.00337,35.07187],[137.00365,35.07197],[137.00384,35.07206],[137.00441,35.07224],[137.00468,35.07227],[137.0049,35.07232],[137.00516,35.07242],[137.00549,35.0725],[137.00583,35.07254],[137.00605,35.07261],[137.00626,35.07268],[137.00632,35.07279],[137.00634,35.07283],[137.00639,35.07291],[137.00656,35.07323],[137.0071,35.07398],[137.00742,35.07436],[137.0075,35.07491],[137.00778,35.07496],[137.00803,35.07494],[137.00822,35.07489],[137.00861,35.07472],[137.00877,35.07487],[137.00899,35.07506],[137.00915,35.07523],[137.00921,35.07546],[137.00925,35.07556],[137.00931,35.07566],[137.00932,35.07568],[137.00969,35.07537],[137.00985,35.0752],[137.00996,35.07501],[137.01051,35.07532],[137.01128,35.07576],[137.01192,35.07616],[137.01216,35.07588],[137.01229,35.07573],[137.01238,35.07562],[137.01246,35.07549],[137.01253,35.07532],[137.01258,35.07516],[137.0126,35.07502],[137.0126,35.07474],[137.01262,35.07464],[137.01267,35.07457],[137.01269,35.07437],[137.01269,35.07425],[137.01275,35.07405],[137.01282,35.07389],[137.01306,35.07392],[137.01348,35.07387],[137.01352,35.0737],[137.01428,35.07349],[137.01441,35.07352],[137.01456,35.07342],[137.01492,35.07347],[137.01506,35.0735],[137.01517,35.07356],[137.01527,35.07364],[137.01532,35.07377],[137.01529,35.07386],[137.01503,35.07404],[137.01462,35.07436],[137.01451,35.07446],[137.01472,35.0745],[137.01487,35.07453],[137.01501,35.0746],[137.01527,35.07471],[137.01545,35.07477],[137.0156,35.07481],[137.01566,35.07483],[137.01616,35.07502],[137.01642,35.07508],[137.01654,35.07472],[137.01682,35.07486],[137.01717,35.07503],[137.01696,35.07534],[137.01694,35.07547],[137.01692,35.07583],[137.01692,35.07596],[137.01696,35.0762],[137.01698,35.07633],[137.01721,35.07637],[137.01753,35.07641],[137.01726,35.07673],[137.01671,35.07737],[137.01581,35.07844],[137.01564,35.07865],[137.0153,35.07908],[137.01453,35.07842],[137.01415,35.07806],[137.01406,35.0781],[137.01399,35.07812],[137.01362,35.07802],[137.01349,35.07802],[137.01334,35.07806],[137.01317,35.07811],[137.01305,35.07812],[137.01274,35.07805],[137.01248,35.07801],[137.01224,35.078],[137.0119,35.07801],[137.0115,35.07808],[137.0112,35.07815],[137.01068,35.0783],[137.01069,35.07831],[137.01106,35.07885],[137.01122,35.07921],[137.01137,35.07956],[137.0115,35.07977],[137.01126,35.07986],[137.01096,35.08002],[137.01083,35.08007],[137.01025,35.08028],[137.00988,35.08044],[137.00978,35.08049],[137.00984,35.08079],[137.00988,35.08091],[137.00998,35.081],[137.01038,35.08113],[137.01061,35.08118],[137.0107,35.08118],[137.01076,35.08115],[137.01084,35.08099],[137.01089,35.0809],[137.01115,35.08077],[137.0113,35.08078],[137.01148,35.0808],[137.01173,35.08089],[137.0118,35.08094],[137.01189,35.08103],[137.01194,35.08113],[137.01194,35.08123],[137.01183,35.08145],[137.01185,35.08161],[137.01178,35.08203],[137.0118,35.08219],[137.01185,35.08224],[137.01198,35.0821],[137.01224,35.08194],[137.01235,35.08187],[137.01237,35.08183],[137.01244,35.08154],[137.01271,35.08141],[137.01287,35.08134],[137.01303,35.08132],[137.01309,35.08135],[137.01312,35.08145],[137.0131,35.08169],[137.0131,35.08189],[137.01309,35.08209],[137.01319,35.08246],[137.01311,35.08256],[137.01292,35.08267],[137.0129,35.08287],[137.01293,35.08301],[137.01302,35.08311],[137.01312,35.08326],[137.01324,35.08344],[137.01328,35.08364],[137.01321,35.08397],[137.01308,35.08412],[137.01282,35.08422],[137.01265,35.08423],[137.01251,35.08427],[137.01177,35.08473],[137.0117,35.08479],[137.0116,35.08492],[137.01196,35.08533],[137.01209,35.08532],[137.01221,35.08527],[137.01238,35.08523],[137.01253,35.08527],[137.01259,35.08526],[137.01273,35.08515],[137.0129,35.08511],[137.01316,35.08517],[137.01336,35.08531],[137.0138,35.08558],[137.01382,35.08564],[137.01373,35.08584],[137.01372,35.08602],[137.01379,35.08615],[137.01394,35.08635],[137.01412,35.08668],[137.01443,35.0867],[137.01482,35.08671],[137.01489,35.08674],[137.01489,35.08692],[137.01476,35.08722],[137.01483,35.08725],[137.0153,35.08729],[137.01522,35.08828],[137.01563,35.08916],[137.01606,35.09006],[137.01649,35.08993],[137.0166,35.08991],[137.01668,35.09009],[137.01673,35.09015],[137.01673,35.09018],[137.01681,35.09033],[137.0167,35.09033],[137.01698,35.09083],[137.01688,35.09087],[137.01708,35.0913],[137.01716,35.09127],[137.01728,35.09158],[137.01749,35.09202],[137.01751,35.09214],[137.01747,35.09239],[137.01746,35.09252],[137.01729,35.09265],[137.0172,35.09268],[137.01703,35.09269],[137.01693,35.09281],[137.01691,35.09283],[137.01678,35.09309],[137.01647,35.09366],[137.01644,35.09372],[137.01623,35.09412],[137.01628,35.09414],[137.01718,35.0944],[137.01726,35.09443],[137.0175,35.09453],[137.01751,35.09453],[137.01777,35.09472],[137.018,35.09493],[137.01849,35.09527],[137.01857,35.09539],[137.01858,35.09543],[137.01875,35.09537],[137.01863,35.09509],[137.01862,35.09506]]]}},{"type":"Feature","properties":{"name":"新田町","setai":2996,"jinko":7310,"key":"232290020","units":1},"geometry":{"type":"MultiPolygon","coordinates":[[[[137.023,35.05731],[137.02084,35.05612],[137.02065,35.05632],[137.02063,35.05634],[137.02061,35.05607],[137.02053,35.05601],[137.02046,35.05529],[137.02043,35.05491],[137.02036,35.0543],[137.02033,35.05399],[137.02028,35.05344],[137.02032,35.05344],[137.02032,35.05336],[137.0203,35.05297],[137.02027,35.05256],[137.02063,35.05251],[137.02124,35.05244],[137.02108,35.05223],[137.02018,35.05099],[137.02032,35.05098],[137.02078,35.05096],[137.02118,35.05093],[137.0215,35.05089],[137.02275,35.05074],[137.0237,35.0506],[137.02449,35.0505],[137.0254,35.05036],[137.02612,35.05027],[137.02578,35.04999],[137.02541,35.04971],[137.02493,35.04928],[137.0247,35.04901],[137.02439,35.0486],[137.02404,35.04814],[137.02397,35.04805],[137.02364,35.04766],[137.02346,35.04745],[137.02337,35.04737],[137.02232,35.04811],[137.02168,35.0486],[137.02141,35.04872],[137.02116,35.04864],[137.02069,35.04845],[137.02058,35.04834],[137.0201,35.04791],[137.0199,35.04805],[137.0197,35.04815],[137.01952,35.04823],[137.01935,35.04825],[137.01922,35.04824],[137.01909,35.04821],[137.01896,35.04815],[137.01871,35.04797],[137.01834,35.04769],[137.01813,35.04752],[137.01812,35.04745],[137.01812,35.04737],[137.01814,35.04729],[137.01822,35.04721],[137.01832,35.04715],[137.01841,35.04707],[137.01619,35.04501],[137.0157,35.04538],[137.01552,35.0455],[137.01407,35.04606],[137.0137,35.0462],[137.01357,35.04624],[137.01328,35.04631],[137.01296,35.04639],[137.0123,35.04654],[137.01212,35.04665],[137.01106,35.04715],[137.01191,35.04796],[137.01204,35.04808],[137.01214,35.04812],[137.01225,35.04811],[137.01308,35.04779],[137.01319,35.04801],[137.01278,35.0481],[137.01256,35.04817],[137.01243,35.04824],[137.01212,35.04839],[137.01212,35.04856],[137.01213,35.04867],[137.01213,35.04869],[137.01216,35.04887],[137.01219,35.04908],[137.01222,35.04917],[137.01233,35.04933],[137.01249,35.04951],[137.01261,35.04966],[137.01273,35.04978],[137.01283,35.04985],[137.01302,35.04995],[137.01317,35.05001],[137.01332,35.05005],[137.01343,35.05009],[137.01352,35.05012],[137.01363,35.05029],[137.0136,35.0504],[137.01362,35.05044],[137.01374,35.05051],[137.01365,35.05053],[137.01348,35.05062],[137.01321,35.05079],[137.01306,35.05079],[137.01297,35.05072],[137.01285,35.05071],[137.0127,35.05066],[137.01257,35.05059],[137.0124,35.05048],[137.01198,35.05013],[137.01192,35.05012],[137.01186,35.05012],[137.0117,35.05013],[137.01169,35.05052],[137.01174,35.05137],[137.01143,35.0514],[137.01119,35.05145],[137.01078,35.05159],[137.01056,35.05168],[137.01025,35.05185],[137.01003,35.05201],[137.00972,35.05225],[137.01098,35.05308],[137.01193,35.05369],[137.01311,35.05456],[137.0141,35.05528],[137.01504,35.05595],[137.01623,35.05683],[137.01627,35.05685],[137.01736,35.05765],[137.01852,35.0585],[137.01934,35.0591],[137.01965,35.05932],[137.02026,35.05976],[137.02075,35.06012],[137.02165,35.059],[137.023,35.05731]]],[[[137.00834,35.05048],[137.00891,35.05026],[137.00895,35.05029],[137.00903,35.05033],[137.00977,35.04974],[137.00989,35.04958],[137.00985,35.04951],[137.00966,35.04933],[137.00997,35.04911],[137.00994,35.04908],[137.00987,35.04908],[137.00977,35.04901],[137.00966,35.0489],[137.00955,35.0488],[137.00931,35.0484],[137.00909,35.04809],[137.00907,35.04806],[137.00883,35.04816],[137.00869,35.04821],[137.00859,35.04823],[137.00846,35.04829],[137.00839,35.04834],[137.00836,35.04838],[137.00835,35.04842],[137.00835,35.04846],[137.0084,35.04854],[137.00841,35.04857],[137.00837,35.04869],[137.0082,35.04896],[137.00774,35.04918],[137.00749,35.0492],[137.00654,35.04986],[137.00684,35.05025],[137.00726,35.05063],[137.00774,35.05097],[137.00834,35.05048]]]]}},{"type":"Feature","properties":{"name":"三崎町","setai":2217,"jinko":5136,"key":"232290030","units":1},"geometry":{"type":"Polygon","coordinates":[[[137.00548,35.05958],[137.00589,35.05942],[137.00606,35.05949],[137.00627,35.05958],[137.00639,35.05952],[137.00674,35.05936],[137.00692,35.0595],[137.00763,35.05951],[137.00765,35.0594],[137.00768,35.05914],[137.00774,35.05879],[137.00782,35.05853],[137.00788,35.0584],[137.00799,35.05825],[137.00808,35.05815],[137.00818,35.05807],[137.00833,35.05797],[137.00901,35.05751],[137.00932,35.0573],[137.00975,35.05699],[137.01033,35.05657],[137.01068,35.05632],[137.0115,35.05572],[137.01267,35.05488],[137.01311,35.05456],[137.01193,35.05369],[137.01098,35.05308],[137.00972,35.05225],[137.01003,35.05201],[137.01025,35.05185],[137.01056,35.05168],[137.01078,35.05159],[137.01119,35.05145],[137.01143,35.0514],[137.01174,35.05137],[137.01169,35.05052],[137.01103,35.05045],[137.01103,35.0503],[137.011,35.05029],[137.01072,35.05028],[137.01074,35.0498],[137.01077,35.04956],[137.01018,35.04936],[137.01015,35.04932],[137.01012,35.04927],[137.01006,35.04921],[137.00997,35.04911],[137.00966,35.04933],[137.00985,35.04951],[137.00989,35.04958],[137.00977,35.04974],[137.00903,35.05033],[137.00895,35.05029],[137.00891,35.05026],[137.00834,35.05048],[137.00774,35.05097],[137.00726,35.05063],[137.00684,35.05025],[137.00654,35.04986],[137.00639,35.04956],[137.00612,35.04902],[137.00603,35.04891],[137.00594,35.04866],[137.00586,35.04862],[137.0058,35.0485],[137.00548,35.04883],[137.00544,35.04891],[137.0054,35.04902],[137.00531,35.04931],[137.00519,35.04957],[137.00509,35.04975],[137.00503,35.0498],[137.00479,35.04997],[137.00471,35.05002],[137.00456,35.05002],[137.00437,35.05002],[137.00424,35.05007],[137.004,35.05022],[137.00365,35.05042],[137.00326,35.05063],[137.00313,35.05071],[137.0029,35.0509],[137.00274,35.05106],[137.00298,35.05131],[137.00298,35.05136],[137.003,35.0516],[137.00293,35.05175],[137.00297,35.05177],[137.00302,35.05188],[137.00304,35.05193],[137.00302,35.05199],[137.00292,35.0523],[137.00285,35.05292],[137.00275,35.05335],[137.00271,35.05341],[137.00268,35.05344],[137.00263,35.05355],[137.0025,35.05364],[137.00234,35.05369],[137.00217,35.05373],[137.00201,35.05389],[137.00178,35.05422],[137.00183,35.05424],[137.00199,35.05438],[137.00203,35.05451],[137.0021,35.05476],[137.00196,35.05507],[137.00195,35.0552],[137.0019,35.05532],[137.00193,35.05554],[137.00199,35.05564],[137.00213,35.05578],[137.00224,35.05588],[137.00228,35.05594],[137.00221,35.05651],[137.00195,35.05673],[137.00304,35.05754],[137.0031,35.05759],[137.00415,35.05835],[137.00445,35.05857],[137.00492,35.05892],[137.00507,35.05907],[137.00523,35.05924],[137.00539,35.05944],[137.00548,35.05958]]]}},{"type":"Feature","properties":{"name":"大久伝町","setai":894,"jinko":2045,"key":"232290040","units":1},"geometry":{"type":"Polygon","coordinates":[[[137.0279,35.05561],[137.02794,35.0556],[137.02796,35.05562],[137.03025,35.05475],[137.02998,35.05415],[137.02985,35.05389],[137.02975,35.0537],[137.02952,35.05345],[137.02933,35.05328],[137.02889,35.05293],[137.02851,35.05263],[137.02875,35.05236],[137.02873,35.05236],[137.02871,35.05234],[137.02865,35.05231],[137.02849,35.05222],[137.02831,35.05208],[137.02813,35.05195],[137.02795,35.05179],[137.02779,35.05166],[137.02763,35.05151],[137.02752,35.05142],[137.02732,35.05126],[137.02732,35.05126],[137.02706,35.05104],[137.02663,35.0507],[137.02636,35.05047],[137.02613,35.05027],[137.02612,35.05027],[137.0254,35.05036],[137.02449,35.0505],[137.0237,35.0506],[137.02275,35.05074],[137.0215,35.05089],[137.02118,35.05093],[137.02078,35.05096],[137.02032,35.05098],[137.02018,35.05099],[137.02108,35.05223],[137.02124,35.05244],[137.02063,35.05251],[137.02027,35.05256],[137.0203,35.05297],[137.02032,35.05336],[137.02032,35.05344],[137.02028,35.05344],[137.02033,35.05399],[137.02036,35.0543],[137.02043,35.05491],[137.02046,35.05529],[137.02053,35.05601],[137.02061,35.05607],[137.02063,35.05634],[137.02065,35.05632],[137.02084,35.05612],[137.023,35.05731],[137.02305,35.05734],[137.0245,35.05558],[137.02661,35.05722],[137.02658,35.05759],[137.02697,35.05758],[137.02742,35.05667],[137.02785,35.05578],[137.02775,35.05567],[137.0279,35.05561]]]}},{"type":"Feature","properties":{"name":"阿野町","setai":2832,"jinko":6353,"key":"232290050","units":1},"geometry":{"type":"Polygon","coordinates":[[[137.00263,35.05355],[137.00268,35.05344],[137.00271,35.05341],[137.00275,35.05335],[137.00285,35.05292],[137.00292,35.0523],[137.00302,35.05199],[137.00304,35.05193],[137.00302,35.05188],[137.00297,35.05177],[137.00293,35.05175],[137.003,35.0516],[137.00298,35.05136],[137.00298,35.05131],[137.00274,35.05106],[137.0029,35.0509],[137.00313,35.05071],[137.00326,35.05063],[137.00365,35.05042],[137.004,35.05022],[137.00424,35.05007],[137.00437,35.05002],[137.00456,35.05002],[137.00471,35.05002],[137.00479,35.04997],[137.00503,35.0498],[137.00509,35.04975],[137.00519,35.04957],[137.00531,35.04931],[137.0054,35.04902],[137.00544,35.04891],[137.00548,35.04883],[137.0058,35.0485],[137.00586,35.04862],[137.00594,35.04866],[137.00603,35.04891],[137.00612,35.04902],[137.00639,35.04956],[137.00654,35.04986],[137.00749,35.0492],[137.00774,35.04918],[137.0082,35.04896],[137.00837,35.04869],[137.00841,35.04857],[137.0084,35.04854],[137.00835,35.04846],[137.00835,35.04842],[137.00836,35.04838],[137.00839,35.04834],[137.00846,35.04829],[137.00859,35.04823],[137.00869,35.04821],[137.00883,35.04816],[137.00907,35.04806],[137.00909,35.04809],[137.00931,35.0484],[137.00955,35.0488],[137.00966,35.0489],[137.00977,35.04901],[137.00987,35.04908],[137.00994,35.04908],[137.00997,35.04911],[137.01006,35.04921],[137.01012,35.04927],[137.01015,35.04932],[137.01018,35.04936],[137.01077,35.04956],[137.01074,35.0498],[137.01072,35.05028],[137.011,35.05029],[137.01103,35.0503],[137.01103,35.05045],[137.01169,35.05052],[137.0117,35.05013],[137.01186,35.05012],[137.01192,35.05012],[137.01198,35.05013],[137.0124,35.05048],[137.01257,35.05059],[137.0127,35.05066],[137.01285,35.05071],[137.01297,35.05072],[137.01306,35.05079],[137.01321,35.05079],[137.01348,35.05062],[137.01365,35.05053],[137.01374,35.05051],[137.01362,35.05044],[137.0136,35.0504],[137.01363,35.05029],[137.01352,35.05012],[137.01343,35.05009],[137.01332,35.05005],[137.01317,35.05001],[137.01302,35.04995],[137.01283,35.04985],[137.01273,35.04978],[137.01261,35.04966],[137.01249,35.04951],[137.01233,35.04933],[137.01222,35.04917],[137.01219,35.04908],[137.01216,35.04887],[137.01213,35.04869],[137.01213,35.04867],[137.01212,35.04856],[137.01212,35.04839],[137.01243,35.04824],[137.01256,35.04817],[137.01278,35.0481],[137.01319,35.04801],[137.01308,35.04779],[137.01225,35.04811],[137.01214,35.04812],[137.01204,35.04808],[137.01191,35.04796],[137.01106,35.04715],[137.01212,35.04665],[137.0123,35.04654],[137.01296,35.04639],[137.01328,35.04631],[137.01357,35.04624],[137.0137,35.0462],[137.01407,35.04606],[137.01552,35.0455],[137.0157,35.04538],[137.01619,35.04501],[137.01841,35.04707],[137.01832,35.04715],[137.01822,35.04721],[137.01814,35.04729],[137.01812,35.04737],[137.01812,35.04745],[137.01813,35.04752],[137.01834,35.04769],[137.01871,35.04797],[137.01896,35.04815],[137.01909,35.04821],[137.01922,35.04824],[137.01935,35.04825],[137.01952,35.04823],[137.0197,35.04815],[137.0199,35.04805],[137.0201,35.04791],[137.02058,35.04834],[137.02069,35.04845],[137.02116,35.04864],[137.02141,35.04872],[137.02168,35.0486],[137.02232,35.04811],[137.02337,35.04737],[137.02335,35.04735],[137.02321,35.04722],[137.02305,35.04706],[137.02282,35.04683],[137.02252,35.04634],[137.02236,35.04603],[137.02227,35.04567],[137.02223,35.04526],[137.0222,35.04507],[137.02205,35.04483],[137.02195,35.04469],[137.02187,35.04459],[137.02172,35.04442],[137.0215,35.04415],[137.02131,35.04395],[137.02098,35.04361],[137.02065,35.04333],[137.02052,35.04323],[137.02047,35.0432],[137.02016,35.04295],[137.01965,35.04257],[137.01876,35.04188],[137.01841,35.04159],[137.01809,35.04133],[137.01773,35.04066],[137.01752,35.04011],[137.01744,35.03993],[137.01733,35.03971],[137.01728,35.03965],[137.01714,35.03947],[137.01689,35.03921],[137.0166,35.039],[137.01632,35.03881],[137.01587,35.0386],[137.01569,35.03852],[137.0149,35.03828],[137.01403,35.03805],[137.01371,35.03796],[137.01342,35.03788],[137.01287,35.03771],[137.01259,35.03761],[137.01254,35.03758],[137.01252,35.03757],[137.01248,35.03755],[137.01235,35.03749],[137.01211,35.03732],[137.01167,35.03697],[137.01147,35.03679],[137.01122,35.03657],[137.01086,35.03627],[137.01044,35.03595],[137.00999,35.03566],[137.00955,35.03539],[137.00911,35.03514],[137.00882,35.03499],[137.00847,35.03483],[137.00784,35.03457],[137.00739,35.03444],[137.00718,35.0344],[137.00708,35.03473],[137.00703,35.03487],[137.0069,35.03504],[137.00669,35.03518],[137.00622,35.03541],[137.00587,35.03558],[137.00561,35.03571],[137.00544,35.03583],[137.0053,35.03597],[137.00452,35.03708],[137.00437,35.0373],[137.00361,35.0382],[137.00351,35.03832],[137.00347,35.03842],[137.00348,35.03853],[137.00405,35.03982],[137.00345,35.03999],[137.00342,35.04214],[137.00221,35.04213],[137.0022,35.04322],[137.00221,35.04339],[137.00226,35.0435],[137.00233,35.04361],[137.00217,35.04367],[137.00216,35.04406],[137.00221,35.0444],[137.00225,35.04463],[137.00233,35.04489],[137.00238,35.04511],[137.00226,35.04518],[137.00221,35.04524],[137.00216,35.04531],[137.00148,35.04584],[137.00113,35.04616],[137.00071,35.04655],[137.00059,35.04664],[137.0004,35.04676],[137.00024,35.04688],[137.00013,35.04698],[137.00005,35.04708],[136.99998,35.04719],[136.99994,35.04728],[136.99991,35.04739],[136.99989,35.0475],[136.99986,35.04768],[136.99983,35.04785],[136.99979,35.04796],[136.99973,35.04806],[136.99926,35.04874],[136.99912,35.04902],[136.99915,35.04918],[136.9992,35.04928],[136.9993,35.04942],[136.99941,35.04952],[136.99851,35.05014],[136.99837,35.05002],[136.99804,35.05026],[136.99756,35.04964],[136.99734,35.04976],[136.99708,35.04944],[136.99656,35.0497],[136.99622,35.04917],[136.99592,35.04954],[136.99578,35.04979],[136.99571,35.04992],[136.99541,35.05053],[136.99628,35.05172],[136.99575,35.05218],[136.9965,35.05276],[136.99689,35.05249],[136.99746,35.05214],[136.99797,35.05184],[136.99897,35.0512],[136.99961,35.05075],[137.00014,35.05039],[137.00046,35.05011],[137.00078,35.05035],[137.00095,35.05043],[137.00121,35.05062],[137.00104,35.05081],[137.00093,35.05093],[137.00083,35.05108],[137.00052,35.05129],[137.00045,35.05138],[137.00035,35.05152],[137.00034,35.05154],[137.00031,35.0516],[137.00032,35.05187],[137.00016,35.0519],[137.00006,35.05211],[137.00007,35.05218],[137.00011,35.05219],[137.00013,35.05234],[137.00013,35.05236],[136.99994,35.05239],[136.99993,35.05239],[136.99974,35.05278],[136.99967,35.05344],[136.99966,35.05367],[136.99981,35.05367],[137.00042,35.05366],[137.0007,35.05366],[137.00073,35.05363],[137.00075,35.05361],[137.00077,35.05359],[137.00084,35.05358],[137.00094,35.05357],[137.00105,35.05357],[137.0013,35.05355],[137.00137,35.05416],[137.00147,35.05434],[137.00161,35.05443],[137.0017,35.05449],[137.00203,35.05451],[137.00199,35.05438],[137.00183,35.05424],[137.00178,35.05422],[137.00201,35.05389],[137.00217,35.05373],[137.00234,35.05369],[137.0025,35.05364],[137.00263,35.05355]]]}},{"type":"Feature","properties":{"name":"前後町","setai":2533,"jinko":5507,"key":"232290060","units":1},"geometry":{"type":"Polygon","coordinates":[[[136.9859,35.06603],[136.9863,35.06601],[136.9864,35.06602],[136.98642,35.06547],[136.98647,35.06528],[136.98654,35.06498],[136.98758,35.0639],[136.98773,35.06379],[136.98803,35.06357],[136.98828,35.06342],[136.98853,35.06322],[136.98886,35.06284],[136.98907,35.06258],[136.98915,35.06249],[136.98924,35.06241],[136.98935,35.06227],[136.98929,35.06222],[136.98955,35.06196],[136.98976,35.06176],[136.99066,35.06089],[136.99102,35.06131],[136.99132,35.0616],[136.99176,35.06197],[136.99205,35.06191],[136.99242,35.06184],[136.9926,35.06185],[136.99278,35.06189],[136.99294,35.06197],[136.99312,35.06207],[136.99369,35.06242],[136.99382,35.0625],[136.99404,35.06261],[136.99423,35.0627],[136.99429,35.06261],[136.99371,35.06183],[136.99388,35.06178],[136.99394,35.06173],[136.99401,35.06165],[136.99412,35.06152],[136.99413,35.06144],[136.99416,35.06137],[136.99423,35.06136],[136.99432,35.06134],[136.99441,35.06133],[136.99443,35.0613],[136.99445,35.06126],[136.99446,35.06114],[136.99445,35.06111],[136.99441,35.06108],[136.99436,35.06104],[136.99436,35.06068],[136.9944,35.06064],[136.99441,35.06062],[136.99451,35.0605],[136.99454,35.06046],[136.99455,35.06046],[136.99471,35.06046],[136.9949,35.06046],[136.99513,35.06046],[136.99513,35.06046],[136.99516,35.06046],[136.99522,35.06045],[136.99522,35.06045],[136.99553,35.06037],[136.99562,35.06035],[136.99585,35.06032],[136.99603,35.06031],[136.99638,35.06031],[136.99643,35.06032],[136.99649,35.06031],[136.99655,35.06033],[136.99681,35.06039],[136.99698,35.06038],[136.99703,35.06037],[136.99718,35.06036],[136.99748,35.06034],[136.99757,35.06029],[136.99768,35.06021],[136.99805,35.06006],[136.99827,35.05995],[136.99862,35.05977],[136.99848,35.05955],[136.99828,35.05924],[136.99832,35.05915],[136.99844,35.05892],[136.99836,35.0586],[136.99826,35.0584],[136.99824,35.05836],[136.99824,35.05832],[136.99825,35.05829],[136.99828,35.05826],[136.99833,35.05823],[136.99836,35.05821],[136.9984,35.05818],[136.99844,35.05816],[136.99847,35.05814],[136.99849,35.05811],[136.99851,35.05808],[136.99854,35.05805],[136.99856,35.05803],[136.99856,35.05802],[136.99857,35.05799],[136.99857,35.05798],[136.99857,35.05796],[136.99856,35.05795],[136.99855,35.05792],[136.99854,35.05789],[136.99852,35.05786],[136.9985,35.05781],[136.99848,35.05779],[136.99847,35.05776],[136.99844,35.05774],[136.99842,35.05771],[136.99841,35.0577],[136.99841,35.0577],[136.99842,35.05769],[136.99842,35.05767],[136.99843,35.05763],[136.99844,35.05759],[136.99846,35.05755],[136.99847,35.05753],[136.99848,35.0575],[136.99852,35.05745],[136.99856,35.05741],[136.99859,35.05737],[136.99864,35.05731],[136.99873,35.05721],[136.99901,35.05698],[136.9991,35.05684],[136.99925,35.05665],[136.99926,35.05655],[136.99923,35.05649],[136.99924,35.0564],[136.99929,35.05634],[136.99957,35.05613],[136.99967,35.05612],[136.99981,35.05612],[136.99998,35.05605],[137.00015,35.05599],[137.00025,35.05578],[137.00039,35.0556],[137.00052,35.05542],[137.0005,35.05524],[137.00101,35.0552],[137.00107,35.0552],[137.0012,35.05528],[137.00131,35.05539],[137.00193,35.05554],[137.0019,35.05532],[137.00195,35.0552],[137.00196,35.05507],[137.0021,35.05476],[137.00203,35.05451],[137.0017,35.05449],[137.00161,35.05443],[137.00147,35.05434],[137.00137,35.05416],[137.0013,35.05355],[137.00105,35.05357],[137.00094,35.05357],[137.00084,35.05358],[137.00077,35.05359],[137.00075,35.05361],[137.00073,35.05363],[137.0007,35.05366],[137.00042,35.05366],[136.99981,35.05367],[136.99966,35.05367],[136.99967,35.05344],[136.99974,35.05278],[136.99993,35.05239],[136.99994,35.05239],[137.00013,35.05236],[137.00013,35.05234],[137.00011,35.05219],[137.00007,35.05218],[137.00006,35.05211],[137.00016,35.0519],[137.00032,35.05187],[137.00031,35.0516],[137.00034,35.05154],[137.00035,35.05152],[137.00045,35.05138],[137.00052,35.05129],[137.00083,35.05108],[137.00093,35.05093],[137.00104,35.05081],[137.00121,35.05062],[137.00095,35.05043],[137.00078,35.05035],[137.00046,35.05011],[137.00014,35.05039],[136.99961,35.05075],[136.99897,35.0512],[136.99797,35.05184],[136.99746,35.05214],[136.99689,35.05249],[136.9965,35.05276],[136.99575,35.05218],[136.99628,35.05172],[136.99541,35.05053],[136.99515,35.05093],[136.99489,35.05119],[136.99472,35.05135],[136.9947,35.05147],[136.99454,35.05152],[136.99443,35.05154],[136.99431,35.0516],[136.99418,35.0517],[136.99405,35.05183],[136.99398,35.05195],[136.99396,35.05202],[136.99389,35.05209],[136.99372,35.05222],[136.99361,35.05235],[136.99356,35.05251],[136.9935,35.05266],[136.99342,35.0528],[136.99332,35.05299],[136.99319,35.0532],[136.99311,35.05337],[136.99311,35.05344],[136.99311,35.05353],[136.99311,35.05369],[136.99309,35.05385],[136.99294,35.05409],[136.99284,35.05425],[136.99275,35.05437],[136.99253,35.05462],[136.99251,35.0547],[136.99252,35.05478],[136.99256,35.05486],[136.99257,35.05498],[136.99252,35.05507],[136.99241,35.05524],[136.99227,35.05541],[136.99164,35.05565],[136.99144,35.05601],[136.99146,35.05609],[136.99154,35.05615],[136.99168,35.05631],[136.99176,35.05644],[136.99182,35.05659],[136.99186,35.05673],[136.99188,35.05684],[136.9919,35.05692],[136.99191,35.05702],[136.99186,35.05711],[136.99183,35.05718],[136.99177,35.05729],[136.99169,35.05743],[136.99169,35.05743],[136.99146,35.05758],[136.99133,35.05761],[136.99114,35.05765],[136.99099,35.05776],[136.99087,35.05784],[136.99069,35.05796],[136.99061,35.05799],[136.99052,35.05798],[136.99043,35.05798],[136.99029,35.05799],[136.99005,35.05808],[136.98989,35.05818],[136.98976,35.05825],[136.98967,35.05831],[136.98949,35.05832],[136.98933,35.05835],[136.98921,35.05839],[136.98909,35.05845],[136.9889,35.05855],[136.98873,35.05863],[136.98855,35.05874],[136.98844,35.05883],[136.98834,35.05891],[136.98823,35.05899],[136.98802,35.05908],[136.98778,35.05915],[136.9876,35.05922],[136.98742,35.0593],[136.98734,35.05938],[136.98726,35.05941],[136.98719,35.05946],[136.9871,35.05953],[136.987,35.05954],[136.98696,35.05956],[136.98683,35.05964],[136.98676,35.05965],[136.98671,35.05966],[136.98666,35.05977],[136.98662,35.05981],[136.98655,35.05982],[136.9864,35.05982],[136.98629,35.05987],[136.98614,35.05997],[136.9859,35.06009],[136.98567,35.0602],[136.98517,35.06045],[136.98522,35.06045],[136.98529,35.06053],[136.9854,35.06047],[136.98564,35.06077],[136.98552,35.06083],[136.98552,35.06083],[136.98555,35.06087],[136.98556,35.06088],[136.98562,35.0609],[136.98572,35.06106],[136.98574,35.06112],[136.98573,35.06122],[136.98562,35.06128],[136.98559,35.06125],[136.98557,35.06118],[136.98548,35.06125],[136.98548,35.06125],[136.98535,35.06118],[136.98527,35.06131],[136.98529,35.06136],[136.98533,35.06145],[136.98533,35.06153],[136.98533,35.06158],[136.98536,35.06166],[136.98545,35.06184],[136.98541,35.06188],[136.98529,35.06196],[136.98514,35.06206],[136.98512,35.06212],[136.9851,35.06216],[136.98507,35.06222],[136.98512,35.06226],[136.98515,35.06228],[136.98523,35.06234],[136.9853,35.06256],[136.9853,35.06268],[136.9853,35.06285],[136.98534,35.06285],[136.98536,35.06285],[136.98547,35.0628],[136.98556,35.06279],[136.9856,35.06283],[136.98562,35.06288],[136.98562,35.06289],[136.98561,35.06298],[136.98561,35.06304],[136.98551,35.06314],[136.98533,35.06335],[136.98534,35.06346],[136.98548,35.06373],[136.98554,35.06382],[136.98556,35.06396],[136.98566,35.06446],[136.98568,35.06465],[136.98598,35.06553],[136.986,35.06564],[136.98592,35.0658],[136.98589,35.06591],[136.9859,35.06603]]]}},{"type":"Feature","properties":{"name":"栄町元屋敷","setai":75,"jinko":94,"key":"23229007001","units":1},"geometry":{"type":"Polygon","coordinates":[[[137.0022,35.04322],[137.00221,35.04213],[137.00342,35.04214],[137.00345,35.03999],[137.00405,35.03982],[137.00348,35.03853],[137.00347,35.03842],[137.00351,35.03832],[137.00361,35.0382],[137.00437,35.0373],[137.00452,35.03708],[137.0053,35.03597],[137.00544,35.03583],[137.00561,35.03571],[137.00587,35.03558],[137.00622,35.03541],[137.00669,35.03518],[137.0069,35.03504],[137.00703,35.03487],[137.00708,35.03473],[137.00718,35.0344],[137.00714,35.03439],[137.00665,35.0343],[137.00595,35.03411],[137.00533,35.03385],[137.00502,35.03357],[137.00473,35.03319],[137.00429,35.03247],[137.0039,35.03178],[137.00353,35.03113],[137.00338,35.03058],[137.00332,35.0301],[137.0033,35.0297],[137.00328,35.02927],[137.00327,35.02917],[137.00323,35.02875],[137.00316,35.02833],[137.00294,35.02805],[137.0025,35.02771],[137.00228,35.02757],[137.00208,35.02742],[137.00173,35.02719],[137.0017,35.02717],[137.00162,35.02724],[137.0012,35.02762],[137.00134,35.02774],[137.00136,35.028],[137.00136,35.02965],[137.00039,35.02962],[136.99943,35.02965],[136.99948,35.03155],[136.9992,35.03156],[136.99919,35.03261],[136.99919,35.03373],[136.9991,35.03373],[136.99913,35.03522],[136.99907,35.03522],[136.99907,35.03522],[136.9977,35.03523],[136.99778,35.03656],[136.99688,35.03678],[136.99685,35.03687],[136.99678,35.03704],[136.99675,35.03712],[136.99676,35.0373],[136.99677,35.03739],[136.99678,35.03747],[136.99688,35.0378],[136.99695,35.03785],[136.99704,35.03788],[136.99714,35.0379],[136.99723,35.03793],[136.99732,35.03799],[136.99739,35.03804],[136.99743,35.03806],[136.99746,35.03809],[136.99754,35.03817],[136.9976,35.03824],[136.99765,35.03831],[136.9977,35.03839],[136.99765,35.03878],[136.99762,35.03879],[136.9976,35.03892],[136.99735,35.039],[136.99949,35.04092],[136.99813,35.04134],[136.99914,35.04294],[136.99931,35.04326],[137.00007,35.04458],[137.00191,35.04378],[137.00217,35.04367],[137.00233,35.04361],[137.00226,35.0435],[137.00221,35.04339],[137.0022,35.04322]]]}},{"type":"Feature","properties":{"name":"栄町大原","setai":1708,"jinko":4213,"key":"23229007002","units":1},"geometry":{"type":"Polygon","coordinates":[[[136.99319,35.0532],[136.99332,35.05299],[136.99342,35.0528],[136.9935,35.05266],[136.99356,35.05251],[136.99361,35.05235],[136.99372,35.05222],[136.99389,35.05209],[136.99396,35.05202],[136.99398,35.05195],[136.99368,35.05168],[136.99419,35.05114],[136.99411,35.05104],[136.99401,35.05092],[136.9939,35.05076],[136.99387,35.05069],[136.99377,35.05048],[136.99377,35.05043],[136.99379,35.05034],[136.99381,35.05019],[136.9938,35.05008],[136.99374,35.04989],[136.99373,35.04981],[136.99373,35.0496],[136.9937,35.04942],[136.99362,35.04879],[136.9936,35.04858],[136.9938,35.04847],[136.99388,35.04843],[136.99419,35.0483],[136.99441,35.04824],[136.99465,35.04819],[136.99518,35.04816],[136.9959,35.04815],[136.99615,35.0481],[136.99646,35.04799],[136.99673,35.04786],[136.99703,35.04769],[136.9972,35.04763],[136.99782,35.04763],[136.99805,35.04758],[136.99823,35.04757],[136.99821,35.04765],[136.99817,35.04771],[136.99804,35.04792],[136.99797,35.04804],[136.99788,35.04808],[136.99777,35.04818],[136.99757,35.04835],[136.99742,35.04846],[136.99716,35.04861],[136.99728,35.04864],[136.99743,35.04863],[136.99831,35.04839],[136.99899,35.04826],[136.99909,35.04824],[136.99939,35.04813],[136.99954,35.04809],[136.99973,35.04806],[136.99979,35.04796],[136.99983,35.04785],[136.99986,35.04768],[136.99989,35.0475],[136.99991,35.04739],[136.99994,35.04728],[136.99998,35.04719],[137.00005,35.04708],[137.00013,35.04698],[137.00024,35.04688],[137.0004,35.04676],[137.00059,35.04664],[137.00071,35.04655],[137.00113,35.04616],[137.00148,35.04584],[137.00216,35.04531],[137.00221,35.04524],[137.00226,35.04518],[137.00238,35.04511],[137.00233,35.04489],[137.00225,35.04463],[137.00221,35.0444],[137.00216,35.04406],[137.00217,35.04367],[137.00191,35.04378],[137.00007,35.04458],[136.99931,35.04326],[136.99914,35.04294],[136.99813,35.04134],[136.99949,35.04092],[136.99735,35.039],[136.9973,35.03902],[136.99683,35.03914],[136.99665,35.03917],[136.99654,35.03915],[136.99642,35.03924],[136.99628,35.0393],[136.99608,35.03935],[136.9959,35.03935],[136.99571,35.0393],[136.99547,35.03921],[136.9953,35.03912],[136.99515,35.03905],[136.99505,35.03904],[136.9938,35.03832],[136.99375,35.03834],[136.99368,35.03824],[136.99352,35.03833],[136.99347,35.03835],[136.99333,35.03838],[136.99322,35.03847],[136.993,35.03851],[136.99264,35.03857],[136.99228,35.03842],[136.99201,35.03826],[136.99179,35.03807],[136.99163,35.03785],[136.9915,35.03765],[136.99133,35.03765],[136.99124,35.03757],[136.99111,35.03756],[136.99099,35.03743],[136.99104,35.03734],[136.99092,35.03721],[136.99092,35.03693],[136.99111,35.03684],[136.99121,35.03669],[136.99133,35.03652],[136.99142,35.03639],[136.99147,35.03614],[136.9915,35.0359],[136.9912,35.03588],[136.99089,35.03608],[136.99071,35.0362],[136.99048,35.0363],[136.99032,35.03637],[136.99016,35.03641],[136.98998,35.0364],[136.98984,35.0364],[136.98971,35.03648],[136.98964,35.0365],[136.98954,35.03653],[136.98931,35.03663],[136.98911,35.03681],[136.9889,35.03696],[136.98874,35.03706],[136.98854,35.03719],[136.98839,35.03729],[136.98816,35.03743],[136.98786,35.03757],[136.98759,35.0377],[136.98734,35.03778],[136.98725,35.03783],[136.98763,35.03835],[136.98775,35.03849],[136.9878,35.03861],[136.98783,35.03877],[136.98787,35.03904],[136.9879,35.0392],[136.98797,35.03923],[136.98834,35.03926],[136.98847,35.03943],[136.98849,35.03951],[136.9885,35.0396],[136.9885,35.03967],[136.98849,35.03978],[136.98848,35.0399],[136.98849,35.03999],[136.98852,35.04008],[136.98876,35.04052],[136.98884,35.04086],[136.98913,35.04168],[136.98888,35.04172],[136.98873,35.04158],[136.98862,35.04164],[136.98834,35.04173],[136.988,35.04176],[136.98799,35.04185],[136.98771,35.04198],[136.98752,35.04199],[136.98706,35.04198],[136.9868,35.04205],[136.98651,35.04217],[136.98622,35.04235],[136.98601,35.04247],[136.98578,35.04255],[136.98549,35.0426],[136.9851,35.04266],[136.98482,35.04275],[136.9847,35.04284],[136.98463,35.04302],[136.98451,35.04325],[136.98588,35.04354],[136.98652,35.04366],[136.98714,35.04375],[136.98741,35.04378],[136.98785,35.04381],[136.98822,35.04382],[136.98848,35.04382],[136.98881,35.0438],[136.98909,35.04378],[136.98934,35.04376],[136.9896,35.04372],[136.98994,35.04367],[136.99017,35.04363],[136.99021,35.04382],[136.9903,35.044],[136.99035,35.04409],[136.99051,35.04429],[136.99062,35.04443],[136.99073,35.04457],[136.9909,35.04476],[136.99112,35.04493],[136.99122,35.04498],[136.99138,35.04506],[136.99159,35.04517],[136.99177,35.04526],[136.99136,35.04581],[136.99121,35.046],[136.99106,35.04615],[136.99095,35.04623],[136.99082,35.04634],[136.99072,35.04639],[136.99061,35.04643],[136.99035,35.04651],[136.9907,35.04657],[136.99099,35.04663],[136.99115,35.04666],[136.99134,35.04671],[136.99153,35.04677],[136.99161,35.0468],[136.99169,35.04684],[136.99194,35.04696],[136.99219,35.04708],[136.99233,35.04713],[136.99253,35.04719],[136.9927,35.04724],[136.9928,35.04724],[136.99286,35.04722],[136.99299,35.04736],[136.99262,35.04756],[136.99244,35.04765],[136.99213,35.0478],[136.99169,35.04799],[136.99131,35.04812],[136.98958,35.04874],[136.9888,35.04902],[136.98866,35.04904],[136.98853,35.04902],[136.98835,35.04891],[136.98839,35.04903],[136.9884,35.04916],[136.98839,35.04957],[136.98834,35.04972],[136.98787,35.05002],[136.98765,35.05015],[136.98801,35.05015],[136.98796,35.05022],[136.98778,35.05043],[136.98768,35.05065],[136.98854,35.05084],[136.98887,35.05106],[136.9889,35.05109],[136.98892,35.05112],[136.98892,35.05114],[136.98894,35.05129],[136.98873,35.05153],[136.98861,35.05165],[136.98836,35.05181],[136.98815,35.05196],[136.9882,35.05203],[136.98834,35.0522],[136.9884,35.05225],[136.98859,35.05247],[136.98864,35.05252],[136.98885,35.05262],[136.98891,35.05266],[136.98913,35.05282],[136.98945,35.05302],[136.99022,35.05302],[136.9906,35.05306],[136.99081,35.05305],[136.99124,35.05308],[136.99145,35.05303],[136.9916,35.053],[136.99174,35.05307],[136.9919,35.05316],[136.99197,35.05321],[136.99221,35.05318],[136.99273,35.05339],[136.99311,35.05337],[136.99319,35.0532]]]}},{"type":"Feature","properties":{"name":"栄町殿ノ山","setai":1388,"jinko":3718,"key":"23229007003","units":1},"geometry":{"type":"Polygon","coordinates":[[[136.97567,35.05393],[136.9762,35.05382],[136.97628,35.05383],[136.97652,35.05357],[136.97666,35.05354],[136.97711,35.05347],[136.97715,35.05366],[136.97805,35.05394],[136.97808,35.05401],[136.97814,35.05417],[136.97831,35.05411],[136.97852,35.054],[136.9785,35.0536],[136.97848,35.05335],[136.97878,35.05312],[136.97918,35.05297],[136.9794,35.05268],[136.97961,35.05247],[136.98004,35.05214],[136.98018,35.05204],[136.98039,35.05197],[136.98077,35.0519],[136.9811,35.05198],[136.98125,35.05178],[136.98161,35.05133],[136.98226,35.05167],[136.98244,35.05154],[136.98272,35.05157],[136.98284,35.05156],[136.98295,35.05153],[136.98308,35.05138],[136.98336,35.05109],[136.98385,35.05083],[136.98411,35.05068],[136.98439,35.05056],[136.98444,35.05054],[136.98489,35.05036],[136.98512,35.05029],[136.98528,35.05027],[136.9856,35.05026],[136.98571,35.05022],[136.98585,35.05017],[136.98595,35.05014],[136.98639,35.05016],[136.98663,35.05017],[136.9869,35.05014],[136.98705,35.05012],[136.98716,35.05012],[136.98726,35.05014],[136.98765,35.05015],[136.98787,35.05002],[136.98834,35.04972],[136.98839,35.04957],[136.9884,35.04916],[136.98839,35.04903],[136.98835,35.04891],[136.98853,35.04902],[136.98866,35.04904],[136.9888,35.04902],[136.98958,35.04874],[136.99131,35.04812],[136.99169,35.04799],[136.99213,35.0478],[136.99244,35.04765],[136.99262,35.04756],[136.99299,35.04736],[136.99286,35.04722],[136.9928,35.04724],[136.9927,35.04724],[136.99253,35.04719],[136.99233,35.04713],[136.99219,35.04708],[136.99194,35.04696],[136.99169,35.04684],[136.99161,35.0468],[136.99153,35.04677],[136.99134,35.04671],[136.99115,35.04666],[136.99099,35.04663],[136.9907,35.04657],[136.99035,35.04651],[136.99061,35.04643],[136.99072,35.04639],[136.99082,35.04634],[136.99095,35.04623],[136.99106,35.04615],[136.99121,35.046],[136.99136,35.04581],[136.99177,35.04526],[136.99159,35.04517],[136.99138,35.04506],[136.99122,35.04498],[136.99112,35.04493],[136.9909,35.04476],[136.99073,35.04457],[136.99062,35.04443],[136.99051,35.04429],[136.99035,35.04409],[136.9903,35.044],[136.99021,35.04382],[136.99017,35.04363],[136.98994,35.04367],[136.9896,35.04372],[136.98934,35.04376],[136.98909,35.04378],[136.98881,35.0438],[136.98848,35.04382],[136.98822,35.04382],[136.98785,35.04381],[136.98741,35.04378],[136.98714,35.04375],[136.98652,35.04366],[136.98588,35.04354],[136.98451,35.04325],[136.9845,35.04326],[136.98438,35.04359],[136.98429,35.04376],[136.9842,35.04397],[136.98415,35.04408],[136.9841,35.04422],[136.98406,35.04427],[136.98403,35.04432],[136.98401,35.04434],[136.98374,35.04444],[136.98373,35.04445],[136.98354,35.0445],[136.9833,35.04444],[136.98307,35.04435],[136.98272,35.04423],[136.9824,35.04412],[136.98218,35.04404],[136.98205,35.04399],[136.98179,35.0442],[136.98161,35.04434],[136.98136,35.04446],[136.98118,35.0446],[136.98117,35.04461],[136.98102,35.04482],[136.98092,35.04498],[136.98088,35.04503],[136.9807,35.04521],[136.98014,35.04548],[136.97934,35.04585],[136.97812,35.04577],[136.97798,35.04584],[136.97796,35.04595],[136.97787,35.04608],[136.97715,35.04691],[136.97687,35.04712],[136.97671,35.0473],[136.97649,35.04748],[136.97627,35.04771],[136.97608,35.04791],[136.97577,35.04791],[136.97565,35.04797],[136.97544,35.04807],[136.9753,35.04814],[136.97525,35.04816],[136.97519,35.04818],[136.97494,35.04827],[136.97461,35.04838],[136.97436,35.04859],[136.97417,35.04877],[136.97396,35.04904],[136.97392,35.04912],[136.97373,35.04904],[136.97372,35.04915],[136.97372,35.04917],[136.97372,35.04917],[136.97371,35.04921],[136.97392,35.04928],[136.9743,35.04941],[136.97442,35.0495],[136.97446,35.04951],[136.97464,35.0495],[136.97462,35.04952],[136.9747,35.04954],[136.97471,35.04955],[136.97478,35.04965],[136.9748,35.04971],[136.97483,35.04978],[136.97485,35.04982],[136.97487,35.04985],[136.97487,35.04986],[136.9749,35.04999],[136.97492,35.04999],[136.97496,35.05015],[136.97516,35.05012],[136.97516,35.05015],[136.97517,35.05026],[136.9752,35.05035],[136.97524,35.05066],[136.97524,35.05089],[136.97523,35.05101],[136.97523,35.05112],[136.97527,35.05123],[136.97527,35.05139],[136.97527,35.0514],[136.9751,35.0514],[136.97508,35.05179],[136.9749,35.05178],[136.97462,35.05178],[136.97451,35.05181],[136.97428,35.05194],[136.97412,35.05201],[136.97382,35.05208],[136.9736,35.05212],[136.97362,35.05228],[136.97371,35.0531],[136.97387,35.0532],[136.97422,35.05339],[136.97439,35.05347],[136.97447,35.05353],[136.97453,35.05361],[136.97486,35.05417],[136.97523,35.05406],[136.97567,35.05393]]]}},{"type":"Feature","properties":{"name":"栄町武侍","setai":2465,"jinko":5998,"key":"23229007004","units":1},"geometry":{"type":"MultiPolygon","coordinates":[[[[136.97664,35.06195],[136.97676,35.06189],[136.97689,35.06194],[136.97713,35.062],[136.97718,35.06195],[136.97721,35.06193],[136.97728,35.06187],[136.97758,35.06173],[136.97795,35.0616],[136.97816,35.06147],[136.97819,35.06146],[136.97829,35.06139],[136.97838,35.06132],[136.97867,35.06113],[136.97876,35.0611],[136.97889,35.06109],[136.9791,35.0611],[136.9793,35.06108],[136.97936,35.06108],[136.97938,35.06109],[136.97939,35.06111],[136.97938,35.06116],[136.97872,35.06119],[136.97842,35.0614],[136.97846,35.06146],[136.97882,35.06137],[136.97895,35.0614],[136.97898,35.06131],[136.97936,35.06134],[136.9795,35.06132],[136.97968,35.06128],[136.97979,35.06124],[136.98018,35.06108],[136.98025,35.06109],[136.9804,35.06111],[136.98038,35.0612],[136.98053,35.06123],[136.98056,35.06126],[136.9808,35.06126],[136.98098,35.06123],[136.98099,35.06116],[136.98131,35.06113],[136.98137,35.06122],[136.98147,35.06117],[136.98151,35.06119],[136.98182,35.06109],[136.9819,35.06108],[136.98196,35.06107],[136.98225,35.06098],[136.98232,35.06096],[136.98241,35.06096],[136.98242,35.06096],[136.98254,35.06098],[136.98268,35.06101],[136.98375,35.06115],[136.98387,35.06108],[136.98404,35.06098],[136.98425,35.06088],[136.98449,35.06065],[136.9847,35.06055],[136.98492,35.06048],[136.98511,35.06044],[136.98517,35.06045],[136.98567,35.0602],[136.9859,35.06009],[136.98614,35.05997],[136.98629,35.05987],[136.98599,35.05963],[136.98595,35.0596],[136.98574,35.05977],[136.98547,35.05958],[136.98534,35.05964],[136.98514,35.05948],[136.98495,35.05933],[136.98483,35.05922],[136.98457,35.05901],[136.98419,35.05868],[136.98386,35.05843],[136.98387,35.05841],[136.98379,35.05837],[136.98383,35.05828],[136.98388,35.05822],[136.98377,35.05818],[136.98377,35.05782],[136.98378,35.05746],[136.98383,35.05747],[136.98388,35.05747],[136.98393,35.05727],[136.98391,35.05722],[136.98396,35.05688],[136.98392,35.05667],[136.98387,35.05648],[136.98371,35.05612],[136.98335,35.05621],[136.98333,35.05616],[136.98312,35.0562],[136.98302,35.056],[136.98293,35.0559],[136.98277,35.05579],[136.98251,35.05559],[136.98238,35.05551],[136.98211,35.05579],[136.98198,35.05574],[136.98191,35.05588],[136.98179,35.05604],[136.98154,35.0561],[136.98145,35.05606],[136.98221,35.05486],[136.98233,35.05466],[136.981,35.05395],[136.98048,35.05429],[136.98017,35.05447],[136.97993,35.05415],[136.9806,35.05373],[136.98103,35.05346],[136.98109,35.05341],[136.9812,35.05305],[136.98136,35.05247],[136.98108,35.0523],[136.9811,35.05198],[136.98077,35.0519],[136.98039,35.05197],[136.98018,35.05204],[136.98004,35.05214],[136.97961,35.05247],[136.9794,35.05268],[136.97918,35.05297],[136.97878,35.05312],[136.97848,35.05335],[136.9785,35.0536],[136.97852,35.054],[136.97831,35.05411],[136.97814,35.05417],[136.97808,35.05401],[136.97805,35.05394],[136.97715,35.05366],[136.97711,35.05347],[136.97666,35.05354],[136.97652,35.05357],[136.97628,35.05383],[136.9762,35.05382],[136.97567,35.05393],[136.97523,35.05406],[136.97486,35.05417],[136.97453,35.05361],[136.97447,35.05353],[136.97439,35.05347],[136.97422,35.05339],[136.97387,35.0532],[136.97371,35.0531],[136.97362,35.05228],[136.9736,35.05212],[136.9732,35.05219],[136.97333,35.05242],[136.97331,35.05242],[136.97334,35.0525],[136.97315,35.05256],[136.97312,35.05257],[136.9731,35.05254],[136.9727,35.05257],[136.97269,35.05272],[136.97246,35.05274],[136.97245,35.05318],[136.97244,35.05324],[136.97242,35.05332],[136.97239,35.05342],[136.97242,35.05342],[136.97302,35.05347],[136.97317,35.05345],[136.97321,35.05343],[136.97327,35.0534],[136.97328,35.05343],[136.9733,35.05348],[136.97343,35.05363],[136.9736,35.05384],[136.9734,35.05395],[136.97329,35.05398],[136.973,35.05412],[136.97291,35.05419],[136.97287,35.05421],[136.973,35.05446],[136.9731,35.05464],[136.97312,35.05463],[136.97316,35.05471],[136.97344,35.05496],[136.97343,35.05498],[136.97349,35.05505],[136.97352,35.05507],[136.97353,35.05509],[136.97327,35.05529],[136.97327,35.05529],[136.97325,35.0553],[136.97325,35.0553],[136.97325,35.0553],[136.97321,35.05534],[136.97319,35.05535],[136.97315,35.05534],[136.97304,35.05532],[136.97301,35.0553],[136.97294,35.05535],[136.97277,35.0555],[136.97278,35.05554],[136.97279,35.0556],[136.97294,35.0561],[136.97267,35.05617],[136.97268,35.0562],[136.97285,35.05649],[136.97287,35.05651],[136.97292,35.05651],[136.97293,35.05654],[136.97291,35.05655],[136.97288,35.05657],[136.9729,35.05676],[136.97304,35.05672],[136.97314,35.05691],[136.9732,35.05701],[136.97327,35.05703],[136.97336,35.05704],[136.97338,35.05704],[136.97348,35.0572],[136.97336,35.05727],[136.97323,35.05732],[136.97322,35.05736],[136.97319,35.05743],[136.97324,35.05757],[136.97338,35.05782],[136.97346,35.05815],[136.97358,35.05834],[136.97365,35.05839],[136.97381,35.05854],[136.97385,35.05861],[136.97389,35.05876],[136.97394,35.05883],[136.97394,35.05883],[136.97412,35.05904],[136.97422,35.05929],[136.97437,35.05952],[136.97448,35.05967],[136.97451,35.05971],[136.97458,35.05978],[136.97466,35.05988],[136.97473,35.05994],[136.97478,35.05998],[136.97498,35.06014],[136.97507,35.06024],[136.97521,35.06042],[136.97534,35.0606],[136.97545,35.06069],[136.97553,35.0608],[136.97557,35.06094],[136.97558,35.06096],[136.9756,35.06099],[136.97561,35.06102],[136.97566,35.06108],[136.97573,35.06117],[136.97587,35.06128],[136.97591,35.06131],[136.97598,35.06142],[136.97603,35.06147],[136.97604,35.06151],[136.97606,35.06164],[136.97606,35.06172],[136.97605,35.06174],[136.97605,35.06178],[136.976,35.06194],[136.97591,35.06198],[136.9759,35.062],[136.97581,35.06204],[136.97568,35.0621],[136.97508,35.06238],[136.97495,35.06244],[136.97495,35.06244],[136.97485,35.06249],[136.97445,35.06304],[136.97456,35.06312],[136.97478,35.06301],[136.97523,35.06269],[136.97542,35.0626],[136.9758,35.06231],[136.97588,35.06222],[136.9761,35.06215],[136.9762,35.06207],[136.97664,35.06195]]],[[[136.99592,35.04954],[136.99622,35.04917],[136.99656,35.0497],[136.99708,35.04944],[136.99734,35.04976],[136.99756,35.04964],[136.99804,35.05026],[136.99837,35.05002],[136.99851,35.05014],[136.99941,35.04952],[136.9993,35.04942],[136.9992,35.04928],[136.99915,35.04918],[136.99912,35.04902],[136.99926,35.04874],[136.99973,35.04806],[136.99954,35.04809],[136.99939,35.04813],[136.99909,35.04824],[136.99899,35.04826],[136.99831,35.04839],[136.99743,35.04863],[136.99728,35.04864],[136.99716,35.04861],[136.99742,35.04846],[136.99757,35.04835],[136.99777,35.04818],[136.99788,35.04808],[136.99797,35.04804],[136.99804,35.04792],[136.99817,35.04771],[136.99821,35.04765],[136.99823,35.04757],[136.99805,35.04758],[136.99782,35.04763],[136.9972,35.04763],[136.99703,35.04769],[136.99673,35.04786],[136.99646,35.04799],[136.99615,35.0481],[136.9959,35.04815],[136.99518,35.04816],[136.99465,35.04819],[136.99441,35.04824],[136.99419,35.0483],[136.99388,35.04843],[136.9938,35.04847],[136.9936,35.04858],[136.99362,35.04879],[136.9937,35.04942],[136.99373,35.0496],[136.99373,35.04981],[136.99374,35.04989],[136.9938,35.05008],[136.99381,35.05019],[136.99379,35.05034],[136.99377,35.05043],[136.99377,35.05048],[136.99387,35.05069],[136.9939,35.05076],[136.99401,35.05092],[136.99411,35.05104],[136.99419,35.05114],[136.99368,35.05168],[136.99398,35.05195],[136.99405,35.05183],[136.99418,35.0517],[136.99431,35.0516],[136.99443,35.05154],[136.99454,35.05152],[136.9947,35.05147],[136.99472,35.05135],[136.99489,35.05119],[136.99515,35.05093],[136.99541,35.05053],[136.99571,35.04992],[136.99578,35.04979],[136.99592,35.04954]]]]}},{"type":"Feature","properties":{"name":"間米町","setai":982,"jinko":2314,"key":"232290080","units":1},"geometry":{"type":"Polygon","coordinates":[[[136.99862,35.07366],[136.99865,35.07343],[136.99874,35.07308],[136.9988,35.07292],[136.99893,35.07279],[136.9991,35.07279],[136.99937,35.07285],[136.99971,35.07294],[136.99999,35.07295],[137.00024,35.07287],[137.00053,35.0727],[137.00059,35.07268],[137.00063,35.07259],[137.00068,35.07241],[137.0006,35.07231],[137.00056,35.07212],[137.00032,35.07211],[137.0002,35.0721],[136.9998,35.07197],[136.99969,35.0719],[136.9995,35.07182],[136.99941,35.0718],[136.99945,35.07143],[136.99961,35.07104],[136.99968,35.07079],[136.99969,35.07061],[136.99965,35.07054],[136.99958,35.07049],[136.9994,35.07046],[136.99934,35.07042],[136.99929,35.07021],[136.99943,35.06972],[136.99954,35.06949],[136.9996,35.06923],[136.99969,35.06888],[136.99979,35.06875],[137.00004,35.06878],[137.00027,35.06884],[137.0007,35.06902],[137.00123,35.06892],[137.00132,35.0689],[137.00136,35.06885],[137.00139,35.06881],[137.00141,35.06879],[137.00144,35.06878],[137.00148,35.0688],[137.00152,35.06882],[137.00232,35.06913],[137.00269,35.06873],[137.00279,35.06848],[137.00298,35.0681],[137.00315,35.06803],[137.00331,35.06793],[137.00338,35.06786],[137.00357,35.06775],[137.00406,35.06735],[137.00421,35.06724],[137.00451,35.06705],[137.00466,35.06696],[137.00507,35.06682],[137.00554,35.06684],[137.00571,35.06685],[137.00577,35.06676],[137.00578,35.06651],[137.00588,35.06644],[137.00582,35.06639],[137.00561,35.06644],[137.00549,35.06645],[137.00496,35.06627],[137.0049,35.06622],[137.00464,35.06583],[137.00434,35.06553],[137.00389,35.06509],[137.0038,35.06519],[137.00336,35.06502],[137.00327,35.06497],[137.00315,35.06492],[137.003,35.06482],[137.0031,35.06473],[137.00321,35.06453],[137.00328,35.06437],[137.00331,35.06395],[137.00299,35.06374],[137.00283,35.0639],[137.00254,35.06403],[137.00236,35.06412],[137.00224,35.06403],[137.00175,35.06409],[137.00163,35.06415],[137.00137,35.06419],[137.00144,35.06404],[137.00146,35.06394],[137.00147,35.06386],[137.00147,35.06368],[137.00147,35.0635],[137.00147,35.06329],[137.00143,35.06317],[137.00136,35.06296],[137.00129,35.0628],[137.00122,35.06263],[137.00115,35.06248],[137.00111,35.06238],[137.00101,35.06219],[137.00099,35.06216],[137.00085,35.06206],[137.00077,35.06201],[137.00065,35.06192],[137.00054,35.06183],[137.00048,35.06171],[137.00042,35.06154],[137.00037,35.06136],[137.00032,35.06109],[137.00139,35.06095],[137.00131,35.06047],[137.00126,35.06022],[137.00121,35.06003],[137.00117,35.05991],[137.00119,35.05988],[137.00121,35.05985],[137.00123,35.05981],[137.00128,35.05975],[137.00132,35.05966],[137.00136,35.05959],[137.00136,35.05956],[137.00135,35.05949],[137.00133,35.05941],[137.00131,35.05935],[137.00133,35.05927],[137.00134,35.05915],[137.00134,35.05901],[137.00112,35.05902],[137.00105,35.05852],[137.00142,35.05848],[137.00152,35.05849],[137.00164,35.05833],[137.00151,35.05825],[137.00108,35.05823],[137.00107,35.05787],[137.00107,35.05779],[137.0014,35.05757],[137.00141,35.05754],[137.00113,35.05737],[137.00127,35.05723],[137.00141,35.05711],[137.00195,35.05673],[137.00221,35.05651],[137.00228,35.05594],[137.00224,35.05588],[137.00213,35.05578],[137.00199,35.05564],[137.00193,35.05554],[137.00131,35.05539],[137.0012,35.05528],[137.00107,35.0552],[137.00101,35.0552],[137.0005,35.05524],[137.00052,35.05542],[137.00039,35.0556],[137.00025,35.05578],[137.00015,35.05599],[136.99998,35.05605],[136.99981,35.05612],[136.99967,35.05612],[136.99957,35.05613],[136.99929,35.05634],[136.99924,35.0564],[136.99923,35.05649],[136.99926,35.05655],[136.99925,35.05665],[136.9991,35.05684],[136.99901,35.05698],[136.99873,35.05721],[136.99864,35.05731],[136.99859,35.05737],[136.99856,35.05741],[136.99852,35.05745],[136.99848,35.0575],[136.99847,35.05753],[136.99846,35.05755],[136.99844,35.05759],[136.99843,35.05763],[136.99842,35.05767],[136.99842,35.05769],[136.99841,35.0577],[136.99841,35.0577],[136.99842,35.05771],[136.99844,35.05774],[136.99847,35.05776],[136.99848,35.05779],[136.9985,35.05781],[136.99852,35.05786],[136.99854,35.05789],[136.99855,35.05792],[136.99856,35.05795],[136.99857,35.05796],[136.99857,35.05798],[136.99857,35.05799],[136.99856,35.05802],[136.99856,35.05803],[136.99854,35.05805],[136.99851,35.05808],[136.99849,35.05811],[136.99847,35.05814],[136.99844,35.05816],[136.9984,35.05818],[136.99836,35.05821],[136.99833,35.05823],[136.99828,35.05826],[136.99825,35.05829],[136.99824,35.05832],[136.99824,35.05836],[136.99826,35.0584],[136.99836,35.0586],[136.99844,35.05892],[136.99832,35.05915],[136.99828,35.05924],[136.99848,35.05955],[136.99862,35.05977],[136.99827,35.05995],[136.99805,35.06006],[136.99768,35.06021],[136.99757,35.06029],[136.99748,35.06034],[136.99718,35.06036],[136.99703,35.06037],[136.99698,35.06038],[136.99681,35.06039],[136.99655,35.06033],[136.99649,35.06031],[136.99643,35.06032],[136.99638,35.06031],[136.99603,35.06031],[136.99585,35.06032],[136.99562,35.06035],[136.99553,35.06037],[136.99522,35.06045],[136.99522,35.06045],[136.99516,35.06046],[136.99513,35.06046],[136.99513,35.06046],[136.9949,35.06046],[136.99471,35.06046],[136.99455,35.06046],[136.99454,35.06046],[136.99451,35.0605],[136.99441,35.06062],[136.9944,35.06064],[136.99436,35.06068],[136.99436,35.06104],[136.99441,35.06108],[136.99445,35.06111],[136.99446,35.06114],[136.99445,35.06126],[136.99443,35.0613],[136.99441,35.06133],[136.99432,35.06134],[136.99423,35.06136],[136.99416,35.06137],[136.99413,35.06144],[136.99412,35.06152],[136.99401,35.06165],[136.99394,35.06173],[136.99388,35.06178],[136.99371,35.06183],[136.99429,35.06261],[136.99423,35.0627],[136.99404,35.06261],[136.99382,35.0625],[136.99369,35.06242],[136.99312,35.06207],[136.99294,35.06197],[136.99278,35.06189],[136.9926,35.06185],[136.99242,35.06184],[136.99205,35.06191],[136.99176,35.06197],[136.99132,35.0616],[136.99102,35.06131],[136.99066,35.06089],[136.98976,35.06176],[136.98955,35.06196],[136.98929,35.06222],[136.98935,35.06227],[136.98924,35.06241],[136.98915,35.06249],[136.98907,35.06258],[136.98886,35.06284],[136.98853,35.06322],[136.98828,35.06342],[136.98803,35.06357],[136.98773,35.06379],[136.98758,35.0639],[136.98654,35.06498],[136.98647,35.06528],[136.98642,35.06547],[136.9864,35.06602],[136.98642,35.06603],[136.98668,35.06641],[136.98708,35.06702],[136.98731,35.06737],[136.98741,35.06751],[136.98737,35.06759],[136.98751,35.06944],[136.98751,35.06951],[136.9874,35.07076],[136.98742,35.07123],[136.98737,35.07124],[136.98732,35.07127],[136.9873,35.07133],[136.9873,35.07134],[136.98725,35.07146],[136.98725,35.07146],[136.98729,35.07159],[136.98732,35.0718],[136.98738,35.07197],[136.98747,35.07215],[136.98778,35.07273],[136.98782,35.07279],[136.98816,35.07347],[136.98817,35.07348],[136.98832,35.07342],[136.98866,35.07329],[136.98871,35.07326],[136.98888,35.07317],[136.98889,35.07316],[136.98898,35.0731],[136.98906,35.07307],[136.98924,35.07299],[136.98938,35.07294],[136.98943,35.07292],[136.98944,35.07292],[136.98953,35.0728],[136.98971,35.07264],[136.98985,35.07249],[136.99009,35.07239],[136.99032,35.07236],[136.99065,35.07244],[136.99105,35.07258],[136.9915,35.0727],[136.99172,35.0727],[136.99191,35.07266],[136.99198,35.07263],[136.99203,35.07261],[136.99258,35.07239],[136.99261,35.07237],[136.99267,35.07235],[136.99283,35.0723],[136.993,35.07224],[136.99323,35.07219],[136.99332,35.07215],[136.99363,35.07203],[136.99393,35.07198],[136.994,35.07197],[136.99416,35.07193],[136.99449,35.07178],[136.99448,35.07175],[136.99464,35.07169],[136.99476,35.07171],[136.99555,35.07182],[136.99588,35.07187],[136.99606,35.07192],[136.99625,35.07201],[136.99634,35.07213],[136.99642,35.07247],[136.99648,35.0725],[136.99663,35.07249],[136.99683,35.07258],[136.9969,35.07271],[136.9969,35.07282],[136.99695,35.07294],[136.99704,35.07287],[136.99712,35.07282],[136.99721,35.07281],[136.99736,35.07283],[136.99738,35.07289],[136.99736,35.07297],[136.99719,35.0733],[136.99715,35.07341],[136.99718,35.07353],[136.99725,35.07357],[136.99741,35.07357],[136.9977,35.07356],[136.99787,35.07358],[136.998,35.07366],[136.99809,35.07379],[136.99814,35.07395],[136.99812,35.07406],[136.99812,35.07421],[136.99828,35.07435],[136.99845,35.07444],[136.99852,35.07442],[136.99881,35.07417],[136.99877,35.07406],[136.9987,35.07398],[136.99867,35.07383],[136.99862,35.07366]]]}},{"type":"Feature","properties":{"name":"新栄町一丁目","setai":140,"jinko":343,"key":"23229009001","units":1},"geometry":{"type":"Polygon","coordinates":[[[136.98683,35.05964],[136.98696,35.05956],[136.987,35.05954],[136.9871,35.05953],[136.98719,35.05946],[136.98726,35.05941],[136.98734,35.05938],[136.98742,35.0593],[136.9876,35.05922],[136.98778,35.05915],[136.98802,35.05908],[136.98823,35.05899],[136.98834,35.05891],[136.98844,35.05883],[136.98855,35.05874],[136.98873,35.05863],[136.9889,35.05855],[136.98909,35.05845],[136.98921,35.05839],[136.98933,35.05835],[136.98949,35.05832],[136.98967,35.05831],[136.98976,35.05825],[136.98989,35.05818],[136.99005,35.05808],[136.99029,35.05799],[136.99043,35.05798],[136.99052,35.05798],[136.99061,35.05799],[136.99069,35.05796],[136.99087,35.05784],[136.99099,35.05776],[136.99114,35.05765],[136.99133,35.05761],[136.99146,35.05758],[136.99169,35.05743],[136.99169,35.05743],[136.99177,35.05729],[136.99183,35.05718],[136.99186,35.05711],[136.99191,35.05702],[136.9919,35.05692],[136.99188,35.05684],[136.99186,35.05673],[136.99182,35.05659],[136.99176,35.05644],[136.99168,35.05631],[136.99154,35.05615],[136.99146,35.05609],[136.99144,35.05601],[136.99164,35.05565],[136.99227,35.05541],[136.99241,35.05524],[136.99252,35.05507],[136.99257,35.05498],[136.99256,35.05486],[136.99252,35.05478],[136.99251,35.0547],[136.99229,35.05487],[136.9918,35.05527],[136.99166,35.05537],[136.99112,35.05582],[136.99084,35.05605],[136.99052,35.05631],[136.99027,35.05651],[136.99009,35.05666],[136.98966,35.05701],[136.98917,35.05741],[136.98913,35.05745],[136.98877,35.05775],[136.98831,35.05809],[136.98791,35.05838],[136.98747,35.05865],[136.9873,35.05874],[136.98706,35.05884],[136.98688,35.05894],[136.98671,35.05901],[136.98643,35.05914],[136.98618,35.05926],[136.98596,35.05935],[136.98547,35.05958],[136.98574,35.05977],[136.98595,35.0596],[136.98599,35.05963],[136.98629,35.05987],[136.9864,35.05982],[136.98655,35.05982],[136.98662,35.05981],[136.98666,35.05977],[136.98671,35.05966],[136.98676,35.05965],[136.98683,35.05964]]]}},{"type":"Feature","properties":{"name":"新栄町二丁目","setai":465,"jinko":1128,"key":"23229009002","units":1},"geometry":{"type":"Polygon","coordinates":[[[136.99284,35.05425],[136.99294,35.05409],[136.99309,35.05385],[136.99311,35.05369],[136.99311,35.05353],[136.99311,35.05344],[136.99311,35.05337],[136.99273,35.05339],[136.99221,35.05318],[136.99197,35.05321],[136.9919,35.05316],[136.99174,35.05307],[136.9916,35.053],[136.99145,35.05303],[136.99124,35.05308],[136.99081,35.05305],[136.9906,35.05306],[136.99022,35.05302],[136.99019,35.05324],[136.99016,35.05365],[136.99012,35.05413],[136.9892,35.05404],[136.98884,35.05401],[136.98809,35.05397],[136.98805,35.05396],[136.98734,35.05457],[136.98697,35.05491],[136.98652,35.05531],[136.98757,35.05612],[136.98798,35.05645],[136.98803,35.05655],[136.98808,35.05663],[136.98913,35.05745],[136.98917,35.05741],[136.98966,35.05701],[136.99009,35.05666],[136.99027,35.05651],[136.99052,35.05631],[136.99084,35.05605],[136.99112,35.05582],[136.99166,35.05537],[136.9918,35.05527],[136.99229,35.05487],[136.99251,35.0547],[136.99253,35.05462],[136.99275,35.05437],[136.99284,35.05425]]]}},{"type":"Feature","properties":{"name":"新栄町三丁目","setai":439,"jinko":1176,"key":"23229009003","units":1},"geometry":{"type":"Polygon","coordinates":[[[136.98734,35.05457],[136.98805,35.05396],[136.98809,35.05397],[136.98884,35.05401],[136.9892,35.05404],[136.99012,35.05413],[136.99016,35.05365],[136.99019,35.05324],[136.99022,35.05302],[136.98945,35.05302],[136.98913,35.05282],[136.98891,35.05266],[136.98885,35.05262],[136.98864,35.05252],[136.98859,35.05247],[136.9884,35.05225],[136.98834,35.0522],[136.9882,35.05203],[136.98815,35.05196],[136.98836,35.05181],[136.98861,35.05165],[136.98873,35.05153],[136.98894,35.05129],[136.98892,35.05114],[136.98892,35.05112],[136.9889,35.05109],[136.98887,35.05106],[136.98854,35.05084],[136.98768,35.05065],[136.98778,35.05043],[136.98796,35.05022],[136.98801,35.05015],[136.98765,35.05015],[136.98753,35.05022],[136.98651,35.05086],[136.98541,35.05171],[136.98414,35.05272],[136.98364,35.0531],[136.98514,35.05425],[136.98535,35.05442],[136.98536,35.0544],[136.98652,35.05531],[136.98697,35.05491],[136.98734,35.05457]]]}},{"type":"Feature","properties":{"name":"新栄町四丁目","setai":308,"jinko":744,"key":"23229009004","units":1},"geometry":{"type":"Polygon","coordinates":[[[136.98414,35.05272],[136.98541,35.05171],[136.98651,35.05086],[136.98753,35.05022],[136.98765,35.05015],[136.98726,35.05014],[136.98716,35.05012],[136.98705,35.05012],[136.9869,35.05014],[136.98663,35.05017],[136.98639,35.05016],[136.98595,35.05014],[136.98585,35.05017],[136.98571,35.05022],[136.9856,35.05026],[136.98528,35.05027],[136.98512,35.05029],[136.98489,35.05036],[136.98444,35.05054],[136.98439,35.05056],[136.98411,35.05068],[136.98385,35.05083],[136.98336,35.05109],[136.98308,35.05138],[136.98295,35.05153],[136.98284,35.05156],[136.98272,35.05157],[136.98244,35.05154],[136.98226,35.05167],[136.98161,35.05133],[136.98125,35.05178],[136.98259,35.05253],[136.9826,35.05251],[136.98364,35.0531],[136.98414,35.05272]]]}},{"type":"Feature","properties":{"name":"新栄町五丁目","setai":215,"jinko":553,"key":"23229009005","units":1},"geometry":{"type":"Polygon","coordinates":[[[136.98233,35.05466],[136.98282,35.05393],[136.98302,35.05371],[136.98323,35.05347],[136.98348,35.05325],[136.98351,35.05322],[136.98353,35.05321],[136.98364,35.0531],[136.9826,35.05251],[136.98259,35.05253],[136.98125,35.05178],[136.9811,35.05198],[136.98108,35.0523],[136.98136,35.05247],[136.9812,35.05305],[136.98109,35.05341],[136.98103,35.05346],[136.9806,35.05373],[136.97993,35.05415],[136.98017,35.05447],[136.98048,35.05429],[136.981,35.05395],[136.98233,35.05466]]]}},{"type":"Feature","properties":{"name":"新栄町六丁目","setai":308,"jinko":835,"key":"23229009006","units":1},"geometry":{"type":"Polygon","coordinates":[[[136.98523,35.05622],[136.98562,35.05605],[136.98582,35.05591],[136.98591,35.05583],[136.98615,35.05563],[136.98652,35.05531],[136.98536,35.0544],[136.98535,35.05442],[136.98514,35.05425],[136.98364,35.0531],[136.98353,35.05321],[136.98351,35.05322],[136.98348,35.05325],[136.98323,35.05347],[136.98302,35.05371],[136.98282,35.05393],[136.98233,35.05466],[136.98221,35.05486],[136.98145,35.05606],[136.98154,35.0561],[136.98179,35.05604],[136.98191,35.05588],[136.98198,35.05574],[136.98211,35.05579],[136.98238,35.05551],[136.98251,35.05559],[136.98277,35.05579],[136.98293,35.0559],[136.98302,35.056],[136.98312,35.0562],[136.98333,35.05616],[136.98335,35.05621],[136.98371,35.05612],[136.98387,35.05648],[136.98418,35.05643],[136.98429,35.05641],[136.98465,35.05635],[136.98479,35.05632],[136.98523,35.05622]]]}},{"type":"Feature","properties":{"name":"新栄町七丁目","setai":590,"jinko":1363,"key":"23229009007","units":1},"geometry":{"type":"Polygon","coordinates":[[[136.98877,35.05775],[136.98913,35.05745],[136.98808,35.05663],[136.98803,35.05655],[136.98798,35.05645],[136.98757,35.05612],[136.98652,35.05531],[136.98615,35.05563],[136.98591,35.05583],[136.98582,35.05591],[136.98562,35.05605],[136.98523,35.05622],[136.98479,35.05632],[136.98465,35.05635],[136.98429,35.05641],[136.98418,35.05643],[136.98387,35.05648],[136.98392,35.05667],[136.98396,35.05688],[136.98391,35.05722],[136.98393,35.05727],[136.98388,35.05747],[136.98383,35.05747],[136.98378,35.05746],[136.98377,35.05782],[136.98377,35.05818],[136.98388,35.05822],[136.98383,35.05828],[136.98379,35.05837],[136.98387,35.05841],[136.98386,35.05843],[136.98419,35.05868],[136.98457,35.05901],[136.98483,35.05922],[136.98495,35.05933],[136.98514,35.05948],[136.98534,35.05964],[136.98547,35.05958],[136.98596,35.05935],[136.98618,35.05926],[136.98643,35.05914],[136.98671,35.05901],[136.98688,35.05894],[136.98706,35.05884],[136.9873,35.05874],[136.98747,35.05865],[136.98791,35.05838],[136.98831,35.05809],[136.98877,35.05775]]]}},{"type":"Feature","properties":{"name":"二村台一丁目","setai":529,"jinko":1139,"key":"23229010001","units":1},"geometry":{"type":"Polygon","coordinates":[[[137.00175,35.06409],[137.00224,35.06403],[137.00236,35.06412],[137.00254,35.06403],[137.00283,35.0639],[137.00299,35.06374],[137.0033,35.06342],[137.00353,35.06319],[137.00372,35.06299],[137.00378,35.06294],[137.00406,35.06266],[137.00429,35.06247],[137.00461,35.06228],[137.00483,35.06217],[137.00506,35.0621],[137.00453,35.06106],[137.00429,35.06055],[137.00389,35.06031],[137.00304,35.05979],[137.00319,35.05961],[137.00339,35.05938],[137.0036,35.05913],[137.00368,35.05903],[137.00379,35.0589],[137.00391,35.05873],[137.00397,35.05862],[137.00415,35.05835],[137.0031,35.05759],[137.00304,35.05754],[137.00195,35.05673],[137.00141,35.05711],[137.00127,35.05723],[137.00113,35.05737],[137.00141,35.05754],[137.0014,35.05757],[137.00107,35.05779],[137.00107,35.05787],[137.00108,35.05823],[137.00151,35.05825],[137.00164,35.05833],[137.00152,35.05849],[137.00142,35.05848],[137.00105,35.05852],[137.00112,35.05902],[137.00134,35.05901],[137.00134,35.05915],[137.00133,35.05927],[137.00131,35.05935],[137.00133,35.05941],[137.00135,35.05949],[137.00136,35.05956],[137.00136,35.05959],[137.00132,35.05966],[137.00128,35.05975],[137.00123,35.05981],[137.00121,35.05985],[137.00119,35.05988],[137.00117,35.05991],[137.00121,35.06003],[137.00126,35.06022],[137.00131,35.06047],[137.00139,35.06095],[137.00032,35.06109],[137.00037,35.06136],[137.00042,35.06154],[137.00048,35.06171],[137.00054,35.06183],[137.00065,35.06192],[137.00077,35.06201],[137.00085,35.06206],[137.00099,35.06216],[137.00101,35.06219],[137.00111,35.06238],[137.00115,35.06248],[137.00122,35.06263],[137.00129,35.0628],[137.00136,35.06296],[137.00143,35.06317],[137.00147,35.06329],[137.00147,35.0635],[137.00147,35.06368],[137.00147,35.06386],[137.00146,35.06394],[137.00144,35.06404],[137.00137,35.06419],[137.00163,35.06415],[137.00175,35.06409]]]}},{"type":"Feature","properties":{"name":"二村台二丁目","setai":428,"jinko":945,"key":"23229010002","units":1},"geometry":{"type":"Polygon","coordinates":[[[137.00808,35.06254],[137.00828,35.06253],[137.00881,35.06253],[137.00881,35.063],[137.00927,35.063],[137.00936,35.06299],[137.00945,35.06291],[137.00929,35.06279],[137.00935,35.06263],[137.00943,35.06255],[137.00951,35.06244],[137.00979,35.06216],[137.00972,35.06207],[137.00978,35.06187],[137.00966,35.06184],[137.00963,35.06179],[137.00944,35.06137],[137.00916,35.06117],[137.00898,35.06178],[137.00824,35.06166],[137.00805,35.06166],[137.00784,35.06168],[137.00761,35.06174],[137.00726,35.06186],[137.0065,35.06037],[137.00703,35.06019],[137.00726,35.06007],[137.00749,35.05986],[137.00758,35.0597],[137.00763,35.05951],[137.00692,35.0595],[137.00674,35.05936],[137.00639,35.05952],[137.00627,35.05958],[137.00606,35.05949],[137.00589,35.05942],[137.00548,35.05958],[137.00539,35.05944],[137.00523,35.05924],[137.00507,35.05907],[137.00492,35.05892],[137.00445,35.05857],[137.00415,35.05835],[137.00397,35.05862],[137.00391,35.05873],[137.00379,35.0589],[137.00368,35.05903],[137.0036,35.05913],[137.00339,35.05938],[137.00319,35.05961],[137.00304,35.05979],[137.00389,35.06031],[137.00429,35.06055],[137.00453,35.06106],[137.00506,35.0621],[137.00554,35.06303],[137.00571,35.06336],[137.00595,35.06384],[137.00603,35.06392],[137.00658,35.06365],[137.00688,35.0635],[137.00735,35.06327],[137.00788,35.06308],[137.00783,35.06298],[137.00775,35.06281],[137.00768,35.06267],[137.00778,35.06263],[137.00795,35.06257],[137.00808,35.06254]]]}},{"type":"Feature","properties":{"name":"二村台三丁目","setai":827,"jinko":1568,"key":"23229010003","units":1},"geometry":{"type":"Polygon","coordinates":[[[137.00693,35.0651],[137.00735,35.06474],[137.00765,35.06448],[137.00806,35.06411],[137.00793,35.06402],[137.00783,35.06393],[137.00767,35.06377],[137.00754,35.06361],[137.0075,35.06354],[137.00741,35.0634],[137.00735,35.06327],[137.00688,35.0635],[137.00658,35.06365],[137.00603,35.06392],[137.00595,35.06384],[137.00571,35.06336],[137.00554,35.06303],[137.00506,35.0621],[137.00483,35.06217],[137.00461,35.06228],[137.00429,35.06247],[137.00406,35.06266],[137.00378,35.06294],[137.00372,35.06299],[137.00353,35.06319],[137.0033,35.06342],[137.00299,35.06374],[137.00331,35.06395],[137.00328,35.06437],[137.00321,35.06453],[137.0031,35.06473],[137.003,35.06482],[137.00315,35.06492],[137.00327,35.06497],[137.00336,35.06502],[137.0038,35.06519],[137.00389,35.06509],[137.00434,35.06553],[137.00464,35.06583],[137.0049,35.06622],[137.00496,35.06627],[137.00549,35.06645],[137.00561,35.06644],[137.00582,35.06639],[137.00568,35.06619],[137.00637,35.06559],[137.00693,35.0651]]]}},{"type":"Feature","properties":{"name":"二村台四丁目","setai":368,"jinko":813,"key":"23229010004","units":1},"geometry":{"type":"Polygon","coordinates":[[[137.01047,35.06636],[137.011,35.06555],[137.01128,35.06555],[137.01191,35.06509],[137.01195,35.06506],[137.01221,35.06487],[137.01219,35.06485],[137.01237,35.0647],[137.01252,35.06453],[137.01242,35.06442],[137.01227,35.06429],[137.01203,35.06405],[137.01191,35.06383],[137.01171,35.06393],[137.01145,35.06394],[137.0114,35.06391],[137.01129,35.06371],[137.01136,35.06367],[137.01137,35.06352],[137.01129,35.06338],[137.01124,35.0634],[137.01086,35.06296],[137.01082,35.06292],[137.01072,35.06268],[137.01082,35.06262],[137.01071,35.06243],[137.01068,35.06237],[137.01053,35.06244],[137.01032,35.06257],[137.0101,35.06272],[137.00989,35.06283],[137.00971,35.0629],[137.00961,35.06292],[137.00948,35.06294],[137.00945,35.06291],[137.00936,35.06299],[137.00927,35.063],[137.00881,35.063],[137.00881,35.06253],[137.00828,35.06253],[137.00808,35.06254],[137.00795,35.06257],[137.00778,35.06263],[137.00768,35.06267],[137.00775,35.06281],[137.00783,35.06298],[137.00788,35.06308],[137.00735,35.06327],[137.00741,35.0634],[137.0075,35.06354],[137.00754,35.06361],[137.00767,35.06377],[137.00783,35.06393],[137.00793,35.06402],[137.00806,35.06411],[137.00765,35.06448],[137.00735,35.06474],[137.00693,35.0651],[137.0073,35.06538],[137.00768,35.06564],[137.00812,35.06579],[137.00865,35.06589],[137.0088,35.06592],[137.0095,35.06605],[137.00991,35.06615],[137.01047,35.06636]]]}},{"type":"Feature","properties":{"name":"二村台五丁目","setai":832,"jinko":1524,"key":"23229010005","units":1},"geometry":{"type":"Polygon","coordinates":[[[137.0073,35.06538],[137.00693,35.0651],[137.00637,35.06559],[137.00568,35.06619],[137.00582,35.06639],[137.00588,35.06644],[137.00603,35.06661],[137.0063,35.06685],[137.00654,35.06702],[137.00669,35.06711],[137.00701,35.06728],[137.00728,35.06739],[137.00745,35.06745],[137.00832,35.06762],[137.00871,35.0677],[137.00953,35.06783],[137.00987,35.06727],[137.01005,35.06701],[137.01023,35.06674],[137.01031,35.06659],[137.01034,35.06656],[137.01047,35.06636],[137.00991,35.06615],[137.0095,35.06605],[137.0088,35.06592],[137.00865,35.06589],[137.00812,35.06579],[137.00768,35.06564],[137.0073,35.06538]]]}},{"type":"Feature","properties":{"name":"二村台六丁目","setai":644,"jinko":1185,"key":"23229010006","units":1},"geometry":{"type":"Polygon","coordinates":[[[137.00687,35.06817],[137.007,35.06792],[137.00714,35.06765],[137.00728,35.06739],[137.00701,35.06728],[137.00669,35.06711],[137.00654,35.06702],[137.0063,35.06685],[137.00603,35.06661],[137.00588,35.06644],[137.00578,35.06651],[137.00577,35.06676],[137.00571,35.06685],[137.00554,35.06684],[137.00552,35.06688],[137.00534,35.06719],[137.00526,35.06732],[137.00508,35.06749],[137.00498,35.06757],[137.00498,35.06765],[137.00485,35.06764],[137.00474,35.06776],[137.00472,35.06783],[137.00445,35.06792],[137.00432,35.06792],[137.0036,35.06832],[137.00376,35.06854],[137.00399,35.06882],[137.00429,35.06917],[137.00448,35.06911],[137.00473,35.06902],[137.00527,35.0688],[137.00559,35.06876],[137.00611,35.06868],[137.0063,35.06862],[137.00674,35.06842],[137.00687,35.06817]]]}},{"type":"Feature","properties":{"name":"二村台七丁目","setai":827,"jinko":1839,"key":"23229010007","units":1},"geometry":{"type":"Polygon","coordinates":[[[137.01328,35.07211],[137.01309,35.07152],[137.01305,35.07139],[137.01303,35.0713],[137.01304,35.07121],[137.01305,35.07114],[137.01341,35.0703],[137.01322,35.07018],[137.01352,35.06991],[137.01357,35.06985],[137.0131,35.0695],[137.0134,35.06912],[137.01308,35.06882],[137.01323,35.06871],[137.01347,35.06855],[137.01398,35.06823],[137.01401,35.06819],[137.01425,35.06774],[137.01429,35.06767],[137.01438,35.06753],[137.01421,35.06745],[137.0136,35.06713],[137.01322,35.06694],[137.01315,35.06701],[137.01278,35.06684],[137.01271,35.06697],[137.0121,35.06678],[137.01186,35.06707],[137.01172,35.06722],[137.01154,35.06711],[137.01166,35.06703],[137.01183,35.06689],[137.01177,35.06685],[137.01162,35.06679],[137.01137,35.06673],[137.01109,35.06667],[137.01086,35.06667],[137.01048,35.06667],[137.01031,35.06659],[137.01023,35.06674],[137.01005,35.06701],[137.00987,35.06727],[137.00953,35.06783],[137.00871,35.0677],[137.00832,35.06762],[137.00745,35.06745],[137.00728,35.06739],[137.00714,35.06765],[137.007,35.06792],[137.00687,35.06817],[137.00674,35.06842],[137.0063,35.06862],[137.00611,35.06868],[137.00624,35.0692],[137.00622,35.06968],[137.00716,35.06935],[137.00733,35.06925],[137.00749,35.06911],[137.008,35.06915],[137.00839,35.06928],[137.00858,35.0694],[137.00921,35.06983],[137.01006,35.06968],[137.01027,35.07018],[137.00983,35.07032],[137.0103,35.07072],[137.01063,35.07098],[137.0102,35.0713],[137.01016,35.07133],[137.01007,35.07181],[137.01013,35.07182],[137.01012,35.07203],[137.01033,35.07211],[137.01051,35.0721],[137.01055,35.07226],[137.01076,35.07224],[137.01079,35.07231],[137.01091,35.07223],[137.01245,35.07208],[137.0124,35.07234],[137.01289,35.07251],[137.01307,35.07221],[137.0133,35.07217],[137.01328,35.07211]]]}},{"type":"Feature","properties":{"name":"西川町島原","setai":213,"jinko":482,"key":"23229011001","units":1},"geometry":{"type":"Polygon","coordinates":[[[137.0141,35.05528],[137.01311,35.05456],[137.01267,35.05488],[137.0115,35.05572],[137.01187,35.05602],[137.01223,35.05631],[137.01255,35.05659],[137.01287,35.05687],[137.01304,35.05704],[137.01315,35.05721],[137.01337,35.05761],[137.01354,35.058],[137.01374,35.05842],[137.01399,35.05883],[137.01436,35.05855],[137.01447,35.05853],[137.01493,35.05808],[137.01586,35.05723],[137.01627,35.05685],[137.01623,35.05683],[137.01504,35.05595],[137.0141,35.05528]]]}},{"type":"Feature","properties":{"name":"西川町笹原","setai":341,"jinko":798,"key":"23229011002","units":1},"geometry":{"type":"Polygon","coordinates":[[[137.01187,35.05602],[137.0115,35.05572],[137.01068,35.05632],[137.01033,35.05657],[137.00975,35.05699],[137.00932,35.0573],[137.00954,35.05773],[137.00958,35.05783],[137.01007,35.05869],[137.01027,35.05896],[137.01044,35.05923],[137.01059,35.05947],[137.01085,35.05989],[137.01129,35.06056],[137.0117,35.06028],[137.01285,35.05955],[137.01307,35.05943],[137.01399,35.05883],[137.01374,35.05842],[137.01354,35.058],[137.01337,35.05761],[137.01315,35.05721],[137.01304,35.05704],[137.01287,35.05687],[137.01255,35.05659],[137.01223,35.05631],[137.01187,35.05602]]]}},{"type":"Feature","properties":{"name":"西川町横井","setai":155,"jinko":380,"key":"23229011003","units":1},"geometry":{"type":"Polygon","coordinates":[[[137.00784,35.06168],[137.00805,35.06166],[137.00824,35.06166],[137.00898,35.06178],[137.00916,35.06117],[137.00918,35.06096],[137.00977,35.06095],[137.01029,35.06094],[137.01072,35.06078],[137.01129,35.06056],[137.01085,35.05989],[137.01059,35.05947],[137.01044,35.05923],[137.01027,35.05896],[137.01007,35.05869],[137.00958,35.05783],[137.00954,35.05773],[137.00932,35.0573],[137.00901,35.05751],[137.00833,35.05797],[137.00818,35.05807],[137.00808,35.05815],[137.00799,35.05825],[137.00788,35.0584],[137.00782,35.05853],[137.00774,35.05879],[137.00768,35.05914],[137.00765,35.0594],[137.00763,35.05951],[137.00758,35.0597],[137.00749,35.05986],[137.00726,35.06007],[137.00703,35.06019],[137.0065,35.06037],[137.00726,35.06186],[137.00761,35.06174],[137.00784,35.06168]]]}},{"type":"Feature","properties":{"name":"西川町長田","setai":351,"jinko":829,"key":"23229011004","units":1},"geometry":{"type":"Polygon","coordinates":[[[137.01447,35.05882],[137.01436,35.05855],[137.01399,35.05883],[137.01307,35.05943],[137.01285,35.05955],[137.0117,35.06028],[137.01129,35.06056],[137.01155,35.06099],[137.01188,35.06152],[137.01211,35.0618],[137.01223,35.06193],[137.01247,35.06214],[137.01268,35.0621],[137.014,35.06137],[137.015,35.06083],[137.01513,35.06076],[137.01551,35.06055],[137.01504,35.05977],[137.01447,35.05882]]]}},{"type":"Feature","properties":{"name":"西川町善波","setai":193,"jinko":451,"key":"23229011005","units":1},"geometry":{"type":"Polygon","coordinates":[[[137.01227,35.06429],[137.01298,35.06379],[137.01289,35.06334],[137.01274,35.06294],[137.01258,35.06251],[137.01247,35.06214],[137.01223,35.06193],[137.01211,35.0618],[137.01188,35.06152],[137.01155,35.06099],[137.01129,35.06056],[137.01072,35.06078],[137.01029,35.06094],[137.00977,35.06095],[137.00918,35.06096],[137.00916,35.06117],[137.00944,35.06137],[137.00963,35.06179],[137.00966,35.06184],[137.00978,35.06187],[137.00972,35.06207],[137.00979,35.06216],[137.00951,35.06244],[137.00943,35.06255],[137.00935,35.06263],[137.00929,35.06279],[137.00945,35.06291],[137.00948,35.06294],[137.00961,35.06292],[137.00971,35.0629],[137.00989,35.06283],[137.0101,35.06272],[137.01032,35.06257],[137.01053,35.06244],[137.01068,35.06237],[137.01071,35.06243],[137.01082,35.06262],[137.01072,35.06268],[137.01082,35.06292],[137.01086,35.06296],[137.01124,35.0634],[137.01129,35.06338],[137.01137,35.06352],[137.01136,35.06367],[137.01129,35.06371],[137.0114,35.06391],[137.01145,35.06394],[137.01171,35.06393],[137.01191,35.06383],[137.01203,35.06405],[137.01227,35.06429]]]}},{"type":"Feature","properties":{"name":"西川町広原","setai":9,"jinko":26,"key":"23229011006","units":1},"geometry":{"type":"Polygon","coordinates":[[[137.0153,35.06145],[137.015,35.06083],[137.014,35.06137],[137.01268,35.0621],[137.01247,35.06214],[137.01258,35.06251],[137.01274,35.06294],[137.01289,35.06334],[137.01298,35.06379],[137.01336,35.06353],[137.0137,35.06332],[137.01391,35.06321],[137.01413,35.06311],[137.01428,35.06304],[137.01447,35.06296],[137.01481,35.06285],[137.01516,35.06273],[137.01574,35.06254],[137.01662,35.06226],[137.01677,35.06221],[137.01688,35.06203],[137.01568,35.06158],[137.0153,35.06145]]]}},{"type":"Feature","properties":{"name":"西川町荒巻","setai":17,"jinko":41,"key":"23229011007","units":1},"geometry":{"type":"Polygon","coordinates":[[[137.01193,35.06677],[137.01183,35.06666],[137.01182,35.06659],[137.01186,35.06649],[137.01194,35.06646],[137.01215,35.06634],[137.0123,35.06624],[137.01238,35.06614],[137.01242,35.0661],[137.01246,35.06607],[137.01259,35.06603],[137.01282,35.06588],[137.01356,35.06585],[137.01377,35.06588],[137.01457,35.066],[137.01485,35.06534],[137.01502,35.06491],[137.01505,35.06479],[137.01512,35.06467],[137.0152,35.06456],[137.01532,35.06445],[137.01539,35.06432],[137.01545,35.06413],[137.01551,35.06393],[137.0156,35.06379],[137.01572,35.06365],[137.01578,35.0636],[137.01585,35.06356],[137.01592,35.06353],[137.01601,35.06343],[137.01616,35.06325],[137.01677,35.06221],[137.01662,35.06226],[137.01574,35.06254],[137.01516,35.06273],[137.01481,35.06285],[137.01447,35.06296],[137.01428,35.06304],[137.01413,35.06311],[137.01391,35.06321],[137.0137,35.06332],[137.01336,35.06353],[137.01298,35.06379],[137.01227,35.06429],[137.01242,35.06442],[137.01252,35.06453],[137.01237,35.0647],[137.01219,35.06485],[137.01221,35.06487],[137.01195,35.06506],[137.01191,35.06509],[137.01128,35.06555],[137.011,35.06555],[137.01047,35.06636],[137.01034,35.06656],[137.01031,35.06659],[137.01048,35.06667],[137.01086,35.06667],[137.01109,35.06667],[137.01137,35.06673],[137.01162,35.06679],[137.01177,35.06685],[137.01183,35.06689],[137.01188,35.06686],[137.01193,35.06681],[137.01193,35.06677]]]}}]}