{"type":"FeatureCollection","features":[{"type":"Feature","properties":{"name":"喜沢一丁目","setai":2639,"jinko":4626,"key":"11224001001","units":1,"m":2456,"f":2170,"gk":693,"a0":357,"a1":3123,"a2":914,"a75":476,"ag":[148,99,110,178,348,451,343,324,255,342,357,305,220,191,247,171,169,102,25,9,0],"nf":232},"geometry":{"type":"Polygon","coordinates":[[[139.69919,35.81528],[139.69929,35.81518],[139.69905,35.81421],[139.69892,35.81374],[139.69893,35.81368],[139.69893,35.81365],[139.69893,35.81323],[139.69896,35.81259],[139.69894,35.81217],[139.69894,35.812],[139.69891,35.81128],[139.6989,35.81115],[139.69891,35.81102],[139.6989,35.81093],[139.69891,35.81072],[139.69891,35.81061],[139.69891,35.81044],[139.69886,35.81025],[139.69859,35.81018],[139.69823,35.81014],[139.69807,35.81015],[139.69797,35.81015],[139.69778,35.81014],[139.69763,35.8102],[139.69705,35.81036],[139.69698,35.81039],[139.69639,35.81056],[139.69525,35.8109],[139.69506,35.81096],[139.69449,35.81112],[139.6937,35.81135],[139.69368,35.8114],[139.69354,35.81162],[139.69337,35.81187],[139.69451,35.81234],[139.69449,35.81238],[139.6942,35.81284],[139.69398,35.81322],[139.69377,35.81354],[139.69379,35.81358],[139.69401,35.81403],[139.69425,35.81455],[139.69446,35.81501],[139.6947,35.81552],[139.69491,35.81546],[139.6951,35.81539],[139.6953,35.81533],[139.6955,35.81527],[139.6957,35.81521],[139.69593,35.81569],[139.69617,35.81625],[139.69629,35.81621],[139.69684,35.81605],[139.69745,35.81585],[139.6975,35.81584],[139.69782,35.81574],[139.69802,35.81568],[139.6985,35.81553],[139.69886,35.81542],[139.69898,35.81538],[139.69919,35.81528]]]}},{"type":"Feature","properties":{"name":"喜沢二丁目","setai":1775,"jinko":3926,"key":"11224001002","units":1,"m":1983,"f":1943,"gk":232,"a0":536,"a1":2435,"a2":850,"a75":420,"ag":[181,160,195,166,184,218,253,269,267,360,276,253,189,194,236,179,143,64,30,4,0],"nf":105},"geometry":{"type":"Polygon","coordinates":[[[139.69763,35.8102],[139.69778,35.81014],[139.69797,35.81015],[139.69807,35.81015],[139.69823,35.81014],[139.69859,35.81018],[139.69886,35.81025],[139.69883,35.81016],[139.69879,35.80982],[139.69907,35.80982],[139.69906,35.80964],[139.69899,35.80952],[139.69892,35.80926],[139.6989,35.80909],[139.69886,35.80895],[139.69887,35.80877],[139.69886,35.80871],[139.69885,35.80859],[139.69884,35.80858],[139.69885,35.80858],[139.6988,35.80821],[139.6988,35.8082],[139.69869,35.8079],[139.69865,35.80778],[139.69826,35.80735],[139.69828,35.80726],[139.69831,35.80703],[139.6984,35.80701],[139.69834,35.80676],[139.6983,35.80653],[139.69828,35.80646],[139.69806,35.80651],[139.69774,35.80656],[139.69714,35.80666],[139.69677,35.80672],[139.69661,35.80674],[139.69643,35.80678],[139.69598,35.80691],[139.69585,35.80697],[139.69519,35.80731],[139.69488,35.8075],[139.69461,35.80766],[139.69411,35.80797],[139.6938,35.80816],[139.69347,35.80839],[139.69345,35.8084],[139.69331,35.8085],[139.6932,35.80858],[139.69288,35.80888],[139.69277,35.80899],[139.69225,35.80951],[139.69256,35.8098],[139.69272,35.80997],[139.69315,35.81039],[139.69336,35.81059],[139.69339,35.81064],[139.69351,35.81089],[139.6937,35.81135],[139.69449,35.81112],[139.69506,35.81096],[139.69525,35.8109],[139.69639,35.81056],[139.69698,35.81039],[139.69705,35.81036],[139.69763,35.8102]]]}},{"type":"Feature","properties":{"name":"喜沢南一丁目","setai":1216,"jinko":2977,"key":"11224002001","units":1,"m":1454,"f":1523,"gk":86,"a0":405,"a1":1805,"a2":718,"a75":260,"ag":[89,144,172,120,140,120,116,200,261,229,198,222,199,223,235,147,67,38,5,3,0],"nf":49},"geometry":{"type":"Polygon","coordinates":[[[139.69824,35.80599],[139.69821,35.80596],[139.69817,35.80596],[139.69797,35.80596],[139.69784,35.80576],[139.69777,35.80571],[139.69763,35.80575],[139.69731,35.80582],[139.69663,35.80598],[139.69653,35.80569],[139.69648,35.80556],[139.69627,35.80494],[139.69621,35.80476],[139.69614,35.80455],[139.6961,35.80443],[139.69604,35.80428],[139.69571,35.80328],[139.69569,35.80323],[139.69537,35.8033],[139.69505,35.80337],[139.69449,35.80349],[139.694,35.80358],[139.69346,35.80368],[139.693,35.80373],[139.69241,35.8038],[139.69264,35.80493],[139.69268,35.80515],[139.69268,35.80517],[139.69272,35.80536],[139.69279,35.80568],[139.69305,35.80691],[139.69307,35.80699],[139.69313,35.80725],[139.69319,35.80739],[139.69322,35.80749],[139.69333,35.80764],[139.69343,35.80776],[139.69354,35.80787],[139.69355,35.80789],[139.6938,35.80816],[139.69411,35.80797],[139.69461,35.80766],[139.69488,35.8075],[139.69519,35.80731],[139.69585,35.80697],[139.69598,35.80691],[139.69643,35.80678],[139.69661,35.80674],[139.69677,35.80672],[139.69714,35.80666],[139.69774,35.80656],[139.69806,35.80651],[139.69828,35.80646],[139.69826,35.80643],[139.69826,35.80642],[139.69826,35.80641],[139.69827,35.80638],[139.6983,35.80628],[139.69833,35.8062],[139.69834,35.80613],[139.69824,35.80599]]]}},{"type":"Feature","properties":{"name":"喜沢南二丁目","setai":739,"jinko":1831,"key":"11224002002","units":1,"m":899,"f":932,"gk":64,"a0":309,"a1":1027,"a2":441,"a75":280,"ag":[118,117,74,51,68,90,125,158,128,132,93,110,72,72,89,78,66,90,35,11,0],"nf":54},"geometry":{"type":"Polygon","coordinates":[[[139.69264,35.80493],[139.69241,35.8038],[139.6917,35.80387],[139.69119,35.80391],[139.69093,35.80393],[139.6902,35.80393],[139.69014,35.80439],[139.69004,35.80521],[139.68997,35.80522],[139.68981,35.80523],[139.68981,35.80523],[139.68903,35.80532],[139.68918,35.80627],[139.68918,35.80629],[139.68923,35.80649],[139.68928,35.80676],[139.68931,35.80703],[139.68932,35.80709],[139.68934,35.80721],[139.68938,35.80739],[139.68938,35.80742],[139.68941,35.80755],[139.68945,35.80774],[139.69095,35.80743],[139.69151,35.80729],[139.69159,35.80727],[139.69232,35.80708],[139.69253,35.80702],[139.69305,35.80691],[139.69279,35.80568],[139.69272,35.80536],[139.69268,35.80517],[139.69268,35.80515],[139.69264,35.80493]]]}},{"type":"Feature","properties":{"name":"中町一丁目","setai":1785,"jinko":3894,"key":"11224003001","units":1,"m":2018,"f":1876,"gk":241,"a0":479,"a1":2480,"a2":832,"a75":428,"ag":[150,161,168,193,239,253,254,232,245,336,300,235,193,204,200,177,126,78,32,14,1],"nf":103},"geometry":{"type":"Polygon","coordinates":[[[139.69446,35.81501],[139.69425,35.81455],[139.69401,35.81403],[139.69379,35.81358],[139.69377,35.81354],[139.69398,35.81322],[139.6942,35.81284],[139.69449,35.81238],[139.69451,35.81234],[139.69337,35.81187],[139.69354,35.81162],[139.69368,35.8114],[139.6937,35.81135],[139.69351,35.81089],[139.69339,35.81064],[139.69336,35.81059],[139.69315,35.81039],[139.69272,35.80997],[139.69256,35.8098],[139.69225,35.80951],[139.69192,35.80986],[139.69173,35.81006],[139.69149,35.81027],[139.69109,35.81059],[139.69094,35.81069],[139.6901,35.81106],[139.69005,35.81107],[139.68908,35.81134],[139.68886,35.81138],[139.68862,35.81141],[139.688,35.81149],[139.68789,35.81152],[139.68796,35.8119],[139.68808,35.81251],[139.68822,35.81318],[139.68842,35.81359],[139.68863,35.81402],[139.68917,35.81387],[139.68921,35.81385],[139.68956,35.81375],[139.68989,35.81364],[139.69005,35.81419],[139.69047,35.81406],[139.69079,35.81396],[139.69118,35.81384],[139.69132,35.81379],[139.69152,35.81373],[139.69157,35.81384],[139.69172,35.8142],[139.69211,35.81408],[139.69233,35.81455],[139.69255,35.81507],[139.69264,35.81504],[139.69314,35.81489],[139.69336,35.81535],[139.69345,35.81554],[139.69359,35.81587],[139.69417,35.81569],[139.69464,35.81554],[139.6947,35.81552],[139.69446,35.81501]]]}},{"type":"Feature","properties":{"name":"中町二丁目","setai":1621,"jinko":3611,"key":"11224003002","units":1,"m":1826,"f":1785,"gk":137,"a0":500,"a1":2394,"a2":649,"a75":299,"ag":[191,175,134,170,213,214,287,276,261,305,293,241,134,171,179,130,75,62,26,5,1],"nf":68},"geometry":{"type":"Polygon","coordinates":[[[139.69307,35.80699],[139.69305,35.80691],[139.69253,35.80702],[139.69232,35.80708],[139.69159,35.80727],[139.69151,35.80729],[139.69095,35.80743],[139.68945,35.80774],[139.68894,35.8078],[139.68889,35.80781],[139.68835,35.80789],[139.68801,35.80793],[139.6879,35.80794],[139.68776,35.80796],[139.68776,35.80796],[139.68738,35.80802],[139.68681,35.80809],[139.68667,35.80811],[139.68666,35.80811],[139.68666,35.80811],[139.68687,35.8087],[139.68724,35.80972],[139.68773,35.81103],[139.68789,35.81152],[139.688,35.81149],[139.68862,35.81141],[139.68886,35.81138],[139.68908,35.81134],[139.69005,35.81107],[139.6901,35.81106],[139.69094,35.81069],[139.69109,35.81059],[139.69149,35.81027],[139.69173,35.81006],[139.69192,35.80986],[139.69225,35.80951],[139.69277,35.80899],[139.69288,35.80888],[139.6932,35.80858],[139.69331,35.8085],[139.69345,35.8084],[139.69347,35.80839],[139.6938,35.80816],[139.69355,35.80789],[139.69354,35.80787],[139.69343,35.80776],[139.69333,35.80764],[139.69322,35.80749],[139.69319,35.80739],[139.69313,35.80725],[139.69307,35.80699]]]}},{"type":"Feature","properties":{"name":"下戸田一丁目","setai":875,"jinko":2086,"key":"11224004001","units":1,"m":1015,"f":1071,"gk":88,"a0":321,"a1":1433,"a2":297,"a75":145,"ag":[125,108,88,89,139,187,182,151,140,174,146,132,93,79,73,59,43,28,12,3,0],"nf":35},"geometry":{"type":"Polygon","coordinates":[[[139.6865,35.81524],[139.6865,35.81524],[139.68721,35.81529],[139.68724,35.8153],[139.68762,35.81533],[139.68813,35.81524],[139.68817,35.81461],[139.68818,35.81416],[139.68863,35.81402],[139.68842,35.81359],[139.68822,35.81318],[139.68808,35.81251],[139.68796,35.8119],[139.68789,35.81152],[139.68746,35.81158],[139.68735,35.8116],[139.68711,35.81164],[139.68676,35.81169],[139.6864,35.81174],[139.68609,35.81178],[139.68592,35.81181],[139.68581,35.81183],[139.68549,35.81187],[139.68542,35.81189],[139.68528,35.81191],[139.68453,35.81202],[139.68434,35.81205],[139.6843,35.81206],[139.68334,35.81216],[139.68322,35.81217],[139.68329,35.81221],[139.68344,35.81249],[139.68351,35.81266],[139.68359,35.81287],[139.68359,35.81288],[139.68364,35.81297],[139.68379,35.81333],[139.68389,35.8134],[139.68417,35.81375],[139.68448,35.81416],[139.68448,35.8146],[139.68456,35.81479],[139.68476,35.81521],[139.68499,35.81568],[139.68509,35.81587],[139.68512,35.81585],[139.68513,35.81585],[139.68566,35.81553],[139.68567,35.81553],[139.68614,35.81535],[139.68615,35.81535],[139.68644,35.81526],[139.68646,35.81525],[139.6865,35.81524]]]}},{"type":"Feature","properties":{"name":"下戸田二丁目","setai":1291,"jinko":2473,"key":"11224004002","units":1,"m":1261,"f":1212,"gk":142,"a0":242,"a1":1566,"a2":602,"a75":295,"ag":[79,86,77,99,181,184,206,165,151,186,152,125,117,156,151,113,107,54,13,6,2],"nf":63},"geometry":{"type":"Polygon","coordinates":[[[139.68551,35.81849],[139.68526,35.81789],[139.68504,35.81757],[139.68482,35.81725],[139.6847,35.81708],[139.68451,35.81692],[139.6845,35.81683],[139.68444,35.81671],[139.68426,35.81655],[139.68426,35.81651],[139.68467,35.81616],[139.68483,35.81602],[139.68494,35.81592],[139.68509,35.81587],[139.68499,35.81568],[139.68476,35.81521],[139.68456,35.81479],[139.68448,35.8146],[139.68448,35.81416],[139.68417,35.81375],[139.68389,35.8134],[139.68379,35.81333],[139.68364,35.81297],[139.68359,35.81288],[139.68359,35.81287],[139.68351,35.81266],[139.68344,35.81249],[139.68329,35.81221],[139.68322,35.81217],[139.68254,35.81217],[139.68246,35.81254],[139.68246,35.81264],[139.68238,35.81313],[139.68237,35.81323],[139.68236,35.81331],[139.6823,35.81372],[139.68226,35.81404],[139.68222,35.81437],[139.68219,35.81468],[139.68216,35.81484],[139.68211,35.81512],[139.68208,35.81531],[139.68207,35.81541],[139.68202,35.81584],[139.68198,35.81609],[139.68194,35.81657],[139.68193,35.81661],[139.68186,35.81703],[139.68181,35.81736],[139.68174,35.8179],[139.68171,35.81814],[139.6817,35.81826],[139.68165,35.8186],[139.68204,35.81859],[139.68242,35.81855],[139.68245,35.8185],[139.68252,35.81841],[139.68314,35.81811],[139.68333,35.81803],[139.68343,35.81798],[139.68366,35.8183],[139.68373,35.81841],[139.68375,35.81843],[139.68375,35.81843],[139.68379,35.81849],[139.68396,35.81873],[139.68425,35.81913],[139.68432,35.81923],[139.68455,35.81955],[139.6851,35.81903],[139.68542,35.81874],[139.6854,35.81871],[139.6854,35.81869],[139.6854,35.81869],[139.68541,35.81866],[139.68541,35.81864],[139.68551,35.81849]]]}},{"type":"Feature","properties":{"name":"下前一丁目","setai":2787,"jinko":7115,"key":"11224005001","units":1,"m":3506,"f":3609,"gk":532,"a0":1637,"a1":4506,"a2":902,"a75":436,"ag":[441,731,465,250,274,293,367,645,886,689,467,385,250,239,227,168,147,92,23,5,1],"nf":70},"geometry":{"type":"Polygon","coordinates":[[[139.68687,35.8087],[139.68666,35.80811],[139.68666,35.80811],[139.68611,35.80819],[139.68555,35.80826],[139.68541,35.80828],[139.68506,35.80833],[139.68483,35.80837],[139.68466,35.80839],[139.68429,35.80844],[139.68372,35.80851],[139.68306,35.80845],[139.683,35.80882],[139.68296,35.80909],[139.68294,35.80925],[139.68292,35.80933],[139.68285,35.80978],[139.68283,35.80987],[139.68278,35.8102],[139.68276,35.81041],[139.68276,35.81043],[139.68273,35.81065],[139.68272,35.81078],[139.6827,35.81094],[139.68265,35.81124],[139.68263,35.81138],[139.68262,35.81148],[139.6826,35.81161],[139.68258,35.81173],[139.68254,35.81217],[139.68322,35.81217],[139.68334,35.81216],[139.6843,35.81206],[139.68434,35.81205],[139.68453,35.81202],[139.68528,35.81191],[139.68542,35.81189],[139.68549,35.81187],[139.68581,35.81183],[139.68592,35.81181],[139.68609,35.81178],[139.6864,35.81174],[139.68676,35.81169],[139.68711,35.81164],[139.68735,35.8116],[139.68746,35.81158],[139.68789,35.81152],[139.68773,35.81103],[139.68724,35.80972],[139.68687,35.8087]]]}},{"type":"Feature","properties":{"name":"下前二丁目","setai":1421,"jinko":2816,"key":"11224005002","units":1,"m":1435,"f":1381,"gk":134,"a0":281,"a1":1829,"a2":594,"a75":272,"ag":[89,91,101,107,183,209,166,192,202,183,209,226,152,176,146,125,72,40,33,2,0],"nf":112},"geometry":{"type":"Polygon","coordinates":[[[139.68418,35.80598],[139.68354,35.80589],[139.68339,35.80655],[139.68338,35.80668],[139.68326,35.80723],[139.68322,35.80742],[139.68321,35.80749],[139.68316,35.80779],[139.68314,35.80789],[139.68314,35.80791],[139.68306,35.80845],[139.68372,35.80851],[139.68429,35.80844],[139.68466,35.80839],[139.68483,35.80837],[139.68506,35.80833],[139.68541,35.80828],[139.68555,35.80826],[139.68611,35.80819],[139.68666,35.80811],[139.68667,35.80811],[139.68681,35.80809],[139.68738,35.80802],[139.68776,35.80796],[139.68776,35.80796],[139.6879,35.80794],[139.68801,35.80793],[139.68835,35.80789],[139.68889,35.80781],[139.68894,35.8078],[139.68945,35.80774],[139.68941,35.80755],[139.68938,35.80742],[139.68938,35.80739],[139.68934,35.80721],[139.68932,35.80709],[139.68931,35.80703],[139.68928,35.80676],[139.68923,35.80649],[139.68918,35.80629],[139.68918,35.80627],[139.68828,35.80624],[139.68761,35.80621],[139.68677,35.80621],[139.68597,35.80621],[139.68592,35.8062],[139.68526,35.80613],[139.68509,35.8061],[139.68478,35.80606],[139.68462,35.80604],[139.68418,35.80598]]]}},{"type":"Feature","properties":{"name":"川岸一丁目","setai":781,"jinko":1989,"key":"11224006001","units":1,"m":991,"f":998,"gk":47,"a0":385,"a1":1313,"a2":253,"a75":101,"ag":[89,154,142,129,79,67,93,169,178,235,171,116,76,90,62,43,29,18,8,3,0],"nf":38},"geometry":{"type":"Polygon","coordinates":[[[139.69536,35.80235],[139.69513,35.80157],[139.69379,35.80178],[139.69267,35.80192],[139.69202,35.802],[139.69144,35.80205],[139.6908,35.80211],[139.68937,35.8021],[139.68832,35.80205],[139.6876,35.80196],[139.68689,35.80179],[139.68589,35.80156],[139.6857,35.80152],[139.68519,35.80142],[139.68488,35.80136],[139.68441,35.80127],[139.68425,35.80207],[139.68413,35.80257],[139.68401,35.80333],[139.68451,35.80341],[139.68486,35.80347],[139.68517,35.80352],[139.68541,35.80356],[139.68557,35.80358],[139.68565,35.8036],[139.68648,35.8037],[139.68723,35.8038],[139.68784,35.80387],[139.68834,35.80389],[139.68836,35.80389],[139.68881,35.80391],[139.68888,35.80391],[139.68905,35.80392],[139.68948,35.80393],[139.68952,35.80393],[139.6902,35.80393],[139.69093,35.80393],[139.69119,35.80391],[139.6917,35.80387],[139.69241,35.8038],[139.693,35.80373],[139.69346,35.80368],[139.694,35.80358],[139.69449,35.80349],[139.69505,35.80337],[139.69537,35.8033],[139.69569,35.80323],[139.69563,35.80307],[139.69558,35.803],[139.69536,35.80235]]]}},{"type":"Feature","properties":{"name":"川岸二丁目","setai":1229,"jinko":2863,"key":"11224006002","units":1,"m":1420,"f":1443,"gk":117,"a0":293,"a1":1981,"a2":459,"a75":228,"ag":[56,76,161,231,214,134,113,124,183,310,310,225,137,119,112,95,72,48,12,1,0],"nf":130},"geometry":{"type":"Polygon","coordinates":[[[139.69014,35.80439],[139.6902,35.80393],[139.68952,35.80393],[139.68948,35.80393],[139.68905,35.80392],[139.68888,35.80391],[139.68881,35.80391],[139.68836,35.80389],[139.68834,35.80389],[139.68784,35.80387],[139.68723,35.8038],[139.68648,35.8037],[139.68565,35.8036],[139.68557,35.80358],[139.68541,35.80356],[139.68517,35.80352],[139.68486,35.80347],[139.68451,35.80341],[139.68401,35.80333],[139.68384,35.80433],[139.68367,35.8053],[139.6836,35.80567],[139.68354,35.80589],[139.68418,35.80598],[139.68462,35.80604],[139.68478,35.80606],[139.68509,35.8061],[139.68526,35.80613],[139.68592,35.8062],[139.68597,35.80621],[139.68677,35.80621],[139.68761,35.80621],[139.68828,35.80624],[139.68918,35.80627],[139.68903,35.80532],[139.68981,35.80523],[139.68981,35.80523],[139.68997,35.80522],[139.69004,35.80521],[139.69014,35.80439]]]}},{"type":"Feature","properties":{"name":"川岸三丁目","setai":496,"jinko":814,"key":"11224006003","units":1,"m":432,"f":382,"gk":49,"a0":80,"a1":521,"a2":79,"a75":37,"ag":[17,39,24,30,74,64,31,43,63,65,62,64,25,20,22,19,13,4,1,0,0],"nf":134},"geometry":{"type":"Polygon","coordinates":[[[139.6832,35.80113],[139.68245,35.80107],[139.6823,35.80139],[139.6822,35.80164],[139.68178,35.80249],[139.68176,35.80255],[139.68171,35.80263],[139.68161,35.80284],[139.68147,35.80317],[139.68135,35.80405],[139.68129,35.80449],[139.68131,35.80455],[139.68136,35.80465],[139.68118,35.80482],[139.68111,35.80548],[139.681,35.80555],[139.6819,35.80566],[139.68265,35.80577],[139.68327,35.80586],[139.68354,35.80589],[139.6836,35.80567],[139.68367,35.8053],[139.68384,35.80433],[139.68401,35.80333],[139.68413,35.80257],[139.68425,35.80207],[139.68441,35.80127],[139.68338,35.80114],[139.6832,35.80113]]]}},{"type":"Feature","properties":{"name":"本町一丁目","setai":1648,"jinko":3386,"key":"11224007001","units":1,"m":1582,"f":1804,"gk":149,"a0":402,"a1":2423,"a2":479,"a75":211,"ag":[160,122,120,147,243,257,267,238,249,280,280,267,195,144,124,88,62,47,12,0,2],"nf":82},"geometry":{"type":"Polygon","coordinates":[[[139.68007,35.81224],[139.68049,35.81223],[139.68055,35.81224],[139.6807,35.81223],[139.68073,35.81223],[139.68099,35.81222],[139.68129,35.81221],[139.68177,35.8122],[139.68254,35.81217],[139.68258,35.81173],[139.6826,35.81161],[139.68262,35.81148],[139.68263,35.81138],[139.68265,35.81124],[139.6827,35.81094],[139.68272,35.81078],[139.68273,35.81065],[139.68276,35.81043],[139.68276,35.81041],[139.68278,35.8102],[139.68283,35.80987],[139.68285,35.80978],[139.68292,35.80933],[139.68294,35.80925],[139.68296,35.80909],[139.683,35.80882],[139.68306,35.80845],[139.68279,35.80843],[139.68228,35.80837],[139.68184,35.80832],[139.68154,35.80828],[139.68114,35.80825],[139.68078,35.80822],[139.68043,35.80825],[139.68023,35.80829],[139.68001,35.80837],[139.67989,35.80842],[139.67892,35.80877],[139.67829,35.80905],[139.67744,35.80945],[139.67776,35.8099],[139.67815,35.81041],[139.67809,35.81099],[139.67802,35.81154],[139.67799,35.81175],[139.67796,35.81204],[139.67827,35.81209],[139.67848,35.81212],[139.67863,35.81214],[139.67873,35.81215],[139.6791,35.81221],[139.67939,35.81223],[139.67946,35.81223],[139.68007,35.81224]]]}},{"type":"Feature","properties":{"name":"本町二丁目","setai":964,"jinko":1848,"key":"11224007002","units":1,"m":909,"f":939,"gk":42,"a0":172,"a1":1242,"a2":365,"a75":239,"ag":[72,43,57,62,134,175,156,117,131,142,143,119,63,66,60,79,64,48,28,15,5],"nf":69},"geometry":{"type":"Polygon","coordinates":[[[139.67617,35.8078],[139.67575,35.80727],[139.67519,35.80733],[139.67497,35.80736],[139.67392,35.8074],[139.67397,35.80797],[139.67398,35.80799],[139.67402,35.80872],[139.67406,35.8093],[139.67414,35.80991],[139.67411,35.80992],[139.67413,35.81019],[139.67418,35.81088],[139.67443,35.81097],[139.67481,35.81112],[139.67508,35.81124],[139.67525,35.81132],[139.6762,35.81175],[139.67637,35.81181],[139.67652,35.81183],[139.67793,35.81203],[139.67796,35.81204],[139.67799,35.81175],[139.67802,35.81154],[139.67809,35.81099],[139.67815,35.81041],[139.67776,35.8099],[139.67744,35.80945],[139.67694,35.80884],[139.67664,35.80839],[139.67617,35.8078]]]}},{"type":"Feature","properties":{"name":"本町三丁目","setai":1282,"jinko":2785,"key":"11224007003","units":1,"m":1396,"f":1389,"gk":81,"a0":390,"a1":2000,"a2":338,"a75":164,"ag":[171,107,112,152,161,240,237,198,192,263,240,202,115,84,90,74,33,34,18,5,0],"nf":57},"geometry":{"type":"Polygon","coordinates":[[[139.67395,35.81086],[139.67405,35.81086],[139.67418,35.81088],[139.67413,35.81019],[139.67411,35.80992],[139.67414,35.80991],[139.67406,35.8093],[139.67402,35.80872],[139.67398,35.80799],[139.67397,35.80797],[139.67392,35.8074],[139.67302,35.80747],[139.67268,35.8075],[139.67266,35.8075],[139.67217,35.80753],[139.67173,35.80757],[139.6714,35.8076],[139.67137,35.8076],[139.67086,35.80764],[139.67091,35.80806],[139.67087,35.80823],[139.67066,35.80853],[139.67033,35.80901],[139.67021,35.80922],[139.67012,35.80936],[139.66986,35.80968],[139.66982,35.80975],[139.66971,35.80994],[139.66966,35.81006],[139.66961,35.81029],[139.66961,35.81058],[139.66963,35.81078],[139.66964,35.81085],[139.66967,35.81108],[139.66972,35.81144],[139.67016,35.81142],[139.6707,35.8114],[139.6711,35.81137],[139.67121,35.81135],[139.67162,35.81128],[139.67185,35.81125],[139.67249,35.81111],[139.67256,35.81109],[139.67303,35.81097],[139.67326,35.81092],[139.67362,35.81088],[139.67395,35.81086]]]}},{"type":"Feature","properties":{"name":"本町四丁目","setai":1130,"jinko":2231,"key":"11224007004","units":1,"m":1100,"f":1131,"gk":60,"a0":248,"a1":1624,"a2":289,"a75":130,"ag":[100,74,74,104,178,199,179,162,153,178,222,150,99,81,78,52,41,26,8,2,1],"nf":70},"geometry":{"type":"Polygon","coordinates":[[[139.68043,35.80825],[139.68078,35.80822],[139.68114,35.80825],[139.68154,35.80828],[139.68184,35.80832],[139.68228,35.80837],[139.68279,35.80843],[139.68306,35.80845],[139.68314,35.80791],[139.68314,35.80789],[139.68316,35.80779],[139.68321,35.80749],[139.68322,35.80742],[139.68326,35.80723],[139.68338,35.80668],[139.68339,35.80655],[139.68354,35.80589],[139.68327,35.80586],[139.68265,35.80577],[139.6819,35.80566],[139.681,35.80555],[139.68071,35.80566],[139.68055,35.80572],[139.68018,35.80588],[139.67939,35.80621],[139.67891,35.80643],[139.67803,35.8068],[139.67789,35.80686],[139.67759,35.80697],[139.67734,35.80708],[139.67705,35.80715],[139.67662,35.8072],[139.6762,35.80723],[139.67575,35.80727],[139.67617,35.8078],[139.67664,35.80839],[139.67694,35.80884],[139.67744,35.80945],[139.67829,35.80905],[139.67892,35.80877],[139.67989,35.80842],[139.68001,35.80837],[139.68023,35.80829],[139.68043,35.80825]]]}},{"type":"Feature","properties":{"name":"本町五丁目","setai":1555,"jinko":3088,"key":"11224007005","units":1,"m":1499,"f":1589,"gk":82,"a0":348,"a1":2071,"a2":508,"a75":253,"ag":[137,108,103,118,205,193,224,208,248,246,244,237,148,125,130,103,82,45,17,6,0],"nf":161},"geometry":{"type":"Polygon","coordinates":[[[139.68135,35.80405],[139.68147,35.80317],[139.68102,35.80305],[139.68086,35.80304],[139.68048,35.80307],[139.67963,35.80313],[139.6789,35.80319],[139.6787,35.80321],[139.67845,35.80323],[139.67742,35.80329],[139.67741,35.80329],[139.6773,35.80327],[139.67721,35.80323],[139.67709,35.80316],[139.67696,35.80307],[139.67687,35.80299],[139.67684,35.80299],[139.67575,35.80308],[139.67531,35.80312],[139.67534,35.80344],[139.67537,35.80372],[139.67548,35.80477],[139.67554,35.80531],[139.67555,35.80539],[139.67556,35.80553],[139.67561,35.80594],[139.67566,35.80643],[139.67567,35.80645],[139.67568,35.80656],[139.67569,35.8067],[139.67573,35.80704],[139.67575,35.80727],[139.6762,35.80723],[139.67662,35.8072],[139.67705,35.80715],[139.67734,35.80708],[139.67759,35.80697],[139.67789,35.80686],[139.67803,35.8068],[139.67891,35.80643],[139.67939,35.80621],[139.68018,35.80588],[139.68055,35.80572],[139.68071,35.80566],[139.681,35.80555],[139.68111,35.80548],[139.68118,35.80482],[139.68136,35.80465],[139.68131,35.80455],[139.68129,35.80449],[139.68135,35.80405]]]}},{"type":"Feature","properties":{"name":"南町","setai":1760,"jinko":4231,"key":"112240080","units":1,"m":2069,"f":2162,"gk":138,"a0":651,"a1":2765,"a2":651,"a75":346,"ag":[230,223,198,228,210,160,229,318,311,392,396,308,213,136,169,133,109,70,26,6,2],"nf":164},"geometry":{"type":"Polygon","coordinates":[[[139.67534,35.80344],[139.67531,35.80312],[139.6745,35.80318],[139.6742,35.80321],[139.67358,35.80325],[139.67294,35.8033],[139.67189,35.80338],[139.67036,35.8035],[139.67042,35.8041],[139.67044,35.80425],[139.67049,35.80475],[139.67054,35.80516],[139.67055,35.80535],[139.67065,35.80624],[139.67066,35.80633],[139.67066,35.80634],[139.67073,35.80706],[139.67073,35.80707],[139.67078,35.80765],[139.67086,35.80764],[139.67137,35.8076],[139.6714,35.8076],[139.67173,35.80757],[139.67217,35.80753],[139.67266,35.8075],[139.67268,35.8075],[139.67302,35.80747],[139.67392,35.8074],[139.67497,35.80736],[139.67519,35.80733],[139.67575,35.80727],[139.67573,35.80704],[139.67569,35.8067],[139.67568,35.80656],[139.67567,35.80645],[139.67566,35.80643],[139.67561,35.80594],[139.67556,35.80553],[139.67555,35.80539],[139.67554,35.80531],[139.67548,35.80477],[139.67537,35.80372],[139.67534,35.80344]]]}},{"type":"Feature","properties":{"name":"戸田公園","setai":137,"jinko":484,"key":"112240090","units":1,"m":311,"f":173,"gk":6,"a0":14,"a1":382,"a2":74,"a75":44,"ag":[1,3,10,95,177,17,9,11,12,16,11,16,18,13,17,17,13,10,3,1,0],"nf":14},"geometry":{"type":"Polygon","coordinates":[[[139.67575,35.80308],[139.67684,35.80299],[139.67687,35.80299],[139.67696,35.80307],[139.67709,35.80316],[139.67721,35.80323],[139.6773,35.80327],[139.67741,35.80329],[139.67742,35.80329],[139.67845,35.80323],[139.6787,35.80321],[139.6789,35.80319],[139.67963,35.80313],[139.68048,35.80307],[139.68086,35.80304],[139.68102,35.80305],[139.68147,35.80317],[139.68161,35.80284],[139.68171,35.80263],[139.68176,35.80255],[139.68178,35.80249],[139.6822,35.80164],[139.6823,35.80139],[139.68245,35.80107],[139.68193,35.80102],[139.6814,35.80101],[139.68079,35.80101],[139.68016,35.801],[139.67968,35.80102],[139.67928,35.80103],[139.67916,35.80104],[139.67877,35.80106],[139.67813,35.80111],[139.67736,35.80117],[139.67707,35.8012],[139.67687,35.80121],[139.67657,35.80124],[139.67494,35.80151],[139.67391,35.8017],[139.67297,35.80189],[139.66799,35.80267],[139.66765,35.8027],[139.66441,35.80297],[139.66328,35.80304],[139.66044,35.8028],[139.65909,35.80265],[139.65746,35.80238],[139.65573,35.80204],[139.65417,35.8017],[139.65406,35.80219],[139.65386,35.80302],[139.6538,35.80351],[139.6538,35.80388],[139.65387,35.8044],[139.65393,35.80495],[139.65417,35.80494],[139.65427,35.80485],[139.65431,35.80481],[139.65434,35.80476],[139.65434,35.80473],[139.65538,35.80466],[139.65693,35.80453],[139.66002,35.80429],[139.66508,35.8039],[139.66687,35.80376],[139.66873,35.80361],[139.67036,35.8035],[139.67189,35.80338],[139.67294,35.8033],[139.67358,35.80325],[139.6742,35.80321],[139.6745,35.80318],[139.67531,35.80312],[139.67575,35.80308]]]}},{"type":"Feature","properties":{"name":"上戸田一丁目","setai":897,"jinko":1536,"key":"11224010001","units":1,"m":789,"f":747,"gk":52,"a0":189,"a1":1052,"a2":195,"a75":110,"ag":[90,55,44,41,131,158,144,130,104,124,101,66,53,44,41,42,40,18,9,0,1],"nf":100},"geometry":{"type":"Polygon","coordinates":[[[139.67762,35.8212],[139.67789,35.82107],[139.67788,35.82104],[139.67785,35.821],[139.67782,35.82092],[139.67777,35.82082],[139.67777,35.8208],[139.67767,35.82061],[139.67782,35.82054],[139.67795,35.82048],[139.67804,35.8204],[139.67812,35.82036],[139.67828,35.82029],[139.6784,35.82024],[139.67854,35.82017],[139.67856,35.82016],[139.67856,35.82016],[139.67852,35.82011],[139.67856,35.82009],[139.67866,35.82004],[139.67875,35.81998],[139.67882,35.81995],[139.67887,35.81992],[139.67898,35.81986],[139.67911,35.81979],[139.6792,35.81977],[139.67929,35.81979],[139.67926,35.81974],[139.67923,35.81967],[139.67923,35.81964],[139.67923,35.8196],[139.67923,35.81959],[139.67923,35.81944],[139.67996,35.81935],[139.6801,35.81933],[139.6802,35.81898],[139.68021,35.81895],[139.6803,35.81861],[139.68042,35.81861],[139.68058,35.81863],[139.68069,35.81866],[139.68074,35.81867],[139.6808,35.81869],[139.68083,35.81869],[139.68088,35.81871],[139.6809,35.81873],[139.68101,35.81877],[139.68116,35.81883],[139.6813,35.8189],[139.6814,35.81893],[139.68153,35.81893],[139.6816,35.81894],[139.68165,35.8186],[139.6817,35.81826],[139.68171,35.81814],[139.68174,35.8179],[139.68181,35.81736],[139.68186,35.81703],[139.68193,35.81661],[139.68194,35.81657],[139.68078,35.81647],[139.67978,35.81641],[139.67886,35.81636],[139.67718,35.81626],[139.67719,35.81671],[139.67716,35.8167],[139.67719,35.81789],[139.67718,35.81831],[139.67718,35.81833],[139.67718,35.81873],[139.67718,35.81875],[139.67718,35.81916],[139.67717,35.81961],[139.67715,35.81961],[139.67716,35.82013],[139.67715,35.82062],[139.67715,35.82093],[139.67714,35.82123],[139.67717,35.82122],[139.67727,35.82118],[139.67736,35.82119],[139.67747,35.82127],[139.67762,35.8212]]]}},{"type":"Feature","properties":{"name":"上戸田二丁目","setai":1668,"jinko":3241,"key":"11224010002","units":1,"m":1553,"f":1688,"gk":121,"a0":410,"a1":2228,"a2":503,"a75":253,"ag":[133,141,136,123,234,324,255,245,215,271,235,192,134,133,117,112,72,42,23,4,0],"nf":100},"geometry":{"type":"Polygon","coordinates":[[[139.68246,35.81254],[139.68254,35.81217],[139.68177,35.8122],[139.68129,35.81221],[139.68099,35.81222],[139.68073,35.81223],[139.6807,35.81223],[139.68055,35.81224],[139.68049,35.81223],[139.68007,35.81224],[139.67946,35.81223],[139.67939,35.81223],[139.6791,35.81221],[139.67873,35.81215],[139.67863,35.81214],[139.67848,35.81212],[139.67827,35.81209],[139.67796,35.81204],[139.67793,35.81203],[139.67785,35.81224],[139.67778,35.81243],[139.67769,35.81303],[139.67765,35.81381],[139.67764,35.81384],[139.67755,35.81434],[139.6775,35.81459],[139.67742,35.81505],[139.67732,35.81545],[139.67731,35.81547],[139.67725,35.81585],[139.67718,35.81626],[139.67886,35.81636],[139.67978,35.81641],[139.68078,35.81647],[139.68194,35.81657],[139.68198,35.81609],[139.68202,35.81584],[139.68207,35.81541],[139.68208,35.81531],[139.68211,35.81512],[139.68216,35.81484],[139.68219,35.81468],[139.68222,35.81437],[139.68226,35.81404],[139.6823,35.81372],[139.68236,35.81331],[139.68237,35.81323],[139.68238,35.81313],[139.68246,35.81264],[139.68246,35.81254]]]}},{"type":"Feature","properties":{"name":"上戸田三丁目","setai":1301,"jinko":2679,"key":"11224010003","units":1,"m":1368,"f":1311,"gk":80,"a0":294,"a1":1832,"a2":462,"a75":241,"ag":[86,90,118,122,182,214,176,147,173,254,230,209,125,111,110,108,79,39,13,2,0],"nf":91},"geometry":{"type":"Polygon","coordinates":[[[139.67418,35.81088],[139.67405,35.81086],[139.67407,35.81141],[139.67409,35.81176],[139.67409,35.81179],[139.67412,35.81244],[139.67412,35.81247],[139.67414,35.81283],[139.67414,35.81286],[139.67415,35.81328],[139.67417,35.81378],[139.67417,35.81381],[139.67419,35.81436],[139.6742,35.81482],[139.67421,35.81483],[139.67423,35.81527],[139.67423,35.8153],[139.67423,35.81569],[139.67424,35.81609],[139.67585,35.81618],[139.67718,35.81626],[139.67725,35.81585],[139.67731,35.81547],[139.67732,35.81545],[139.67742,35.81505],[139.6775,35.81459],[139.67755,35.81434],[139.67764,35.81384],[139.67765,35.81381],[139.67769,35.81303],[139.67778,35.81243],[139.67785,35.81224],[139.67793,35.81203],[139.67652,35.81183],[139.67637,35.81181],[139.6762,35.81175],[139.67525,35.81132],[139.67508,35.81124],[139.67481,35.81112],[139.67443,35.81097],[139.67418,35.81088]]]}},{"type":"Feature","properties":{"name":"上戸田四丁目","setai":1042,"jinko":2159,"key":"11224010004","units":1,"m":1111,"f":1048,"gk":146,"a0":304,"a1":1502,"a2":293,"a75":129,"ag":[86,102,116,98,158,165,126,132,171,230,151,161,110,83,81,62,30,27,10,0,0],"nf":60},"geometry":{"type":"Polygon","coordinates":[[[139.67716,35.82013],[139.67715,35.81961],[139.67717,35.81961],[139.67718,35.81916],[139.67718,35.81875],[139.67718,35.81873],[139.67718,35.81833],[139.67718,35.81831],[139.67719,35.81789],[139.67716,35.8167],[139.67719,35.81671],[139.67718,35.81626],[139.67585,35.81618],[139.67424,35.81609],[139.67426,35.81649],[139.67427,35.81687],[139.67428,35.81727],[139.67428,35.81737],[139.6743,35.81766],[139.67431,35.81782],[139.67437,35.81815],[139.67447,35.81865],[139.67457,35.81909],[139.67457,35.8191],[139.67458,35.81914],[139.67469,35.81964],[139.67495,35.82005],[139.67509,35.82021],[139.67528,35.82043],[139.67604,35.82127],[139.67618,35.82142],[139.67619,35.82144],[139.67632,35.82159],[139.67641,35.82157],[139.67714,35.82123],[139.67715,35.82093],[139.67715,35.82062],[139.67716,35.82013]]]}},{"type":"Feature","properties":{"name":"上戸田五丁目","setai":855,"jinko":1860,"key":"11224010005","units":1,"m":907,"f":953,"gk":63,"a0":257,"a1":1300,"a2":265,"a75":144,"ag":[94,85,78,73,105,168,182,154,157,140,130,108,83,57,64,52,42,24,14,10,2],"nf":38},"geometry":{"type":"Polygon","coordinates":[[[139.67415,35.81328],[139.67414,35.81286],[139.67414,35.81283],[139.67412,35.81247],[139.67412,35.81244],[139.67409,35.81179],[139.67409,35.81176],[139.67407,35.81141],[139.67405,35.81086],[139.67395,35.81086],[139.67362,35.81088],[139.67326,35.81092],[139.67303,35.81097],[139.67256,35.81109],[139.67249,35.81111],[139.67185,35.81125],[139.67162,35.81128],[139.67121,35.81135],[139.6711,35.81137],[139.6707,35.8114],[139.67016,35.81142],[139.66972,35.81144],[139.66977,35.8118],[139.66999,35.81207],[139.67,35.81209],[139.67038,35.81253],[139.6706,35.81276],[139.67076,35.81289],[139.67082,35.81291],[139.67098,35.81296],[139.67119,35.81292],[139.67157,35.81307],[139.67181,35.81331],[139.67193,35.81344],[139.67206,35.81369],[139.67216,35.81387],[139.67236,35.81426],[139.67245,35.81454],[139.67251,35.81491],[139.67265,35.81529],[139.67266,35.81534],[139.67287,35.81567],[139.67319,35.81605],[139.67424,35.81609],[139.67423,35.81569],[139.67423,35.8153],[139.67423,35.81527],[139.67421,35.81483],[139.6742,35.81482],[139.67419,35.81436],[139.67417,35.81381],[139.67417,35.81378],[139.67415,35.81328]]]}},{"type":"Feature","properties":{"name":"大字上戸田","setai":933,"jinko":2568,"key":"112240110","units":1,"m":1260,"f":1308,"gk":79,"a0":559,"a1":1616,"a2":346,"a75":188,"ag":[138,213,208,99,91,113,139,194,295,277,175,134,99,88,70,50,56,39,24,12,7],"nf":47},"geometry":{"type":"Polygon","coordinates":[[[139.67415,35.82197],[139.67417,35.82197],[139.67426,35.822],[139.6743,35.822],[139.67439,35.82199],[139.6745,35.82198],[139.67463,35.82198],[139.67478,35.82194],[139.67482,35.82193],[139.67485,35.82193],[139.67497,35.82189],[139.67524,35.82182],[139.67533,35.8218],[139.67542,35.8218],[139.67548,35.82177],[139.67555,35.82175],[139.67569,35.82172],[139.67584,35.82171],[139.67587,35.8217],[139.67599,35.82167],[139.67616,35.82162],[139.67625,35.82158],[139.67632,35.82159],[139.67619,35.82144],[139.67618,35.82142],[139.67604,35.82127],[139.67528,35.82043],[139.67509,35.82021],[139.67495,35.82005],[139.67469,35.81964],[139.67458,35.81914],[139.67457,35.8191],[139.67457,35.81909],[139.67447,35.81865],[139.67437,35.81815],[139.67431,35.81782],[139.67382,35.81785],[139.67321,35.81788],[139.67258,35.81792],[139.67197,35.81796],[139.67215,35.81979],[139.67219,35.82002],[139.67226,35.82078],[139.6723,35.82115],[139.6723,35.82137],[139.67229,35.82167],[139.67229,35.82217],[139.67238,35.82216],[139.67246,35.82216],[139.67256,35.82215],[139.67264,35.82214],[139.67279,35.82207],[139.67282,35.82206],[139.67283,35.82206],[139.67298,35.82204],[139.67337,35.822],[139.67376,35.82198],[139.67415,35.82197]]]}},{"type":"Feature","properties":{"name":"新曽南一丁目","setai":635,"jinko":1327,"key":"11224012001","units":1,"m":664,"f":663,"gk":38,"a0":178,"a1":909,"a2":192,"a75":84,"ag":[68,57,53,58,86,120,102,91,86,89,75,116,86,71,37,35,31,14,3,1,0],"nf":48},"geometry":{"type":"Polygon","coordinates":[[[139.67091,35.80806],[139.67086,35.80764],[139.67078,35.80765],[139.66914,35.80777],[139.66833,35.80784],[139.66728,35.80792],[139.66735,35.8086],[139.66744,35.80943],[139.66751,35.80985],[139.66754,35.81004],[139.66767,35.81042],[139.66775,35.81065],[139.66797,35.81116],[139.66811,35.81151],[139.6684,35.8115],[139.66857,35.81148],[139.66865,35.81148],[139.66895,35.81147],[139.66916,35.81146],[139.6694,35.81145],[139.66972,35.81144],[139.66967,35.81108],[139.66964,35.81085],[139.66963,35.81078],[139.66961,35.81058],[139.66961,35.81029],[139.66966,35.81006],[139.66971,35.80994],[139.66982,35.80975],[139.66986,35.80968],[139.67012,35.80936],[139.67021,35.80922],[139.67033,35.80901],[139.67066,35.80853],[139.67087,35.80823],[139.67091,35.80806]]]}},{"type":"Feature","properties":{"name":"新曽南二丁目","setai":1002,"jinko":2393,"key":"11224012002","units":1,"m":1254,"f":1139,"gk":37,"a0":434,"a1":1577,"a2":327,"a75":157,"ag":[106,156,172,131,107,159,158,163,244,248,170,117,80,82,88,85,48,12,8,4,0],"nf":55},"geometry":{"type":"Polygon","coordinates":[[[139.66453,35.812],[139.66572,35.81185],[139.66716,35.81165],[139.66811,35.81151],[139.66797,35.81116],[139.66775,35.81065],[139.66767,35.81042],[139.66754,35.81004],[139.66751,35.80985],[139.66744,35.80943],[139.66735,35.8086],[139.66728,35.80792],[139.66635,35.80799],[139.66557,35.80805],[139.66281,35.80826],[139.66289,35.80891],[139.66292,35.80915],[139.66297,35.80959],[139.66275,35.81033],[139.66277,35.81115],[139.66276,35.81121],[139.66269,35.81183],[139.66287,35.81187],[139.66289,35.81187],[139.66292,35.81187],[139.66314,35.8119],[139.66342,35.81195],[139.66368,35.81197],[139.66398,35.81199],[139.66423,35.81199],[139.66436,35.81199],[139.66453,35.812]]]}},{"type":"Feature","properties":{"name":"新曽南三丁目","setai":1136,"jinko":3298,"key":"11224012003","units":1,"m":1633,"f":1665,"gk":224,"a0":607,"a1":2202,"a2":403,"a75":174,"ag":[285,218,104,110,101,112,250,386,284,280,257,240,182,121,108,93,44,24,9,4,0],"nf":86},"geometry":{"type":"Polygon","coordinates":[[[139.67073,35.80706],[139.67066,35.80634],[139.67066,35.80633],[139.67065,35.80624],[139.67055,35.80535],[139.67054,35.80516],[139.67049,35.80475],[139.67044,35.80425],[139.67042,35.8041],[139.67036,35.8035],[139.66873,35.80361],[139.66687,35.80376],[139.66508,35.8039],[139.66527,35.80558],[139.6654,35.80675],[139.66544,35.80675],[139.66549,35.80731],[139.6655,35.8074],[139.66557,35.80805],[139.66635,35.80799],[139.66728,35.80792],[139.66833,35.80784],[139.66914,35.80777],[139.67078,35.80765],[139.67073,35.80707],[139.67073,35.80706]]]}},{"type":"Feature","properties":{"name":"新曽南四丁目","setai":259,"jinko":784,"key":"11224012004","units":1,"m":357,"f":427,"gk":20,"a0":101,"a1":397,"a2":257,"a75":185,"ag":[31,31,39,41,20,23,38,38,59,70,48,33,27,35,37,31,42,55,36,18,3],"nf":29},"geometry":{"type":"Polygon","coordinates":[[[139.66549,35.80731],[139.66544,35.80675],[139.6654,35.80675],[139.66527,35.80558],[139.66508,35.8039],[139.66002,35.80429],[139.6602,35.80597],[139.66032,35.80704],[139.66033,35.80714],[139.66047,35.80843],[139.66187,35.80833],[139.6624,35.80829],[139.66241,35.80829],[139.66281,35.80826],[139.66557,35.80805],[139.6655,35.8074],[139.66549,35.80731]]]}},{"type":"Feature","properties":{"name":"氷川町一丁目","setai":633,"jinko":1586,"key":"11224013001","units":1,"m":785,"f":801,"gk":18,"a0":218,"a1":1070,"a2":225,"a75":121,"ag":[47,66,105,92,100,79,83,97,112,173,151,123,60,57,47,49,41,22,4,4,1],"nf":73},"geometry":{"type":"Polygon","coordinates":[[[139.66153,35.81177],[139.66188,35.81175],[139.66199,35.81176],[139.66233,35.81177],[139.66259,35.81181],[139.66269,35.81183],[139.66276,35.81121],[139.66277,35.81115],[139.66275,35.81033],[139.66297,35.80959],[139.66292,35.80915],[139.66289,35.80891],[139.66281,35.80826],[139.66241,35.80829],[139.6624,35.80829],[139.66187,35.80833],[139.66047,35.80843],[139.65876,35.80857],[139.65649,35.80874],[139.65764,35.80949],[139.65874,35.81018],[139.65928,35.81052],[139.66088,35.81155],[139.6609,35.81163],[139.66092,35.81183],[139.66112,35.81181],[139.66153,35.81177]]]}},{"type":"Feature","properties":{"name":"氷川町二丁目","setai":336,"jinko":743,"key":"11224013002","units":1,"m":373,"f":370,"gk":37,"a0":80,"a1":403,"a2":210,"a75":126,"ag":[21,23,36,28,42,27,41,35,41,55,46,45,43,36,48,49,30,26,15,5,1],"nf":50},"geometry":{"type":"Polygon","coordinates":[[[139.6555,35.80812],[139.65494,35.80775],[139.65428,35.80783],[139.65432,35.80796],[139.65435,35.80814],[139.65441,35.80859],[139.65441,35.8086],[139.6545,35.80912],[139.6545,35.80925],[139.6545,35.80932],[139.65452,35.80947],[139.65452,35.8095],[139.65455,35.80971],[139.65465,35.81027],[139.65469,35.81052],[139.65471,35.81062],[139.65474,35.81074],[139.65481,35.81096],[139.65486,35.81114],[139.65494,35.81134],[139.65502,35.81159],[139.65513,35.81182],[139.65519,35.81195],[139.65531,35.81223],[139.65545,35.81254],[139.65552,35.81273],[139.6556,35.81271],[139.65655,35.81253],[139.65711,35.81241],[139.6577,35.8123],[139.65821,35.81221],[139.65847,35.81216],[139.65864,35.81214],[139.65879,35.81211],[139.65933,35.81201],[139.65983,35.81195],[139.65994,35.81194],[139.66017,35.81191],[139.66089,35.81183],[139.66092,35.81183],[139.6609,35.81163],[139.66088,35.81155],[139.65928,35.81052],[139.65874,35.81018],[139.65764,35.80949],[139.65649,35.80874],[139.65614,35.80854],[139.6555,35.80812]]]}},{"type":"Feature","properties":{"name":"氷川町三丁目","setai":289,"jinko":662,"key":"11224013003","units":1,"m":359,"f":303,"gk":8,"a0":129,"a1":466,"a2":28,"a75":13,"ag":[57,49,23,30,23,37,76,73,61,61,47,41,17,8,7,4,5,3,1,0,0],"nf":39},"geometry":{"type":"Polygon","coordinates":[[[139.66047,35.80843],[139.66033,35.80714],[139.66032,35.80704],[139.6602,35.80597],[139.66002,35.80429],[139.65693,35.80453],[139.65538,35.80466],[139.65434,35.80473],[139.65434,35.80476],[139.65431,35.80481],[139.65427,35.80485],[139.65417,35.80494],[139.65393,35.80495],[139.65397,35.80524],[139.65398,35.80542],[139.65398,35.80543],[139.65409,35.80622],[139.65416,35.80679],[139.65417,35.80705],[139.65428,35.80783],[139.65494,35.80775],[139.6555,35.80812],[139.65614,35.80854],[139.65649,35.80874],[139.65876,35.80857],[139.66047,35.80843]]]}},{"type":"Feature","properties":{"name":"大字新曽小玉，柳原","setai":4261,"jinko":8027,"key":"11224014001","units":1,"m":4116,"f":3911,"gk":316,"a0":900,"a1":5463,"a2":1242,"a75":626,"ag":[324,317,259,265,567,795,605,584,560,609,554,549,375,281,335,255,175,119,60,16,1],"nf":422},"geometry":{"type":"Polygon","coordinates":[[[139.66829,35.82327],[139.66832,35.82325],[139.66838,35.82326],[139.66844,35.82328],[139.66883,35.82317],[139.66923,35.82306],[139.66923,35.82303],[139.6691,35.82277],[139.6691,35.82277],[139.66933,35.82269],[139.66935,35.82268],[139.66943,35.82266],[139.66972,35.82254],[139.66977,35.82251],[139.66981,35.82246],[139.66986,35.82245],[139.66986,35.82245],[139.66996,35.82246],[139.67009,35.82246],[139.67023,35.82247],[139.67039,35.82246],[139.67054,35.82245],[139.67063,35.82244],[139.67064,35.82239],[139.67067,35.82236],[139.67093,35.82236],[139.67108,35.82236],[139.67126,35.82235],[139.67136,35.82234],[139.67151,35.82232],[139.67163,35.82229],[139.67175,35.82223],[139.67176,35.82222],[139.67213,35.82219],[139.67229,35.82217],[139.67229,35.82167],[139.6723,35.82137],[139.6723,35.82115],[139.67226,35.82078],[139.67219,35.82002],[139.67215,35.81979],[139.67197,35.81796],[139.67258,35.81792],[139.67321,35.81788],[139.67382,35.81785],[139.67431,35.81782],[139.6743,35.81766],[139.67428,35.81737],[139.67428,35.81727],[139.67427,35.81687],[139.67426,35.81649],[139.67424,35.81609],[139.67319,35.81605],[139.67287,35.81567],[139.67266,35.81534],[139.67265,35.81529],[139.67251,35.81491],[139.67245,35.81454],[139.67236,35.81426],[139.67216,35.81387],[139.67206,35.81369],[139.67193,35.81344],[139.67181,35.81331],[139.67157,35.81307],[139.67119,35.81292],[139.67098,35.81296],[139.67082,35.81291],[139.67076,35.81289],[139.6706,35.81276],[139.67038,35.81253],[139.67,35.81209],[139.66999,35.81207],[139.66977,35.8118],[139.66972,35.81144],[139.6694,35.81145],[139.66916,35.81146],[139.66895,35.81147],[139.66865,35.81148],[139.66857,35.81148],[139.6684,35.8115],[139.66811,35.81151],[139.66716,35.81165],[139.66572,35.81185],[139.66585,35.81243],[139.66602,35.81266],[139.66614,35.81328],[139.66611,35.81379],[139.66619,35.81457],[139.66621,35.81488],[139.66622,35.81508],[139.66624,35.81528],[139.66633,35.8164],[139.66517,35.81645],[139.66517,35.8165],[139.66512,35.8165],[139.66512,35.81653],[139.66574,35.81663],[139.66608,35.81676],[139.66639,35.8169],[139.66639,35.817],[139.66643,35.81762],[139.66645,35.81786],[139.66648,35.81825],[139.66586,35.81828],[139.66527,35.81832],[139.66405,35.81838],[139.66408,35.81868],[139.6641,35.81894],[139.66416,35.81954],[139.66419,35.81986],[139.66423,35.82024],[139.66425,35.8206],[139.66437,35.8221],[139.66558,35.82201],[139.66594,35.822],[139.66701,35.82195],[139.6674,35.82193],[139.66689,35.82279],[139.66689,35.82304],[139.66693,35.82349],[139.66695,35.82388],[139.66705,35.82385],[139.66751,35.82369],[139.66767,35.82363],[139.66768,35.82359],[139.66769,35.82359],[139.66771,35.82357],[139.66773,35.82356],[139.66815,35.82334],[139.66829,35.82327]]]}},{"type":"Feature","properties":{"name":"大字新曽稲荷","setai":3592,"jinko":7646,"key":"11224014002","units":1,"m":3828,"f":3818,"gk":210,"a0":1235,"a1":5306,"a2":799,"a75":454,"ag":[402,429,404,419,563,620,624,586,676,680,533,384,221,191,154,160,123,96,52,18,5],"nf":306},"geometry":{"type":"Polygon","coordinates":[[[139.66314,35.82868],[139.66356,35.82843],[139.6637,35.82831],[139.66395,35.82814],[139.66401,35.82811],[139.66403,35.82809],[139.66408,35.82806],[139.66421,35.82798],[139.66426,35.82794],[139.66431,35.8279],[139.66433,35.82789],[139.66445,35.82775],[139.66454,35.82768],[139.66461,35.82762],[139.66465,35.82759],[139.66481,35.82742],[139.66487,35.82737],[139.66496,35.82728],[139.66522,35.82712],[139.66558,35.82686],[139.6656,35.82685],[139.66566,35.82681],[139.6656,35.82668],[139.66548,35.82639],[139.66549,35.82632],[139.66549,35.82627],[139.6655,35.8262],[139.66549,35.82613],[139.66549,35.82613],[139.66549,35.82602],[139.66547,35.82597],[139.66547,35.82594],[139.66541,35.82575],[139.66535,35.82549],[139.66531,35.82533],[139.66526,35.82511],[139.66526,35.8251],[139.66515,35.8246],[139.66516,35.8246],[139.66525,35.82456],[139.66542,35.8245],[139.66543,35.8245],[139.66553,35.82442],[139.66565,35.82434],[139.6657,35.82429],[139.66573,35.82428],[139.66573,35.82427],[139.66578,35.82425],[139.66579,35.82424],[139.66585,35.82421],[139.66587,35.82421],[139.66609,35.82414],[139.6661,35.82414],[139.66613,35.82413],[139.66627,35.82411],[139.6663,35.8241],[139.66642,35.82405],[139.66643,35.82404],[139.6666,35.82396],[139.66688,35.8239],[139.66691,35.82389],[139.66695,35.82388],[139.66693,35.82349],[139.66689,35.82304],[139.66689,35.82279],[139.6674,35.82193],[139.66701,35.82195],[139.66594,35.822],[139.66558,35.82201],[139.66437,35.8221],[139.66425,35.8206],[139.66423,35.82024],[139.66419,35.81986],[139.66416,35.81954],[139.6641,35.81894],[139.66408,35.81868],[139.66405,35.81838],[139.66527,35.81832],[139.66586,35.81828],[139.66648,35.81825],[139.66645,35.81786],[139.66643,35.81762],[139.66639,35.817],[139.66639,35.8169],[139.66608,35.81676],[139.66574,35.81663],[139.66512,35.81653],[139.66512,35.8165],[139.66517,35.8165],[139.66517,35.81645],[139.66633,35.8164],[139.66624,35.81528],[139.66622,35.81508],[139.66621,35.81488],[139.66619,35.81457],[139.66611,35.81379],[139.66614,35.81328],[139.66602,35.81266],[139.66585,35.81243],[139.66572,35.81185],[139.66453,35.812],[139.66436,35.81199],[139.66423,35.81199],[139.66398,35.81199],[139.66368,35.81197],[139.66342,35.81195],[139.66314,35.8119],[139.66292,35.81187],[139.66289,35.81187],[139.66287,35.81187],[139.66269,35.81183],[139.66218,35.81318],[139.66207,35.81349],[139.66249,35.81399],[139.66259,35.81459],[139.66236,35.81511],[139.6622,35.81545],[139.6622,35.81552],[139.6622,35.81594],[139.66229,35.81667],[139.66226,35.81667],[139.66147,35.8167],[139.66154,35.81765],[139.66154,35.81769],[139.66156,35.81795],[139.66157,35.81801],[139.66159,35.81828],[139.6616,35.81848],[139.6616,35.81852],[139.66169,35.81949],[139.66171,35.81977],[139.66176,35.82036],[139.66177,35.82038],[139.66184,35.82124],[139.66187,35.82157],[139.66192,35.82221],[139.66192,35.82225],[139.66199,35.82316],[139.662,35.82319],[139.662,35.8232],[139.662,35.82328],[139.66207,35.82406],[139.66213,35.8248],[139.66214,35.82495],[139.66217,35.82525],[139.66219,35.82552],[139.66222,35.82591],[139.66224,35.82623],[139.66229,35.82679],[139.66236,35.82774],[139.66242,35.82841],[139.66244,35.82866],[139.66248,35.82866],[139.6625,35.82889],[139.66252,35.82926],[139.66302,35.82927],[139.66312,35.82927],[139.66299,35.8292],[139.66284,35.82909],[139.6628,35.82901],[139.66281,35.82894],[139.66284,35.82891],[139.66288,35.82887],[139.66298,35.82879],[139.66314,35.82868]]]}},{"type":"Feature","properties":{"name":"大字新曽芦原","setai":3435,"jinko":7530,"key":"11224014003","units":1,"m":3740,"f":3790,"gk":176,"a0":1326,"a1":5195,"a2":712,"a75":369,"ag":[438,441,447,385,441,513,602,670,706,754,538,377,209,157,186,145,114,75,32,3,0],"nf":297},"geometry":{"type":"Polygon","coordinates":[[[139.66244,35.82866],[139.66242,35.82841],[139.66236,35.82774],[139.66229,35.82679],[139.66224,35.82623],[139.66222,35.82591],[139.66219,35.82552],[139.66217,35.82525],[139.66214,35.82495],[139.66213,35.8248],[139.66207,35.82406],[139.662,35.82328],[139.662,35.8232],[139.662,35.82319],[139.66199,35.82316],[139.66192,35.82225],[139.66192,35.82221],[139.66187,35.82157],[139.66184,35.82124],[139.66177,35.82038],[139.66176,35.82036],[139.66171,35.81977],[139.66169,35.81949],[139.6616,35.81852],[139.6616,35.81848],[139.66159,35.81828],[139.66157,35.81801],[139.66156,35.81795],[139.66154,35.81769],[139.66154,35.81765],[139.66147,35.8167],[139.66226,35.81667],[139.66229,35.81667],[139.6622,35.81594],[139.6622,35.81552],[139.6622,35.81545],[139.66236,35.81511],[139.66259,35.81459],[139.66249,35.81399],[139.66207,35.81349],[139.66218,35.81318],[139.66269,35.81183],[139.66259,35.81181],[139.66233,35.81177],[139.66199,35.81176],[139.66188,35.81175],[139.66153,35.81177],[139.66112,35.81181],[139.66092,35.81183],[139.66089,35.81183],[139.66017,35.81191],[139.65994,35.81194],[139.65983,35.81195],[139.65933,35.81201],[139.65879,35.81211],[139.65864,35.81214],[139.65847,35.81216],[139.65821,35.81221],[139.6577,35.8123],[139.65711,35.81241],[139.65655,35.81253],[139.6556,35.81271],[139.65585,35.81352],[139.65586,35.81358],[139.65611,35.81448],[139.65633,35.81489],[139.65652,35.81521],[139.65663,35.81541],[139.65692,35.81588],[139.65721,35.81638],[139.65756,35.81694],[139.65798,35.81759],[139.65803,35.81767],[139.65838,35.81823],[139.65841,35.81829],[139.65843,35.81833],[139.6587,35.81877],[139.65874,35.81885],[139.65889,35.81909],[139.65891,35.81911],[139.65915,35.81948],[139.65922,35.81962],[139.65927,35.82011],[139.65927,35.82011],[139.65925,35.82047],[139.65924,35.82052],[139.6592,35.82087],[139.65917,35.82104],[139.65916,35.82111],[139.65914,35.8213],[139.65912,35.82139],[139.65911,35.82143],[139.65906,35.82188],[139.65897,35.82238],[139.65891,35.82287],[139.65885,35.8233],[139.65882,35.82353],[139.65879,35.82381],[139.65877,35.82393],[139.65872,35.82422],[139.65869,35.82442],[139.65891,35.82444],[139.65894,35.82424],[139.65907,35.82424],[139.65909,35.82465],[139.65912,35.82506],[139.65916,35.8256],[139.65916,35.82568],[139.65919,35.82595],[139.65922,35.82639],[139.65935,35.82805],[139.65936,35.82822],[139.65939,35.82852],[139.6594,35.82865],[139.6594,35.82865],[139.65942,35.82891],[139.65942,35.82891],[139.65942,35.82891],[139.66001,35.82907],[139.65999,35.8288],[139.66002,35.82879],[139.66034,35.82878],[139.66074,35.82875],[139.6612,35.82873],[139.66122,35.82873],[139.66183,35.82869],[139.66244,35.82866]]]}},{"type":"Feature","properties":{"name":"笹目南町","setai":1209,"jinko":3002,"key":"112240150","units":1,"m":1528,"f":1474,"gk":161,"a0":457,"a1":1932,"a2":513,"a75":270,"ag":[115,161,181,192,179,142,155,202,258,312,216,138,138,114,129,108,74,52,30,5,1],"nf":100},"geometry":{"type":"Polygon","coordinates":[[[139.65409,35.80622],[139.65398,35.80543],[139.65394,35.80545],[139.65316,35.80574],[139.65253,35.806],[139.65242,35.80605],[139.65174,35.80662],[139.65167,35.80668],[139.65132,35.80697],[139.65122,35.80706],[139.65094,35.80731],[139.65082,35.80741],[139.65076,35.80746],[139.65059,35.80761],[139.65038,35.80779],[139.6503,35.80787],[139.64925,35.80873],[139.64917,35.80879],[139.64912,35.80883],[139.649,35.8097],[139.6489,35.8103],[139.64889,35.81046],[139.64883,35.81089],[139.64879,35.81128],[139.64878,35.8113],[139.64873,35.8116],[139.64862,35.81256],[139.64851,35.81333],[139.64957,35.81344],[139.65038,35.81351],[139.65096,35.81357],[139.65129,35.81357],[139.65174,35.81356],[139.65213,35.81351],[139.65241,35.81344],[139.65319,35.81325],[139.65389,35.81307],[139.65477,35.81289],[139.65552,35.81273],[139.65545,35.81254],[139.65531,35.81223],[139.65519,35.81195],[139.65513,35.81182],[139.65502,35.81159],[139.65494,35.81134],[139.65486,35.81114],[139.65481,35.81096],[139.65474,35.81074],[139.65471,35.81062],[139.65469,35.81052],[139.65465,35.81027],[139.65455,35.80971],[139.65452,35.8095],[139.65452,35.80947],[139.6545,35.80932],[139.6545,35.80925],[139.6545,35.80912],[139.65441,35.8086],[139.65441,35.80859],[139.65435,35.80814],[139.65432,35.80796],[139.65428,35.80783],[139.65417,35.80705],[139.65416,35.80679],[139.65409,35.80622]]]}},{"type":"Feature","properties":{"name":"笹目北町","setai":845,"jinko":1930,"key":"112240160","units":1,"m":972,"f":958,"gk":38,"a0":246,"a1":1363,"a2":282,"a75":99,"ag":[100,71,75,100,126,127,142,116,140,190,184,139,99,99,84,58,25,9,7,0,0],"nf":39},"geometry":{"type":"Polygon","coordinates":[[[139.65532,35.82563],[139.65599,35.82562],[139.65629,35.82562],[139.65651,35.82563],[139.65691,35.82563],[139.65768,35.82563],[139.65846,35.82562],[139.65855,35.82562],[139.65862,35.82505],[139.65866,35.82469],[139.65869,35.82442],[139.65872,35.82422],[139.65877,35.82393],[139.65879,35.82381],[139.65882,35.82353],[139.65885,35.8233],[139.65891,35.82287],[139.65897,35.82238],[139.65906,35.82188],[139.65911,35.82143],[139.65912,35.82139],[139.65723,35.82134],[139.65676,35.82131],[139.65623,35.8213],[139.65618,35.8213],[139.65575,35.82128],[139.65487,35.82126],[139.65321,35.82119],[139.6527,35.82109],[139.65262,35.82123],[139.65253,35.82143],[139.65248,35.82149],[139.65222,35.8218],[139.65221,35.82182],[139.65141,35.82276],[139.65123,35.82286],[139.65109,35.82303],[139.65057,35.82363],[139.65012,35.82411],[139.64995,35.82437],[139.65147,35.82529],[139.65205,35.82563],[139.6521,35.82565],[139.65469,35.82563],[139.65532,35.82563]]]}},{"type":"Feature","properties":{"name":"早瀬一丁目","setai":67,"jinko":172,"key":"11224017001","units":1,"m":88,"f":84,"gk":1,"a0":22,"a1":105,"a2":43,"a75":23,"ag":[3,3,16,19,3,8,2,4,16,23,13,6,11,11,9,15,6,0,2,0,0],"nf":2},"geometry":{"type":"Polygon","coordinates":[[[139.65218,35.80151],[139.65152,35.80148],[139.65071,35.80148],[139.65036,35.80149],[139.64952,35.80156],[139.64888,35.80167],[139.64845,35.80177],[139.64782,35.80191],[139.64817,35.8028],[139.64853,35.80368],[139.64887,35.80457],[139.649,35.80485],[139.64907,35.80507],[139.64921,35.80547],[139.64931,35.80602],[139.64933,35.80635],[139.64934,35.80665],[139.64933,35.80707],[139.6493,35.80748],[139.64926,35.8078],[139.64922,35.80811],[139.64915,35.80862],[139.64913,35.80876],[139.64912,35.80883],[139.64917,35.80879],[139.64925,35.80873],[139.6503,35.80787],[139.65038,35.80779],[139.65059,35.80761],[139.65076,35.80746],[139.65082,35.80741],[139.65094,35.80731],[139.65122,35.80706],[139.65132,35.80697],[139.65167,35.80668],[139.65174,35.80662],[139.65242,35.80605],[139.65253,35.806],[139.65316,35.80574],[139.65394,35.80545],[139.65398,35.80543],[139.65398,35.80542],[139.65397,35.80524],[139.65393,35.80495],[139.65387,35.8044],[139.6538,35.80388],[139.6538,35.80351],[139.65386,35.80302],[139.65406,35.80219],[139.65417,35.8017],[139.65333,35.80161],[139.65302,35.80159],[139.65218,35.80151]]]}},{"type":"Feature","properties":{"name":"早瀬二丁目","setai":174,"jinko":270,"key":"11224017002","units":1,"m":170,"f":100,"gk":13,"a0":13,"a1":153,"a2":98,"a75":47,"ag":[5,3,5,7,20,19,4,4,18,13,25,18,25,26,25,29,11,7,0,0,0],"nf":6},"geometry":{"type":"Polygon","coordinates":[[[139.64817,35.8028],[139.64782,35.80191],[139.64747,35.802],[139.6474,35.80203],[139.64732,35.80208],[139.64721,35.80216],[139.64703,35.80227],[139.64731,35.80283],[139.64757,35.80331],[139.64739,35.80362],[139.64732,35.80378],[139.64723,35.80413],[139.64723,35.80415],[139.64724,35.80427],[139.64726,35.80447],[139.6473,35.80476],[139.6474,35.80604],[139.64744,35.80647],[139.64748,35.80719],[139.64748,35.80743],[139.64748,35.80757],[139.64753,35.80798],[139.64771,35.80829],[139.64805,35.80874],[139.64828,35.80908],[139.64843,35.80929],[139.64848,35.80925],[139.64884,35.80904],[139.64912,35.80883],[139.64913,35.80876],[139.64915,35.80862],[139.64922,35.80811],[139.64926,35.8078],[139.6493,35.80748],[139.64933,35.80707],[139.64934,35.80665],[139.64933,35.80635],[139.64931,35.80602],[139.64921,35.80547],[139.64907,35.80507],[139.649,35.80485],[139.64887,35.80457],[139.64853,35.80368],[139.64817,35.8028]]]}},{"type":"Feature","properties":{"name":"笹目一丁目","setai":1429,"jinko":3049,"key":"11224018001","units":1,"m":1605,"f":1444,"gk":68,"a0":391,"a1":1968,"a2":549,"a75":299,"ag":[150,115,126,101,178,239,248,215,211,247,241,169,119,117,133,155,92,34,14,3,1],"nf":141},"geometry":{"type":"Polygon","coordinates":[[[139.65798,35.81759],[139.65756,35.81694],[139.65682,35.81699],[139.65604,35.81703],[139.65461,35.8171],[139.65343,35.81719],[139.6534,35.81719],[139.65291,35.81721],[139.65261,35.81722],[139.652,35.81716],[139.65173,35.81759],[139.65227,35.81776],[139.65201,35.8182],[139.65149,35.81907],[139.65201,35.81933],[139.65304,35.81985],[139.65293,35.82025],[139.65292,35.82027],[139.65281,35.82068],[139.65275,35.82092],[139.65274,35.82094],[139.6527,35.82109],[139.65321,35.82119],[139.65487,35.82126],[139.65575,35.82128],[139.65618,35.8213],[139.65623,35.8213],[139.65676,35.82131],[139.65723,35.82134],[139.65912,35.82139],[139.65914,35.8213],[139.65916,35.82111],[139.65917,35.82104],[139.6592,35.82087],[139.65924,35.82052],[139.65925,35.82047],[139.65927,35.82011],[139.65927,35.82011],[139.65922,35.81962],[139.65915,35.81948],[139.65891,35.81911],[139.65889,35.81909],[139.65874,35.81885],[139.6587,35.81877],[139.65843,35.81833],[139.65841,35.81829],[139.65838,35.81823],[139.65803,35.81767],[139.65798,35.81759]]]}},{"type":"Feature","properties":{"name":"笹目二丁目","setai":803,"jinko":1806,"key":"11224018002","units":1,"m":938,"f":868,"gk":35,"a0":253,"a1":1112,"a2":357,"a75":178,"ag":[73,82,98,102,102,90,104,114,133,189,125,83,70,80,99,84,58,26,10,0,0],"nf":84},"geometry":{"type":"Polygon","coordinates":[[[139.65291,35.81721],[139.6534,35.81719],[139.65343,35.81719],[139.65461,35.8171],[139.65604,35.81703],[139.65682,35.81699],[139.65756,35.81694],[139.65721,35.81638],[139.65692,35.81588],[139.65663,35.81541],[139.65652,35.81521],[139.65633,35.81489],[139.65611,35.81448],[139.65586,35.81358],[139.65585,35.81352],[139.6556,35.81271],[139.65552,35.81273],[139.65477,35.81289],[139.65389,35.81307],[139.65319,35.81325],[139.65241,35.81344],[139.65262,35.81414],[139.65261,35.81446],[139.65226,35.81512],[139.65188,35.8158],[139.65137,35.81638],[139.65092,35.81686],[139.65197,35.81715],[139.652,35.81716],[139.65261,35.81722],[139.65291,35.81721]]]}},{"type":"Feature","properties":{"name":"笹目三丁目","setai":625,"jinko":1352,"key":"11224018003","units":1,"m":723,"f":629,"gk":47,"a0":177,"a1":823,"a2":271,"a75":122,"ag":[45,54,78,80,77,78,64,72,90,120,106,82,54,70,79,47,49,18,7,1,0],"nf":81},"geometry":{"type":"Polygon","coordinates":[[[139.65197,35.81715],[139.65092,35.81686],[139.65137,35.81638],[139.65188,35.8158],[139.65226,35.81512],[139.65261,35.81446],[139.65262,35.81414],[139.65241,35.81344],[139.65213,35.81351],[139.65174,35.81356],[139.65129,35.81357],[139.65096,35.81357],[139.65038,35.81351],[139.64957,35.81344],[139.64851,35.81333],[139.64834,35.81405],[139.6482,35.81457],[139.64807,35.81494],[139.64788,35.81533],[139.64758,35.81592],[139.64717,35.81648],[139.64714,35.81653],[139.64668,35.81712],[139.64654,35.8173],[139.64722,35.81763],[139.64765,35.81711],[139.64818,35.81737],[139.64909,35.81785],[139.64968,35.81815],[139.65006,35.81834],[139.65051,35.81856],[139.65099,35.8188],[139.65149,35.81907],[139.65201,35.8182],[139.65227,35.81776],[139.65173,35.81759],[139.652,35.81716],[139.65197,35.81715]]]}},{"type":"Feature","properties":{"name":"笹目四丁目","setai":1208,"jinko":2778,"key":"11224018004","units":1,"m":1466,"f":1312,"gk":92,"a0":383,"a1":1795,"a2":512,"a75":229,"ag":[129,121,133,143,164,187,147,175,199,237,254,175,114,135,148,102,90,23,12,2,0],"nf":88},"geometry":{"type":"Polygon","coordinates":[[[139.65281,35.82068],[139.65292,35.82027],[139.65293,35.82025],[139.65304,35.81985],[139.65201,35.81933],[139.65149,35.81907],[139.65099,35.8188],[139.65051,35.81856],[139.65006,35.81834],[139.64968,35.81815],[139.64909,35.81785],[139.64818,35.81737],[139.64765,35.81711],[139.64722,35.81763],[139.64654,35.8173],[139.64557,35.81834],[139.64555,35.81836],[139.64443,35.81966],[139.6455,35.82025],[139.64551,35.82033],[139.6455,35.82037],[139.64514,35.82072],[139.64516,35.82074],[139.64565,35.82104],[139.64624,35.82138],[139.64657,35.82096],[139.647,35.82039],[139.64763,35.82061],[139.64813,35.82089],[139.64856,35.82114],[139.64858,35.82115],[139.64899,35.8214],[139.64902,35.82142],[139.6493,35.82157],[139.64954,35.8217],[139.65048,35.82224],[139.65141,35.82276],[139.65221,35.82182],[139.65222,35.8218],[139.65248,35.82149],[139.65253,35.82143],[139.65262,35.82123],[139.6527,35.82109],[139.65274,35.82094],[139.65275,35.82092],[139.65281,35.82068]]]}},{"type":"Feature","properties":{"name":"笹目五丁目","setai":1014,"jinko":2355,"key":"11224018005","units":1,"m":1219,"f":1136,"gk":113,"a0":294,"a1":1497,"a2":507,"a75":263,"ag":[82,97,115,111,133,166,98,154,178,198,208,143,108,112,132,110,79,49,20,5,0],"nf":57},"geometry":{"type":"Polygon","coordinates":[[[139.64443,35.81966],[139.64555,35.81836],[139.64557,35.81834],[139.64654,35.8173],[139.64668,35.81712],[139.64714,35.81653],[139.64717,35.81648],[139.64758,35.81592],[139.64668,35.81565],[139.6454,35.81527],[139.64448,35.81503],[139.64352,35.81478],[139.64286,35.8146],[139.64284,35.8146],[139.64238,35.81436],[139.64209,35.81415],[139.6419,35.81401],[139.64227,35.81374],[139.64266,35.81354],[139.64283,35.81345],[139.64304,35.81334],[139.64185,35.8123],[139.64132,35.81185],[139.64092,35.81148],[139.64054,35.8136],[139.64015,35.81603],[139.64019,35.81605],[139.64,35.81636],[139.63967,35.81687],[139.63942,35.81721],[139.6394,35.81723],[139.63948,35.8179],[139.6396,35.81864],[139.63964,35.81864],[139.64035,35.81774],[139.64085,35.81802],[139.6418,35.81856],[139.64144,35.81896],[139.64135,35.81896],[139.64129,35.81903],[139.64215,35.81951],[139.64286,35.8199],[139.64377,35.82041],[139.64443,35.81966]]]}},{"type":"Feature","properties":{"name":"笹目六丁目","setai":674,"jinko":1499,"key":"11224018006","units":1,"m":814,"f":685,"gk":52,"a0":191,"a1":931,"a2":341,"a75":177,"ag":[62,72,57,73,84,79,84,101,85,134,130,88,73,81,83,83,53,33,6,2,0],"nf":36},"geometry":{"type":"Polygon","coordinates":[[[139.649,35.8097],[139.64912,35.80883],[139.64884,35.80904],[139.64848,35.80925],[139.64843,35.80929],[139.64726,35.80992],[139.64666,35.81028],[139.64551,35.81131],[139.64506,35.81162],[139.64458,35.81192],[139.64427,35.81216],[139.64393,35.81262],[139.64348,35.81302],[139.64304,35.81334],[139.64283,35.81345],[139.64266,35.81354],[139.64227,35.81374],[139.6419,35.81401],[139.64209,35.81415],[139.64238,35.81436],[139.64284,35.8146],[139.64286,35.8146],[139.64352,35.81478],[139.64448,35.81503],[139.6454,35.81527],[139.64668,35.81565],[139.64758,35.81592],[139.64788,35.81533],[139.64807,35.81494],[139.6482,35.81457],[139.64834,35.81405],[139.64851,35.81333],[139.64862,35.81256],[139.64873,35.8116],[139.64878,35.8113],[139.64879,35.81128],[139.64883,35.81089],[139.64889,35.81046],[139.6489,35.8103],[139.649,35.8097]]]}},{"type":"Feature","properties":{"name":"笹目七丁目","setai":438,"jinko":1080,"key":"11224018007","units":1,"m":631,"f":449,"gk":45,"a0":107,"a1":675,"a2":285,"a75":148,"ag":[13,30,64,88,100,63,28,42,72,117,63,57,45,57,80,70,49,21,5,3,0],"nf":13},"geometry":{"type":"Polygon","coordinates":[[[139.64333,35.80565],[139.64327,35.80561],[139.64288,35.80623],[139.64281,35.80635],[139.6426,35.80675],[139.64188,35.8083],[139.64153,35.80925],[139.64122,35.81024],[139.64108,35.81071],[139.64092,35.81148],[139.64132,35.81185],[139.64185,35.8123],[139.64304,35.81334],[139.64348,35.81302],[139.64393,35.81262],[139.64427,35.81216],[139.64458,35.81192],[139.64506,35.81162],[139.64551,35.81131],[139.64666,35.81028],[139.64574,35.80948],[139.64641,35.80887],[139.64643,35.80859],[139.64649,35.80783],[139.64656,35.80743],[139.64641,35.80739],[139.64608,35.80729],[139.6456,35.80717],[139.64457,35.80687],[139.64407,35.80637],[139.64333,35.80565]]]}},{"type":"Feature","properties":{"name":"笹目八丁目","setai":286,"jinko":599,"key":"11224018008","units":1,"m":311,"f":288,"gk":15,"a0":50,"a1":339,"a2":201,"a75":109,"ag":[7,23,20,17,37,29,24,31,38,53,50,32,28,43,49,57,29,21,2,0,0],"nf":9},"geometry":{"type":"Polygon","coordinates":[[[139.64731,35.80283],[139.64703,35.80227],[139.64677,35.80243],[139.64642,35.80262],[139.64592,35.80295],[139.64547,35.8033],[139.64491,35.80377],[139.64448,35.8042],[139.64418,35.80447],[139.64388,35.80483],[139.64358,35.80518],[139.64331,35.80554],[139.64327,35.80561],[139.64333,35.80565],[139.64407,35.80637],[139.64457,35.80687],[139.6456,35.80717],[139.64608,35.80729],[139.64641,35.80739],[139.64656,35.80743],[139.64649,35.80783],[139.64643,35.80859],[139.64641,35.80887],[139.64574,35.80948],[139.64666,35.81028],[139.64726,35.80992],[139.64843,35.80929],[139.64828,35.80908],[139.64805,35.80874],[139.64771,35.80829],[139.64753,35.80798],[139.64748,35.80757],[139.64748,35.80743],[139.64748,35.80719],[139.64744,35.80647],[139.6474,35.80604],[139.6473,35.80476],[139.64726,35.80447],[139.64724,35.80427],[139.64723,35.80415],[139.64723,35.80413],[139.64732,35.80378],[139.64739,35.80362],[139.64757,35.80331],[139.64731,35.80283]]]}},{"type":"Feature","properties":{"name":"大字下笹目","setai":129,"jinko":234,"key":"112240190","units":1,"m":136,"f":98,"gk":5,"a0":49,"a1":147,"a2":12,"a75":5,"ag":[30,17,2,0,14,24,23,25,25,19,10,4,3,2,5,3,1,0,1,0,0],"nf":26},"geometry":{"type":"Polygon","coordinates":[[[139.65942,35.82891],[139.6594,35.82865],[139.6594,35.82865],[139.65939,35.82852],[139.65936,35.82822],[139.65935,35.82805],[139.65922,35.82639],[139.65919,35.82595],[139.65916,35.82568],[139.65916,35.8256],[139.65912,35.82506],[139.65909,35.82465],[139.65907,35.82424],[139.65894,35.82424],[139.65891,35.82444],[139.65869,35.82442],[139.65866,35.82469],[139.65862,35.82505],[139.65855,35.82562],[139.65846,35.82562],[139.65844,35.82593],[139.65839,35.82641],[139.65834,35.82684],[139.65828,35.82748],[139.65825,35.82778],[139.65823,35.82801],[139.65821,35.82827],[139.65821,35.82836],[139.6582,35.82846],[139.65814,35.82853],[139.65809,35.82861],[139.65808,35.82868],[139.65807,35.82875],[139.65821,35.82875],[139.65821,35.82881],[139.65821,35.82883],[139.65818,35.82894],[139.65809,35.82918],[139.65792,35.8295],[139.65803,35.82954],[139.65874,35.8299],[139.65927,35.83016],[139.65946,35.83025],[139.65949,35.83027],[139.65984,35.82982],[139.65984,35.82981],[139.66032,35.82918],[139.66034,35.82915],[139.66001,35.82907],[139.65942,35.82891],[139.65942,35.82891],[139.65942,35.82891]]]}},{"type":"Feature","properties":{"name":"美女木一丁目","setai":1327,"jinko":2782,"key":"11224020001","units":1,"m":1425,"f":1357,"gk":118,"a0":346,"a1":1675,"a2":649,"a75":311,"ag":[119,107,120,98,158,154,175,168,196,228,227,166,105,148,190,147,106,42,14,2,0],"nf":112},"geometry":{"type":"Polygon","coordinates":[[[139.64113,35.83204],[139.6412,35.83179],[139.64119,35.83156],[139.64119,35.83151],[139.64112,35.83146],[139.64116,35.83116],[139.64111,35.83073],[139.64112,35.83073],[139.64118,35.83034],[139.64145,35.83036],[139.64197,35.8304],[139.64196,35.83062],[139.64194,35.83068],[139.64249,35.83086],[139.64264,35.83062],[139.64278,35.83062],[139.64291,35.83034],[139.64283,35.83032],[139.64297,35.83016],[139.64306,35.83007],[139.64316,35.8301],[139.64316,35.8301],[139.6433,35.83015],[139.6434,35.82992],[139.64343,35.82992],[139.64344,35.82992],[139.64352,35.8299],[139.64363,35.82988],[139.64377,35.82985],[139.6439,35.82981],[139.64406,35.82977],[139.64416,35.82975],[139.6442,35.82973],[139.64429,35.8297],[139.64441,35.82964],[139.64458,35.82957],[139.64466,35.82953],[139.6447,35.82952],[139.64473,35.82951],[139.64481,35.82949],[139.64512,35.82943],[139.64513,35.82943],[139.6452,35.82929],[139.64433,35.82917],[139.64367,35.82909],[139.64253,35.82898],[139.64202,35.82892],[139.64143,35.82887],[139.64134,35.82886],[139.64116,35.82884],[139.64071,35.82874],[139.64003,35.82858],[139.6396,35.82849],[139.63817,35.82818],[139.63723,35.82795],[139.63545,35.82999],[139.63481,35.83074],[139.63499,35.83079],[139.63575,35.83098],[139.63606,35.83106],[139.63625,35.83111],[139.63662,35.83122],[139.63718,35.83137],[139.63773,35.83152],[139.63829,35.83166],[139.6383,35.83166],[139.63859,35.83174],[139.63884,35.83182],[139.63891,35.83184],[139.63897,35.83187],[139.63925,35.83193],[139.63939,35.83195],[139.63944,35.83195],[139.63981,35.83195],[139.63984,35.83195],[139.64017,35.83198],[139.64039,35.83202],[139.64044,35.83204],[139.64103,35.83221],[139.64106,35.83222],[139.64108,35.83207],[139.64113,35.83205],[139.64113,35.83204]]]}},{"type":"Feature","properties":{"name":"美女木二丁目","setai":997,"jinko":2289,"key":"11224020002","units":1,"m":1191,"f":1098,"gk":58,"a0":340,"a1":1493,"a2":362,"a75":168,"ag":[90,116,134,146,123,133,129,132,176,215,175,158,106,98,96,78,57,24,6,2,1],"nf":94},"geometry":{"type":"Polygon","coordinates":[[[139.64789,35.82989],[139.6479,35.82875],[139.64787,35.82842],[139.64782,35.82796],[139.64784,35.82777],[139.64786,35.82765],[139.64774,35.82749],[139.64661,35.82713],[139.64589,35.82695],[139.64562,35.82686],[139.64531,35.82679],[139.64529,35.82679],[139.64525,35.8275],[139.64523,35.82794],[139.64517,35.82794],[139.64488,35.82776],[139.64456,35.82759],[139.64404,35.82731],[139.64357,35.82705],[139.64337,35.8273],[139.64286,35.82726],[139.64288,35.82723],[139.64309,35.82682],[139.64257,35.82651],[139.64207,35.82622],[139.64127,35.82577],[139.64061,35.82539],[139.63986,35.82495],[139.6392,35.82566],[139.63876,35.82617],[139.6385,35.8265],[139.63805,35.82703],[139.63804,35.82704],[139.63723,35.82795],[139.63817,35.82818],[139.6396,35.82849],[139.64003,35.82858],[139.64071,35.82874],[139.64116,35.82884],[139.64134,35.82886],[139.64143,35.82887],[139.64202,35.82892],[139.64253,35.82898],[139.64367,35.82909],[139.64433,35.82917],[139.6452,35.82929],[139.64513,35.82943],[139.64514,35.82943],[139.64569,35.8295],[139.6457,35.8295],[139.64587,35.82957],[139.64609,35.82955],[139.64614,35.82957],[139.64647,35.82964],[139.64646,35.82965],[139.6465,35.82967],[139.64656,35.8296],[139.64789,35.82989]]]}},{"type":"Feature","properties":{"name":"美女木三丁目","setai":249,"jinko":536,"key":"11224020003","units":1,"m":294,"f":242,"gk":6,"a0":66,"a1":357,"a2":99,"a75":50,"ag":[23,14,29,18,26,24,44,23,42,62,42,40,36,22,27,23,14,11,2,0,0],"nf":14},"geometry":{"type":"Polygon","coordinates":[[[139.64525,35.8275],[139.64529,35.82679],[139.64531,35.82679],[139.64562,35.82686],[139.64589,35.82695],[139.64661,35.82713],[139.64774,35.82749],[139.64786,35.82765],[139.64789,35.82729],[139.64799,35.82698],[139.64814,35.82674],[139.64832,35.82651],[139.64867,35.82607],[139.64846,35.82597],[139.6476,35.82554],[139.64666,35.82502],[139.6464,35.82491],[139.64494,35.82421],[139.64409,35.8238],[139.64347,35.82352],[139.6426,35.82309],[139.6418,35.8227],[139.6407,35.82397],[139.64032,35.82439],[139.63986,35.82495],[139.64061,35.82539],[139.64127,35.82577],[139.64207,35.82622],[139.64257,35.82651],[139.64309,35.82682],[139.64288,35.82723],[139.64286,35.82726],[139.64337,35.8273],[139.64357,35.82705],[139.64404,35.82731],[139.64456,35.82759],[139.64488,35.82776],[139.64517,35.82794],[139.64523,35.82794],[139.64525,35.8275]]]}},{"type":"Feature","properties":{"name":"美女木四丁目","setai":288,"jinko":707,"key":"11224020004","units":1,"m":356,"f":351,"gk":18,"a0":69,"a1":402,"a2":220,"a75":155,"ag":[19,29,21,23,36,32,28,38,46,68,54,52,25,30,35,42,41,40,18,12,2],"nf":16},"geometry":{"type":"Polygon","coordinates":[[[139.64899,35.8214],[139.64858,35.82115],[139.64856,35.82114],[139.64813,35.82089],[139.64763,35.82061],[139.647,35.82039],[139.64657,35.82096],[139.64624,35.82138],[139.64565,35.82104],[139.64516,35.82074],[139.64514,35.82072],[139.6455,35.82037],[139.64551,35.82033],[139.6455,35.82025],[139.64443,35.81966],[139.64377,35.82041],[139.64333,35.82094],[139.64259,35.82178],[139.6418,35.8227],[139.6426,35.82309],[139.64347,35.82352],[139.64409,35.8238],[139.64494,35.82421],[139.6464,35.82491],[139.64666,35.82502],[139.6476,35.82554],[139.64846,35.82597],[139.64869,35.82567],[139.64878,35.82565],[139.64936,35.82495],[139.64952,35.82475],[139.64964,35.82472],[139.64995,35.82437],[139.65012,35.82411],[139.65057,35.82363],[139.65109,35.82303],[139.65123,35.82286],[139.65141,35.82276],[139.65048,35.82224],[139.64954,35.8217],[139.6493,35.82157],[139.64902,35.82142],[139.64899,35.8214]]]}},{"type":"Feature","properties":{"name":"美女木五丁目","setai":221,"jinko":558,"key":"11224020005","units":1,"m":286,"f":272,"gk":5,"a0":56,"a1":355,"a2":140,"a75":77,"ag":[16,20,20,33,33,34,33,28,39,36,42,45,32,25,38,28,25,18,6,0,0],"nf":7},"geometry":{"type":"Polygon","coordinates":[[[139.64129,35.81903],[139.64135,35.81896],[139.64144,35.81896],[139.6418,35.81856],[139.64085,35.81802],[139.64035,35.81774],[139.63964,35.81864],[139.6396,35.81864],[139.63948,35.8179],[139.6394,35.81723],[139.63917,35.81744],[139.63893,35.81767],[139.63872,35.81788],[139.63854,35.81806],[139.63832,35.81845],[139.63802,35.81892],[139.63738,35.81975],[139.63785,35.82016],[139.6379,35.82019],[139.6385,35.82069],[139.63903,35.82109],[139.64021,35.82182],[139.64034,35.8219],[139.64065,35.82208],[139.64108,35.82231],[139.6418,35.8227],[139.64259,35.82178],[139.64333,35.82094],[139.64377,35.82041],[139.64286,35.8199],[139.64215,35.81951],[139.64129,35.81903]]]}},{"type":"Feature","properties":{"name":"美女木六丁目","setai":228,"jinko":596,"key":"11224020006","units":1,"m":302,"f":294,"gk":33,"a0":106,"a1":361,"a2":121,"a75":56,"ag":[40,39,27,22,29,31,49,51,44,44,25,35,31,30,35,23,16,11,6,0,0],"nf":8},"geometry":{"type":"Polygon","coordinates":[[[139.63785,35.82016],[139.63738,35.81975],[139.63712,35.82003],[139.63693,35.82024],[139.63663,35.82061],[139.63651,35.82083],[139.63641,35.82111],[139.63634,35.82143],[139.63633,35.82154],[139.63624,35.82193],[139.6362,35.82225],[139.6361,35.82259],[139.63603,35.82282],[139.63595,35.823],[139.63643,35.82319],[139.63684,35.82335],[139.63741,35.82358],[139.63827,35.82409],[139.63905,35.82455],[139.63876,35.82493],[139.63844,35.82531],[139.6392,35.82566],[139.63986,35.82495],[139.64032,35.82439],[139.6407,35.82397],[139.6418,35.8227],[139.64108,35.82231],[139.64065,35.82208],[139.64034,35.8219],[139.64021,35.82182],[139.63903,35.82109],[139.6385,35.82069],[139.6379,35.82019],[139.63785,35.82016]]]}},{"type":"Feature","properties":{"name":"美女木七丁目","setai":444,"jinko":987,"key":"11224020007","units":1,"m":530,"f":457,"gk":19,"a0":104,"a1":605,"a2":250,"a75":118,"ag":[29,29,46,59,49,32,57,46,81,86,73,72,50,58,74,55,36,16,9,2,0],"nf":28},"geometry":{"type":"Polygon","coordinates":[[[139.63905,35.82455],[139.63827,35.82409],[139.63741,35.82358],[139.63684,35.82335],[139.63643,35.82319],[139.63595,35.823],[139.63583,35.82319],[139.63557,35.82356],[139.63527,35.82396],[139.63503,35.82433],[139.63492,35.82428],[139.63455,35.82468],[139.63421,35.82508],[139.63386,35.82536],[139.63312,35.82599],[139.63331,35.8261],[139.63362,35.82626],[139.63365,35.82627],[139.63418,35.82657],[139.63471,35.82687],[139.6355,35.82731],[139.63609,35.82752],[139.63659,35.82771],[139.63723,35.82795],[139.63804,35.82704],[139.63805,35.82703],[139.6385,35.8265],[139.63876,35.82617],[139.6392,35.82566],[139.63844,35.82531],[139.63876,35.82493],[139.63905,35.82455]]]}},{"type":"Feature","properties":{"name":"美女木八丁目","setai":480,"jinko":1088,"key":"11224020008","units":1,"m":611,"f":477,"gk":25,"a0":156,"a1":681,"a2":211,"a75":101,"ag":[38,59,59,66,90,64,51,62,87,103,88,41,29,44,66,51,31,15,4,0,0],"nf":40},"geometry":{"type":"Polygon","coordinates":[[[139.63391,35.83074],[139.63441,35.83065],[139.63461,35.83069],[139.63481,35.83074],[139.63545,35.82999],[139.63723,35.82795],[139.63659,35.82771],[139.63609,35.82752],[139.6355,35.82731],[139.63471,35.82687],[139.63418,35.82657],[139.63365,35.82627],[139.63362,35.82626],[139.63331,35.8261],[139.63312,35.82599],[139.63284,35.82623],[139.63279,35.82629],[139.63272,35.82651],[139.63263,35.82684],[139.63252,35.82744],[139.63247,35.82749],[139.63238,35.82759],[139.63226,35.82773],[139.63213,35.82782],[139.63197,35.828],[139.63182,35.82815],[139.63171,35.82844],[139.63168,35.82851],[139.63163,35.82885],[139.6317,35.82888],[139.63167,35.82927],[139.63155,35.82931],[139.63158,35.82962],[139.63181,35.82962],[139.63228,35.82963],[139.6323,35.82963],[139.63231,35.82961],[139.63243,35.82934],[139.63297,35.82945],[139.63301,35.82946],[139.63301,35.82946],[139.63316,35.82987],[139.63319,35.82995],[139.6333,35.83026],[139.63331,35.83028],[139.63342,35.83057],[139.63344,35.83063],[139.63342,35.83086],[139.63391,35.83074]]]}},{"type":"Feature","properties":{"name":"美女木東一丁目","setai":1030,"jinko":2105,"key":"11224021001","units":1,"m":1114,"f":991,"gk":89,"a0":439,"a1":1490,"a2":81,"a75":32,"ag":[171,185,83,67,103,184,243,242,242,159,121,83,46,23,26,19,9,4,0,0,0],"nf":95},"geometry":{"type":"Polygon","coordinates":[[[139.65494,35.82913],[139.65673,35.82874],[139.65778,35.82874],[139.65807,35.82875],[139.65808,35.82868],[139.65809,35.82861],[139.65814,35.82853],[139.6582,35.82846],[139.65821,35.82836],[139.65821,35.82827],[139.65823,35.82801],[139.65825,35.82778],[139.65828,35.82748],[139.65834,35.82684],[139.65839,35.82641],[139.65844,35.82593],[139.65846,35.82562],[139.65768,35.82563],[139.65691,35.82563],[139.65651,35.82563],[139.65629,35.82562],[139.65599,35.82562],[139.65532,35.82563],[139.65469,35.82563],[139.6521,35.82565],[139.65205,35.82563],[139.65147,35.82529],[139.64995,35.82437],[139.64964,35.82472],[139.64952,35.82475],[139.64936,35.82495],[139.64878,35.82565],[139.64869,35.82567],[139.64846,35.82597],[139.64867,35.82607],[139.64959,35.82655],[139.65072,35.82717],[139.65159,35.82766],[139.65293,35.82842],[139.65415,35.82914],[139.65467,35.82915],[139.65494,35.82913]]]}},{"type":"Feature","properties":{"name":"美女木東二丁目","setai":5,"jinko":5,"key":"11224021002","units":1,"m":5,"f":0,"gk":4,"a0":0,"a1":5,"a2":0,"a75":0,"ag":[0,0,0,1,0,0,4,0,0,0,0,0,0,0,0,0,0,0,0,0,0]},"geometry":{"type":"Polygon","coordinates":[[[139.64959,35.82655],[139.64867,35.82607],[139.64832,35.82651],[139.64814,35.82674],[139.64799,35.82698],[139.64789,35.82729],[139.64786,35.82765],[139.64784,35.82777],[139.64782,35.82796],[139.64787,35.82842],[139.6479,35.82875],[139.64789,35.82989],[139.64802,35.82989],[139.64851,35.8299],[139.64893,35.82983],[139.64925,35.82976],[139.65001,35.82958],[139.65045,35.82945],[139.65086,35.82935],[139.65156,35.82918],[139.65237,35.82917],[139.65388,35.82914],[139.65415,35.82914],[139.65293,35.82842],[139.65159,35.82766],[139.65072,35.82717],[139.64959,35.82655]]]}},{"type":"Feature","properties":{"name":"大字美女木","setai":723,"jinko":1986,"key":"112240220","units":1,"m":993,"f":993,"gk":65,"a0":439,"a1":1326,"a2":194,"a75":71,"ag":[86,196,157,100,94,83,83,182,229,245,127,108,75,67,56,41,21,8,0,1,0],"nf":27},"geometry":{"type":"Polygon","coordinates":[[[139.65574,35.83239],[139.65629,35.83168],[139.65688,35.83095],[139.65697,35.83085],[139.65705,35.83074],[139.65733,35.83042],[139.65736,35.83044],[139.65803,35.82954],[139.65792,35.8295],[139.65809,35.82918],[139.65818,35.82894],[139.65821,35.82883],[139.65821,35.82881],[139.65821,35.82875],[139.65807,35.82875],[139.65778,35.82874],[139.65673,35.82874],[139.65494,35.82913],[139.65467,35.82915],[139.65415,35.82914],[139.65388,35.82914],[139.65237,35.82917],[139.65156,35.82918],[139.65086,35.82935],[139.65045,35.82945],[139.65001,35.82958],[139.64925,35.82976],[139.64893,35.82983],[139.64851,35.8299],[139.64802,35.82989],[139.64789,35.82989],[139.64656,35.8296],[139.6465,35.82967],[139.64646,35.82965],[139.64634,35.82993],[139.64612,35.83025],[139.64591,35.83056],[139.64559,35.83111],[139.64558,35.83112],[139.64521,35.83165],[139.64518,35.83172],[139.64514,35.83185],[139.64558,35.83196],[139.64558,35.83196],[139.64578,35.83201],[139.6465,35.83208],[139.64653,35.83199],[139.64714,35.83215],[139.64714,35.83215],[139.64758,35.83223],[139.64758,35.83229],[139.64798,35.83239],[139.64798,35.83239],[139.64891,35.83251],[139.64896,35.83253],[139.64923,35.8326],[139.64982,35.83274],[139.64982,35.83274],[139.64982,35.83274],[139.64983,35.83274],[139.64994,35.83277],[139.65,35.8328],[139.65002,35.83281],[139.65003,35.83283],[139.64986,35.83326],[139.64979,35.83345],[139.64977,35.8335],[139.64976,35.83353],[139.64976,35.83355],[139.64979,35.83357],[139.64986,35.83359],[139.65049,35.83371],[139.65139,35.83388],[139.65215,35.83401],[139.65225,35.83419],[139.65228,35.83423],[139.65213,35.8346],[139.65205,35.83477],[139.652,35.8349],[139.65193,35.83504],[139.6519,35.83511],[139.65215,35.83517],[139.65238,35.83522],[139.65331,35.83522],[139.65343,35.83527],[139.65347,35.83523],[139.65387,35.83472],[139.65421,35.8343],[139.65423,35.83428],[139.65435,35.83412],[139.65479,35.8336],[139.65527,35.83299],[139.65562,35.83254],[139.65563,35.83253],[139.65574,35.83239]]]}},{"type":"Feature","properties":{"name":"堤外地","setai":21,"jinko":21,"key":"112240250","units":1,"m":21,"f":0,"gk":0,"a0":0,"a1":7,"a2":14,"a75":2,"ag":[0,0,0,0,0,0,0,0,0,1,0,2,4,7,5,2,0,0,0,0,0]},"geometry":{"type":"Polygon","coordinates":[[[139.62478,35.83415],[139.62567,35.83335],[139.62607,35.83295],[139.6268,35.83216],[139.62748,35.83139],[139.62807,35.83087],[139.62816,35.83078],[139.62884,35.83031],[139.63035,35.82938],[139.63071,35.82914],[139.63091,35.82916],[139.63148,35.82922],[139.63153,35.82922],[139.63155,35.82931],[139.63167,35.82927],[139.6317,35.82888],[139.63163,35.82885],[139.63168,35.82851],[139.63171,35.82844],[139.63182,35.82815],[139.63197,35.828],[139.63213,35.82782],[139.63226,35.82773],[139.63238,35.82759],[139.63247,35.82749],[139.63252,35.82744],[139.63263,35.82684],[139.63272,35.82651],[139.63279,35.82629],[139.63284,35.82623],[139.63312,35.82599],[139.63386,35.82536],[139.63421,35.82508],[139.63455,35.82468],[139.63492,35.82428],[139.63503,35.82433],[139.63527,35.82396],[139.63557,35.82356],[139.63583,35.82319],[139.63595,35.823],[139.63603,35.82282],[139.6361,35.82259],[139.6362,35.82225],[139.63624,35.82193],[139.63633,35.82154],[139.63634,35.82143],[139.63641,35.82111],[139.63651,35.82083],[139.63663,35.82061],[139.63693,35.82024],[139.63712,35.82003],[139.63738,35.81975],[139.63802,35.81892],[139.63832,35.81845],[139.63854,35.81806],[139.63872,35.81788],[139.63893,35.81767],[139.63917,35.81744],[139.6394,35.81723],[139.63942,35.81721],[139.63967,35.81687],[139.64,35.81636],[139.64019,35.81605],[139.64015,35.81603],[139.64054,35.8136],[139.64092,35.81148],[139.64108,35.81071],[139.64122,35.81024],[139.64153,35.80925],[139.64188,35.8083],[139.6426,35.80675],[139.64281,35.80635],[139.64288,35.80623],[139.64327,35.80561],[139.64331,35.80554],[139.64358,35.80518],[139.64388,35.80483],[139.64418,35.80447],[139.64448,35.8042],[139.64491,35.80377],[139.64547,35.8033],[139.64592,35.80295],[139.64642,35.80262],[139.64677,35.80243],[139.64703,35.80227],[139.64721,35.80216],[139.64732,35.80208],[139.6474,35.80203],[139.64747,35.802],[139.64782,35.80191],[139.64845,35.80177],[139.64888,35.80167],[139.64952,35.80156],[139.65036,35.80149],[139.65071,35.80148],[139.65152,35.80148],[139.65218,35.80151],[139.65302,35.80159],[139.65333,35.80161],[139.65417,35.8017],[139.65573,35.80204],[139.65746,35.80238],[139.65909,35.80265],[139.66044,35.8028],[139.66328,35.80304],[139.66441,35.80297],[139.66765,35.8027],[139.66799,35.80267],[139.67297,35.80189],[139.67391,35.8017],[139.67494,35.80151],[139.67657,35.80124],[139.67687,35.80121],[139.67707,35.8012],[139.67736,35.80117],[139.67813,35.80111],[139.67877,35.80106],[139.67916,35.80104],[139.67928,35.80103],[139.67968,35.80102],[139.68016,35.801],[139.68079,35.80101],[139.6814,35.80101],[139.68193,35.80102],[139.68245,35.80107],[139.6832,35.80113],[139.68338,35.80114],[139.68441,35.80127],[139.68488,35.80136],[139.68519,35.80142],[139.6857,35.80152],[139.68589,35.80156],[139.68689,35.80179],[139.6876,35.80196],[139.68832,35.80205],[139.68937,35.8021],[139.6908,35.80211],[139.69144,35.80205],[139.69202,35.802],[139.69267,35.80192],[139.69379,35.80178],[139.69513,35.80157],[139.69505,35.80132],[139.69601,35.80117],[139.69745,35.80092],[139.69811,35.80081],[139.69811,35.80077],[139.69804,35.8002],[139.69772,35.79925],[139.69749,35.79861],[139.69746,35.7985],[139.69684,35.79888],[139.69641,35.79922],[139.69604,35.79942],[139.69516,35.79983],[139.69452,35.80002],[139.69374,35.80032],[139.69354,35.80039],[139.69302,35.80053],[139.69249,35.80064],[139.69202,35.80072],[139.69148,35.80081],[139.69066,35.80092],[139.68995,35.80099],[139.68902,35.80102],[139.68859,35.80101],[139.68819,35.801],[139.6877,35.80095],[139.68732,35.80088],[139.68696,35.80083],[139.68646,35.80072],[139.68592,35.80057],[139.68531,35.8004],[139.68494,35.80031],[139.68469,35.80022],[139.68427,35.80008],[139.68355,35.79985],[139.68255,35.79954],[139.68164,35.79932],[139.68073,35.79912],[139.68061,35.79908],[139.68009,35.79893],[139.67899,35.79884],[139.67726,35.79879],[139.67574,35.79883],[139.674,35.79918],[139.67243,35.79973],[139.67225,35.79985],[139.67203,35.79996],[139.67175,35.80007],[139.67155,35.80011],[139.67139,35.80014],[139.67101,35.80018],[139.67084,35.80018],[139.6703,35.80021],[139.66855,35.80026],[139.66828,35.80026],[139.66717,35.80027],[139.66468,35.80026],[139.66428,35.80026],[139.66413,35.80026],[139.66071,35.80026],[139.65998,35.80025],[139.65943,35.80024],[139.65942,35.80024],[139.65838,35.80022],[139.6572,35.80019],[139.65595,35.80016],[139.65583,35.80016],[139.65463,35.80014],[139.65452,35.80013],[139.65394,35.80009],[139.65376,35.80006],[139.65352,35.79999],[139.65335,35.79992],[139.6532,35.79985],[139.65221,35.79927],[139.65201,35.79916],[139.65168,35.79898],[139.65053,35.79833],[139.65031,35.79822],[139.64988,35.79801],[139.64853,35.79736],[139.64844,35.79731],[139.64835,35.79725],[139.6482,35.79712],[139.64754,35.79738],[139.64736,35.79745],[139.64635,35.79884],[139.64531,35.80025],[139.64496,35.80073],[139.64472,35.80107],[139.6446,35.80125],[139.64448,35.80142],[139.64435,35.80154],[139.64422,35.80165],[139.64411,35.80172],[139.64398,35.80179],[139.64387,35.80184],[139.64373,35.80188],[139.64348,35.80195],[139.64213,35.80228],[139.64164,35.80241],[139.64117,35.80256],[139.64081,35.80269],[139.64073,35.80272],[139.64067,35.80276],[139.64062,35.80282],[139.64058,35.80287],[139.64054,35.80295],[139.6405,35.80303],[139.64046,35.8031],[139.64043,35.80321],[139.64042,35.80328],[139.64039,35.80348],[139.64036,35.8036],[139.64032,35.80385],[139.64031,35.80396],[139.64036,35.80439],[139.64035,35.80446],[139.64015,35.80481],[139.63992,35.80517],[139.6399,35.80523],[139.63972,35.80602],[139.63966,35.80638],[139.63962,35.80658],[139.63952,35.80692],[139.63946,35.80703],[139.6392,35.80731],[139.6391,35.80744],[139.639,35.80761],[139.63895,35.80773],[139.63893,35.80788],[139.63892,35.80813],[139.63881,35.80884],[139.63876,35.80894],[139.6388,35.80912],[139.63882,35.80918],[139.63887,35.80935],[139.63889,35.80953],[139.6389,35.80966],[139.6389,35.80984],[139.63887,35.81001],[139.63883,35.8102],[139.63868,35.81063],[139.63868,35.81064],[139.63859,35.8108],[139.63852,35.81096],[139.63844,35.81105],[139.63826,35.81134],[139.638,35.81173],[139.63778,35.81184],[139.63749,35.81191],[139.63735,35.81191],[139.63701,35.81221],[139.63666,35.81264],[139.63646,35.81286],[139.63622,35.81308],[139.63598,35.81312],[139.63565,35.81303],[139.63555,35.81299],[139.63549,35.81297],[139.63533,35.8129],[139.63504,35.81276],[139.63492,35.81269],[139.6348,35.81262],[139.63469,35.81253],[139.6346,35.81242],[139.63458,35.81237],[139.63453,35.81226],[139.63449,35.81203],[139.63446,35.81145],[139.6345,35.81093],[139.63451,35.81073],[139.63451,35.81059],[139.63452,35.81045],[139.63455,35.81027],[139.63463,35.80998],[139.63474,35.80962],[139.63485,35.80925],[139.63504,35.80874],[139.63512,35.80851],[139.63516,35.80824],[139.63521,35.80707],[139.6352,35.8065],[139.63516,35.80585],[139.63512,35.80556],[139.63504,35.80531],[139.63494,35.80511],[139.63488,35.80505],[139.63482,35.805],[139.63475,35.80498],[139.6346,35.80496],[139.63439,35.80497],[139.63307,35.80507],[139.63285,35.80509],[139.63263,35.8051],[139.63156,35.80517],[139.63092,35.80524],[139.63081,35.80526],[139.63066,35.80529],[139.63017,35.8054],[139.62954,35.8056],[139.62875,35.80595],[139.62873,35.80676],[139.62875,35.80688],[139.62881,35.807],[139.62885,35.80712],[139.62882,35.80725],[139.62875,35.80733],[139.62827,35.80761],[139.62817,35.80768],[139.62815,35.80774],[139.62816,35.80783],[139.62824,35.80803],[139.62833,35.80815],[139.62845,35.80823],[139.62868,35.80852],[139.62877,35.80868],[139.62883,35.80892],[139.62901,35.80932],[139.62912,35.80968],[139.62912,35.80979],[139.62909,35.81033],[139.62909,35.81041],[139.62901,35.81055],[139.62886,35.81078],[139.62871,35.81095],[139.62861,35.81099],[139.6285,35.811],[139.62835,35.811],[139.62807,35.81093],[139.62782,35.81079],[139.62762,35.81073],[139.62734,35.81068],[139.62675,35.81077],[139.62658,35.81077],[139.62635,35.81075],[139.62613,35.81072],[139.62589,35.81065],[139.62577,35.81061],[139.62556,35.81052],[139.62515,35.81033],[139.62502,35.81014],[139.62479,35.8098],[139.62477,35.80978],[139.6242,35.80944],[139.62401,35.80935],[139.62391,35.80931],[139.62381,35.80931],[139.62373,35.80933],[139.62331,35.80964],[139.623,35.80987],[139.62261,35.81028],[139.62233,35.81066],[139.62223,35.81079],[139.62212,35.81094],[139.62202,35.8111],[139.62195,35.81125],[139.62191,35.81131],[139.62186,35.81146],[139.62181,35.81163],[139.62177,35.81185],[139.62175,35.81204],[139.62171,35.81232],[139.62169,35.81261],[139.62168,35.81301],[139.62169,35.81316],[139.62172,35.81337],[139.62177,35.81374],[139.62186,35.81431],[139.62197,35.81483],[139.6221,35.81529],[139.62227,35.81597],[139.62242,35.81649],[139.62249,35.81682],[139.62255,35.81725],[139.62258,35.81778],[139.62259,35.81791],[139.62263,35.81824],[139.62267,35.81858],[139.62267,35.81893],[139.62268,35.81914],[139.62271,35.81959],[139.62275,35.82002],[139.62276,35.8204],[139.62276,35.82078],[139.62277,35.82097],[139.62273,35.82137],[139.6227,35.82171],[139.62264,35.82241],[139.62263,35.82251],[139.62258,35.82263],[139.62253,35.82275],[139.62249,35.82285],[139.62242,35.82337],[139.62234,35.82374],[139.62228,35.82401],[139.62205,35.8247],[139.62188,35.8252],[139.62177,35.82549],[139.62169,35.82571],[139.62151,35.82613],[139.62142,35.82634],[139.62137,35.82643],[139.62122,35.82671],[139.6212,35.82674],[139.62112,35.82685],[139.6209,35.82713],[139.62079,35.82725],[139.62065,35.82742],[139.62038,35.82772],[139.62004,35.8281],[139.61975,35.82841],[139.61947,35.82871],[139.61923,35.82894],[139.61896,35.82917],[139.61891,35.82922],[139.61902,35.82931],[139.61919,35.82948],[139.61963,35.82993],[139.6202,35.83053],[139.62093,35.83128],[139.6241,35.83457],[139.62421,35.83466],[139.62478,35.83415]]]}}]}