{"type":"FeatureCollection","features":[{"type":"Feature","properties":{"name":"上本町一丁目","setai":197,"jinko":395,"key":"27109001001","units":1},"geometry":{"type":"Polygon","coordinates":[[[135.52139,34.67469],[135.52134,34.67431],[135.52061,34.6744],[135.5207,34.67514],[135.52073,34.67541],[135.52074,34.67558],[135.52077,34.67584],[135.52153,34.67579],[135.52143,34.67512],[135.52143,34.67505],[135.52139,34.67469]]]}},{"type":"Feature","properties":{"name":"上本町二丁目","setai":206,"jinko":348,"key":"27109001002","units":1},"geometry":{"type":"Polygon","coordinates":[[[135.52121,34.67326],[135.52118,34.67308],[135.52066,34.67312],[135.52044,34.67311],[135.5205,34.67357],[135.52053,34.6738],[135.52056,34.67402],[135.52059,34.67429],[135.52061,34.6744],[135.52134,34.67431],[135.52129,34.67391],[135.52124,34.6735],[135.52121,34.67326]]]}},{"type":"Feature","properties":{"name":"上本町三丁目","setai":245,"jinko":499,"key":"27109001003","units":1},"geometry":{"type":"Polygon","coordinates":[[[135.52103,34.67156],[135.521,34.67155],[135.52033,34.67161],[135.52027,34.67162],[135.52035,34.6723],[135.52037,34.67248],[135.52044,34.67311],[135.52066,34.67312],[135.52118,34.67308],[135.5221,34.67301],[135.52204,34.67263],[135.522,34.6723],[135.52195,34.67205],[135.52194,34.672],[135.52189,34.67176],[135.52103,34.67156]]]}},{"type":"Feature","properties":{"name":"上本町四丁目","setai":28,"jinko":53,"key":"27109001004","units":1},"geometry":{"type":"Polygon","coordinates":[[[135.52033,34.67161],[135.521,34.67155],[135.52103,34.67156],[135.52093,34.67087],[135.52079,34.67015],[135.52075,34.66996],[135.52072,34.66981],[135.52059,34.66909],[135.51992,34.66917],[135.51984,34.66918],[135.51997,34.66986],[135.52006,34.67034],[135.52017,34.67098],[135.52025,34.67148],[135.52027,34.67162],[135.52033,34.67161]]]}},{"type":"Feature","properties":{"name":"上本町五丁目","setai":770,"jinko":1406,"key":"27109001005","units":1},"geometry":{"type":"Polygon","coordinates":[[[135.52123,34.66815],[135.52116,34.66771],[135.52112,34.66771],[135.52113,34.6673],[135.52113,34.66728],[135.52114,34.66692],[135.52115,34.66676],[135.52115,34.66675],[135.52076,34.66678],[135.5207,34.66678],[135.52047,34.6668],[135.52021,34.66682],[135.51939,34.66689],[135.5194,34.6669],[135.51957,34.66774],[135.51961,34.66792],[135.51964,34.66805],[135.51974,34.6686],[135.51984,34.66918],[135.51992,34.66917],[135.52059,34.66909],[135.52138,34.669],[135.52127,34.6684],[135.52123,34.66819],[135.52123,34.66815]]]}},{"type":"Feature","properties":{"name":"上本町六丁目","setai":909,"jinko":1479,"key":"27109001006","units":1},"geometry":{"type":"Polygon","coordinates":[[[135.52108,34.66654],[135.52096,34.6661],[135.52156,34.66605],[135.52177,34.66603],[135.52199,34.66602],[135.52219,34.66601],[135.52251,34.66602],[135.52254,34.66602],[135.52316,34.66602],[135.5232,34.66601],[135.52329,34.66601],[135.52329,34.66591],[135.52358,34.66589],[135.52357,34.66563],[135.52353,34.6653],[135.52351,34.66516],[135.52316,34.66518],[135.52304,34.66518],[135.5229,34.66519],[135.52267,34.6652],[135.52252,34.66521],[135.52234,34.66522],[135.52185,34.66525],[135.52164,34.66525],[135.52143,34.66525],[135.52117,34.66523],[135.52081,34.66519],[135.52055,34.66514],[135.52037,34.66508],[135.52035,34.66498],[135.52033,34.66479],[135.52031,34.66463],[135.52028,34.66443],[135.52023,34.66394],[135.52022,34.66388],[135.5202,34.6637],[135.5202,34.66366],[135.52015,34.6632],[135.51992,34.66323],[135.51977,34.66325],[135.51953,34.66328],[135.51892,34.66337],[135.51885,34.66339],[135.51753,34.66354],[135.51754,34.66361],[135.51767,34.66423],[135.51777,34.66474],[135.51789,34.66528],[135.51795,34.66549],[135.51799,34.66571],[135.51806,34.666],[135.51811,34.66625],[135.51852,34.66619],[135.51854,34.66619],[135.51919,34.66609],[135.51923,34.66609],[135.51926,34.66624],[135.51939,34.66689],[135.52021,34.66682],[135.52047,34.6668],[135.5207,34.66678],[135.52076,34.66678],[135.52115,34.66675],[135.52108,34.66654]]]}},{"type":"Feature","properties":{"name":"上本町七丁目","setai":431,"jinko":968,"key":"27109001007","units":1},"geometry":{"type":"Polygon","coordinates":[[[135.52017,34.66319],[135.52005,34.66263],[135.51986,34.66263],[135.5195,34.66263],[135.51937,34.66263],[135.51929,34.66215],[135.51925,34.66165],[135.51863,34.66173],[135.51873,34.66229],[135.51827,34.66236],[135.51788,34.66241],[135.51736,34.66248],[135.51742,34.6629],[135.51747,34.6632],[135.51753,34.66354],[135.51885,34.66339],[135.51892,34.66337],[135.51953,34.66328],[135.51977,34.66325],[135.51992,34.66323],[135.52015,34.6632],[135.52017,34.66319]]]}},{"type":"Feature","properties":{"name":"上本町八丁目","setai":923,"jinko":1841,"key":"27109001008","units":1},"geometry":{"type":"Polygon","coordinates":[[[135.51925,34.66165],[135.51912,34.66079],[135.51909,34.6608],[135.51903,34.66042],[135.51897,34.66008],[135.51887,34.65952],[135.51887,34.65945],[135.51883,34.65905],[135.5188,34.65877],[135.51804,34.65883],[135.51796,34.65883],[135.51761,34.65888],[135.51734,34.65892],[135.51668,34.659],[135.51669,34.65905],[135.51678,34.6595],[135.51687,34.65996],[135.51691,34.66016],[135.51691,34.66016],[135.51694,34.66036],[135.51695,34.66039],[135.51695,34.6604],[135.51701,34.66071],[135.51703,34.66083],[135.51709,34.66112],[135.51711,34.66127],[135.5172,34.6617],[135.51735,34.66248],[135.51736,34.66248],[135.51788,34.66241],[135.51827,34.66236],[135.51873,34.66229],[135.51863,34.66173],[135.51925,34.66165]]]}},{"type":"Feature","properties":{"name":"上本町九丁目","setai":710,"jinko":1464,"key":"27109001009","units":1},"geometry":{"type":"Polygon","coordinates":[[[135.51873,34.65755],[135.51873,34.65742],[135.51857,34.65744],[135.51853,34.65744],[135.51838,34.65746],[135.51837,34.65716],[135.51832,34.65716],[135.51832,34.65694],[135.51821,34.65696],[135.51821,34.65699],[135.51818,34.65699],[135.5179,34.65705],[135.5178,34.65704],[135.51779,34.65704],[135.51704,34.65712],[135.51692,34.65713],[135.51677,34.65715],[135.51632,34.65719],[135.51644,34.65785],[135.51656,34.6584],[135.51664,34.6588],[135.51668,34.659],[135.51734,34.65892],[135.51761,34.65888],[135.51796,34.65883],[135.51804,34.65883],[135.5188,34.65877],[135.5188,34.65876],[135.51876,34.65841],[135.51874,34.65823],[135.51873,34.65821],[135.51873,34.65782],[135.51873,34.65755]]]}},{"type":"Feature","properties":{"name":"上汐三丁目","setai":894,"jinko":1501,"key":"27109002003","units":1},"geometry":{"type":"Polygon","coordinates":[[[135.51789,34.66528],[135.51777,34.66474],[135.51767,34.66423],[135.51754,34.66361],[135.51655,34.66374],[135.51596,34.6638],[135.51602,34.66408],[135.51617,34.66487],[135.5163,34.66486],[135.51631,34.66492],[135.51637,34.66523],[135.51641,34.66544],[135.51631,34.66545],[135.51635,34.66568],[135.5165,34.66646],[135.51661,34.66644],[135.51662,34.66644],[135.51705,34.66639],[135.51756,34.66632],[135.51811,34.66625],[135.51806,34.666],[135.51799,34.66571],[135.51795,34.66549],[135.51789,34.66528]]]}},{"type":"Feature","properties":{"name":"上汐四丁目","setai":376,"jinko":770,"key":"27109002004","units":1},"geometry":{"type":"Polygon","coordinates":[[[135.51742,34.6629],[135.51736,34.66248],[135.51735,34.66248],[135.5172,34.6617],[135.51711,34.66127],[135.51615,34.66139],[135.5156,34.66146],[135.51563,34.66164],[135.5158,34.66263],[135.51573,34.66264],[135.5158,34.66304],[135.51596,34.6638],[135.51655,34.66374],[135.51754,34.66361],[135.51753,34.66354],[135.51747,34.6632],[135.51742,34.6629]]]}},{"type":"Feature","properties":{"name":"上汐五丁目","setai":543,"jinko":1089,"key":"27109002005","units":1},"geometry":{"type":"Polygon","coordinates":[[[135.51669,34.65905],[135.51668,34.659],[135.51638,34.65905],[135.51574,34.65914],[135.51518,34.65936],[135.51534,34.66016],[135.51534,34.66021],[135.51539,34.66052],[135.5154,34.66052],[135.51544,34.66074],[135.51547,34.66095],[135.51557,34.66146],[135.5156,34.66146],[135.51615,34.66139],[135.51711,34.66127],[135.51709,34.66112],[135.51703,34.66083],[135.51701,34.66071],[135.51695,34.6604],[135.51695,34.66039],[135.51694,34.66036],[135.51691,34.66016],[135.51691,34.66016],[135.51687,34.65996],[135.51678,34.6595],[135.51669,34.65905]]]}},{"type":"Feature","properties":{"name":"上汐六丁目","setai":259,"jinko":507,"key":"27109002006","units":1},"geometry":{"type":"Polygon","coordinates":[[[135.51644,34.65785],[135.51632,34.65719],[135.51585,34.65724],[135.51535,34.65729],[135.5155,34.65798],[135.51554,34.65821],[135.51559,34.65851],[135.51506,34.65857],[135.51514,34.65904],[135.51518,34.65932],[135.51518,34.65936],[135.51574,34.65914],[135.51638,34.65905],[135.51668,34.659],[135.51664,34.6588],[135.51656,34.6584],[135.51644,34.65785]]]}},{"type":"Feature","properties":{"name":"生玉町","setai":1530,"jinko":2151,"key":"271090030","units":1},"geometry":{"type":"Polygon","coordinates":[[[135.51249,34.66669],[135.51269,34.66668],[135.51269,34.66668],[135.5128,34.66668],[135.51308,34.66667],[135.51308,34.66666],[135.51315,34.66666],[135.51341,34.66665],[135.51341,34.66664],[135.51441,34.66661],[135.51499,34.66658],[135.51516,34.66657],[135.5157,34.66654],[135.51554,34.66573],[135.51551,34.66554],[135.51545,34.66533],[135.51539,34.66503],[135.51537,34.66495],[135.51529,34.66454],[135.51524,34.66434],[135.51515,34.6639],[135.51502,34.66326],[135.5149,34.66328],[135.51431,34.6633],[135.51315,34.66334],[135.51229,34.66337],[135.51224,34.6634],[135.51208,34.66352],[135.51204,34.66354],[135.51207,34.66363],[135.51215,34.66359],[135.51218,34.66363],[135.5122,34.66405],[135.51215,34.66415],[135.51215,34.66478],[135.51214,34.66487],[135.51214,34.66587],[135.51208,34.6659],[135.51207,34.66594],[135.51207,34.66605],[135.51206,34.66605],[135.51199,34.66613],[135.51196,34.66617],[135.5113,34.6662],[135.5113,34.66623],[135.5113,34.66631],[135.5113,34.66632],[135.51131,34.66645],[135.51132,34.66647],[135.51133,34.6665],[135.51134,34.66668],[135.51134,34.66672],[135.51134,34.66673],[135.51136,34.66673],[135.51168,34.66672],[135.51171,34.66671],[135.51213,34.6667],[135.51213,34.6667],[135.51227,34.6667],[135.51249,34.66669]]]}},{"type":"Feature","properties":{"name":"生玉前町","setai":482,"jinko":885,"key":"271090040","units":1},"geometry":{"type":"Polygon","coordinates":[[[135.51631,34.66492],[135.5163,34.66486],[135.51617,34.66487],[135.51602,34.66408],[135.51596,34.6638],[135.5158,34.66304],[135.51573,34.66264],[135.5158,34.66263],[135.51563,34.66164],[135.5156,34.66146],[135.51557,34.66146],[135.51506,34.66153],[135.51473,34.66157],[135.51481,34.66203],[135.51487,34.6624],[135.51492,34.66269],[135.51503,34.66326],[135.51502,34.66326],[135.51515,34.6639],[135.51524,34.66434],[135.51529,34.66454],[135.51537,34.66495],[135.51539,34.66503],[135.51545,34.66533],[135.51551,34.66554],[135.51554,34.66573],[135.5157,34.66654],[135.5165,34.66646],[135.51635,34.66568],[135.51631,34.66545],[135.51641,34.66544],[135.51637,34.66523],[135.51631,34.66492]]]}},{"type":"Feature","properties":{"name":"生玉寺町","setai":590,"jinko":966,"key":"271090050","units":1},"geometry":{"type":"Polygon","coordinates":[[[135.51442,34.65987],[135.51439,34.65964],[135.51216,34.65974],[135.51196,34.65978],[135.51181,34.65986],[135.51183,34.6599],[135.51189,34.66023],[135.51194,34.66086],[135.51191,34.66089],[135.51195,34.66096],[135.512,34.66174],[135.51206,34.66181],[135.51203,34.66193],[135.51204,34.66231],[135.51208,34.66263],[135.51214,34.66267],[135.51205,34.66284],[135.51203,34.66301],[135.51208,34.66352],[135.51224,34.6634],[135.51229,34.66337],[135.51315,34.66334],[135.51431,34.6633],[135.5149,34.66328],[135.51502,34.66326],[135.51503,34.66326],[135.51492,34.66269],[135.51487,34.6624],[135.51481,34.66203],[135.51473,34.66157],[135.51465,34.66106],[135.51461,34.66091],[135.51449,34.66027],[135.51447,34.66019],[135.51442,34.65987]]]}},{"type":"Feature","properties":{"name":"六万体町","setai":353,"jinko":586,"key":"271090060","units":1},"geometry":{"type":"Polygon","coordinates":[[[135.5155,34.65798],[135.51535,34.65729],[135.51492,34.65733],[135.5148,34.65735],[135.51441,34.65739],[135.51436,34.65739],[135.51402,34.65743],[135.51404,34.65757],[135.51407,34.65774],[135.5141,34.65793],[135.51414,34.6581],[135.51424,34.65866],[135.51427,34.65885],[135.5143,34.65904],[135.51431,34.65907],[135.51439,34.65964],[135.51442,34.65987],[135.51447,34.66019],[135.51449,34.66027],[135.51461,34.66091],[135.51465,34.66106],[135.51473,34.66157],[135.51506,34.66153],[135.51557,34.66146],[135.51547,34.66095],[135.51544,34.66074],[135.5154,34.66052],[135.51539,34.66052],[135.51534,34.66021],[135.51534,34.66016],[135.51518,34.65936],[135.51518,34.65932],[135.51514,34.65904],[135.51506,34.65857],[135.51559,34.65851],[135.51554,34.65821],[135.5155,34.65798]]]}},{"type":"Feature","properties":{"name":"夕陽丘町","setai":421,"jinko":867,"key":"271090070","units":1},"geometry":{"type":"Polygon","coordinates":[[[135.51439,34.65964],[135.51431,34.65907],[135.5143,34.65904],[135.51427,34.65885],[135.51424,34.65866],[135.51414,34.6581],[135.5141,34.65793],[135.51407,34.65774],[135.51404,34.65757],[135.51402,34.65743],[135.51394,34.65699],[135.5139,34.65684],[135.51311,34.65688],[135.51254,34.6569],[135.51226,34.65687],[135.51175,34.65688],[135.5113,34.65695],[135.51126,34.65713],[135.51133,34.65731],[135.51148,34.65757],[135.5115,34.65761],[135.51163,34.65827],[135.51168,34.65873],[135.51168,34.65903],[135.51168,34.65913],[135.512,34.65913],[135.51201,34.65934],[135.51176,34.65934],[135.51176,34.65982],[135.51181,34.65986],[135.51196,34.65978],[135.51216,34.65974],[135.51439,34.65964]]]}},{"type":"Feature","properties":{"name":"伶人町","setai":208,"jinko":386,"key":"271090080","units":1},"geometry":{"type":"Polygon","coordinates":[[[135.51175,34.65688],[135.51226,34.65687],[135.51254,34.6569],[135.51311,34.65688],[135.5139,34.65684],[135.5139,34.65681],[135.51372,34.6558],[135.51373,34.65554],[135.51373,34.65512],[135.51372,34.65466],[135.51346,34.65466],[135.51312,34.65465],[135.51294,34.65465],[135.51229,34.65465],[135.51174,34.65465],[135.51087,34.65486],[135.51082,34.65487],[135.51085,34.65537],[135.51085,34.65544],[135.51097,34.65564],[135.51103,34.6557],[135.51108,34.65575],[135.51122,34.65583],[135.51157,34.65587],[135.51156,34.65588],[135.51154,34.65591],[135.51122,34.65618],[135.51118,34.65637],[135.51119,34.65642],[135.5113,34.65695],[135.51175,34.65688]]]}},{"type":"Feature","properties":{"name":"四天王寺一丁目","setai":953,"jinko":1852,"key":"27109009001","units":1},"geometry":{"type":"Polygon","coordinates":[[[135.51779,34.65704],[135.5178,34.65704],[135.5179,34.65705],[135.51818,34.65699],[135.51821,34.65699],[135.51821,34.65696],[135.51832,34.65694],[135.51838,34.65693],[135.51824,34.65665],[135.51828,34.65663],[135.51849,34.65652],[135.51841,34.65641],[135.51836,34.65641],[135.51832,34.65619],[135.51831,34.65604],[135.51828,34.65558],[135.51827,34.65546],[135.51827,34.65474],[135.51828,34.65463],[135.51831,34.6546],[135.51825,34.65431],[135.51817,34.65418],[135.51795,34.65378],[135.51759,34.65315],[135.51747,34.653],[135.51739,34.65291],[135.51722,34.65279],[135.51711,34.65273],[135.51708,34.65269],[135.51703,34.65257],[135.51694,34.65239],[135.51684,34.65248],[135.51653,34.65261],[135.51572,34.65294],[135.51426,34.65353],[135.51425,34.65353],[135.51371,34.65375],[135.51372,34.65434],[135.51372,34.65449],[135.51372,34.65466],[135.51373,34.65512],[135.51373,34.65554],[135.51372,34.6558],[135.5139,34.65681],[135.5139,34.65684],[135.51394,34.65699],[135.51402,34.65743],[135.51436,34.65739],[135.51441,34.65739],[135.5148,34.65735],[135.51492,34.65733],[135.51535,34.65729],[135.51585,34.65724],[135.51632,34.65719],[135.51677,34.65715],[135.51692,34.65713],[135.51704,34.65712],[135.51779,34.65704]]]}},{"type":"Feature","properties":{"name":"四天王寺二丁目","setai":194,"jinko":432,"key":"27109009002","units":1},"geometry":{"type":"Polygon","coordinates":[[[135.51903,34.65657],[135.51929,34.6565],[135.51929,34.65657],[135.52023,34.65633],[135.52022,34.6561],[135.52022,34.65604],[135.52021,34.65597],[135.5202,34.65593],[135.52024,34.65566],[135.52025,34.65555],[135.51999,34.65555],[135.51992,34.65559],[135.51979,34.65559],[135.51959,34.65558],[135.51948,34.65553],[135.51889,34.65553],[135.51886,34.65547],[135.51841,34.65459],[135.51831,34.6546],[135.51828,34.65463],[135.51827,34.65474],[135.51827,34.65546],[135.51828,34.65558],[135.51831,34.65604],[135.51832,34.65619],[135.51836,34.65641],[135.51841,34.65641],[135.51849,34.65652],[135.51828,34.65663],[135.51824,34.65665],[135.51838,34.65693],[135.51872,34.65683],[135.51886,34.65679],[135.51903,34.65673],[135.51903,34.65657]]]}},{"type":"Feature","properties":{"name":"下寺町一丁目","setai":24,"jinko":70,"key":"27109010001","units":1},"geometry":{"type":"Polygon","coordinates":[[[135.51218,34.66363],[135.51215,34.66359],[135.51207,34.66363],[135.51204,34.66354],[135.51208,34.66352],[135.51203,34.66301],[135.51205,34.66284],[135.51214,34.66267],[135.51208,34.66263],[135.51204,34.66231],[135.51203,34.66193],[135.51206,34.66181],[135.512,34.66174],[135.51195,34.66096],[135.51191,34.66089],[135.51194,34.66086],[135.51189,34.66023],[135.51183,34.6599],[135.51173,34.65997],[135.51156,34.66015],[135.51141,34.66024],[135.51125,34.66028],[135.51077,34.66028],[135.5108,34.66066],[135.51085,34.66128],[135.5109,34.66202],[135.51092,34.66238],[135.51092,34.6624],[135.51105,34.66359],[135.51116,34.66476],[135.51117,34.66495],[135.5112,34.66521],[135.51128,34.66601],[135.5113,34.6662],[135.51196,34.66617],[135.51199,34.66613],[135.51206,34.66605],[135.51207,34.66605],[135.51207,34.66594],[135.51208,34.6659],[135.51214,34.66587],[135.51214,34.66487],[135.51215,34.66478],[135.51215,34.66415],[135.5122,34.66405],[135.51218,34.66363]]]}},{"type":"Feature","properties":{"name":"下寺町二丁目","setai":203,"jinko":377,"key":"27109010002","units":1},"geometry":{"type":"Polygon","coordinates":[[[135.51201,34.65934],[135.512,34.65913],[135.51168,34.65913],[135.51168,34.65903],[135.51168,34.65873],[135.51163,34.65827],[135.5115,34.65761],[135.51148,34.65757],[135.51133,34.65731],[135.51126,34.65713],[135.5113,34.65695],[135.51119,34.65642],[135.51118,34.65637],[135.51122,34.65618],[135.51154,34.65591],[135.51156,34.65588],[135.51157,34.65587],[135.51122,34.65583],[135.51108,34.65575],[135.51103,34.6557],[135.51097,34.65564],[135.51085,34.65544],[135.51085,34.65537],[135.51082,34.65487],[135.51073,34.65488],[135.50997,34.655],[135.51006,34.65543],[135.51007,34.65548],[135.51013,34.65582],[135.5102,34.65611],[135.51033,34.6568],[135.51035,34.65693],[135.51038,34.65708],[135.51043,34.65729],[135.51045,34.65743],[135.51054,34.6579],[135.51062,34.65828],[135.51065,34.65858],[135.51068,34.65898],[135.51069,34.65916],[135.51071,34.65944],[135.51077,34.66015],[135.51077,34.66028],[135.51125,34.66028],[135.51141,34.66024],[135.51156,34.66015],[135.51173,34.65997],[135.51183,34.6599],[135.51181,34.65986],[135.51176,34.65982],[135.51176,34.65934],[135.51201,34.65934]]]}},{"type":"Feature","properties":{"name":"逢阪一丁目","setai":313,"jinko":642,"key":"27109011001","units":1},"geometry":{"type":"Polygon","coordinates":[[[135.51087,34.65486],[135.51174,34.65465],[135.51229,34.65465],[135.51294,34.65465],[135.51312,34.65465],[135.51346,34.65466],[135.51372,34.65466],[135.51372,34.65449],[135.51372,34.65434],[135.51371,34.65375],[135.51305,34.65373],[135.51299,34.65372],[135.51228,34.6537],[135.51159,34.65367],[135.51121,34.65366],[135.51064,34.65372],[135.50971,34.65382],[135.50978,34.65403],[135.50992,34.65472],[135.50993,34.65478],[135.50997,34.655],[135.51073,34.65488],[135.51082,34.65487],[135.51087,34.65486]]]}},{"type":"Feature","properties":{"name":"逢阪二丁目","setai":287,"jinko":600,"key":"27109011002","units":1},"geometry":{"type":"Polygon","coordinates":[[[135.51064,34.65372],[135.51121,34.65366],[135.51159,34.65367],[135.51228,34.6537],[135.51299,34.65372],[135.51305,34.65373],[135.51371,34.65375],[135.51371,34.65352],[135.51365,34.65282],[135.51366,34.65281],[135.51369,34.65226],[135.51369,34.6521],[135.51365,34.65212],[135.51284,34.65217],[135.51262,34.65226],[135.51117,34.65238],[135.51116,34.65246],[135.51097,34.65242],[135.51081,34.65208],[135.51032,34.65196],[135.51016,34.65188],[135.51005,34.65182],[135.50992,34.65179],[135.50976,34.65179],[135.50957,34.65194],[135.50957,34.6524],[135.50957,34.65262],[135.50952,34.65275],[135.50949,34.65287],[135.50969,34.65375],[135.50971,34.65382],[135.51064,34.65372]]]}},{"type":"Feature","properties":{"name":"茶臼山町","setai":138,"jinko":211,"key":"271090120","units":1},"geometry":{"type":"Polygon","coordinates":[[[135.50957,34.65194],[135.50976,34.65179],[135.50992,34.65179],[135.51005,34.65182],[135.51016,34.65188],[135.51032,34.65196],[135.51081,34.65208],[135.51097,34.65242],[135.51116,34.65246],[135.51117,34.65238],[135.51262,34.65226],[135.51284,34.65217],[135.51365,34.65212],[135.51369,34.6521],[135.5137,34.65189],[135.51373,34.65169],[135.51376,34.65153],[135.51383,34.6511],[135.51384,34.65106],[135.51385,34.65095],[135.51378,34.65052],[135.51372,34.65022],[135.51365,34.64984],[135.51359,34.64952],[135.51356,34.64932],[135.51354,34.64922],[135.51344,34.64873],[135.51343,34.64867],[135.51341,34.64856],[135.51339,34.64841],[135.51337,34.64833],[135.51328,34.64782],[135.51312,34.64688],[135.51286,34.64699],[135.51241,34.64713],[135.51191,34.64726],[135.51188,34.64727],[135.50907,34.64793],[135.50875,34.64799],[135.50849,34.648],[135.50849,34.64801],[135.50849,34.64808],[135.50849,34.64808],[135.50849,34.64818],[135.50847,34.64819],[135.508,34.64832],[135.50794,34.64834],[135.50791,34.64835],[135.50771,34.64838],[135.50744,34.64843],[135.50706,34.64853],[135.50705,34.64854],[135.50705,34.64854],[135.50692,34.64857],[135.50692,34.64856],[135.50633,34.6487],[135.50625,34.64872],[135.50655,34.6495],[135.50659,34.6496],[135.50663,34.64973],[135.50674,34.64994],[135.50679,34.65005],[135.50694,34.65044],[135.50707,34.65084],[135.50709,34.6509],[135.50731,34.65158],[135.5075,34.65208],[135.5077,34.65263],[135.50792,34.65334],[135.50796,34.65344],[135.50806,34.65396],[135.50823,34.65393],[135.50842,34.6539],[135.50923,34.6538],[135.50969,34.65375],[135.50949,34.65287],[135.50952,34.65275],[135.50957,34.65262],[135.50957,34.6524],[135.50957,34.65194]]]}},{"type":"Feature","properties":{"name":"堀越町","setai":542,"jinko":926,"key":"271090130","units":1},"geometry":{"type":"Polygon","coordinates":[[[135.51659,34.6512],[135.51662,34.65073],[135.51662,34.65064],[135.51661,34.65002],[135.51653,34.64965],[135.51652,34.6496],[135.51641,34.64932],[135.51614,34.64949],[135.51562,34.6498],[135.51565,34.64992],[135.51556,34.64996],[135.51529,34.65007],[135.51508,34.65014],[135.51476,34.65023],[135.51473,34.65012],[135.51452,34.65002],[135.51446,34.64992],[135.51443,34.64973],[135.51439,34.64962],[135.51433,34.64942],[135.51426,34.64915],[135.51417,34.64914],[135.5142,34.64889],[135.51433,34.64858],[135.51434,34.64855],[135.51435,34.64852],[135.51435,34.64833],[135.51435,34.64822],[135.51433,34.648],[135.51381,34.64791],[135.51328,34.64782],[135.51337,34.64833],[135.51339,34.64841],[135.51341,34.64856],[135.51343,34.64867],[135.51344,34.64873],[135.51354,34.64922],[135.51356,34.64932],[135.51359,34.64952],[135.51365,34.64984],[135.51372,34.65022],[135.51378,34.65052],[135.51385,34.65095],[135.51384,34.65106],[135.51446,34.65113],[135.51508,34.65112],[135.51515,34.65113],[135.51558,34.65116],[135.51659,34.6512]]]}},{"type":"Feature","properties":{"name":"悲田院町","setai":667,"jinko":1276,"key":"271090140","units":1},"geometry":{"type":"Polygon","coordinates":[[[135.51621,34.64737],[135.51574,34.64614],[135.51503,34.64632],[135.51365,34.64666],[135.51312,34.64688],[135.51328,34.64782],[135.51381,34.64791],[135.51433,34.648],[135.51435,34.64822],[135.51435,34.64833],[135.51435,34.64852],[135.51434,34.64855],[135.51433,34.64858],[135.5142,34.64889],[135.51417,34.64914],[135.51426,34.64915],[135.51433,34.64942],[135.51439,34.64962],[135.51443,34.64973],[135.51446,34.64992],[135.51452,34.65002],[135.51473,34.65012],[135.51476,34.65023],[135.51508,34.65014],[135.51529,34.65007],[135.51556,34.64996],[135.51565,34.64992],[135.51562,34.6498],[135.51614,34.64949],[135.51641,34.64932],[135.5164,34.6493],[135.51634,34.64914],[135.51633,34.6491],[135.51625,34.64888],[135.51623,34.64885],[135.51617,34.64869],[135.51668,34.64855],[135.51656,34.64834],[135.51634,34.64779],[135.51634,34.64773],[135.51633,34.64771],[135.51628,34.64752],[135.51623,34.6474],[135.51621,34.64737]]]}},{"type":"Feature","properties":{"name":"北河堀町","setai":749,"jinko":1415,"key":"271090150","units":1},"geometry":{"type":"Polygon","coordinates":[[[135.51822,34.65082],[135.51857,34.65081],[135.51867,34.65082],[135.51882,34.65036],[135.51893,34.65004],[135.51892,34.64984],[135.51888,34.64931],[135.51886,34.64902],[135.51886,34.64897],[135.51882,34.6487],[135.51807,34.64857],[135.5175,34.64849],[135.51706,34.64842],[135.51656,34.64834],[135.51668,34.64855],[135.51617,34.64869],[135.51623,34.64885],[135.51625,34.64888],[135.51633,34.6491],[135.51634,34.64914],[135.5164,34.6493],[135.51641,34.64932],[135.51652,34.6496],[135.51653,34.64965],[135.51661,34.65002],[135.51662,34.65064],[135.51662,34.65073],[135.51659,34.6512],[135.51658,34.65154],[135.51709,34.65132],[135.51717,34.65128],[135.51795,34.65094],[135.51822,34.65082]]]}},{"type":"Feature","properties":{"name":"南河堀町","setai":732,"jinko":1157,"key":"271090160","units":1},"geometry":{"type":"Polygon","coordinates":[[[135.52041,34.6459],[135.52018,34.64584],[135.52005,34.64582],[135.5199,34.64582],[135.51956,34.64581],[135.51891,34.64583],[135.51852,34.64585],[135.51819,34.64583],[135.518,34.64582],[135.51768,34.64581],[135.51741,34.64574],[135.51668,34.64591],[135.51574,34.64614],[135.51621,34.64737],[135.51623,34.6474],[135.51628,34.64752],[135.51633,34.64771],[135.51634,34.64773],[135.51634,34.64779],[135.51656,34.64834],[135.51706,34.64842],[135.5175,34.64849],[135.51807,34.64857],[135.51882,34.6487],[135.52008,34.64892],[135.52016,34.64898],[135.52065,34.64883],[135.52061,34.64878],[135.52053,34.64863],[135.52051,34.64849],[135.5205,34.64838],[135.52052,34.64825],[135.52055,34.64815],[135.52111,34.64814],[135.52114,34.64741],[135.52185,34.64741],[135.52186,34.64669],[135.52187,34.64649],[135.5219,34.64646],[135.52187,34.64645],[135.52178,34.64639],[135.52167,34.64633],[135.5215,34.64624],[135.52124,34.64612],[135.52101,34.64604],[135.52086,34.646],[135.52078,34.64597],[135.52073,34.64596],[135.52041,34.6459]]]}},{"type":"Feature","properties":{"name":"大道一丁目","setai":721,"jinko":1142,"key":"27109017001","units":1},"geometry":{"type":"Polygon","coordinates":[[[135.51746,34.65188],[135.5182,34.65113],[135.51823,34.65111],[135.51846,34.65095],[135.51869,34.65082],[135.51867,34.65082],[135.51857,34.65081],[135.51822,34.65082],[135.51795,34.65094],[135.51717,34.65128],[135.51709,34.65132],[135.51658,34.65154],[135.51659,34.6512],[135.51558,34.65116],[135.51515,34.65113],[135.51508,34.65112],[135.51446,34.65113],[135.51384,34.65106],[135.51383,34.6511],[135.51376,34.65153],[135.51373,34.65169],[135.5137,34.65189],[135.51369,34.6521],[135.51369,34.65226],[135.51366,34.65281],[135.51365,34.65282],[135.51371,34.65352],[135.51371,34.65375],[135.51425,34.65353],[135.51426,34.65353],[135.51572,34.65294],[135.51653,34.65261],[135.51684,34.65248],[135.51694,34.65239],[135.51733,34.65199],[135.51746,34.65188]]]}},{"type":"Feature","properties":{"name":"大道二丁目","setai":886,"jinko":1745,"key":"27109017002","units":1},"geometry":{"type":"Polygon","coordinates":[[[135.52151,34.65118],[135.52156,34.65073],[135.52148,34.65071],[135.52081,34.65073],[135.52069,34.65073],[135.52015,34.65078],[135.51991,34.65079],[135.51888,34.65082],[135.51869,34.65082],[135.51846,34.65095],[135.51823,34.65111],[135.5182,34.65113],[135.51746,34.65188],[135.51733,34.65199],[135.51694,34.65239],[135.51703,34.65257],[135.51708,34.65269],[135.51711,34.65273],[135.51722,34.65279],[135.51739,34.65291],[135.51747,34.653],[135.5177,34.65295],[135.51834,34.65283],[135.51899,34.65282],[135.51898,34.65279],[135.51896,34.65237],[135.51949,34.65235],[135.5202,34.65231],[135.52019,34.65216],[135.52139,34.65213],[135.52143,34.6518],[135.52149,34.65134],[135.52151,34.65118]]]}},{"type":"Feature","properties":{"name":"大道三丁目","setai":858,"jinko":1352,"key":"27109017003","units":1},"geometry":{"type":"Polygon","coordinates":[[[135.52081,34.65073],[135.52148,34.65071],[135.52156,34.65073],[135.52193,34.6504],[135.5215,34.65005],[135.52125,34.64985],[135.52122,34.64983],[135.52051,34.64924],[135.52019,34.64902],[135.52016,34.64898],[135.52008,34.64892],[135.51882,34.6487],[135.51886,34.64897],[135.51886,34.64902],[135.51888,34.64931],[135.51892,34.64984],[135.51893,34.65004],[135.51882,34.65036],[135.51867,34.65082],[135.51869,34.65082],[135.51888,34.65082],[135.51991,34.65079],[135.52015,34.65078],[135.52069,34.65073],[135.52081,34.65073]]]}},{"type":"Feature","properties":{"name":"大道四丁目","setai":491,"jinko":942,"key":"27109017004","units":1},"geometry":{"type":"Polygon","coordinates":[[[135.52414,34.64839],[135.52361,34.64789],[135.52356,34.64791],[135.52337,34.64797],[135.52319,34.64802],[135.52304,34.64807],[135.52261,34.64819],[135.52251,34.64821],[135.52233,34.64826],[135.52186,34.64836],[135.52111,34.64862],[135.52065,34.64883],[135.52016,34.64898],[135.52019,34.64902],[135.52051,34.64924],[135.52122,34.64983],[135.52125,34.64985],[135.5215,34.65005],[135.52193,34.6504],[135.52194,34.65039],[135.52248,34.64989],[135.52261,34.64979],[135.52313,34.64937],[135.52315,34.64935],[135.52358,34.64899],[135.52393,34.64869],[135.52402,34.64861],[135.52416,34.64849],[135.52418,34.64848],[135.52411,34.64841],[135.52414,34.64839]]]}},{"type":"Feature","properties":{"name":"大道五丁目","setai":203,"jinko":421,"key":"27109017005","units":1},"geometry":{"type":"Polygon","coordinates":[[[135.52202,34.64654],[135.5219,34.64646],[135.52187,34.64649],[135.52186,34.64669],[135.52185,34.64741],[135.52114,34.64741],[135.52111,34.64814],[135.52055,34.64815],[135.52052,34.64825],[135.5205,34.64838],[135.52051,34.64849],[135.52053,34.64863],[135.52061,34.64878],[135.52065,34.64883],[135.52111,34.64862],[135.52186,34.64836],[135.52233,34.64826],[135.52251,34.64821],[135.52261,34.64819],[135.52304,34.64807],[135.52319,34.64802],[135.52337,34.64797],[135.52356,34.64791],[135.52361,34.64789],[135.52338,34.64767],[135.52307,34.64738],[135.52292,34.64724],[135.52289,34.64722],[135.52284,34.64718],[135.52275,34.64712],[135.52262,34.64704],[135.52248,34.64692],[135.52231,34.64677],[135.52229,34.64676],[135.5222,34.64667],[135.52202,34.64654]]]}},{"type":"Feature","properties":{"name":"勝山一丁目","setai":702,"jinko":1714,"key":"27109018001","units":1},"geometry":{"type":"Polygon","coordinates":[[[135.52257,34.65562],[135.52308,34.65547],[135.52308,34.65512],[135.52306,34.65458],[135.52302,34.65458],[135.52269,34.65458],[135.52258,34.65457],[135.52235,34.65457],[135.52227,34.65457],[135.52205,34.65457],[135.5217,34.65456],[135.52167,34.65456],[135.5211,34.65455],[135.52108,34.65455],[135.52105,34.65455],[135.52102,34.65455],[135.52018,34.65454],[135.51975,34.65454],[135.51964,34.65454],[135.51925,34.65454],[135.51874,34.65458],[135.51846,34.65461],[135.51841,34.65459],[135.51886,34.65547],[135.51889,34.65553],[135.51948,34.65553],[135.51959,34.65558],[135.51979,34.65559],[135.51992,34.65559],[135.51999,34.65555],[135.52025,34.65555],[135.52024,34.65566],[135.5202,34.65593],[135.52021,34.65597],[135.52022,34.65604],[135.52022,34.6561],[135.52023,34.65633],[135.52057,34.65623],[135.5206,34.65622],[135.52076,34.65616],[135.52113,34.65605],[135.52133,34.65599],[135.52157,34.65592],[135.52168,34.65588],[135.52171,34.65588],[135.52257,34.65562]]]}},{"type":"Feature","properties":{"name":"勝山二丁目","setai":833,"jinko":1739,"key":"27109018002","units":1},"geometry":{"type":"Polygon","coordinates":[[[135.51846,34.65461],[135.51874,34.65458],[135.51925,34.65454],[135.51964,34.65454],[135.51975,34.65454],[135.52018,34.65454],[135.52102,34.65455],[135.52105,34.65455],[135.52108,34.65455],[135.5211,34.65455],[135.52167,34.65456],[135.5217,34.65456],[135.52205,34.65457],[135.52227,34.65457],[135.52235,34.65457],[135.52258,34.65457],[135.52269,34.65458],[135.52302,34.65458],[135.52303,34.65413],[135.52302,34.65373],[135.52302,34.65369],[135.52302,34.65327],[135.52259,34.65329],[135.52234,34.6533],[135.5219,34.65331],[135.52157,34.65332],[135.52106,34.6533],[135.52088,34.65329],[135.52087,34.65329],[135.52018,34.65325],[135.52021,34.65278],[135.52022,34.65271],[135.5202,34.65231],[135.51949,34.65235],[135.51896,34.65237],[135.51898,34.65279],[135.51899,34.65282],[135.51834,34.65283],[135.5177,34.65295],[135.51747,34.653],[135.51759,34.65315],[135.51795,34.65378],[135.51817,34.65418],[135.51825,34.65431],[135.51831,34.6546],[135.51841,34.65459],[135.51846,34.65461]]]}},{"type":"Feature","properties":{"name":"勝山三丁目","setai":429,"jinko":923,"key":"27109018003","units":1},"geometry":{"type":"Polygon","coordinates":[[[135.52478,34.65496],[135.5248,34.65496],[135.5248,34.65498],[135.52524,34.65485],[135.52514,34.65455],[135.52504,34.65422],[135.525,34.65409],[135.52491,34.65384],[135.52479,34.65347],[135.52466,34.65305],[135.52464,34.65301],[135.52434,34.65301],[135.52351,34.65302],[135.5235,34.6529],[135.52332,34.65291],[135.52301,34.65292],[135.52302,34.65305],[135.52302,34.65327],[135.52302,34.65369],[135.52302,34.65373],[135.52303,34.65413],[135.52302,34.65458],[135.52306,34.65458],[135.52308,34.65512],[135.52308,34.65547],[135.52308,34.65549],[135.52368,34.65532],[135.52392,34.65525],[135.52392,34.65522],[135.52409,34.65517],[135.52478,34.65496]]]}},{"type":"Feature","properties":{"name":"勝山四丁目","setai":530,"jinko":1099,"key":"27109018004","units":1},"geometry":{"type":"Polygon","coordinates":[[[135.52645,34.65362],[135.52629,34.65314],[135.52612,34.65318],[135.52555,34.6533],[135.52479,34.65347],[135.52491,34.65384],[135.525,34.65409],[135.52504,34.65422],[135.52514,34.65455],[135.52524,34.65485],[135.52534,34.65517],[135.52543,34.65544],[135.52543,34.65547],[135.52556,34.65583],[135.526,34.65578],[135.52618,34.65576],[135.52627,34.65575],[135.52688,34.65574],[135.52692,34.65573],[135.52697,34.65571],[135.5271,34.65567],[135.5269,34.65507],[135.52675,34.6546],[135.52677,34.65459],[135.52675,34.65454],[135.52645,34.65362]]]}},{"type":"Feature","properties":{"name":"国分町","setai":1271,"jinko":2451,"key":"271090190","units":1},"geometry":{"type":"Polygon","coordinates":[[[135.52629,34.65314],[135.52619,34.65282],[135.52618,34.6528],[135.52601,34.65227],[135.52574,34.65136],[135.52559,34.65088],[135.52558,34.65081],[135.52557,34.65073],[135.52534,34.65012],[135.5253,34.65012],[135.52509,34.65013],[135.5244,34.65013],[135.52399,34.65014],[135.52312,34.65013],[135.52306,34.65014],[135.52306,34.65063],[135.52307,34.65112],[135.523,34.65125],[135.523,34.65131],[135.52301,34.65217],[135.52301,34.65219],[135.52302,34.65242],[135.52301,34.6527],[135.52301,34.65283],[135.52301,34.65292],[135.52332,34.65291],[135.5235,34.6529],[135.52351,34.65302],[135.52434,34.65301],[135.52464,34.65301],[135.52466,34.65305],[135.52479,34.65347],[135.52555,34.6533],[135.52612,34.65318],[135.52629,34.65314]]]}},{"type":"Feature","properties":{"name":"寺田町一丁目","setai":496,"jinko":983,"key":"27109020001","units":1},"geometry":{"type":"Polygon","coordinates":[[[135.522,34.65043],[135.52194,34.65039],[135.52193,34.6504],[135.52156,34.65073],[135.52151,34.65118],[135.52149,34.65134],[135.52143,34.6518],[135.52139,34.65213],[135.52019,34.65216],[135.5202,34.65231],[135.52022,34.65271],[135.52021,34.65278],[135.52018,34.65325],[135.52087,34.65329],[135.52088,34.65329],[135.52106,34.6533],[135.52157,34.65332],[135.5219,34.65331],[135.52234,34.6533],[135.52259,34.65329],[135.52302,34.65327],[135.52302,34.65305],[135.52301,34.65292],[135.52301,34.65283],[135.52301,34.6527],[135.52302,34.65242],[135.52301,34.65219],[135.52301,34.65217],[135.523,34.65131],[135.523,34.65125],[135.5226,34.65092],[135.522,34.65043]]]}},{"type":"Feature","properties":{"name":"寺田町二丁目","setai":517,"jinko":752,"key":"27109020002","units":1},"geometry":{"type":"Polygon","coordinates":[[[135.52306,34.65014],[135.52312,34.65013],[135.52399,34.65014],[135.5244,34.65013],[135.52509,34.65013],[135.5253,34.65012],[135.52534,34.65012],[135.52533,34.65008],[135.52517,34.64976],[135.52513,34.64968],[135.52506,34.64957],[135.52492,34.64935],[135.52467,34.64903],[135.52452,34.64885],[135.52434,34.64864],[135.52418,34.64848],[135.52416,34.64849],[135.52402,34.64861],[135.52393,34.64869],[135.52358,34.64899],[135.52315,34.64935],[135.52313,34.64937],[135.52261,34.64979],[135.52248,34.64989],[135.52194,34.65039],[135.522,34.65043],[135.5226,34.65092],[135.523,34.65125],[135.52307,34.65112],[135.52306,34.65063],[135.52306,34.65014]]]}},{"type":"Feature","properties":{"name":"石ケ辻町","setai":1038,"jinko":1824,"key":"271090210","units":1},"geometry":{"type":"Polygon","coordinates":[[[135.52326,34.6628],[135.52323,34.66273],[135.52262,34.66282],[135.52253,34.66283],[135.52237,34.66286],[135.52219,34.66288],[135.52167,34.66297],[135.52111,34.66305],[135.52064,34.66313],[135.52017,34.66319],[135.52015,34.6632],[135.5202,34.66366],[135.5202,34.6637],[135.52022,34.66388],[135.52023,34.66394],[135.52028,34.66443],[135.52031,34.66463],[135.52033,34.66479],[135.52035,34.66498],[135.52037,34.66508],[135.52055,34.66514],[135.52081,34.66519],[135.52117,34.66523],[135.52143,34.66525],[135.52164,34.66525],[135.52185,34.66525],[135.52234,34.66522],[135.52252,34.66521],[135.52267,34.6652],[135.5229,34.66519],[135.52304,34.66518],[135.52316,34.66518],[135.52351,34.66516],[135.52351,34.66512],[135.52348,34.66488],[135.52346,34.66471],[135.52345,34.66465],[135.52343,34.66456],[135.52342,34.66445],[135.5234,34.66432],[135.52339,34.66423],[135.52336,34.66403],[135.52336,34.66398],[135.52332,34.66369],[135.52331,34.66332],[135.52328,34.66304],[135.52326,34.6628]]]}},{"type":"Feature","properties":{"name":"上之宮町","setai":355,"jinko":806,"key":"271090220","units":1},"geometry":{"type":"Polygon","coordinates":[[[135.52167,34.66297],[135.52167,34.6624],[135.52163,34.66175],[135.52181,34.66174],[135.52195,34.66174],[135.52238,34.66172],[135.52234,34.66099],[135.52234,34.66096],[135.52192,34.66099],[135.52189,34.66053],[135.52167,34.66053],[135.52154,34.66054],[135.52152,34.66054],[135.5212,34.66055],[135.52117,34.66055],[135.52111,34.66059],[135.52069,34.66063],[135.52056,34.66064],[135.52015,34.66068],[135.52014,34.66069],[135.51912,34.66079],[135.51925,34.66165],[135.51929,34.66215],[135.51937,34.66263],[135.5195,34.66263],[135.51986,34.66263],[135.52005,34.66263],[135.52017,34.66319],[135.52064,34.66313],[135.52111,34.66305],[135.52167,34.66297]]]}},{"type":"Feature","properties":{"name":"北山町","setai":506,"jinko":1152,"key":"271090230","units":1},"geometry":{"type":"Polygon","coordinates":[[[135.52315,34.66097],[135.5232,34.66077],[135.52319,34.66052],[135.52319,34.66048],[135.52315,34.66016],[135.52313,34.65993],[135.5231,34.65967],[135.5231,34.65966],[135.52307,34.65936],[135.52306,34.65932],[135.52313,34.65907],[135.52315,34.659],[135.52318,34.6588],[135.52317,34.65853],[135.52316,34.65806],[135.52256,34.65807],[135.52238,34.65808],[135.5217,34.65809],[135.52161,34.65809],[135.52146,34.6581],[135.52095,34.6581],[135.52076,34.65812],[135.52092,34.65906],[135.52096,34.65927],[135.52099,34.65944],[135.521,34.65945],[135.52115,34.65944],[135.52149,34.65944],[135.5215,34.6597],[135.5215,34.65979],[135.52152,34.66054],[135.52154,34.66054],[135.52167,34.66053],[135.52189,34.66053],[135.52192,34.66099],[135.52234,34.66096],[135.52234,34.66099],[135.52238,34.66172],[135.52195,34.66174],[135.52181,34.66174],[135.52163,34.66175],[135.52167,34.6624],[135.52167,34.66297],[135.52219,34.66288],[135.52237,34.66286],[135.52253,34.66283],[135.52262,34.66282],[135.52323,34.66273],[135.52319,34.66239],[135.52318,34.66209],[135.52318,34.66205],[135.52316,34.66175],[135.52314,34.66146],[135.52311,34.66126],[135.52311,34.66121],[135.52315,34.66099],[135.52315,34.66097]]]}},{"type":"Feature","properties":{"name":"松ケ鼻町","setai":320,"jinko":890,"key":"271090240","units":1},"geometry":{"type":"Polygon","coordinates":[[[135.52504,34.65954],[135.52488,34.65918],[135.52486,34.65917],[135.52444,34.65925],[135.52435,34.65908],[135.52429,34.65896],[135.52426,34.65891],[135.5241,34.65853],[135.52398,34.6582],[135.52367,34.6582],[135.52354,34.65819],[135.52327,34.65812],[135.52316,34.65806],[135.52317,34.65853],[135.52318,34.6588],[135.52315,34.659],[135.52313,34.65907],[135.52306,34.65932],[135.52307,34.65936],[135.5231,34.65966],[135.5231,34.65967],[135.52313,34.65993],[135.52315,34.66016],[135.52319,34.66048],[135.52319,34.66052],[135.5232,34.66077],[135.52315,34.66097],[135.52315,34.66099],[135.52331,34.66099],[135.52381,34.66089],[135.52415,34.66082],[135.52444,34.6607],[135.52486,34.66057],[135.52484,34.66051],[135.52482,34.66043],[135.52529,34.66033],[135.5253,34.6603],[135.52524,34.66005],[135.52522,34.65996],[135.52504,34.65954]]]}},{"type":"Feature","properties":{"name":"小宮町","setai":680,"jinko":1649,"key":"271090250","units":1},"geometry":{"type":"Polygon","coordinates":[[[135.5215,34.6597],[135.52149,34.65944],[135.52115,34.65944],[135.521,34.65945],[135.52099,34.65944],[135.52096,34.65927],[135.52092,34.65906],[135.52076,34.65812],[135.5203,34.65815],[135.51971,34.65819],[135.51955,34.65819],[135.51915,34.6582],[135.51873,34.65821],[135.51874,34.65823],[135.51876,34.65841],[135.5188,34.65876],[135.5188,34.65877],[135.51883,34.65905],[135.51887,34.65945],[135.51887,34.65952],[135.51897,34.66008],[135.51903,34.66042],[135.51909,34.6608],[135.51912,34.66079],[135.52014,34.66069],[135.52015,34.66068],[135.52056,34.66064],[135.52069,34.66063],[135.52111,34.66059],[135.52117,34.66055],[135.5212,34.66055],[135.52152,34.66054],[135.5215,34.65979],[135.5215,34.6597]]]}},{"type":"Feature","properties":{"name":"真法院町","setai":616,"jinko":1410,"key":"271090260","units":1},"geometry":{"type":"Polygon","coordinates":[[[135.52315,34.65763],[135.52312,34.65694],[135.52311,34.65682],[135.5231,34.65644],[135.52309,34.65629],[135.52308,34.65574],[135.52308,34.65549],[135.52308,34.65547],[135.52257,34.65562],[135.52171,34.65588],[135.52168,34.65588],[135.52157,34.65592],[135.52133,34.65599],[135.52113,34.65605],[135.52076,34.65616],[135.5206,34.65622],[135.52057,34.65623],[135.52023,34.65633],[135.51929,34.65657],[135.51929,34.6565],[135.51903,34.65657],[135.51903,34.65673],[135.51886,34.65679],[135.51872,34.65683],[135.51838,34.65693],[135.51832,34.65694],[135.51832,34.65716],[135.51837,34.65716],[135.51838,34.65746],[135.51853,34.65744],[135.51857,34.65744],[135.51873,34.65742],[135.51873,34.65755],[135.51873,34.65782],[135.51873,34.65821],[135.51915,34.6582],[135.51955,34.65819],[135.51971,34.65819],[135.5203,34.65815],[135.52076,34.65812],[135.52095,34.6581],[135.52146,34.6581],[135.52161,34.65809],[135.5217,34.65809],[135.52238,34.65808],[135.52256,34.65807],[135.52316,34.65806],[135.52315,34.65763]]]}},{"type":"Feature","properties":{"name":"烏ケ辻一丁目","setai":483,"jinko":954,"key":"27109027001","units":1},"geometry":{"type":"Polygon","coordinates":[[[135.5273,34.65626],[135.5271,34.65567],[135.52697,34.65571],[135.52692,34.65573],[135.52688,34.65574],[135.52627,34.65575],[135.52618,34.65576],[135.526,34.65578],[135.52556,34.65583],[135.52563,34.65604],[135.52573,34.65635],[135.52576,34.65644],[135.52585,34.65672],[135.52593,34.65694],[135.52621,34.65774],[135.52636,34.65821],[135.52675,34.65819],[135.52683,34.65818],[135.52755,34.65814],[135.52741,34.65775],[135.52757,34.65771],[135.52778,34.65768],[135.5273,34.65626]]]}},{"type":"Feature","properties":{"name":"烏ケ辻二丁目","setai":355,"jinko":804,"key":"27109027002","units":1},"geometry":{"type":"Polygon","coordinates":[[[135.52636,34.65821],[135.52621,34.65774],[135.52593,34.65694],[135.52585,34.65672],[135.52576,34.65644],[135.52573,34.65635],[135.52563,34.65604],[135.52556,34.65583],[135.52543,34.65547],[135.52543,34.65544],[135.52534,34.65517],[135.52524,34.65485],[135.5248,34.65498],[135.5248,34.65496],[135.52478,34.65496],[135.52409,34.65517],[135.52392,34.65522],[135.52392,34.65525],[135.52368,34.65532],[135.52308,34.65549],[135.52308,34.65574],[135.52309,34.65629],[135.5231,34.65644],[135.52311,34.65682],[135.52312,34.65694],[135.52315,34.65763],[135.52316,34.65806],[135.52327,34.65812],[135.52354,34.65819],[135.52367,34.6582],[135.52398,34.6582],[135.52448,34.65818],[135.52452,34.65818],[135.52521,34.65824],[135.52522,34.65824],[135.52524,34.65824],[135.52631,34.65821],[135.52636,34.65821]]]}},{"type":"Feature","properties":{"name":"筆ケ崎町","setai":1926,"jinko":3957,"key":"271090280","units":1},"geometry":{"type":"Polygon","coordinates":[[[135.52804,34.66353],[135.52793,34.6632],[135.52788,34.66304],[135.52761,34.66222],[135.5276,34.66219],[135.52742,34.66228],[135.52736,34.66234],[135.52721,34.66238],[135.5269,34.66227],[135.52684,34.66227],[135.52617,34.66251],[135.52606,34.66264],[135.52604,34.66264],[135.52564,34.66277],[135.52559,34.66278],[135.52559,34.66306],[135.52559,34.66335],[135.52559,34.66335],[135.5254,34.66335],[135.52516,34.66334],[135.52491,34.66334],[135.52478,34.66334],[135.5247,34.66333],[135.52401,34.66332],[135.52362,34.66332],[135.52331,34.66332],[135.52332,34.66369],[135.52336,34.66398],[135.52336,34.66403],[135.52339,34.66423],[135.5234,34.66432],[135.52342,34.66445],[135.52343,34.66456],[135.52345,34.66465],[135.52346,34.66471],[135.52348,34.66488],[135.52351,34.66512],[135.52351,34.66516],[135.52353,34.6653],[135.52407,34.66533],[135.52431,34.66534],[135.52477,34.66536],[135.52524,34.66537],[135.52569,34.66537],[135.52601,34.66537],[135.52615,34.66536],[135.52648,34.66532],[135.52687,34.66528],[135.52712,34.66526],[135.52738,34.66522],[135.52757,34.66521],[135.52759,34.6652],[135.52792,34.66519],[135.52805,34.66518],[135.52811,34.66518],[135.52813,34.66518],[135.52851,34.66517],[135.52859,34.66516],[135.52859,34.66516],[135.52835,34.66443],[135.52832,34.66436],[135.52818,34.66395],[135.52811,34.66373],[135.52804,34.66353]]]}},{"type":"Feature","properties":{"name":"東上町","setai":512,"jinko":751,"key":"271090290","units":1},"geometry":{"type":"Polygon","coordinates":[[[135.52941,34.66513],[135.52949,34.66508],[135.53001,34.66509],[135.53018,34.6651],[135.52997,34.66447],[135.52995,34.66439],[135.52993,34.66432],[135.52992,34.66429],[135.52991,34.66426],[135.52989,34.6642],[135.52988,34.66416],[135.52979,34.6639],[135.52968,34.66357],[135.52968,34.66355],[135.52944,34.66284],[135.52922,34.66217],[135.52908,34.66222],[135.52811,34.66222],[135.52784,34.66222],[135.52761,34.66222],[135.52788,34.66304],[135.52793,34.6632],[135.52804,34.66353],[135.52811,34.66373],[135.52818,34.66395],[135.52832,34.66436],[135.52835,34.66443],[135.52859,34.66516],[135.52904,34.66516],[135.52913,34.66515],[135.52916,34.66515],[135.52941,34.66513]]]}},{"type":"Feature","properties":{"name":"堂ヶ芝一丁目","setai":522,"jinko":984,"key":"27109030001","units":1},"geometry":{"type":"Polygon","coordinates":[[[135.52779,34.65769],[135.52778,34.65768],[135.52757,34.65771],[135.52741,34.65775],[135.52755,34.65814],[135.52683,34.65818],[135.52675,34.65819],[135.52636,34.65821],[135.52631,34.65821],[135.52645,34.65864],[135.52647,34.65868],[135.52657,34.65899],[135.52658,34.65902],[135.5266,34.65909],[135.52678,34.65962],[135.52689,34.65998],[135.52698,34.66026],[135.5271,34.66064],[135.52716,34.66081],[135.52719,34.6609],[135.52742,34.66163],[135.5276,34.66219],[135.52761,34.66222],[135.52784,34.66222],[135.52811,34.66222],[135.52908,34.66222],[135.52922,34.66217],[135.52881,34.66091],[135.52877,34.6608],[135.52832,34.65937],[135.52831,34.65934],[135.52823,34.65909],[135.52814,34.65881],[135.52823,34.6588],[135.52816,34.65856],[135.52811,34.65856],[135.52798,34.65817],[135.52793,34.65812],[135.52779,34.65769]]]}},{"type":"Feature","properties":{"name":"堂ヶ芝二丁目","setai":961,"jinko":2203,"key":"27109030002","units":1},"geometry":{"type":"Polygon","coordinates":[[[135.52684,34.66227],[135.5269,34.66227],[135.52721,34.66238],[135.52736,34.66234],[135.52742,34.66228],[135.5276,34.66219],[135.52742,34.66163],[135.52719,34.6609],[135.52716,34.66081],[135.5271,34.66064],[135.52698,34.66026],[135.52689,34.65998],[135.52678,34.65962],[135.5266,34.65909],[135.52658,34.65902],[135.52657,34.65899],[135.52647,34.65868],[135.52645,34.65864],[135.52631,34.65821],[135.52524,34.65824],[135.52522,34.65824],[135.52521,34.65824],[135.52452,34.65818],[135.52448,34.65818],[135.52398,34.6582],[135.5241,34.65853],[135.52426,34.65891],[135.52429,34.65896],[135.52435,34.65908],[135.52444,34.65925],[135.52486,34.65917],[135.52488,34.65918],[135.52504,34.65954],[135.52522,34.65996],[135.52524,34.66005],[135.5253,34.6603],[135.52543,34.66049],[135.52544,34.66051],[135.52552,34.66059],[135.52569,34.66069],[135.5258,34.66087],[135.52586,34.66101],[135.52593,34.66111],[135.52613,34.66141],[135.52615,34.66145],[135.52615,34.66149],[135.52618,34.66178],[135.52622,34.66187],[135.52619,34.66195],[135.52607,34.66193],[135.52598,34.66217],[135.52593,34.66231],[135.52591,34.66234],[135.52594,34.66244],[135.52604,34.66264],[135.52606,34.66264],[135.52617,34.66251],[135.52684,34.66227]]]}},{"type":"Feature","properties":{"name":"細工谷一丁目","setai":497,"jinko":1088,"key":"27109031001","units":1},"geometry":{"type":"Polygon","coordinates":[[[135.52559,34.66335],[135.52559,34.66306],[135.52559,34.66278],[135.52564,34.66277],[135.52604,34.66264],[135.52594,34.66244],[135.52591,34.66234],[135.52593,34.66231],[135.52598,34.66217],[135.52607,34.66193],[135.52529,34.66184],[135.52476,34.66177],[135.52465,34.66176],[135.52418,34.66176],[135.52388,34.66176],[135.52381,34.66176],[135.52351,34.66175],[135.52316,34.66175],[135.52318,34.66205],[135.52318,34.66209],[135.52319,34.66239],[135.52323,34.66273],[135.52326,34.6628],[135.52328,34.66304],[135.52331,34.66332],[135.52362,34.66332],[135.52401,34.66332],[135.5247,34.66333],[135.52478,34.66334],[135.52491,34.66334],[135.52516,34.66334],[135.5254,34.66335],[135.52559,34.66335],[135.52559,34.66335]]]}},{"type":"Feature","properties":{"name":"細工谷二丁目","setai":307,"jinko":732,"key":"27109031002","units":1},"geometry":{"type":"Polygon","coordinates":[[[135.52586,34.66101],[135.5258,34.66087],[135.52569,34.66069],[135.52552,34.66059],[135.52544,34.66051],[135.52543,34.66049],[135.5253,34.6603],[135.52529,34.66033],[135.52482,34.66043],[135.52484,34.66051],[135.52486,34.66057],[135.52444,34.6607],[135.52415,34.66082],[135.52381,34.66089],[135.52331,34.66099],[135.52315,34.66099],[135.52311,34.66121],[135.52311,34.66126],[135.52314,34.66146],[135.52316,34.66175],[135.52351,34.66175],[135.52381,34.66176],[135.52388,34.66176],[135.52418,34.66176],[135.52465,34.66176],[135.52476,34.66177],[135.52529,34.66184],[135.52607,34.66193],[135.52619,34.66195],[135.52622,34.66187],[135.52618,34.66178],[135.52615,34.66149],[135.52615,34.66145],[135.52613,34.66141],[135.52593,34.66111],[135.52586,34.66101]]]}},{"type":"Feature","properties":{"name":"清水谷町","setai":1059,"jinko":2422,"key":"271090320","units":1},"geometry":{"type":"Polygon","coordinates":[[[135.52334,34.67303],[135.52304,34.67293],[135.52247,34.67298],[135.52242,34.67298],[135.5221,34.67301],[135.52118,34.67308],[135.52121,34.67326],[135.52124,34.6735],[135.52129,34.67391],[135.52134,34.67431],[135.52139,34.67469],[135.52143,34.67505],[135.52143,34.67512],[135.52153,34.67579],[135.52171,34.67577],[135.52205,34.67575],[135.5224,34.67573],[135.5227,34.67568],[135.52366,34.67552],[135.52454,34.67536],[135.52536,34.67521],[135.5256,34.67517],[135.52617,34.67507],[135.52624,34.67506],[135.52623,34.67505],[135.52593,34.67454],[135.52586,34.67442],[135.52551,34.67381],[135.52542,34.67366],[135.52534,34.67362],[135.52518,34.67357],[135.52476,34.67343],[135.52399,34.67322],[135.52343,34.67306],[135.52334,34.67303]]]}},{"type":"Feature","properties":{"name":"空清町","setai":567,"jinko":1245,"key":"271090330","units":1},"geometry":{"type":"Polygon","coordinates":[[[135.52507,34.67312],[135.52488,34.67244],[135.52479,34.67214],[135.52476,34.672],[135.52467,34.67162],[135.5244,34.67165],[135.52407,34.67168],[135.52384,34.67171],[135.52331,34.67174],[135.52261,34.67176],[135.52248,34.67177],[135.52204,34.67179],[135.52189,34.67176],[135.52194,34.672],[135.52195,34.67205],[135.522,34.6723],[135.52204,34.67263],[135.5221,34.67301],[135.52242,34.67298],[135.52247,34.67298],[135.52304,34.67293],[135.52334,34.67303],[135.52343,34.67306],[135.52399,34.67322],[135.52476,34.67343],[135.52518,34.67357],[135.52534,34.67362],[135.52518,34.67334],[135.52508,34.67317],[135.52507,34.67312]]]}},{"type":"Feature","properties":{"name":"城南寺町","setai":397,"jinko":1019,"key":"271090340","units":1},"geometry":{"type":"Polygon","coordinates":[[[135.5238,34.66924],[135.52378,34.66892],[135.52378,34.66889],[135.52332,34.66894],[135.52279,34.669],[135.5225,34.66897],[135.52201,34.66894],[135.52138,34.669],[135.52059,34.66909],[135.52072,34.66981],[135.52075,34.66996],[135.52079,34.67015],[135.52093,34.67087],[135.52103,34.67156],[135.52189,34.67176],[135.52204,34.67179],[135.52248,34.67177],[135.52261,34.67176],[135.52331,34.67174],[135.52384,34.67171],[135.52407,34.67168],[135.5244,34.67165],[135.52467,34.67162],[135.52466,34.67155],[135.52455,34.67124],[135.52447,34.67105],[135.52439,34.67086],[135.52428,34.6706],[135.5242,34.67043],[135.52383,34.66957],[135.52382,34.66946],[135.5238,34.66924]]]}},{"type":"Feature","properties":{"name":"東高津町","setai":1224,"jinko":1983,"key":"271090350","units":1},"geometry":{"type":"Polygon","coordinates":[[[135.52138,34.669],[135.52201,34.66894],[135.5225,34.66897],[135.52279,34.669],[135.52332,34.66894],[135.52378,34.66889],[135.52374,34.66844],[135.52374,34.6683],[135.52373,34.66816],[135.52372,34.6681],[135.5237,34.66796],[135.52369,34.66776],[135.52364,34.66777],[135.52364,34.66773],[135.52365,34.66766],[135.52365,34.6676],[135.52359,34.66706],[135.52354,34.6665],[135.52354,34.66649],[135.52351,34.66599],[135.52359,34.66599],[135.52358,34.66589],[135.52329,34.66591],[135.52329,34.66601],[135.5232,34.66601],[135.52316,34.66602],[135.52254,34.66602],[135.52251,34.66602],[135.52219,34.66601],[135.52199,34.66602],[135.52177,34.66603],[135.52156,34.66605],[135.52096,34.6661],[135.52108,34.66654],[135.52115,34.66675],[135.52115,34.66676],[135.52114,34.66692],[135.52113,34.66728],[135.52113,34.6673],[135.52112,34.66771],[135.52116,34.66771],[135.52123,34.66815],[135.52123,34.66819],[135.52127,34.6684],[135.52138,34.669]]]}},{"type":"Feature","properties":{"name":"空堀町","setai":813,"jinko":1595,"key":"271090360","units":1},"geometry":{"type":"Polygon","coordinates":[[[135.52802,34.67363],[135.528,34.67331],[135.52766,34.67333],[135.52764,34.6731],[135.52762,34.67294],[135.52748,34.67294],[135.52751,34.67307],[135.52749,34.67311],[135.52733,34.6732],[135.52709,34.67324],[135.52697,34.67323],[135.52689,34.67323],[135.52629,34.67329],[135.52612,34.67331],[135.52613,34.67334],[135.5259,34.67336],[135.52568,34.67329],[135.52563,34.6733],[135.52543,34.67317],[135.52521,34.67308],[135.52507,34.67312],[135.52508,34.67317],[135.52518,34.67334],[135.52534,34.67362],[135.52542,34.67366],[135.52551,34.67381],[135.52586,34.67442],[135.52593,34.67454],[135.52623,34.67505],[135.52741,34.67485],[135.52799,34.67474],[135.52831,34.67468],[135.52845,34.67466],[135.5285,34.67465],[135.52862,34.67465],[135.52881,34.67463],[135.52959,34.67459],[135.52963,34.67459],[135.52966,34.67418],[135.52971,34.67368],[135.52887,34.67366],[135.528,34.67365],[135.52802,34.67363]]]}},{"type":"Feature","properties":{"name":"餌差町","setai":306,"jinko":695,"key":"271090370","units":1},"geometry":{"type":"Polygon","coordinates":[[[135.52612,34.67331],[135.52629,34.67329],[135.52689,34.67323],[135.52697,34.67323],[135.52709,34.67324],[135.52733,34.6732],[135.52749,34.67311],[135.52751,34.67307],[135.52748,34.67294],[135.52762,34.67294],[135.52751,34.67223],[135.52742,34.67224],[135.52741,34.67224],[135.52737,34.67175],[135.52735,34.67136],[135.52741,34.67136],[135.52739,34.66933],[135.52664,34.6694],[135.52664,34.66914],[135.52661,34.66915],[135.52663,34.66897],[135.52671,34.66866],[135.52594,34.66873],[135.52537,34.6688],[135.52461,34.66886],[135.52378,34.66892],[135.5238,34.66924],[135.52382,34.66946],[135.52383,34.66957],[135.5242,34.67043],[135.52428,34.6706],[135.52439,34.67086],[135.52447,34.67105],[135.52455,34.67124],[135.52466,34.67155],[135.52467,34.67162],[135.52476,34.672],[135.52479,34.67214],[135.52488,34.67244],[135.52507,34.67312],[135.52521,34.67308],[135.52543,34.67317],[135.52563,34.6733],[135.52568,34.67329],[135.5259,34.67336],[135.52613,34.67334],[135.52612,34.67331]]]}},{"type":"Feature","properties":{"name":"味原本町","setai":351,"jinko":725,"key":"271090380","units":1},"geometry":{"type":"Polygon","coordinates":[[[135.52688,34.66797],[135.52692,34.66771],[135.52644,34.66765],[135.52601,34.66759],[135.52598,34.66759],[135.52556,34.66753],[135.5247,34.66761],[135.52365,34.66766],[135.52364,34.66773],[135.52364,34.66777],[135.52369,34.66776],[135.5237,34.66796],[135.52372,34.6681],[135.52373,34.66816],[135.52374,34.6683],[135.52374,34.66844],[135.52378,34.66889],[135.52378,34.66892],[135.52461,34.66886],[135.52537,34.6688],[135.52594,34.66873],[135.52671,34.66866],[135.52675,34.66844],[135.52682,34.66818],[135.52688,34.66797]]]}},{"type":"Feature","properties":{"name":"小橋町","setai":1027,"jinko":1865,"key":"271090390","units":1},"geometry":{"type":"Polygon","coordinates":[[[135.52692,34.66771],[135.52698,34.66747],[135.52711,34.66677],[135.52746,34.66616],[135.52752,34.666],[135.52756,34.66571],[135.52757,34.66521],[135.52738,34.66522],[135.52712,34.66526],[135.52687,34.66528],[135.52648,34.66532],[135.52615,34.66536],[135.52601,34.66537],[135.52569,34.66537],[135.52524,34.66537],[135.52477,34.66536],[135.52431,34.66534],[135.52407,34.66533],[135.52353,34.6653],[135.52357,34.66563],[135.52358,34.66589],[135.52359,34.66599],[135.52351,34.66599],[135.52354,34.66649],[135.52354,34.6665],[135.52359,34.66706],[135.52365,34.6676],[135.52365,34.66766],[135.5247,34.66761],[135.52556,34.66753],[135.52598,34.66759],[135.52601,34.66759],[135.52644,34.66765],[135.52692,34.66771]]]}},{"type":"Feature","properties":{"name":"玉造本町","setai":991,"jinko":2000,"key":"271090400","units":1},"geometry":{"type":"Polygon","coordinates":[[[135.53124,34.67338],[135.53121,34.67329],[135.53111,34.67299],[135.53105,34.67281],[135.53104,34.67277],[135.53095,34.6725],[135.53084,34.67216],[135.53076,34.67192],[135.53056,34.67134],[135.53052,34.67121],[135.5305,34.67116],[135.53027,34.67117],[135.52985,34.6712],[135.52904,34.67125],[135.52851,34.67128],[135.52741,34.67136],[135.52735,34.67136],[135.52737,34.67175],[135.52741,34.67224],[135.52742,34.67224],[135.52751,34.67223],[135.52762,34.67294],[135.52764,34.6731],[135.52766,34.67333],[135.528,34.67331],[135.52802,34.67363],[135.528,34.67365],[135.52887,34.67366],[135.52971,34.67368],[135.52966,34.67418],[135.52963,34.67459],[135.5303,34.67455],[135.5316,34.67446],[135.53154,34.6743],[135.53149,34.67413],[135.53128,34.6735],[135.53124,34.67338]]]}},{"type":"Feature","properties":{"name":"真田山町","setai":301,"jinko":685,"key":"271090410","units":1},"geometry":{"type":"Polygon","coordinates":[[[135.52992,34.66936],[135.5298,34.66892],[135.52978,34.66887],[135.52973,34.66865],[135.52972,34.66864],[135.52967,34.66864],[135.52959,34.66841],[135.52874,34.66848],[135.52853,34.6685],[135.52811,34.66853],[135.52758,34.66858],[135.52756,34.66863],[135.52707,34.66904],[135.52664,34.66914],[135.52664,34.6694],[135.52739,34.66933],[135.52741,34.67136],[135.52851,34.67128],[135.52904,34.67125],[135.52985,34.6712],[135.53027,34.67117],[135.5305,34.67116],[135.53049,34.67112],[135.53039,34.67083],[135.53028,34.67049],[135.53012,34.67001],[135.52993,34.66941],[135.52992,34.66936]]]}},{"type":"Feature","properties":{"name":"味原町","setai":784,"jinko":1334,"key":"271090420","units":1},"geometry":{"type":"Polygon","coordinates":[[[135.52867,34.66547],[135.52859,34.66516],[135.52851,34.66517],[135.52813,34.66518],[135.52811,34.66518],[135.52805,34.66518],[135.52792,34.66519],[135.52759,34.6652],[135.52757,34.66521],[135.52756,34.66571],[135.52752,34.666],[135.52746,34.66616],[135.52711,34.66677],[135.52698,34.66747],[135.52692,34.66771],[135.52688,34.66797],[135.52682,34.66818],[135.52675,34.66844],[135.52671,34.66866],[135.52663,34.66897],[135.52661,34.66915],[135.52664,34.66914],[135.52707,34.66904],[135.52756,34.66863],[135.52758,34.66858],[135.52811,34.66853],[135.52853,34.6685],[135.52874,34.66848],[135.52959,34.66841],[135.52953,34.66819],[135.52949,34.6681],[135.52948,34.66807],[135.52938,34.66773],[135.52937,34.66771],[135.52924,34.6673],[135.52907,34.66675],[135.529,34.66654],[135.52897,34.66644],[135.52882,34.66598],[135.52867,34.66547]]]}},{"type":"Feature","properties":{"name":"玉造元町","setai":1668,"jinko":3564,"key":"271090430","units":1},"geometry":{"type":"Polygon","coordinates":[[[135.53293,34.67296],[135.53287,34.67263],[135.5328,34.67265],[135.53278,34.67252],[135.53278,34.67252],[135.53275,34.67241],[135.53264,34.67203],[135.53257,34.67188],[135.53225,34.67126],[135.53222,34.67117],[135.53206,34.67079],[135.53172,34.66973],[135.53156,34.66923],[135.5314,34.66924],[135.53134,34.66924],[135.53089,34.66928],[135.5306,34.6693],[135.5305,34.66931],[135.53043,34.66932],[135.52992,34.66936],[135.52993,34.66941],[135.53012,34.67001],[135.53028,34.67049],[135.53039,34.67083],[135.53049,34.67112],[135.5305,34.67116],[135.53052,34.67121],[135.53056,34.67134],[135.53076,34.67192],[135.53084,34.67216],[135.53095,34.6725],[135.53104,34.67277],[135.53105,34.67281],[135.53111,34.67299],[135.53121,34.67329],[135.53124,34.67338],[135.53128,34.6735],[135.53149,34.67413],[135.53154,34.6743],[135.5316,34.67446],[135.53239,34.67442],[135.53241,34.67442],[135.53258,34.67441],[135.53258,34.67441],[135.53272,34.6744],[135.53295,34.67439],[135.53318,34.67438],[135.53324,34.67434],[135.5331,34.67362],[135.53303,34.67328],[135.53298,34.67321],[135.53293,34.67296]]]}},{"type":"Feature","properties":{"name":"舟橋町","setai":769,"jinko":1403,"key":"271090440","units":1},"geometry":{"type":"Polygon","coordinates":[[[135.53084,34.66715],[135.53051,34.66605],[135.53035,34.66605],[135.53016,34.66603],[135.53009,34.66603],[135.52956,34.66602],[135.52915,34.66599],[135.52882,34.66598],[135.52897,34.66644],[135.529,34.66654],[135.52907,34.66675],[135.52924,34.6673],[135.52937,34.66771],[135.52938,34.66773],[135.52948,34.66807],[135.52949,34.6681],[135.52953,34.66819],[135.52959,34.66841],[135.52967,34.66864],[135.52972,34.66864],[135.52973,34.66865],[135.52978,34.66887],[135.5298,34.66892],[135.52992,34.66936],[135.53043,34.66932],[135.5305,34.66931],[135.5306,34.6693],[135.53089,34.66928],[135.53134,34.66924],[135.5314,34.66924],[135.53156,34.66923],[135.53157,34.66921],[135.53126,34.66825],[135.53096,34.66734],[135.5309,34.66715],[135.53084,34.66715]]]}},{"type":"Feature","properties":{"name":"下味原町","setai":14,"jinko":27,"key":"271090450","units":1},"geometry":{"type":"Polygon","coordinates":[[[135.53051,34.66605],[135.5305,34.66603],[135.5304,34.66571],[135.53033,34.66552],[135.53029,34.66541],[135.53018,34.6651],[135.53001,34.66509],[135.52949,34.66508],[135.52941,34.66513],[135.52916,34.66515],[135.52913,34.66515],[135.52904,34.66516],[135.52859,34.66516],[135.52859,34.66516],[135.52867,34.66547],[135.52882,34.66598],[135.52915,34.66599],[135.52956,34.66602],[135.53009,34.66603],[135.53016,34.66603],[135.53035,34.66605],[135.53051,34.66605]]]}}]}