{"type":"FeatureCollection","features":[{"type":"Feature","properties":{"name":"錦町一丁目","setai":947,"jinko":1990,"key":"11223001001","units":1,"m":980,"f":1010,"gk":89,"a0":305,"a1":1402,"a2":283,"a75":138,"ag":[101,98,106,65,89,157,184,172,215,179,138,115,88,73,72,48,47,29,11,2,1]},"geometry":{"type":"Polygon","coordinates":[[[139.67988,35.82239],[139.68027,35.82187],[139.6803,35.82183],[139.68063,35.82142],[139.68069,35.82135],[139.68111,35.82079],[139.68119,35.82064],[139.68122,35.82058],[139.68125,35.82052],[139.68128,35.82046],[139.6813,35.82043],[139.6813,35.82041],[139.68134,35.82028],[139.68138,35.82015],[139.6815,35.81979],[139.68151,35.81966],[139.68158,35.81917],[139.68159,35.81898],[139.68152,35.81898],[139.68153,35.81893],[139.6814,35.81893],[139.6813,35.8189],[139.68116,35.81883],[139.68101,35.81877],[139.6809,35.81873],[139.68088,35.81871],[139.68083,35.81869],[139.6808,35.81869],[139.68074,35.81867],[139.68069,35.81866],[139.68058,35.81863],[139.68042,35.81861],[139.6803,35.81861],[139.68021,35.81895],[139.6802,35.81898],[139.6801,35.81933],[139.67996,35.81935],[139.67923,35.81944],[139.67923,35.81959],[139.67923,35.8196],[139.67923,35.81964],[139.67923,35.81967],[139.67926,35.81974],[139.67929,35.81979],[139.6792,35.81977],[139.67911,35.81979],[139.67898,35.81986],[139.67887,35.81992],[139.67882,35.81995],[139.67875,35.81998],[139.67866,35.82004],[139.67856,35.82009],[139.67852,35.82011],[139.67856,35.82016],[139.67856,35.82016],[139.67854,35.82017],[139.6784,35.82024],[139.67828,35.82029],[139.67812,35.82036],[139.67804,35.8204],[139.67795,35.82048],[139.67782,35.82054],[139.67767,35.82061],[139.67777,35.8208],[139.67777,35.82082],[139.67782,35.82092],[139.67785,35.821],[139.67788,35.82104],[139.67789,35.82107],[139.67762,35.8212],[139.67747,35.82127],[139.67736,35.82119],[139.67727,35.82118],[139.67717,35.82122],[139.67714,35.82123],[139.67641,35.82157],[139.67632,35.82159],[139.67625,35.82158],[139.67616,35.82162],[139.67599,35.82167],[139.67587,35.8217],[139.67584,35.82171],[139.67569,35.82172],[139.67555,35.82175],[139.67548,35.82177],[139.67542,35.8218],[139.67533,35.8218],[139.67524,35.82182],[139.67497,35.82189],[139.67485,35.82193],[139.67482,35.82193],[139.67478,35.82194],[139.67463,35.82198],[139.6745,35.82198],[139.67439,35.82199],[139.6743,35.822],[139.67426,35.822],[139.67417,35.82197],[139.67415,35.82197],[139.67376,35.82198],[139.67337,35.822],[139.67298,35.82204],[139.67283,35.82206],[139.67373,35.8227],[139.67429,35.82305],[139.67496,35.82346],[139.67546,35.82376],[139.67648,35.82437],[139.67722,35.82485],[139.67774,35.82515],[139.67791,35.82493],[139.67835,35.82433],[139.67884,35.8237],[139.67924,35.8232],[139.67941,35.82297],[139.67969,35.82264],[139.67978,35.82251],[139.67986,35.82241],[139.67988,35.82239]]]}},{"type":"Feature","properties":{"name":"錦町二丁目","setai":1382,"jinko":2885,"key":"11223001002","units":1,"m":1494,"f":1391,"gk":112,"a0":386,"a1":1989,"a2":480,"a75":252,"ag":[153,130,103,88,217,288,273,257,203,190,194,164,115,120,108,112,87,39,14,0,0],"nf":30},"geometry":{"type":"Polygon","coordinates":[[[139.67496,35.82346],[139.67429,35.82305],[139.67373,35.8227],[139.67283,35.82206],[139.67282,35.82206],[139.67279,35.82207],[139.67264,35.82214],[139.67256,35.82215],[139.67246,35.82216],[139.67238,35.82216],[139.67229,35.82217],[139.67213,35.82219],[139.67176,35.82222],[139.67175,35.82223],[139.67163,35.82229],[139.67151,35.82232],[139.67136,35.82234],[139.67126,35.82235],[139.67108,35.82236],[139.67093,35.82236],[139.67067,35.82236],[139.67064,35.82239],[139.67063,35.82244],[139.67054,35.82245],[139.67039,35.82246],[139.67023,35.82247],[139.67009,35.82246],[139.66996,35.82246],[139.66986,35.82245],[139.66986,35.82245],[139.66981,35.82246],[139.66977,35.82251],[139.66972,35.82254],[139.66943,35.82266],[139.66935,35.82268],[139.66933,35.82269],[139.6691,35.82277],[139.6691,35.82277],[139.66923,35.82303],[139.66923,35.82306],[139.66883,35.82317],[139.66844,35.82328],[139.66838,35.82326],[139.66832,35.82325],[139.66829,35.82327],[139.66815,35.82334],[139.66773,35.82356],[139.66774,35.82356],[139.66804,35.82372],[139.66839,35.82388],[139.66826,35.82409],[139.66866,35.82425],[139.6687,35.82426],[139.66912,35.82443],[139.66955,35.82456],[139.67034,35.82486],[139.67073,35.82501],[139.67077,35.82502],[139.67113,35.82518],[139.67155,35.82536],[139.67161,35.82539],[139.67246,35.82574],[139.67258,35.82579],[139.67282,35.82588],[139.67303,35.82589],[139.6732,35.82616],[139.67344,35.82655],[139.67353,35.82671],[139.67368,35.82692],[139.6737,35.82692],[139.67409,35.8269],[139.67414,35.8269],[139.67461,35.82684],[139.6753,35.82677],[139.67551,35.82675],[139.67585,35.82672],[139.676,35.8267],[139.67663,35.82657],[139.67676,35.82643],[139.67706,35.82601],[139.67774,35.82515],[139.67722,35.82485],[139.67648,35.82437],[139.67546,35.82376],[139.67496,35.82346]]]}},{"type":"Feature","properties":{"name":"錦町三丁目","setai":501,"jinko":1144,"key":"11223001003","units":1,"m":571,"f":573,"gk":9,"a0":139,"a1":712,"a2":293,"a75":166,"ag":[27,45,67,55,63,67,56,53,72,113,95,67,71,45,82,61,49,38,16,2,0]},"geometry":{"type":"Polygon","coordinates":[[[139.67619,35.82709],[139.67663,35.82657],[139.676,35.8267],[139.67585,35.82672],[139.67551,35.82675],[139.6753,35.82677],[139.67461,35.82684],[139.67414,35.8269],[139.67409,35.8269],[139.6737,35.82692],[139.67368,35.82692],[139.67353,35.82671],[139.67344,35.82655],[139.6732,35.82616],[139.67303,35.82589],[139.67282,35.82588],[139.67258,35.82579],[139.67246,35.82574],[139.67161,35.82539],[139.67155,35.82536],[139.67107,35.82579],[139.67097,35.82587],[139.67136,35.82589],[139.67135,35.82631],[139.67135,35.82665],[139.6713,35.82751],[139.67065,35.82767],[139.67074,35.82793],[139.67081,35.82808],[139.67083,35.82812],[139.67089,35.82817],[139.67087,35.82823],[139.67088,35.82826],[139.67077,35.82841],[139.6709,35.82847],[139.6709,35.82855],[139.6709,35.82858],[139.67083,35.82868],[139.67091,35.82872],[139.67085,35.82894],[139.67078,35.82919],[139.67075,35.82925],[139.67061,35.82958],[139.67157,35.82985],[139.67176,35.82991],[139.67189,35.82995],[139.6722,35.8301],[139.67264,35.83032],[139.6727,35.83035],[139.67287,35.83044],[139.67332,35.83068],[139.67373,35.83026],[139.67469,35.82902],[139.67471,35.829],[139.67495,35.82868],[139.67529,35.82825],[139.67619,35.82709]]]}},{"type":"Feature","properties":{"name":"錦町四丁目","setai":846,"jinko":1886,"key":"11223001004","units":1,"m":914,"f":972,"gk":70,"a0":231,"a1":1261,"a2":358,"a75":219,"ag":[90,77,64,85,156,158,148,113,113,136,147,127,78,62,77,75,71,38,25,8,2],"nf":36},"geometry":{"type":"Polygon","coordinates":[[[139.6713,35.82751],[139.67135,35.82665],[139.67135,35.82631],[139.67136,35.82589],[139.67097,35.82587],[139.67107,35.82579],[139.67155,35.82536],[139.67113,35.82518],[139.67077,35.82502],[139.67073,35.82501],[139.67034,35.82486],[139.66955,35.82456],[139.66912,35.82443],[139.6687,35.82426],[139.66866,35.82425],[139.66826,35.82409],[139.66839,35.82388],[139.66804,35.82372],[139.66774,35.82356],[139.66773,35.82356],[139.66771,35.82357],[139.66769,35.82359],[139.66768,35.82359],[139.66767,35.82363],[139.66751,35.82369],[139.66705,35.82385],[139.66695,35.82388],[139.66691,35.82389],[139.66688,35.8239],[139.6666,35.82396],[139.66643,35.82404],[139.66642,35.82405],[139.6663,35.8241],[139.66627,35.82411],[139.66613,35.82413],[139.6661,35.82414],[139.66609,35.82414],[139.66587,35.82421],[139.66585,35.82421],[139.66579,35.82424],[139.66578,35.82425],[139.66573,35.82427],[139.66573,35.82428],[139.6657,35.82429],[139.66565,35.82434],[139.66553,35.82442],[139.66543,35.8245],[139.66542,35.8245],[139.66525,35.82456],[139.66516,35.8246],[139.66515,35.8246],[139.66526,35.8251],[139.66526,35.82511],[139.66531,35.82533],[139.66535,35.82549],[139.66541,35.82575],[139.66547,35.82594],[139.66547,35.82597],[139.66549,35.82602],[139.66549,35.82613],[139.66549,35.82613],[139.6655,35.8262],[139.66549,35.82627],[139.66549,35.82632],[139.66548,35.82639],[139.6656,35.82668],[139.66566,35.82681],[139.6656,35.82685],[139.6659,35.82702],[139.66618,35.82667],[139.6663,35.82649],[139.66681,35.82677],[139.6669,35.82666],[139.66771,35.82707],[139.6677,35.82707],[139.66807,35.82722],[139.66804,35.82727],[139.66823,35.82734],[139.66838,35.8274],[139.66858,35.82747],[139.66865,35.82749],[139.66871,35.82751],[139.66883,35.82754],[139.66894,35.82757],[139.66907,35.82759],[139.66924,35.82763],[139.6694,35.8277],[139.66948,35.82773],[139.67051,35.8277],[139.67058,35.82768],[139.67062,35.82767],[139.67065,35.82767],[139.6713,35.82751]]]}},{"type":"Feature","properties":{"name":"錦町五丁目","setai":696,"jinko":1505,"key":"11223001005","units":1,"m":731,"f":774,"gk":39,"a0":228,"a1":960,"a2":309,"a75":170,"ag":[74,78,76,57,96,120,103,98,122,145,91,75,53,63,76,74,57,31,7,0,1],"nf":8},"geometry":{"type":"Polygon","coordinates":[[[139.67074,35.82793],[139.67065,35.82767],[139.67062,35.82767],[139.67058,35.82768],[139.67051,35.8277],[139.66948,35.82773],[139.6694,35.8277],[139.66924,35.82763],[139.66907,35.82759],[139.66894,35.82757],[139.66883,35.82754],[139.66871,35.82751],[139.66865,35.82749],[139.66858,35.82747],[139.66838,35.8274],[139.66823,35.82734],[139.66804,35.82727],[139.66807,35.82722],[139.6677,35.82707],[139.6675,35.82738],[139.66728,35.82764],[139.6678,35.82793],[139.66784,35.82801],[139.66784,35.82806],[139.66768,35.82831],[139.66785,35.82838],[139.6679,35.82853],[139.66782,35.82867],[139.66781,35.82868],[139.66795,35.82875],[139.66797,35.82887],[139.66798,35.82899],[139.66799,35.82906],[139.66797,35.82912],[139.66791,35.82923],[139.66787,35.82934],[139.66781,35.82944],[139.66774,35.82957],[139.66766,35.82967],[139.66755,35.82978],[139.66746,35.82985],[139.66738,35.82989],[139.66766,35.83013],[139.66816,35.83051],[139.66835,35.83067],[139.66844,35.83077],[139.66846,35.83085],[139.66852,35.83103],[139.66864,35.83113],[139.66826,35.83151],[139.66791,35.83259],[139.66784,35.83268],[139.66776,35.83277],[139.66781,35.8328],[139.66822,35.833],[139.66827,35.83302],[139.6683,35.83355],[139.66835,35.83403],[139.66832,35.83406],[139.66833,35.83409],[139.66862,35.83392],[139.66873,35.83384],[139.66924,35.83349],[139.66929,35.83345],[139.66936,35.83341],[139.66991,35.83307],[139.67075,35.83249],[139.67089,35.83241],[139.67184,35.83173],[139.67191,35.83169],[139.67246,35.83132],[139.67266,35.83119],[139.67288,35.83104],[139.67308,35.83087],[139.67332,35.83068],[139.67287,35.83044],[139.6727,35.83035],[139.67264,35.83032],[139.6722,35.8301],[139.67189,35.82995],[139.67176,35.82991],[139.67157,35.82985],[139.67061,35.82958],[139.67075,35.82925],[139.67078,35.82919],[139.67085,35.82894],[139.67091,35.82872],[139.67083,35.82868],[139.6709,35.82858],[139.6709,35.82855],[139.6709,35.82847],[139.67077,35.82841],[139.67088,35.82826],[139.67087,35.82823],[139.67089,35.82817],[139.67083,35.82812],[139.67081,35.82808],[139.67074,35.82793]]]}},{"type":"Feature","properties":{"name":"錦町六丁目","setai":1084,"jinko":1918,"key":"11223001006","units":1,"m":990,"f":928,"gk":65,"a0":150,"a1":1408,"a2":321,"a75":193,"ag":[60,46,44,60,201,277,168,127,120,134,126,111,84,56,72,69,56,41,21,5,1],"nf":39},"geometry":{"type":"Polygon","coordinates":[[[139.66771,35.82707],[139.6669,35.82666],[139.66681,35.82677],[139.6663,35.82649],[139.66618,35.82667],[139.6659,35.82702],[139.6656,35.82685],[139.66558,35.82686],[139.66522,35.82712],[139.66496,35.82728],[139.66487,35.82737],[139.66481,35.82742],[139.66465,35.82759],[139.66461,35.82762],[139.66454,35.82768],[139.66445,35.82775],[139.66433,35.82789],[139.66431,35.8279],[139.66426,35.82794],[139.66421,35.82798],[139.66408,35.82806],[139.66403,35.82809],[139.66401,35.82811],[139.66395,35.82814],[139.6637,35.82831],[139.66356,35.82843],[139.66314,35.82868],[139.66298,35.82879],[139.66288,35.82887],[139.66284,35.82891],[139.66281,35.82894],[139.6628,35.82901],[139.66284,35.82909],[139.66299,35.8292],[139.66312,35.82927],[139.66317,35.82931],[139.6639,35.82983],[139.6646,35.83036],[139.66507,35.83075],[139.66508,35.83077],[139.66506,35.8308],[139.66533,35.83095],[139.66538,35.83101],[139.6654,35.83103],[139.66558,35.83112],[139.66582,35.83126],[139.66599,35.83139],[139.66619,35.83155],[139.6665,35.83178],[139.66676,35.83194],[139.66696,35.8321],[139.66713,35.83222],[139.66731,35.83238],[139.66747,35.83253],[139.66765,35.83268],[139.66776,35.83277],[139.66784,35.83268],[139.66791,35.83259],[139.66826,35.83151],[139.66864,35.83113],[139.66852,35.83103],[139.66846,35.83085],[139.66844,35.83077],[139.66835,35.83067],[139.66816,35.83051],[139.66766,35.83013],[139.66738,35.82989],[139.66746,35.82985],[139.66755,35.82978],[139.66766,35.82967],[139.66774,35.82957],[139.66781,35.82944],[139.66787,35.82934],[139.66791,35.82923],[139.66797,35.82912],[139.66799,35.82906],[139.66798,35.82899],[139.66797,35.82887],[139.66795,35.82875],[139.66781,35.82868],[139.66782,35.82867],[139.6679,35.82853],[139.66785,35.82838],[139.66768,35.82831],[139.66784,35.82806],[139.66784,35.82801],[139.6678,35.82793],[139.66728,35.82764],[139.6675,35.82738],[139.6677,35.82707],[139.66771,35.82707]]]}},{"type":"Feature","properties":{"name":"北町一丁目","setai":2052,"jinko":3985,"key":"11223002001","units":1,"m":2069,"f":1916,"gk":597,"a0":451,"a1":2579,"a2":899,"a75":463,"ag":[189,162,100,109,237,278,340,341,298,287,261,216,212,213,223,172,145,82,44,17,3],"nf":56},"geometry":{"type":"Polygon","coordinates":[[[139.68717,35.82969],[139.68769,35.82954],[139.68796,35.82945],[139.68812,35.82938],[139.68834,35.82927],[139.68819,35.82923],[139.68811,35.8292],[139.68771,35.82901],[139.68752,35.82892],[139.68748,35.8289],[139.68744,35.82888],[139.68692,35.82861],[139.68688,35.82859],[139.68596,35.82833],[139.68588,35.82831],[139.68585,35.8283],[139.68534,35.82816],[139.68473,35.828],[139.68357,35.82769],[139.68355,35.82771],[139.68318,35.82795],[139.68276,35.82819],[139.68196,35.82868],[139.6812,35.82915],[139.6808,35.82938],[139.68067,35.82946],[139.68041,35.82961],[139.6804,35.8296],[139.67958,35.82989],[139.67967,35.83013],[139.67976,35.83036],[139.67978,35.83042],[139.67989,35.83067],[139.68005,35.83105],[139.6802,35.83143],[139.68038,35.83186],[139.68049,35.83209],[139.68107,35.83196],[139.68119,35.83194],[139.68168,35.83182],[139.68169,35.83182],[139.68224,35.83155],[139.68242,35.83146],[139.68294,35.8312],[139.68298,35.83116],[139.68334,35.83091],[139.68337,35.83089],[139.68382,35.83073],[139.68429,35.83059],[139.68478,35.83044],[139.68575,35.83015],[139.68585,35.83012],[139.68624,35.82999],[139.68673,35.82983],[139.68712,35.82971],[139.68717,35.82969]]]}},{"type":"Feature","properties":{"name":"北町二丁目","setai":1025,"jinko":1889,"key":"11223002002","units":1,"m":984,"f":905,"gk":92,"a0":176,"a1":1183,"a2":462,"a75":266,"ag":[61,66,49,41,104,149,153,139,136,133,131,101,96,94,102,68,82,60,45,10,1],"nf":68},"geometry":{"type":"Polygon","coordinates":[[[139.67958,35.82989],[139.6804,35.8296],[139.68041,35.82961],[139.68067,35.82946],[139.6808,35.82938],[139.6812,35.82915],[139.68196,35.82868],[139.68276,35.82819],[139.68318,35.82795],[139.68355,35.82771],[139.68357,35.82769],[139.68194,35.82724],[139.68191,35.82723],[139.68177,35.8272],[139.6815,35.82711],[139.68115,35.82694],[139.68088,35.82676],[139.68067,35.82663],[139.68042,35.82642],[139.68024,35.82631],[139.6796,35.82585],[139.67921,35.82556],[139.67864,35.82517],[139.67841,35.82507],[139.67816,35.82505],[139.67791,35.82493],[139.67774,35.82515],[139.67706,35.82601],[139.67676,35.82643],[139.67736,35.82677],[139.67744,35.82698],[139.67756,35.82735],[139.67796,35.82847],[139.67819,35.82841],[139.67834,35.82854],[139.67841,35.82862],[139.67847,35.82875],[139.67852,35.82887],[139.67855,35.82896],[139.67854,35.82902],[139.67858,35.82911],[139.67872,35.82946],[139.67875,35.82957],[139.67938,35.82943],[139.67958,35.82989]]]}},{"type":"Feature","properties":{"name":"北町三丁目","setai":344,"jinko":818,"key":"11223002003","units":1,"m":427,"f":391,"gk":35,"a0":101,"a1":514,"a2":201,"a75":103,"ag":[41,29,31,40,49,32,44,58,55,57,73,57,49,53,45,41,26,23,12,1,0],"nf":2},"geometry":{"type":"Polygon","coordinates":[[[139.67958,35.82989],[139.67938,35.82943],[139.67875,35.82957],[139.67872,35.82946],[139.67858,35.82911],[139.67854,35.82902],[139.67855,35.82896],[139.67852,35.82887],[139.67847,35.82875],[139.67841,35.82862],[139.67834,35.82854],[139.67819,35.82841],[139.67796,35.82847],[139.67756,35.82735],[139.67744,35.82698],[139.67736,35.82677],[139.67676,35.82643],[139.67663,35.82657],[139.67619,35.82709],[139.67529,35.82825],[139.67495,35.82868],[139.67471,35.829],[139.67469,35.82902],[139.67373,35.83026],[139.67332,35.83068],[139.67413,35.83058],[139.67501,35.83047],[139.67692,35.83024],[139.67694,35.83024],[139.6781,35.83009],[139.67958,35.82989]]]}},{"type":"Feature","properties":{"name":"北町四丁目","setai":1242,"jinko":2703,"key":"11223002004","units":1,"m":1346,"f":1357,"gk":140,"a0":218,"a1":1552,"a2":922,"a75":477,"ag":[63,86,69,84,120,120,144,150,161,175,201,215,182,214,231,210,150,85,24,8,0],"nf":11},"geometry":{"type":"Polygon","coordinates":[[[139.67967,35.83013],[139.67958,35.82989],[139.6781,35.83009],[139.67694,35.83024],[139.67692,35.83024],[139.67501,35.83047],[139.67517,35.83129],[139.67524,35.83169],[139.67532,35.8321],[139.67543,35.83264],[139.67554,35.8332],[139.67576,35.83316],[139.67584,35.83315],[139.67597,35.83313],[139.67626,35.83308],[139.6764,35.83305],[139.67665,35.83301],[139.67689,35.83295],[139.67691,35.83295],[139.67693,35.83286],[139.67739,35.83276],[139.67801,35.83263],[139.67856,35.83251],[139.67864,35.8325],[139.67926,35.83237],[139.6799,35.83221],[139.68049,35.83209],[139.68038,35.83186],[139.6802,35.83143],[139.68005,35.83105],[139.67989,35.83067],[139.67978,35.83042],[139.67976,35.83036],[139.67967,35.83013]]]}},{"type":"Feature","properties":{"name":"北町五丁目","setai":798,"jinko":2061,"key":"11223002005","units":1,"m":964,"f":1097,"gk":39,"a0":183,"a1":1161,"a2":709,"a75":455,"ag":[33,59,91,92,94,81,87,104,139,179,155,124,106,110,144,128,129,117,56,17,8],"nf":8},"geometry":{"type":"Polygon","coordinates":[[[139.67517,35.83129],[139.67501,35.83047],[139.67413,35.83058],[139.67332,35.83068],[139.67308,35.83087],[139.67288,35.83104],[139.67266,35.83119],[139.67246,35.83132],[139.67191,35.83169],[139.67184,35.83173],[139.67089,35.83241],[139.67075,35.83249],[139.66991,35.83307],[139.66936,35.83341],[139.66929,35.83345],[139.66924,35.83349],[139.66873,35.83384],[139.66862,35.83392],[139.66833,35.83409],[139.66833,35.8341],[139.66834,35.83413],[139.66837,35.83418],[139.66837,35.83422],[139.66834,35.83439],[139.66833,35.83442],[139.66832,35.83451],[139.66832,35.83452],[139.66832,35.83461],[139.66832,35.83485],[139.66831,35.83507],[139.66832,35.83518],[139.66833,35.83523],[139.66833,35.83528],[139.66833,35.83529],[139.66834,35.83556],[139.66845,35.83557],[139.66886,35.83551],[139.66915,35.83546],[139.66939,35.8354],[139.66975,35.83529],[139.67007,35.83519],[139.67018,35.83515],[139.67022,35.83513],[139.6705,35.83504],[139.67075,35.83497],[139.67076,35.83497],[139.671,35.83491],[139.67129,35.83482],[139.67178,35.83466],[139.67216,35.8345],[139.67234,35.83442],[139.67274,35.83424],[139.67276,35.83423],[139.67277,35.83423],[139.67281,35.83421],[139.67312,35.8341],[139.67313,35.83409],[139.67336,35.83399],[139.67382,35.83377],[139.67388,35.83374],[139.67407,35.83364],[139.67437,35.83351],[139.67453,35.83345],[139.67483,35.83339],[139.67504,35.83333],[139.6755,35.8332],[139.67554,35.8332],[139.67543,35.83264],[139.67532,35.8321],[139.67524,35.83169],[139.67517,35.83129]]]}},{"type":"Feature","properties":{"name":"中央一丁目","setai":2147,"jinko":4202,"key":"11223003001","units":1,"m":2011,"f":2191,"gk":422,"a0":383,"a1":2653,"a2":1164,"a75":451,"ag":[125,127,131,121,199,270,292,262,344,319,298,282,266,319,394,222,120,79,30,0,0],"nf":2},"geometry":{"type":"Polygon","coordinates":[[[139.68921,35.82878],[139.68942,35.82859],[139.68981,35.82884],[139.69039,35.82829],[139.69063,35.82847],[139.69087,35.82819],[139.69105,35.82798],[139.69102,35.82797],[139.69065,35.82772],[139.69017,35.8274],[139.69027,35.82729],[139.69066,35.82691],[139.69083,35.82678],[139.69095,35.82669],[139.69107,35.82659],[139.69117,35.82652],[139.69124,35.82646],[139.69217,35.82574],[139.69231,35.82561],[139.69281,35.82531],[139.69287,35.82527],[139.69382,35.82458],[139.694,35.82445],[139.6946,35.824],[139.69471,35.82392],[139.69521,35.82355],[139.69516,35.82353],[139.69478,35.82334],[139.6947,35.8233],[139.69433,35.82312],[139.69388,35.8229],[139.69341,35.82265],[139.69339,35.82267],[139.69295,35.82302],[139.69237,35.82347],[139.69182,35.8239],[139.69179,35.82392],[139.69069,35.82473],[139.69042,35.8249],[139.68924,35.82506],[139.68922,35.82514],[139.68911,35.82537],[139.6891,35.8254],[139.6889,35.82587],[139.68871,35.82637],[139.68863,35.82659],[139.68853,35.82687],[139.68832,35.82745],[139.68765,35.828],[139.6873,35.8283],[139.68692,35.82861],[139.68744,35.82888],[139.68748,35.8289],[139.68752,35.82892],[139.68771,35.82901],[139.68811,35.8292],[139.68819,35.82923],[139.68834,35.82927],[139.68859,35.8292],[139.68868,35.82917],[139.68886,35.82912],[139.68887,35.82912],[139.68896,35.82903],[139.68921,35.82878]]]}},{"type":"Feature","properties":{"name":"中央二丁目","setai":2047,"jinko":4244,"key":"11223003002","units":1,"m":2130,"f":2114,"gk":336,"a0":513,"a1":2750,"a2":896,"a75":468,"ag":[183,170,160,157,227,283,277,302,324,348,340,273,219,216,212,187,118,112,41,8,2],"nf":85},"geometry":{"type":"Polygon","coordinates":[[[139.69026,35.81909],[139.69006,35.81861],[139.68966,35.81886],[139.68937,35.81907],[139.6892,35.81918],[139.68884,35.81943],[139.68872,35.8195],[139.6885,35.81964],[139.68847,35.81966],[139.68827,35.81979],[139.68793,35.82003],[139.68769,35.82016],[139.68737,35.82039],[139.68718,35.82053],[139.68704,35.82063],[139.68679,35.82082],[139.68666,35.82094],[139.68647,35.82109],[139.68578,35.82155],[139.6861,35.82202],[139.68634,35.82234],[139.68646,35.82248],[139.6866,35.82262],[139.68682,35.82284],[139.68731,35.82324],[139.68735,35.82327],[139.68746,35.82336],[139.68792,35.82375],[139.68898,35.8248],[139.68921,35.82501],[139.68924,35.82506],[139.69042,35.8249],[139.69069,35.82473],[139.69179,35.82392],[139.69182,35.8239],[139.69237,35.82347],[139.69295,35.82302],[139.69339,35.82267],[139.69302,35.82243],[139.69246,35.82206],[139.69189,35.82167],[139.69149,35.82141],[139.69111,35.82116],[139.69081,35.82074],[139.69079,35.82072],[139.69073,35.82063],[139.69063,35.82027],[139.69054,35.81999],[139.6905,35.81984],[139.69045,35.8196],[139.69034,35.81929],[139.69026,35.81909]]]}},{"type":"Feature","properties":{"name":"中央三丁目","setai":1926,"jinko":3322,"key":"11223003003","units":1,"m":1647,"f":1675,"gk":308,"a0":286,"a1":2381,"a2":651,"a75":299,"ag":[132,89,65,96,207,367,339,245,266,255,240,202,164,159,193,128,86,64,18,3,0],"nf":4},"geometry":{"type":"Polygon","coordinates":[[[139.68871,35.82637],[139.6889,35.82587],[139.6891,35.8254],[139.68911,35.82537],[139.68922,35.82514],[139.68924,35.82506],[139.68921,35.82501],[139.68898,35.8248],[139.68792,35.82375],[139.68746,35.82336],[139.68735,35.82327],[139.68731,35.82324],[139.68682,35.82284],[139.6866,35.82262],[139.68646,35.82248],[139.68634,35.82234],[139.6861,35.82202],[139.68578,35.82155],[139.68545,35.82172],[139.68558,35.82189],[139.68556,35.82194],[139.68538,35.82224],[139.68527,35.82243],[139.68523,35.82252],[139.68522,35.82262],[139.68523,35.82271],[139.68527,35.8228],[139.68533,35.82291],[139.68521,35.82294],[139.68481,35.82308],[139.68498,35.8236],[139.68514,35.82418],[139.68538,35.825],[139.68544,35.82523],[139.68554,35.8256],[139.68567,35.82608],[139.68549,35.82636],[139.68543,35.82633],[139.68525,35.82669],[139.68524,35.82706],[139.68492,35.82765],[139.6849,35.82769],[139.68473,35.828],[139.68534,35.82816],[139.68585,35.8283],[139.68588,35.82831],[139.68596,35.82833],[139.68688,35.82859],[139.68692,35.82861],[139.6873,35.8283],[139.68765,35.828],[139.68832,35.82745],[139.68853,35.82687],[139.68863,35.82659],[139.68871,35.82637]]]}},{"type":"Feature","properties":{"name":"中央四丁目","setai":1204,"jinko":2299,"key":"11223003004","units":1,"m":1153,"f":1146,"gk":175,"a0":219,"a1":1474,"a2":592,"a75":326,"ag":[88,68,63,75,123,189,191,175,158,152,129,149,133,97,169,138,90,62,29,4,3],"nf":14},"geometry":{"type":"Polygon","coordinates":[[[139.68525,35.82669],[139.68543,35.82633],[139.68549,35.82636],[139.68567,35.82608],[139.68554,35.8256],[139.68544,35.82523],[139.68538,35.825],[139.68514,35.82418],[139.68498,35.8236],[139.68481,35.82308],[139.68521,35.82294],[139.68471,35.8226],[139.68444,35.8221],[139.68378,35.82232],[139.68319,35.82245],[139.68286,35.82247],[139.6825,35.82244],[139.68248,35.8225],[139.68246,35.82267],[139.68244,35.82283],[139.68231,35.82347],[139.68225,35.82382],[139.68224,35.82428],[139.68229,35.82443],[139.68209,35.82489],[139.6815,35.82593],[139.68123,35.82636],[139.68088,35.82676],[139.68115,35.82694],[139.6815,35.82711],[139.68177,35.8272],[139.68191,35.82723],[139.68194,35.82724],[139.68357,35.82769],[139.68473,35.828],[139.6849,35.82769],[139.68492,35.82765],[139.68524,35.82706],[139.68525,35.82669]]]}},{"type":"Feature","properties":{"name":"中央五丁目","setai":936,"jinko":1874,"key":"11223003005","units":1,"m":925,"f":949,"gk":132,"a0":183,"a1":1162,"a2":506,"a75":278,"ag":[53,73,57,71,99,124,121,131,128,153,122,121,92,91,137,125,87,41,22,2,1],"nf":23},"geometry":{"type":"Polygon","coordinates":[[[139.68144,35.82069],[139.6815,35.81979],[139.68138,35.82015],[139.68134,35.82028],[139.6813,35.82041],[139.6813,35.82043],[139.68128,35.82046],[139.68125,35.82052],[139.68122,35.82058],[139.68119,35.82064],[139.68111,35.82079],[139.68069,35.82135],[139.68063,35.82142],[139.6803,35.82183],[139.68027,35.82187],[139.67988,35.82239],[139.67986,35.82241],[139.67978,35.82251],[139.67969,35.82264],[139.67941,35.82297],[139.67924,35.8232],[139.67884,35.8237],[139.67835,35.82433],[139.67791,35.82493],[139.67816,35.82505],[139.67841,35.82507],[139.67864,35.82517],[139.67921,35.82556],[139.6796,35.82585],[139.68024,35.82631],[139.68042,35.82642],[139.68067,35.82663],[139.68088,35.82676],[139.68123,35.82636],[139.6815,35.82593],[139.68209,35.82489],[139.68229,35.82443],[139.68224,35.82428],[139.68225,35.82382],[139.68231,35.82347],[139.68244,35.82283],[139.68246,35.82267],[139.68248,35.8225],[139.6825,35.82244],[139.68178,35.82216],[139.68119,35.82192],[139.68135,35.8217],[139.68136,35.82157],[139.68141,35.82103],[139.68144,35.82069]]]}},{"type":"Feature","properties":{"name":"中央六丁目","setai":1040,"jinko":2278,"key":"11223003006","units":1,"m":1139,"f":1139,"gk":127,"a0":250,"a1":1427,"a2":599,"a75":323,"ag":[87,96,67,95,137,168,161,138,152,141,166,138,131,125,151,131,100,61,21,8,2],"nf":2},"geometry":{"type":"Polygon","coordinates":[[[139.68538,35.82224],[139.68556,35.82194],[139.68558,35.82189],[139.68545,35.82172],[139.68578,35.82155],[139.68647,35.82109],[139.68666,35.82094],[139.68679,35.82082],[139.68655,35.82049],[139.6864,35.82027],[139.68603,35.81972],[139.68593,35.81957],[139.68572,35.81922],[139.68542,35.81874],[139.6851,35.81903],[139.68455,35.81955],[139.68432,35.81923],[139.68425,35.81913],[139.68396,35.81873],[139.68379,35.81849],[139.68375,35.81843],[139.68375,35.81843],[139.68373,35.81841],[139.68366,35.8183],[139.68343,35.81798],[139.68333,35.81803],[139.68314,35.81811],[139.68252,35.81841],[139.68245,35.8185],[139.68242,35.81855],[139.68204,35.81859],[139.68165,35.8186],[139.6816,35.81894],[139.68153,35.81893],[139.68152,35.81898],[139.68159,35.81898],[139.68158,35.81917],[139.68151,35.81966],[139.6815,35.81979],[139.68144,35.82069],[139.68141,35.82103],[139.68136,35.82157],[139.68135,35.8217],[139.68119,35.82192],[139.68178,35.82216],[139.6825,35.82244],[139.68286,35.82247],[139.68319,35.82245],[139.68378,35.82232],[139.68444,35.8221],[139.68471,35.8226],[139.68521,35.82294],[139.68533,35.82291],[139.68527,35.8228],[139.68523,35.82271],[139.68522,35.82262],[139.68523,35.82252],[139.68527,35.82243],[139.68538,35.82224]]]}},{"type":"Feature","properties":{"name":"中央七丁目","setai":1409,"jinko":3325,"key":"11223003007","units":1,"m":1645,"f":1680,"gk":99,"a0":383,"a1":2149,"a2":778,"a75":442,"ag":[90,108,185,193,209,189,141,166,219,317,303,233,179,165,171,150,132,97,50,11,2],"nf":15},"geometry":{"type":"Polygon","coordinates":[[[139.68872,35.81557],[139.68875,35.81514],[139.68838,35.81519],[139.68813,35.81524],[139.68762,35.81533],[139.68724,35.8153],[139.68721,35.81529],[139.6865,35.81524],[139.6865,35.81524],[139.68646,35.81525],[139.68644,35.81526],[139.68615,35.81535],[139.68614,35.81535],[139.68567,35.81553],[139.68566,35.81553],[139.68513,35.81585],[139.68512,35.81585],[139.68509,35.81587],[139.68494,35.81592],[139.68483,35.81602],[139.68467,35.81616],[139.68426,35.81651],[139.68426,35.81655],[139.68444,35.81671],[139.6845,35.81683],[139.68451,35.81692],[139.6847,35.81708],[139.68482,35.81725],[139.68504,35.81757],[139.68526,35.81789],[139.68551,35.81849],[139.68541,35.81864],[139.68541,35.81866],[139.6854,35.81869],[139.6854,35.81869],[139.6854,35.81871],[139.68542,35.81874],[139.68572,35.81922],[139.68593,35.81957],[139.68603,35.81972],[139.6864,35.82027],[139.68655,35.82049],[139.68679,35.82082],[139.68704,35.82063],[139.68718,35.82053],[139.68737,35.82039],[139.68769,35.82016],[139.68793,35.82003],[139.68827,35.81979],[139.68847,35.81966],[139.6885,35.81964],[139.68872,35.8195],[139.68884,35.81943],[139.6892,35.81918],[139.68937,35.81907],[139.68966,35.81886],[139.69006,35.81861],[139.68982,35.81807],[139.68979,35.818],[139.6896,35.81759],[139.68934,35.81708],[139.6893,35.81699],[139.68918,35.81672],[139.68907,35.81648],[139.68884,35.81596],[139.6888,35.81584],[139.68872,35.81557]]]}},{"type":"Feature","properties":{"name":"南町一丁目","setai":1219,"jinko":2363,"key":"11223004001","units":1,"m":1234,"f":1129,"gk":100,"a0":209,"a1":1488,"a2":665,"a75":367,"ag":[74,48,87,75,149,180,144,147,132,161,163,166,171,141,157,121,120,89,26,11,0],"nf":1},"geometry":{"type":"Polygon","coordinates":[[[139.69631,35.82271],[139.69659,35.8225],[139.69684,35.8223],[139.69628,35.82192],[139.69589,35.82164],[139.69552,35.82137],[139.69524,35.82117],[139.69509,35.82108],[139.69499,35.82101],[139.69482,35.82089],[139.69464,35.82072],[139.69457,35.82065],[139.69451,35.82056],[139.69441,35.82039],[139.69435,35.82029],[139.69427,35.8201],[139.69405,35.81962],[139.69403,35.81956],[139.69382,35.81911],[139.69371,35.81884],[139.69361,35.81865],[139.69359,35.8186],[139.69347,35.81832],[139.69336,35.81809],[139.69311,35.81753],[139.69297,35.81725],[139.69204,35.8175],[139.69107,35.81779],[139.69106,35.81777],[139.69066,35.81784],[139.68979,35.818],[139.68982,35.81807],[139.69006,35.81861],[139.69026,35.81909],[139.69034,35.81929],[139.69045,35.8196],[139.6905,35.81984],[139.69054,35.81999],[139.69063,35.82027],[139.69073,35.82063],[139.69079,35.82072],[139.69081,35.82074],[139.69111,35.82116],[139.69149,35.82141],[139.69189,35.82167],[139.69246,35.82206],[139.69302,35.82243],[139.69339,35.82267],[139.69341,35.82265],[139.69388,35.8229],[139.69433,35.82312],[139.6947,35.8233],[139.69478,35.82334],[139.69516,35.82353],[139.69568,35.82318],[139.69575,35.82313],[139.69601,35.82292],[139.69616,35.82283],[139.69631,35.82271]]]}},{"type":"Feature","properties":{"name":"南町二丁目","setai":1686,"jinko":3551,"key":"11223004002","units":1,"m":1748,"f":1803,"gk":329,"a0":338,"a1":2191,"a2":951,"a75":509,"ag":[116,103,119,124,194,246,237,257,225,275,231,203,199,190,252,202,133,99,54,14,7],"nf":71},"geometry":{"type":"Polygon","coordinates":[[[139.69643,35.81653],[139.69629,35.81621],[139.69617,35.81625],[139.69558,35.81641],[139.69519,35.81654],[139.69513,35.81656],[139.69474,35.81668],[139.69443,35.81677],[139.69406,35.81689],[139.69385,35.81696],[139.69338,35.81711],[139.69297,35.81725],[139.69311,35.81753],[139.69336,35.81809],[139.69347,35.81832],[139.69359,35.8186],[139.69361,35.81865],[139.69371,35.81884],[139.69382,35.81911],[139.69403,35.81956],[139.69405,35.81962],[139.69427,35.8201],[139.69435,35.82029],[139.69441,35.82039],[139.69451,35.82056],[139.69457,35.82065],[139.69464,35.82072],[139.69482,35.82089],[139.69499,35.82101],[139.69509,35.82108],[139.69524,35.82117],[139.69552,35.82137],[139.69589,35.82164],[139.69628,35.82192],[139.69684,35.8223],[139.69717,35.82205],[139.69723,35.822],[139.69766,35.82167],[139.69778,35.82159],[139.69839,35.8211],[139.69927,35.82039],[139.69877,35.82023],[139.69841,35.81996],[139.69803,35.81967],[139.69783,35.81952],[139.69726,35.8191],[139.69765,35.81881],[139.69741,35.81858],[139.69725,35.81827],[139.69705,35.81783],[139.69679,35.8173],[139.69643,35.81653]]]}},{"type":"Feature","properties":{"name":"南町三丁目","setai":1637,"jinko":2841,"key":"11223004003","units":1,"m":1550,"f":1291,"gk":521,"a0":236,"a1":1872,"a2":705,"a75":347,"ag":[71,83,82,68,213,230,242,228,196,217,180,163,135,167,191,180,82,50,25,9,1],"nf":28},"geometry":{"type":"Polygon","coordinates":[[[139.70199,35.81656],[139.7017,35.81632],[139.7016,35.81634],[139.70148,35.81641],[139.70143,35.81639],[139.70093,35.81623],[139.70047,35.81606],[139.70046,35.81606],[139.70037,35.81603],[139.70036,35.81602],[139.70023,35.81553],[139.7001,35.81554],[139.70006,35.81551],[139.70001,35.81547],[139.69929,35.81518],[139.69919,35.81528],[139.69898,35.81538],[139.69886,35.81542],[139.6985,35.81553],[139.69802,35.81568],[139.69782,35.81574],[139.6975,35.81584],[139.69745,35.81585],[139.69684,35.81605],[139.69629,35.81621],[139.69643,35.81653],[139.69679,35.8173],[139.69705,35.81783],[139.69725,35.81827],[139.69741,35.81858],[139.69765,35.81881],[139.69726,35.8191],[139.69783,35.81952],[139.69803,35.81967],[139.69841,35.81996],[139.69877,35.82023],[139.69927,35.82039],[139.69979,35.81986],[139.70053,35.81913],[139.70077,35.81889],[139.70107,35.81858],[139.70152,35.81814],[139.70194,35.81771],[139.70156,35.81754],[139.70154,35.81753],[139.70193,35.81669],[139.70199,35.81656]]]}},{"type":"Feature","properties":{"name":"南町四丁目","setai":1623,"jinko":3658,"key":"11223004004","units":1,"m":1786,"f":1872,"gk":269,"a0":403,"a1":2317,"a2":921,"a75":498,"ag":[115,151,137,173,227,161,208,217,216,325,319,253,218,194,229,189,160,111,30,6,2],"nf":17},"geometry":{"type":"Polygon","coordinates":[[[139.69066,35.81784],[139.69106,35.81777],[139.69107,35.81779],[139.69204,35.8175],[139.69297,35.81725],[139.69338,35.81711],[139.69385,35.81696],[139.69406,35.81689],[139.69443,35.81677],[139.69474,35.81668],[139.69513,35.81656],[139.69519,35.81654],[139.69558,35.81641],[139.69617,35.81625],[139.69593,35.81569],[139.6957,35.81521],[139.6955,35.81527],[139.6953,35.81533],[139.6951,35.81539],[139.69491,35.81546],[139.6947,35.81552],[139.69464,35.81554],[139.69417,35.81569],[139.69359,35.81587],[139.69345,35.81554],[139.69336,35.81535],[139.69314,35.81489],[139.69264,35.81504],[139.69255,35.81507],[139.69233,35.81455],[139.69211,35.81408],[139.69172,35.8142],[139.69157,35.81384],[139.69152,35.81373],[139.69132,35.81379],[139.69118,35.81384],[139.69079,35.81396],[139.69047,35.81406],[139.69005,35.81419],[139.68989,35.81364],[139.68956,35.81375],[139.68921,35.81385],[139.68917,35.81387],[139.68863,35.81402],[139.68818,35.81416],[139.68817,35.81461],[139.68813,35.81524],[139.68838,35.81519],[139.68875,35.81514],[139.68872,35.81557],[139.6888,35.81584],[139.68884,35.81596],[139.68907,35.81648],[139.68918,35.81672],[139.6893,35.81699],[139.68934,35.81708],[139.6896,35.81759],[139.68979,35.818],[139.69066,35.81784]]]}},{"type":"Feature","properties":{"name":"塚越一丁目","setai":1105,"jinko":2079,"key":"11223005001","units":1,"m":1013,"f":1066,"gk":214,"a0":183,"a1":1422,"a2":470,"a75":232,"ag":[49,78,56,78,113,187,157,121,173,171,164,129,129,113,125,70,55,51,46,10,0],"nf":4},"geometry":{"type":"Polygon","coordinates":[[[139.68945,35.82914],[139.69032,35.82898],[139.69034,35.82898],[139.69066,35.82893],[139.69075,35.82891],[139.69111,35.82886],[139.69131,35.82882],[139.69178,35.82875],[139.69179,35.82875],[139.69226,35.82828],[139.69252,35.82804],[139.69274,35.82784],[139.69285,35.82772],[139.69336,35.82721],[139.69363,35.82696],[139.69369,35.8269],[139.69421,35.82641],[139.69451,35.82623],[139.69528,35.82597],[139.69533,35.82595],[139.6955,35.82588],[139.69641,35.82556],[139.69642,35.82555],[139.69686,35.8254],[139.69759,35.82513],[139.69731,35.82493],[139.69701,35.82471],[139.69689,35.82463],[139.69663,35.82443],[139.69609,35.82408],[139.69521,35.82355],[139.69471,35.82392],[139.6946,35.824],[139.694,35.82445],[139.69382,35.82458],[139.69287,35.82527],[139.69281,35.82531],[139.69231,35.82561],[139.69217,35.82574],[139.69124,35.82646],[139.69117,35.82652],[139.69107,35.82659],[139.69095,35.82669],[139.69083,35.82678],[139.69066,35.82691],[139.69027,35.82729],[139.69017,35.8274],[139.69065,35.82772],[139.69102,35.82797],[139.69105,35.82798],[139.69087,35.82819],[139.69063,35.82847],[139.69039,35.82829],[139.68981,35.82884],[139.68942,35.82859],[139.68921,35.82878],[139.68896,35.82903],[139.68887,35.82912],[139.68893,35.82911],[139.68902,35.82912],[139.68917,35.82913],[139.68938,35.82914],[139.68945,35.82914]]]}},{"type":"Feature","properties":{"name":"塚越二丁目","setai":1279,"jinko":2144,"key":"11223005002","units":1,"m":1148,"f":996,"gk":284,"a0":156,"a1":1592,"a2":388,"a75":203,"ag":[65,42,49,81,210,230,197,178,127,170,155,133,111,94,91,80,60,34,20,7,2],"nf":8},"geometry":{"type":"Polygon","coordinates":[[[139.69716,35.82806],[139.69766,35.82802],[139.69769,35.82802],[139.69771,35.82735],[139.69772,35.82697],[139.69775,35.82666],[139.69775,35.82637],[139.69775,35.82624],[139.69775,35.82609],[139.69776,35.82589],[139.69776,35.82581],[139.69778,35.82572],[139.69775,35.82535],[139.69759,35.82513],[139.69686,35.8254],[139.69642,35.82555],[139.69641,35.82556],[139.6955,35.82588],[139.69533,35.82595],[139.69528,35.82597],[139.69451,35.82623],[139.69421,35.82641],[139.69369,35.8269],[139.69363,35.82696],[139.69336,35.82721],[139.69285,35.82772],[139.69274,35.82784],[139.69252,35.82804],[139.69226,35.82828],[139.69179,35.82875],[139.69286,35.82859],[139.69319,35.82854],[139.69347,35.8285],[139.69377,35.82846],[139.69378,35.82845],[139.69427,35.82839],[139.6945,35.82836],[139.69485,35.82832],[139.69532,35.82826],[139.69555,35.82823],[139.69618,35.82816],[139.69683,35.82809],[139.69716,35.82806]]]}},{"type":"Feature","properties":{"name":"塚越三丁目","setai":1181,"jinko":2320,"key":"11223005003","units":1,"m":1187,"f":1133,"gk":203,"a0":285,"a1":1553,"a2":458,"a75":260,"ag":[110,93,82,87,157,179,191,156,138,216,164,140,125,96,102,102,70,68,19,1,0],"nf":24},"geometry":{"type":"Polygon","coordinates":[[[139.7022,35.82498],[139.70208,35.82439],[139.70164,35.82445],[139.70069,35.82437],[139.70004,35.82432],[139.69897,35.82369],[139.69872,35.82396],[139.69856,35.82414],[139.6983,35.82443],[139.69794,35.82483],[139.69759,35.82513],[139.69775,35.82535],[139.69778,35.82572],[139.69776,35.82581],[139.69776,35.82589],[139.69775,35.82609],[139.69775,35.82624],[139.69775,35.82637],[139.69775,35.82666],[139.69772,35.82697],[139.69771,35.82735],[139.69769,35.82802],[139.69773,35.82803],[139.69827,35.82802],[139.69827,35.82802],[139.69831,35.82802],[139.6986,35.82802],[139.69862,35.82801],[139.69874,35.82797],[139.69901,35.82788],[139.69929,35.82783],[139.70026,35.82765],[139.70033,35.82764],[139.7008,35.82754],[139.70084,35.82753],[139.70142,35.82745],[139.70167,35.82742],[139.70168,35.82742],[139.70229,35.82733],[139.70267,35.82727],[139.70253,35.82663],[139.70242,35.82606],[139.70231,35.8255],[139.7022,35.82498]]]}},{"type":"Feature","properties":{"name":"塚越四丁目","setai":935,"jinko":2043,"key":"11223005004","units":1,"m":1023,"f":1020,"gk":161,"a0":299,"a1":1294,"a2":442,"a75":209,"ag":[88,119,92,78,106,119,129,145,168,188,152,99,110,117,116,90,66,36,15,2,0],"nf":8},"geometry":{"type":"Polygon","coordinates":[[[139.70064,35.82151],[139.70007,35.82124],[139.69945,35.82094],[139.69921,35.82129],[139.69839,35.8211],[139.69778,35.82159],[139.69766,35.82167],[139.69723,35.822],[139.69717,35.82205],[139.69684,35.8223],[139.69659,35.8225],[139.69631,35.82271],[139.69616,35.82283],[139.69601,35.82292],[139.69575,35.82313],[139.69568,35.82318],[139.69516,35.82353],[139.69521,35.82355],[139.69609,35.82408],[139.69663,35.82443],[139.69689,35.82463],[139.69701,35.82471],[139.69731,35.82493],[139.69759,35.82513],[139.69794,35.82483],[139.6983,35.82443],[139.69856,35.82414],[139.69872,35.82396],[139.69897,35.82369],[139.69986,35.82263],[139.70027,35.82204],[139.70064,35.82151]]]}},{"type":"Feature","properties":{"name":"塚越五丁目","setai":2008,"jinko":3916,"key":"11223005005","units":1,"m":2064,"f":1852,"gk":681,"a0":414,"a1":2735,"a2":744,"a75":335,"ag":[128,140,146,185,288,343,279,292,251,302,327,258,210,203,206,152,104,56,21,1,1],"nf":23},"geometry":{"type":"Polygon","coordinates":[[[139.70558,35.82454],[139.70557,35.82403],[139.70555,35.82378],[139.70554,35.82355],[139.70552,35.82314],[139.7055,35.8226],[139.70547,35.82196],[139.70545,35.82154],[139.70542,35.82107],[139.70542,35.82105],[139.70542,35.82068],[139.7054,35.82025],[139.70539,35.81978],[139.70537,35.81925],[139.70468,35.81926],[139.70447,35.81926],[139.70388,35.81925],[139.70379,35.81925],[139.70352,35.81926],[139.70348,35.81926],[139.70341,35.8192],[139.70333,35.81927],[139.70329,35.81928],[139.70323,35.81929],[139.70317,35.81929],[139.70312,35.81927],[139.70305,35.81927],[139.70298,35.81927],[139.70292,35.81922],[139.70288,35.81926],[139.7028,35.81932],[139.70269,35.81924],[139.70262,35.81924],[139.7026,35.81923],[139.70242,35.81921],[139.70234,35.81918],[139.7023,35.81919],[139.7022,35.81913],[139.70216,35.81916],[139.70209,35.81911],[139.70211,35.81909],[139.70208,35.81908],[139.70209,35.81906],[139.70201,35.81901],[139.7019,35.81911],[139.70186,35.81909],[139.70174,35.81906],[139.70201,35.81848],[139.7021,35.81832],[139.70215,35.81827],[139.70231,35.81811],[139.70231,35.81811],[139.70225,35.81807],[139.7023,35.81795],[139.70232,35.81789],[139.70212,35.81779],[139.70194,35.81771],[139.70152,35.81814],[139.70107,35.81858],[139.70077,35.81889],[139.70053,35.81913],[139.69979,35.81986],[139.69927,35.82039],[139.69839,35.8211],[139.69921,35.82129],[139.69945,35.82094],[139.70007,35.82124],[139.70064,35.82151],[139.70027,35.82204],[139.69986,35.82263],[139.69897,35.82369],[139.70004,35.82432],[139.70069,35.82437],[139.70164,35.82445],[139.70208,35.82439],[139.70275,35.8243],[139.70337,35.82422],[139.70417,35.82411],[139.70421,35.82473],[139.70505,35.82462],[139.70558,35.82454]]]}},{"type":"Feature","properties":{"name":"塚越六丁目","setai":1085,"jinko":2274,"key":"11223005006","units":1,"m":1179,"f":1095,"gk":171,"a0":271,"a1":1462,"a2":506,"a75":271,"ag":[79,101,91,93,137,130,110,170,168,194,178,159,123,108,127,117,86,51,13,4,0],"nf":35},"geometry":{"type":"Polygon","coordinates":[[[139.70995,35.82564],[139.70995,35.8256],[139.70994,35.82556],[139.70984,35.825],[139.70985,35.82498],[139.70916,35.82501],[139.7085,35.82503],[139.7078,35.82508],[139.70713,35.82528],[139.70618,35.82557],[139.70584,35.82562],[139.70566,35.82489],[139.70558,35.82454],[139.70505,35.82462],[139.70421,35.82473],[139.70417,35.82411],[139.70337,35.82422],[139.70275,35.8243],[139.70208,35.82439],[139.7022,35.82498],[139.70231,35.8255],[139.70242,35.82606],[139.70253,35.82663],[139.70267,35.82727],[139.70291,35.82724],[139.70332,35.82718],[139.70359,35.82715],[139.70394,35.8271],[139.70426,35.82705],[139.70458,35.827],[139.70492,35.82695],[139.70566,35.82684],[139.70571,35.82683],[139.70573,35.82683],[139.70619,35.82677],[139.70619,35.82673],[139.70655,35.82668],[139.70666,35.82666],[139.7068,35.82664],[139.70707,35.8266],[139.70722,35.82657],[139.70757,35.82652],[139.7079,35.82647],[139.70858,35.82637],[139.70926,35.82627],[139.70926,35.82627],[139.71004,35.82616],[139.70995,35.82564]]]}},{"type":"Feature","properties":{"name":"塚越七丁目","setai":1443,"jinko":2766,"key":"11223005007","units":1,"m":1418,"f":1348,"gk":474,"a0":306,"a1":1884,"a2":574,"a75":308,"ag":[129,112,65,84,202,270,262,217,187,167,193,172,130,116,150,118,93,75,18,3,1],"nf":2},"geometry":{"type":"Polygon","coordinates":[[[139.70841,35.82365],[139.7084,35.82346],[139.70765,35.82348],[139.70762,35.82307],[139.70758,35.82252],[139.70758,35.82249],[139.70744,35.82248],[139.70759,35.82213],[139.70758,35.82192],[139.70755,35.82144],[139.70753,35.82102],[139.7075,35.82062],[139.70747,35.82014],[139.70744,35.81967],[139.70742,35.8195],[139.70742,35.81937],[139.70741,35.81926],[139.70739,35.81911],[139.70671,35.81914],[139.70607,35.81919],[139.70568,35.81923],[139.70537,35.81925],[139.70539,35.81978],[139.7054,35.82025],[139.70542,35.82068],[139.70542,35.82105],[139.70542,35.82107],[139.70545,35.82154],[139.70547,35.82196],[139.7055,35.8226],[139.70552,35.82314],[139.70554,35.82355],[139.70555,35.82378],[139.70557,35.82403],[139.70558,35.82454],[139.70566,35.82489],[139.70584,35.82562],[139.70618,35.82557],[139.70713,35.82528],[139.7078,35.82508],[139.7085,35.82503],[139.70845,35.82425],[139.70845,35.82424],[139.70842,35.82375],[139.70841,35.82365]]]}}]}