{"type":"FeatureCollection","features":[{"type":"Feature","properties":{"name":"三軒家東一丁目","setai":1814,"jinko":3273,"key":"27108001001","units":1},"geometry":{"type":"Polygon","coordinates":[[[135.48191,34.66338],[135.48149,34.66336],[135.48123,34.66337],[135.48001,34.66335],[135.47968,34.66335],[135.47844,34.66333],[135.47716,34.66332],[135.47743,34.66371],[135.47752,34.66387],[135.47767,34.6641],[135.47779,34.66428],[135.47787,34.66442],[135.47795,34.66454],[135.47817,34.66486],[135.47832,34.6651],[135.47842,34.66523],[135.4785,34.66534],[135.47867,34.66562],[135.47882,34.66584],[135.4789,34.66597],[135.47893,34.666],[135.47899,34.66607],[135.47907,34.66621],[135.47926,34.66649],[135.47929,34.66654],[135.47966,34.66711],[135.47975,34.66725],[135.4796,34.66784],[135.48022,34.66797],[135.4805,34.66803],[135.4807,34.66757],[135.48091,34.66705],[135.48104,34.66673],[135.48119,34.66634],[135.48136,34.66586],[135.48161,34.66512],[135.48166,34.66493],[135.48168,34.66489],[135.48172,34.66468],[135.48181,34.66421],[135.48187,34.66393],[135.48192,34.6637],[135.48191,34.66338]]]}},{"type":"Feature","properties":{"name":"三軒家東二丁目","setai":1036,"jinko":2184,"key":"27108001002","units":1},"geometry":{"type":"Polygon","coordinates":[[[135.48191,34.66338],[135.48191,34.66329],[135.482,34.66205],[135.48203,34.66136],[135.48204,34.6613],[135.48205,34.6611],[135.48207,34.66057],[135.48207,34.66016],[135.48207,34.66009],[135.48204,34.6594],[135.48202,34.65928],[135.48197,34.6589],[135.48184,34.65806],[135.48073,34.65834],[135.47983,34.65855],[135.47959,34.65861],[135.47957,34.65862],[135.4792,34.65889],[135.47845,34.65946],[135.47784,34.65991],[135.47853,34.66047],[135.47923,34.66103],[135.47927,34.66105],[135.47906,34.66137],[135.47901,34.66144],[135.47905,34.6617],[135.47906,34.66174],[135.47928,34.66228],[135.47942,34.66267],[135.47952,34.66295],[135.47968,34.66335],[135.48001,34.66335],[135.48123,34.66337],[135.48149,34.66336],[135.48191,34.66338]]]}},{"type":"Feature","properties":{"name":"三軒家東三丁目","setai":20,"jinko":41,"key":"27108001003","units":1},"geometry":{"type":"Polygon","coordinates":[[[135.4789,34.65021],[135.47889,34.65013],[135.47842,34.65084],[135.4783,34.65149],[135.47819,34.65215],[135.47793,34.6536],[135.47828,34.65458],[135.47849,34.65519],[135.47665,34.65566],[135.47674,34.65642],[135.47675,34.6565],[135.47678,34.65688],[135.47684,34.65722],[135.47707,34.65805],[135.47709,34.65809],[135.47716,34.65824],[135.47722,34.65833],[135.47738,34.65852],[135.4775,34.65864],[135.47773,34.65889],[135.47785,34.65902],[135.47845,34.65946],[135.4792,34.65889],[135.47957,34.65862],[135.47959,34.65861],[135.47983,34.65855],[135.48073,34.65834],[135.48184,34.65806],[135.48172,34.65739],[135.48162,34.65696],[135.48148,34.65632],[135.4813,34.65549],[135.48129,34.65543],[135.48126,34.65529],[135.48124,34.65525],[135.48087,34.6546],[135.48081,34.65448],[135.48028,34.65345],[135.47965,34.65204],[135.47958,34.65188],[135.47939,34.65143],[135.47895,34.65034],[135.4789,34.65021]]]}},{"type":"Feature","properties":{"name":"三軒家東四丁目","setai":630,"jinko":1284,"key":"27108001004","units":1},"geometry":{"type":"Polygon","coordinates":[[[135.47853,34.66047],[135.47784,34.65991],[135.47746,34.66017],[135.47697,34.66051],[135.47672,34.66058],[135.47632,34.66069],[135.47564,34.66088],[135.47586,34.66129],[135.47598,34.66154],[135.47599,34.66154],[135.47625,34.6619],[135.47632,34.66202],[135.47634,34.66204],[135.47653,34.66233],[135.47671,34.66263],[135.47693,34.66295],[135.47705,34.66314],[135.47716,34.66332],[135.47844,34.66333],[135.47968,34.66335],[135.47952,34.66295],[135.47942,34.66267],[135.47928,34.66228],[135.47906,34.66174],[135.47905,34.6617],[135.47901,34.66144],[135.47906,34.66137],[135.47927,34.66105],[135.47923,34.66103],[135.47853,34.66047]]]}},{"type":"Feature","properties":{"name":"三軒家東五丁目","setai":612,"jinko":1390,"key":"27108001005","units":1},"geometry":{"type":"Polygon","coordinates":[[[135.47716,34.65824],[135.47709,34.65809],[135.47665,34.65813],[135.47598,34.65818],[135.47557,34.65822],[135.47555,34.65822],[135.4753,34.65824],[135.47505,34.65827],[135.47447,34.65843],[135.47464,34.65887],[135.47469,34.65898],[135.47471,34.65903],[135.47492,34.65951],[135.47503,34.65975],[135.47517,34.66],[135.47529,34.66022],[135.4754,34.66043],[135.47558,34.66077],[135.47564,34.66088],[135.47632,34.66069],[135.47672,34.66058],[135.47697,34.66051],[135.47746,34.66017],[135.47784,34.65991],[135.47845,34.65946],[135.47785,34.65902],[135.47773,34.65889],[135.4775,34.65864],[135.47738,34.65852],[135.47722,34.65833],[135.47716,34.65824]]]}},{"type":"Feature","properties":{"name":"三軒家東六丁目","setai":523,"jinko":1065,"key":"27108001006","units":1},"geometry":{"type":"Polygon","coordinates":[[[135.47674,34.65642],[135.47665,34.65566],[135.47624,34.65577],[135.47621,34.65578],[135.47559,34.65594],[135.47476,34.65617],[135.47473,34.65617],[135.47472,34.65617],[135.47367,34.65646],[135.47379,34.65673],[135.47387,34.65697],[135.47397,34.65718],[135.47422,34.6578],[135.47426,34.65789],[135.47438,34.6582],[135.47446,34.65839],[135.47447,34.65843],[135.47505,34.65827],[135.4753,34.65824],[135.47555,34.65822],[135.47557,34.65822],[135.47598,34.65818],[135.47665,34.65813],[135.47709,34.65809],[135.47707,34.65805],[135.47684,34.65722],[135.47678,34.65688],[135.47675,34.6565],[135.47674,34.65642]]]}},{"type":"Feature","properties":{"name":"三軒家西一丁目","setai":1025,"jinko":1760,"key":"27108002001","units":1},"geometry":{"type":"Polygon","coordinates":[[[135.47842,34.66523],[135.47832,34.6651],[135.47817,34.66486],[135.47795,34.66454],[135.47787,34.66442],[135.47779,34.66428],[135.47767,34.6641],[135.47752,34.66387],[135.47743,34.66371],[135.47716,34.66332],[135.47651,34.66331],[135.4765,34.66331],[135.47598,34.6633],[135.47596,34.66375],[135.4759,34.6646],[135.47586,34.66517],[135.47587,34.66517],[135.47581,34.66575],[135.47578,34.66613],[135.47575,34.66662],[135.47572,34.66673],[135.47564,34.66704],[135.47586,34.66708],[135.47611,34.66713],[135.4762,34.66715],[135.47816,34.66755],[135.4784,34.66759],[135.47883,34.66768],[135.47952,34.66782],[135.4796,34.66784],[135.47975,34.66725],[135.47966,34.66711],[135.47929,34.66654],[135.47926,34.66649],[135.47907,34.66621],[135.47899,34.66607],[135.47893,34.666],[135.4789,34.66597],[135.47882,34.66584],[135.47867,34.66562],[135.4785,34.66534],[135.47842,34.66523]]]}},{"type":"Feature","properties":{"name":"三軒家西二丁目","setai":658,"jinko":1226,"key":"27108002002","units":1},"geometry":{"type":"Polygon","coordinates":[[[135.47564,34.66704],[135.47572,34.66673],[135.47575,34.66662],[135.47578,34.66613],[135.47581,34.66575],[135.47587,34.66517],[135.47586,34.66517],[135.4759,34.6646],[135.47596,34.66375],[135.47598,34.6633],[135.47553,34.6633],[135.47525,34.66329],[135.47465,34.66328],[135.4741,34.66327],[135.47406,34.66369],[135.47405,34.66372],[135.47395,34.66461],[135.47394,34.66473],[135.47389,34.66518],[135.47386,34.66544],[135.47383,34.66572],[135.47383,34.66575],[135.47371,34.66686],[135.47391,34.66686],[135.47408,34.66687],[135.47456,34.66686],[135.47477,34.66686],[135.47496,34.6669],[135.47564,34.66704]]]}},{"type":"Feature","properties":{"name":"三軒家西三丁目","setai":581,"jinko":1136,"key":"27108002003","units":1},"geometry":{"type":"Polygon","coordinates":[[[135.47395,34.66461],[135.47405,34.66372],[135.47406,34.66369],[135.4741,34.66327],[135.47359,34.66325],[135.47335,34.66324],[135.47334,34.66324],[135.47326,34.66324],[135.473,34.66331],[135.47266,34.66339],[135.47235,34.66347],[135.47178,34.66362],[135.47169,34.66364],[135.47121,34.66375],[135.47063,34.66397],[135.47023,34.66413],[135.47004,34.66405],[135.46962,34.66435],[135.46962,34.66435],[135.46988,34.66456],[135.47015,34.6648],[135.47033,34.66495],[135.47036,34.66497],[135.47049,34.66508],[135.47069,34.66523],[135.47073,34.66526],[135.47095,34.66542],[135.47102,34.66547],[135.47115,34.66556],[135.47126,34.66563],[135.47153,34.66578],[135.47157,34.66581],[135.47171,34.6659],[135.47195,34.66604],[135.47217,34.66616],[135.47249,34.66634],[135.473,34.66662],[135.47306,34.66665],[135.47317,34.6667],[135.47332,34.66676],[135.47355,34.66684],[135.47371,34.66686],[135.47383,34.66575],[135.47383,34.66572],[135.47386,34.66544],[135.47389,34.66518],[135.47394,34.66473],[135.47395,34.66461]]]}},{"type":"Feature","properties":{"name":"泉尾一丁目","setai":1917,"jinko":3931,"key":"27108003001","units":1},"geometry":{"type":"Polygon","coordinates":[[[135.473,34.66331],[135.47326,34.66324],[135.47334,34.66324],[135.47335,34.66324],[135.47359,34.66325],[135.4741,34.66327],[135.47465,34.66328],[135.47525,34.66329],[135.47553,34.6633],[135.47598,34.6633],[135.4765,34.66331],[135.47651,34.66331],[135.47716,34.66332],[135.47705,34.66314],[135.47693,34.66295],[135.47671,34.66263],[135.47653,34.66233],[135.47634,34.66204],[135.47632,34.66202],[135.47625,34.6619],[135.47599,34.66154],[135.47598,34.66154],[135.47586,34.66129],[135.47564,34.66088],[135.47558,34.66077],[135.4754,34.66043],[135.47529,34.66022],[135.47517,34.66],[135.47498,34.66006],[135.47455,34.66018],[135.47421,34.66027],[135.47361,34.66043],[135.47307,34.66058],[135.47301,34.66059],[135.4727,34.66068],[135.47253,34.66073],[135.47193,34.6609],[135.47077,34.66122],[135.47027,34.66136],[135.46965,34.66153],[135.46984,34.662],[135.47003,34.66247],[135.47031,34.66314],[135.47042,34.66338],[135.47058,34.66381],[135.4706,34.66392],[135.47063,34.66397],[135.47121,34.66375],[135.47169,34.66364],[135.47178,34.66362],[135.47235,34.66347],[135.47266,34.66339],[135.473,34.66331]]]}},{"type":"Feature","properties":{"name":"泉尾二丁目","setai":742,"jinko":1650,"key":"27108003002","units":1},"geometry":{"type":"Polygon","coordinates":[[[135.47498,34.66006],[135.47517,34.66],[135.47503,34.65975],[135.47492,34.65951],[135.47471,34.65903],[135.47469,34.65898],[135.47464,34.65887],[135.47447,34.65843],[135.47446,34.65839],[135.47386,34.65856],[135.47356,34.65865],[135.47354,34.65865],[135.47295,34.65882],[135.4728,34.65887],[135.47265,34.65891],[135.47242,34.65898],[135.47213,34.65905],[135.47186,34.65913],[135.47183,34.65914],[135.47159,34.6592],[135.47128,34.6593],[135.47126,34.6593],[135.47141,34.65967],[135.47028,34.65999],[135.47026,34.65992],[135.47014,34.65964],[135.46962,34.65978],[135.469,34.65995],[135.46946,34.66108],[135.46965,34.66153],[135.47027,34.66136],[135.47077,34.66122],[135.47193,34.6609],[135.47253,34.66073],[135.4727,34.66068],[135.47301,34.66059],[135.47307,34.66058],[135.47361,34.66043],[135.47421,34.66027],[135.47455,34.66018],[135.47498,34.66006]]]}},{"type":"Feature","properties":{"name":"泉尾三丁目","setai":788,"jinko":1855,"key":"27108003003","units":1},"geometry":{"type":"Polygon","coordinates":[[[135.47141,34.65967],[135.47126,34.6593],[135.47128,34.6593],[135.47159,34.6592],[135.47183,34.65914],[135.47186,34.65913],[135.47213,34.65905],[135.47242,34.65898],[135.47265,34.65891],[135.4728,34.65887],[135.47295,34.65882],[135.47354,34.65865],[135.47356,34.65865],[135.47386,34.65856],[135.47446,34.65839],[135.47438,34.6582],[135.47426,34.65789],[135.47422,34.6578],[135.47397,34.65718],[135.47387,34.65697],[135.47379,34.65673],[135.47367,34.65646],[135.47361,34.65632],[135.47312,34.65645],[135.47264,34.65657],[135.47264,34.65657],[135.47223,34.65669],[135.47214,34.65672],[135.4719,34.65678],[135.47156,34.65688],[135.47155,34.65688],[135.47095,34.65704],[135.4704,34.6572],[135.46986,34.65735],[135.46928,34.6576],[135.46895,34.6578],[135.46866,34.65803],[135.4683,34.65828],[135.4685,34.65873],[135.46854,34.65885],[135.46867,34.65915],[135.469,34.65995],[135.46962,34.65978],[135.47014,34.65964],[135.47026,34.65992],[135.47028,34.65999],[135.47141,34.65967]]]}},{"type":"Feature","properties":{"name":"泉尾四丁目","setai":802,"jinko":1628,"key":"27108003004","units":1},"geometry":{"type":"Polygon","coordinates":[[[135.46895,34.6578],[135.46928,34.6576],[135.46986,34.65735],[135.4704,34.6572],[135.47095,34.65704],[135.47155,34.65688],[135.47156,34.65688],[135.4719,34.65678],[135.47214,34.65672],[135.47223,34.65669],[135.47264,34.65657],[135.47264,34.65657],[135.47312,34.65645],[135.47361,34.65632],[135.47349,34.65601],[135.47344,34.6559],[135.47324,34.65535],[135.47324,34.65535],[135.47284,34.65441],[135.47244,34.65452],[135.47216,34.6546],[135.47188,34.65468],[135.47187,34.65468],[135.47159,34.65476],[135.47128,34.65485],[135.47075,34.65499],[135.4705,34.65507],[135.4702,34.65515],[135.46963,34.65531],[135.46959,34.65532],[135.46732,34.65598],[135.46767,34.6568],[135.4679,34.65738],[135.46808,34.65778],[135.46811,34.65777],[135.4683,34.65828],[135.46866,34.65803],[135.46895,34.6578]]]}},{"type":"Feature","properties":{"name":"泉尾五丁目","setai":682,"jinko":1699,"key":"27108003005","units":1},"geometry":{"type":"Polygon","coordinates":[[[135.47216,34.65275],[135.47214,34.65254],[135.47175,34.65264],[135.47125,34.65278],[135.47112,34.65281],[135.47069,34.65293],[135.47062,34.65295],[135.47015,34.65308],[135.46998,34.65313],[135.46957,34.65324],[135.46943,34.65328],[135.46885,34.65344],[135.46874,34.65347],[135.46769,34.65377],[135.46726,34.65389],[135.46648,34.65411],[135.46688,34.655],[135.4669,34.65503],[135.46729,34.65593],[135.46732,34.65598],[135.46959,34.65532],[135.46963,34.65531],[135.4702,34.65515],[135.4705,34.65507],[135.47075,34.65499],[135.47128,34.65485],[135.47159,34.65476],[135.47187,34.65468],[135.47188,34.65468],[135.47216,34.6546],[135.47244,34.65452],[135.47284,34.65441],[135.47264,34.65396],[135.47243,34.65347],[135.47234,34.65325],[135.47222,34.65292],[135.47216,34.65275]]]}},{"type":"Feature","properties":{"name":"泉尾六丁目","setai":10,"jinko":21,"key":"27108003006","units":1},"geometry":{"type":"Polygon","coordinates":[[[135.46962,34.66435],[135.47004,34.66405],[135.47023,34.66413],[135.47063,34.66397],[135.4706,34.66392],[135.47058,34.66381],[135.47042,34.66338],[135.47031,34.66314],[135.47003,34.66247],[135.46984,34.662],[135.46965,34.66153],[135.46946,34.66108],[135.469,34.65995],[135.46867,34.65915],[135.46854,34.65885],[135.4685,34.65873],[135.4683,34.65828],[135.46804,34.65852],[135.46785,34.65873],[135.46778,34.65884],[135.46773,34.65892],[135.46748,34.65929],[135.46693,34.66007],[135.46626,34.66128],[135.46632,34.66134],[135.46658,34.66161],[135.46735,34.66235],[135.46753,34.66252],[135.46822,34.66315],[135.46828,34.6632],[135.46837,34.66329],[135.4684,34.66326],[135.46865,34.66348],[135.46882,34.66363],[135.4691,34.66388],[135.46925,34.66401],[135.46932,34.66407],[135.46949,34.66424],[135.46952,34.66426],[135.46957,34.6643],[135.46959,34.66432],[135.4696,34.66433],[135.46962,34.66435]]]}},{"type":"Feature","properties":{"name":"泉尾七丁目","setai":1154,"jinko":2280,"key":"27108003007","units":1},"geometry":{"type":"Polygon","coordinates":[[[135.4683,34.65828],[135.46811,34.65777],[135.46808,34.65778],[135.4679,34.65738],[135.46767,34.6568],[135.46732,34.65598],[135.46729,34.65593],[135.4669,34.65503],[135.46688,34.655],[135.46648,34.65411],[135.46622,34.65418],[135.46609,34.65422],[135.46605,34.6542],[135.46573,34.65428],[135.4657,34.65429],[135.46556,34.65433],[135.46534,34.65438],[135.46516,34.65444],[135.4649,34.65451],[135.46505,34.65483],[135.46535,34.65544],[135.46532,34.65545],[135.46518,34.65549],[135.46505,34.65552],[135.465,34.65554],[135.46494,34.65555],[135.46476,34.6556],[135.46473,34.65561],[135.46454,34.65566],[135.46448,34.65568],[135.46433,34.65572],[135.46427,34.65573],[135.464,34.65581],[135.464,34.65582],[135.46371,34.6559],[135.46295,34.65612],[135.4627,34.65619],[135.46298,34.65656],[135.46334,34.65697],[135.46339,34.65703],[135.46341,34.65705],[135.46351,34.65717],[135.46365,34.65731],[135.46384,34.65756],[135.46395,34.65769],[135.46406,34.65784],[135.46417,34.65799],[135.46428,34.65815],[135.4639,34.65836],[135.46414,34.65866],[135.46427,34.65883],[135.46429,34.65885],[135.46432,34.6589],[135.46471,34.6594],[135.46517,34.65999],[135.46535,34.66022],[135.46597,34.66097],[135.46604,34.66104],[135.46609,34.66109],[135.46626,34.66128],[135.46693,34.66007],[135.46748,34.65929],[135.46773,34.65892],[135.46778,34.65884],[135.46785,34.65873],[135.46804,34.65852],[135.4683,34.65828]]]}},{"type":"Feature","properties":{"name":"千島一丁目","setai":1060,"jinko":2773,"key":"27108004001","units":1},"geometry":{"type":"Polygon","coordinates":[[[135.47885,34.64819],[135.47889,34.6479],[135.47809,34.64794],[135.47802,34.648],[135.47773,34.64804],[135.47718,34.64808],[135.47717,34.64812],[135.47688,34.64813],[135.47696,34.64877],[135.47697,34.64881],[135.47699,34.64885],[135.4768,34.64908],[135.4764,34.64958],[135.47475,34.65168],[135.47393,34.65272],[135.47378,34.6529],[135.47362,34.65309],[135.47347,34.65315],[135.47342,34.65317],[135.47304,34.65328],[135.47243,34.65347],[135.47264,34.65396],[135.47284,34.65441],[135.47324,34.65535],[135.47324,34.65535],[135.47344,34.6559],[135.47349,34.65601],[135.47361,34.65632],[135.47367,34.65646],[135.47472,34.65617],[135.47473,34.65617],[135.47476,34.65617],[135.47559,34.65594],[135.47621,34.65578],[135.47624,34.65577],[135.47665,34.65566],[135.47849,34.65519],[135.47828,34.65458],[135.47793,34.6536],[135.47819,34.65215],[135.4783,34.65149],[135.47842,34.65084],[135.47889,34.65013],[135.47886,34.64988],[135.47885,34.64972],[135.47883,34.64907],[135.47885,34.64819]]]}},{"type":"Feature","properties":{"name":"千島二丁目","setai":1909,"jinko":2985,"key":"27108004002","units":1},"geometry":{"type":"Polygon","coordinates":[[[135.47475,34.65168],[135.4764,34.64958],[135.4768,34.64908],[135.47699,34.64885],[135.47697,34.64881],[135.47696,34.64877],[135.47688,34.64813],[135.47683,34.64773],[135.47683,34.64757],[135.47607,34.64758],[135.4759,34.64758],[135.47574,34.64757],[135.4753,34.64757],[135.47485,34.64757],[135.47462,34.64758],[135.47423,34.64759],[135.47392,34.64759],[135.4737,34.64759],[135.47313,34.6476],[135.47286,34.6476],[135.47262,34.6476],[135.47247,34.6476],[135.47227,34.64761],[135.47199,34.6476],[135.47153,34.64761],[135.47112,34.64761],[135.47112,34.64762],[135.47127,34.64834],[135.47147,34.64922],[135.4717,34.65026],[135.47171,34.65026],[135.47189,34.65126],[135.47191,34.65131],[135.47206,34.65208],[135.4721,34.65234],[135.47214,34.65254],[135.47216,34.65275],[135.47222,34.65292],[135.47234,34.65325],[135.47243,34.65347],[135.47304,34.65328],[135.47342,34.65317],[135.47347,34.65315],[135.47362,34.65309],[135.47378,34.6529],[135.47393,34.65272],[135.47475,34.65168]]]}},{"type":"Feature","properties":{"name":"千島三丁目","setai":889,"jinko":1658,"key":"27108004003","units":1},"geometry":{"type":"Polygon","coordinates":[[[135.47189,34.65126],[135.47171,34.65026],[135.4717,34.65026],[135.47147,34.64922],[135.47127,34.64834],[135.47112,34.64762],[135.47054,34.64761],[135.4701,34.64761],[135.46903,34.64759],[135.4687,34.64759],[135.46874,34.64777],[135.46533,34.64769],[135.46532,34.64773],[135.46874,34.6478],[135.46894,34.64875],[135.46902,34.64913],[135.46934,34.64914],[135.46935,34.6492],[135.46943,34.64961],[135.46954,34.65023],[135.46956,34.65027],[135.46962,34.65052],[135.46965,34.65062],[135.46968,34.65076],[135.46971,34.65091],[135.46972,34.651],[135.46978,34.65124],[135.46978,34.65126],[135.46983,34.65153],[135.46984,34.65155],[135.46989,34.6518],[135.46989,34.65181],[135.46994,34.65206],[135.46999,34.6523],[135.47001,34.65238],[135.47003,34.65251],[135.47007,34.65267],[135.47015,34.65308],[135.47062,34.65295],[135.47069,34.65293],[135.47112,34.65281],[135.47125,34.65278],[135.47175,34.65264],[135.47214,34.65254],[135.4721,34.65234],[135.47206,34.65208],[135.47191,34.65131],[135.47189,34.65126]]]}},{"type":"Feature","properties":{"name":"北村一丁目","setai":456,"jinko":990,"key":"27108005001","units":1},"geometry":{"type":"Polygon","coordinates":[[[135.46956,34.65027],[135.46954,34.65023],[135.46819,34.65063],[135.46808,34.65067],[135.46703,34.65096],[135.46718,34.65115],[135.46731,34.65129],[135.46753,34.65154],[135.46775,34.65181],[135.46777,34.65183],[135.46798,34.65206],[135.46799,34.65208],[135.46816,34.65229],[135.46836,34.65252],[135.46849,34.65283],[135.46859,34.65309],[135.46874,34.65347],[135.46885,34.65344],[135.46943,34.65328],[135.46957,34.65324],[135.46998,34.65313],[135.47015,34.65308],[135.47007,34.65267],[135.47003,34.65251],[135.47001,34.65238],[135.46999,34.6523],[135.46994,34.65206],[135.46989,34.65181],[135.46989,34.6518],[135.46984,34.65155],[135.46983,34.65153],[135.46978,34.65126],[135.46978,34.65124],[135.46972,34.651],[135.46971,34.65091],[135.46968,34.65076],[135.46965,34.65062],[135.46962,34.65052],[135.46956,34.65027]]]}},{"type":"Feature","properties":{"name":"北村二丁目","setai":466,"jinko":1073,"key":"27108005002","units":1},"geometry":{"type":"Polygon","coordinates":[[[135.46718,34.65115],[135.46703,34.65096],[135.46633,34.65116],[135.46595,34.65127],[135.46559,34.65137],[135.46541,34.65142],[135.46523,34.65147],[135.46477,34.65161],[135.46506,34.65193],[135.46536,34.65228],[135.46553,34.65248],[135.46567,34.65263],[135.46599,34.653],[135.46606,34.65319],[135.46634,34.6538],[135.46648,34.65411],[135.46726,34.65389],[135.46769,34.65377],[135.46874,34.65347],[135.46859,34.65309],[135.46849,34.65283],[135.46836,34.65252],[135.46816,34.65229],[135.46799,34.65208],[135.46798,34.65206],[135.46777,34.65183],[135.46775,34.65181],[135.46753,34.65154],[135.46731,34.65129],[135.46718,34.65115]]]}},{"type":"Feature","properties":{"name":"北村三丁目","setai":469,"jinko":1479,"key":"27108005003","units":1},"geometry":{"type":"Polygon","coordinates":[[[135.46777,34.64871],[135.46727,34.6487],[135.46693,34.6487],[135.46633,34.64869],[135.46571,34.64869],[135.46521,34.64868],[135.46277,34.64806],[135.46263,34.64856],[135.46206,34.64844],[135.46328,34.64986],[135.464,34.65069],[135.46402,34.65072],[135.46439,34.65114],[135.46477,34.65161],[135.46523,34.65147],[135.46541,34.65142],[135.46559,34.65137],[135.46595,34.65127],[135.46633,34.65116],[135.46703,34.65096],[135.46808,34.65067],[135.46819,34.65063],[135.46954,34.65023],[135.46943,34.64961],[135.46935,34.6492],[135.46934,34.64914],[135.46902,34.64913],[135.46894,34.64875],[135.46854,34.64874],[135.46829,34.64873],[135.46777,34.64873],[135.46777,34.64871]]]}},{"type":"Feature","properties":{"name":"北恩加島一丁目","setai":708,"jinko":1457,"key":"27108006001","units":1},"geometry":{"type":"Polygon","coordinates":[[[135.46573,34.65428],[135.46605,34.6542],[135.46609,34.65422],[135.46622,34.65418],[135.46648,34.65411],[135.46634,34.6538],[135.46606,34.65319],[135.46599,34.653],[135.46567,34.65263],[135.46553,34.65248],[135.46536,34.65228],[135.46506,34.65193],[135.46477,34.65161],[135.46439,34.65114],[135.46402,34.65072],[135.46355,34.65098],[135.4632,34.65117],[135.46251,34.65155],[135.46185,34.65191],[135.46199,34.65209],[135.46215,34.65227],[135.46248,34.6527],[135.46258,34.65281],[135.46278,34.65308],[135.46296,34.65328],[135.46315,34.65351],[135.46332,34.65374],[135.46351,34.65399],[135.46305,34.65426],[135.46279,34.6544],[135.46224,34.65471],[135.4618,34.65496],[135.46209,34.65534],[135.46226,34.65559],[135.46259,34.65605],[135.4627,34.65619],[135.46295,34.65612],[135.46371,34.6559],[135.464,34.65582],[135.464,34.65581],[135.46427,34.65573],[135.46433,34.65572],[135.46448,34.65568],[135.46454,34.65566],[135.46473,34.65561],[135.46476,34.6556],[135.46494,34.65555],[135.465,34.65554],[135.46505,34.65552],[135.46518,34.65549],[135.46532,34.65545],[135.46535,34.65544],[135.46505,34.65483],[135.4649,34.65451],[135.46516,34.65444],[135.46534,34.65438],[135.46556,34.65433],[135.4657,34.65429],[135.46573,34.65428]]]}},{"type":"Feature","properties":{"name":"北恩加島二丁目","setai":53,"jinko":163,"key":"27108006002","units":1},"geometry":{"type":"Polygon","coordinates":[[[135.46328,34.64986],[135.46206,34.64844],[135.46263,34.64856],[135.46277,34.64806],[135.46281,34.64789],[135.45989,34.6472],[135.45951,34.64783],[135.45917,34.64841],[135.45936,34.64865],[135.4595,34.64879],[135.45939,34.64886],[135.45975,34.6493],[135.45992,34.64952],[135.46033,34.65001],[135.46067,34.65045],[135.46084,34.65065],[135.46103,34.65086],[135.46115,34.65104],[135.4613,34.65124],[135.46185,34.65191],[135.46251,34.65155],[135.4632,34.65117],[135.46355,34.65098],[135.46402,34.65072],[135.464,34.65069],[135.46328,34.64986]]]}},{"type":"Feature","properties":{"name":"小林東一丁目","setai":13,"jinko":23,"key":"27108007001","units":1},"geometry":{"type":"Polygon","coordinates":[[[135.47907,34.64623],[135.47918,34.64362],[135.47841,34.64364],[135.47798,34.64342],[135.47794,34.64339],[135.47654,34.64337],[135.47655,34.6435],[135.47663,34.64475],[135.47676,34.64666],[135.47676,34.64668],[135.4768,34.64704],[135.47681,34.64724],[135.47682,34.64741],[135.47683,34.64757],[135.47683,34.64773],[135.47688,34.64813],[135.47717,34.64812],[135.47718,34.64808],[135.47773,34.64804],[135.47802,34.648],[135.47809,34.64794],[135.47889,34.6479],[135.47903,34.64691],[135.47905,34.6467],[135.47907,34.64623]]]}},{"type":"Feature","properties":{"name":"小林東二丁目","setai":770,"jinko":1656,"key":"27108007002","units":1},"geometry":{"type":"Polygon","coordinates":[[[135.4753,34.64757],[135.47574,34.64757],[135.4759,34.64758],[135.47607,34.64758],[135.47683,34.64757],[135.47682,34.64741],[135.47681,34.64724],[135.4768,34.64704],[135.47676,34.64668],[135.47676,34.64666],[135.47663,34.64475],[135.47655,34.6435],[135.47654,34.64337],[135.47652,34.6429],[135.4765,34.6426],[135.47598,34.64267],[135.4752,34.64278],[135.47428,34.6429],[135.47332,34.64303],[135.47336,34.64331],[135.47337,34.64334],[135.47343,34.64369],[135.4734,34.6437],[135.47341,34.64401],[135.47344,34.64432],[135.47346,34.64459],[135.47346,34.64463],[135.47348,34.64488],[135.4735,34.64516],[135.47353,34.64557],[135.47356,34.64589],[135.47358,34.64618],[135.47362,34.64667],[135.47364,34.64696],[135.4737,34.64759],[135.47392,34.64759],[135.47423,34.64759],[135.47462,34.64758],[135.47485,34.64757],[135.4753,34.64757]]]}},{"type":"Feature","properties":{"name":"小林東三丁目","setai":706,"jinko":1472,"key":"27108007003","units":1},"geometry":{"type":"Polygon","coordinates":[[[135.47153,34.64761],[135.47199,34.6476],[135.47227,34.64761],[135.47247,34.6476],[135.47262,34.6476],[135.47286,34.6476],[135.47313,34.6476],[135.4737,34.64759],[135.47364,34.64696],[135.47362,34.64667],[135.47358,34.64618],[135.47356,34.64589],[135.47353,34.64557],[135.4735,34.64516],[135.47348,34.64488],[135.47346,34.64463],[135.47346,34.64459],[135.47344,34.64432],[135.47341,34.64401],[135.4734,34.6437],[135.47343,34.64369],[135.47337,34.64334],[135.47336,34.64331],[135.47332,34.64303],[135.4733,34.64303],[135.4723,34.64317],[135.47213,34.64319],[135.47133,34.6433],[135.47093,34.64336],[135.47028,34.64344],[135.47032,34.64365],[135.4705,34.64454],[135.47062,34.64516],[135.47067,34.64542],[135.47075,34.64583],[135.47083,34.64618],[135.47093,34.64671],[135.47112,34.64761],[135.47153,34.64761]]]}},{"type":"Feature","properties":{"name":"小林西一丁目","setai":268,"jinko":509,"key":"27108008001","units":1},"geometry":{"type":"Polygon","coordinates":[[[135.46236,34.64393],[135.46177,34.64384],[135.46174,34.64385],[135.46163,34.64407],[135.46153,34.64432],[135.46145,34.64449],[135.46137,34.64468],[135.46125,34.64491],[135.46112,34.64523],[135.46097,34.64554],[135.46224,34.6459],[135.46344,34.64624],[135.46466,34.64659],[135.46576,34.64691],[135.46583,34.64693],[135.46729,34.64696],[135.46857,34.647],[135.46869,34.64759],[135.4687,34.64759],[135.46903,34.64759],[135.4701,34.64761],[135.47054,34.64761],[135.47112,34.64762],[135.47112,34.64761],[135.47093,34.64671],[135.47083,34.64618],[135.47075,34.64583],[135.47067,34.64542],[135.47011,34.64541],[135.46968,34.64541],[135.46858,34.64541],[135.46749,34.64526],[135.46656,34.64513],[135.46675,34.64471],[135.46642,34.64467],[135.46618,34.64464],[135.46622,34.64453],[135.46615,34.64451],[135.46588,34.64447],[135.4655,34.64441],[135.4649,34.64432],[135.46453,34.64425],[135.46424,34.64422],[135.46388,34.64416],[135.46355,34.6441],[135.46294,34.64402],[135.46265,34.64398],[135.46236,34.64393]]]}},{"type":"Feature","properties":{"name":"小林西二丁目","setai":513,"jinko":954,"key":"27108008002","units":1},"geometry":{"type":"Polygon","coordinates":[[[135.47028,34.64344],[135.47018,34.64291],[135.47015,34.6428],[135.47015,34.6428],[135.47002,34.6422],[135.46946,34.64227],[135.46907,34.64232],[135.46905,34.64233],[135.46855,34.64239],[135.46798,34.64247],[135.46774,34.6425],[135.46711,34.64259],[135.46692,34.64305],[135.46684,34.64303],[135.46679,34.64314],[135.46671,34.64333],[135.46657,34.64362],[135.46643,34.64391],[135.46637,34.64408],[135.46627,34.64427],[135.46621,34.64442],[135.46615,34.64451],[135.46622,34.64453],[135.46618,34.64464],[135.46642,34.64467],[135.46675,34.64471],[135.46656,34.64513],[135.46749,34.64526],[135.46858,34.64541],[135.46968,34.64541],[135.47011,34.64541],[135.47067,34.64542],[135.47062,34.64516],[135.4705,34.64454],[135.47032,34.64365],[135.47028,34.64344]]]}},{"type":"Feature","properties":{"name":"平尾一丁目","setai":271,"jinko":612,"key":"27108009001","units":1},"geometry":{"type":"Polygon","coordinates":[[[135.47825,34.63739],[135.47811,34.63701],[135.47803,34.63684],[135.47711,34.63711],[135.47705,34.63707],[135.47613,34.63737],[135.47603,34.63741],[135.47559,34.63746],[135.47572,34.6381],[135.47578,34.63841],[135.47585,34.63872],[135.47595,34.63923],[135.47597,34.63932],[135.476,34.6395],[135.47603,34.63968],[135.47608,34.63998],[135.47614,34.6403],[135.47616,34.64043],[135.47619,34.6406],[135.47624,34.64091],[135.47629,34.6412],[135.47633,34.64151],[135.47637,34.64171],[135.47639,34.6418],[135.47641,34.64195],[135.47645,34.64219],[135.4765,34.64248],[135.4765,34.6426],[135.47652,34.6429],[135.47654,34.64337],[135.47794,34.64339],[135.47798,34.64342],[135.47841,34.64364],[135.47918,34.64362],[135.47917,34.64298],[135.47916,34.64256],[135.47916,34.64226],[135.47908,34.64119],[135.47903,34.64082],[135.47897,34.64028],[135.47891,34.63987],[135.47883,34.63954],[135.47877,34.63924],[135.4786,34.63853],[135.4785,34.6382],[135.47845,34.63798],[135.47825,34.63739]]]}},{"type":"Feature","properties":{"name":"平尾二丁目","setai":641,"jinko":1411,"key":"27108009002","units":1},"geometry":{"type":"Polygon","coordinates":[[[135.47614,34.6403],[135.47608,34.63998],[135.47553,34.64005],[135.47466,34.64017],[135.47374,34.6403],[135.4728,34.64043],[135.47286,34.64073],[135.47293,34.64104],[135.47299,34.64135],[135.47304,34.64164],[135.47304,34.64165],[135.47309,34.6419],[135.47311,34.64201],[135.47319,34.64238],[135.47324,34.64264],[135.4733,34.64303],[135.47332,34.64303],[135.47428,34.6429],[135.4752,34.64278],[135.47598,34.64267],[135.4765,34.6426],[135.4765,34.64248],[135.47645,34.64219],[135.47641,34.64195],[135.47639,34.6418],[135.47637,34.64171],[135.47633,34.64151],[135.47629,34.6412],[135.47624,34.64091],[135.47619,34.6406],[135.47616,34.64043],[135.47614,34.6403]]]}},{"type":"Feature","properties":{"name":"平尾三丁目","setai":590,"jinko":1274,"key":"27108009003","units":1},"geometry":{"type":"Polygon","coordinates":[[[135.47578,34.63841],[135.47572,34.6381],[135.47519,34.63818],[135.47429,34.6383],[135.47335,34.63844],[135.47245,34.63857],[135.47251,34.63887],[135.47257,34.63918],[135.47263,34.63949],[135.47268,34.63979],[135.47274,34.64009],[135.4728,34.64043],[135.47374,34.6403],[135.47466,34.64017],[135.47553,34.64005],[135.47608,34.63998],[135.47603,34.63968],[135.476,34.6395],[135.47597,34.63932],[135.47595,34.63923],[135.47585,34.63872],[135.47578,34.63841]]]}},{"type":"Feature","properties":{"name":"平尾四丁目","setai":845,"jinko":1670,"key":"27108009004","units":1},"geometry":{"type":"Polygon","coordinates":[[[135.4733,34.64303],[135.47324,34.64264],[135.47319,34.64238],[135.47311,34.64201],[135.47309,34.6419],[135.47304,34.64165],[135.47304,34.64164],[135.47299,34.64135],[135.47293,34.64104],[135.47286,34.64073],[135.4728,34.64043],[135.47182,34.64056],[135.47082,34.6407],[135.47041,34.64075],[135.46976,34.64084],[135.46979,34.64105],[135.46987,34.64147],[135.46999,34.64205],[135.47002,34.6422],[135.47015,34.6428],[135.47015,34.6428],[135.47018,34.64291],[135.47028,34.64344],[135.47093,34.64336],[135.47133,34.6433],[135.47213,34.64319],[135.4723,34.64317],[135.4733,34.64303]]]}},{"type":"Feature","properties":{"name":"平尾五丁目","setai":546,"jinko":1106,"key":"27108009005","units":1},"geometry":{"type":"Polygon","coordinates":[[[135.47251,34.63887],[135.47245,34.63857],[135.47243,34.63857],[135.47143,34.6387],[135.47044,34.63883],[135.47043,34.63883],[135.47006,34.63888],[135.47005,34.63889],[135.46945,34.63896],[135.46949,34.63918],[135.46954,34.63948],[135.46956,34.63959],[135.46959,34.63973],[135.46963,34.63998],[135.46968,34.64021],[135.46969,34.64027],[135.46976,34.64084],[135.47041,34.64075],[135.47082,34.6407],[135.47182,34.64056],[135.4728,34.64043],[135.47274,34.64009],[135.47268,34.63979],[135.47263,34.63949],[135.47257,34.63918],[135.47251,34.63887]]]}},{"type":"Feature","properties":{"name":"南恩加島一丁目","setai":280,"jinko":668,"key":"27108010001","units":1},"geometry":{"type":"Polygon","coordinates":[[[135.47613,34.63737],[135.47705,34.63707],[135.47711,34.63711],[135.47803,34.63684],[135.47785,34.63633],[135.47775,34.6358],[135.47769,34.63553],[135.47759,34.63525],[135.47646,34.63271],[135.47632,34.63243],[135.47522,34.63273],[135.47492,34.6328],[135.47471,34.63284],[135.47447,34.63291],[135.47399,34.63303],[135.47376,34.6331],[135.47328,34.63324],[135.47298,34.6333],[135.47273,34.63339],[135.47239,34.63348],[135.47217,34.63354],[135.47192,34.63362],[135.47171,34.63367],[135.47145,34.63375],[135.47154,34.63418],[135.4716,34.63446],[135.47171,34.63498],[135.47186,34.6357],[135.472,34.63641],[135.47206,34.63668],[135.47221,34.63727],[135.47235,34.6379],[135.4723,34.63792],[135.47237,34.63827],[135.47243,34.63857],[135.47245,34.63857],[135.47335,34.63844],[135.47429,34.6383],[135.47519,34.63818],[135.47572,34.6381],[135.47559,34.63746],[135.47603,34.63741],[135.47613,34.63737]]]}},{"type":"Feature","properties":{"name":"南恩加島二丁目","setai":508,"jinko":1189,"key":"27108010002","units":1},"geometry":{"type":"Polygon","coordinates":[[[135.47206,34.63668],[135.472,34.63641],[135.47139,34.6365],[135.47106,34.63654],[135.47076,34.63658],[135.47048,34.63662],[135.47014,34.63667],[135.46903,34.63682],[135.46907,34.63707],[135.46913,34.63734],[135.4692,34.63769],[135.46925,34.63796],[135.46928,34.63815],[135.46931,34.63831],[135.46934,34.63848],[135.46944,34.63894],[135.46945,34.63896],[135.47005,34.63889],[135.47006,34.63888],[135.47043,34.63883],[135.47044,34.63883],[135.47143,34.6387],[135.47243,34.63857],[135.47237,34.63827],[135.4723,34.63792],[135.47235,34.6379],[135.47221,34.63727],[135.47206,34.63668]]]}},{"type":"Feature","properties":{"name":"南恩加島三丁目","setai":745,"jinko":1727,"key":"27108010003","units":1},"geometry":{"type":"Polygon","coordinates":[[[135.47154,34.63418],[135.47145,34.63375],[135.47102,34.63387],[135.47053,34.63402],[135.47026,34.63409],[135.47,34.63418],[135.46997,34.63419],[135.46967,34.63428],[135.46965,34.63428],[135.46938,34.63436],[135.46912,34.63444],[135.46859,34.63459],[135.46867,34.63503],[135.46876,34.63536],[135.46876,34.63538],[135.46882,34.63575],[135.46884,34.63592],[135.46889,34.63611],[135.46903,34.63682],[135.47014,34.63667],[135.47048,34.63662],[135.47076,34.63658],[135.47106,34.63654],[135.47139,34.6365],[135.472,34.63641],[135.47186,34.6357],[135.47171,34.63498],[135.4716,34.63446],[135.47154,34.63418]]]}},{"type":"Feature","properties":{"name":"南恩加島四丁目","setai":80,"jinko":164,"key":"27108010004","units":1},"geometry":{"type":"Polygon","coordinates":[[[135.47627,34.63235],[135.47545,34.63132],[135.47512,34.6309],[135.4749,34.63063],[135.47466,34.63034],[135.47426,34.6299],[135.47398,34.62957],[135.47381,34.62934],[135.47362,34.62913],[135.47205,34.6301],[135.47324,34.63085],[135.47246,34.63096],[135.4722,34.63101],[135.47119,34.63115],[135.47034,34.63125],[135.46949,34.63141],[135.46863,34.63154],[135.46804,34.63162],[135.46797,34.63126],[135.46783,34.63131],[135.4679,34.63166],[135.46787,34.63166],[135.46805,34.6324],[135.46817,34.63243],[135.46824,34.63283],[135.46829,34.63304],[135.46838,34.63352],[135.46842,34.63376],[135.46847,34.63395],[135.46854,34.63429],[135.46859,34.63459],[135.46912,34.63444],[135.46938,34.63436],[135.46965,34.63428],[135.46967,34.63428],[135.46997,34.63419],[135.47,34.63418],[135.47026,34.63409],[135.47053,34.63402],[135.47102,34.63387],[135.47145,34.63375],[135.47171,34.63367],[135.47192,34.63362],[135.47217,34.63354],[135.47239,34.63348],[135.47273,34.63339],[135.47298,34.6333],[135.47328,34.63324],[135.47376,34.6331],[135.47399,34.63303],[135.47447,34.63291],[135.47471,34.63284],[135.47492,34.6328],[135.47522,34.63273],[135.47632,34.63243],[135.47627,34.63235]]]}},{"type":"Feature","properties":{"name":"南恩加島五丁目","setai":200,"jinko":446,"key":"27108010005","units":1},"geometry":{"type":"Polygon","coordinates":[[[135.46679,34.64314],[135.46684,34.64303],[135.46692,34.64305],[135.46711,34.64259],[135.46774,34.6425],[135.46798,34.64247],[135.46855,34.64239],[135.46905,34.64233],[135.46907,34.64232],[135.46946,34.64227],[135.47002,34.6422],[135.46999,34.64205],[135.46987,34.64147],[135.46979,34.64105],[135.46976,34.64084],[135.46969,34.64027],[135.46968,34.64021],[135.46963,34.63998],[135.46959,34.63973],[135.46956,34.63959],[135.46954,34.63948],[135.46949,34.63918],[135.46945,34.63896],[135.46944,34.63894],[135.46934,34.63848],[135.46871,34.63856],[135.46831,34.63861],[135.46541,34.63897],[135.46533,34.63898],[135.46475,34.63896],[135.46326,34.63857],[135.46188,34.63821],[135.46207,34.63899],[135.46213,34.63901],[135.46211,34.63905],[135.46242,34.63914],[135.4627,34.6392],[135.46341,34.6394],[135.46367,34.63944],[135.46395,34.63952],[135.46427,34.63961],[135.46461,34.63971],[135.46514,34.63985],[135.46522,34.63988],[135.46532,34.63985],[135.46536,34.63997],[135.46546,34.6405],[135.46555,34.64085],[135.46565,34.64129],[135.46532,34.64124],[135.46446,34.64111],[135.4638,34.64099],[135.46317,34.6409],[135.46309,34.64099],[135.46302,34.64117],[135.46288,34.64146],[135.4628,34.64164],[135.46271,34.64182],[135.46264,34.64197],[135.46242,34.64239],[135.46409,34.64268],[135.46588,34.64299],[135.46679,34.64314]]]}},{"type":"Feature","properties":{"name":"南恩加島六丁目","setai":584,"jinko":1324,"key":"27108010006","units":1},"geometry":{"type":"Polygon","coordinates":[[[135.46867,34.63503],[135.46859,34.63459],[135.46753,34.63474],[135.46719,34.63478],[135.46551,34.63502],[135.46445,34.63517],[135.4635,34.6353],[135.46314,34.63535],[135.46248,34.63545],[135.46193,34.63552],[135.4618,34.63568],[135.46166,34.63588],[135.46142,34.63628],[135.4613,34.63644],[135.46119,34.63664],[135.46117,34.63678],[135.46128,34.63698],[135.46144,34.63715],[135.46164,34.63723],[135.46169,34.63749],[135.46175,34.63775],[135.46188,34.63821],[135.46326,34.63857],[135.46475,34.63896],[135.46533,34.63898],[135.46541,34.63897],[135.46831,34.63861],[135.46871,34.63856],[135.46934,34.63848],[135.46931,34.63831],[135.46928,34.63815],[135.46925,34.63796],[135.4692,34.63769],[135.46913,34.63734],[135.46907,34.63707],[135.46903,34.63682],[135.46889,34.63611],[135.46884,34.63592],[135.46882,34.63575],[135.46876,34.63538],[135.46876,34.63536],[135.46867,34.63503]]]}},{"type":"Feature","properties":{"name":"南恩加島七丁目","setai":0,"jinko":0,"key":"27108010007","units":1},"geometry":{"type":"Polygon","coordinates":[[[135.46248,34.63545],[135.46314,34.63535],[135.4635,34.6353],[135.46445,34.63517],[135.46551,34.63502],[135.46719,34.63478],[135.46753,34.63474],[135.46859,34.63459],[135.46854,34.63429],[135.46847,34.63395],[135.46842,34.63376],[135.46838,34.63352],[135.46829,34.63304],[135.46824,34.63283],[135.46817,34.63243],[135.46805,34.6324],[135.46787,34.63166],[135.46714,34.63175],[135.46604,34.63195],[135.46602,34.63203],[135.46616,34.63269],[135.46611,34.63271],[135.46614,34.6329],[135.46602,34.6329],[135.46597,34.6327],[135.46595,34.63257],[135.46581,34.63202],[135.46577,34.63198],[135.46572,34.632],[135.46509,34.63209],[135.4645,34.63221],[135.46423,34.63223],[135.46385,34.63272],[135.46344,34.63331],[135.46309,34.63384],[135.46274,34.63431],[135.46237,34.63485],[135.46214,34.63524],[135.46193,34.63546],[135.46197,34.63545],[135.46193,34.63552],[135.46248,34.63545]]]}},{"type":"Feature","properties":{"name":"鶴町一丁目","setai":682,"jinko":1515,"key":"27108011001","units":1},"geometry":{"type":"Polygon","coordinates":[[[135.46074,34.63679],[135.4616,34.63553],[135.46342,34.63286],[135.4627,34.63253],[135.45804,34.63326],[135.45726,34.63338],[135.45491,34.63374],[135.45467,34.63527],[135.45406,34.63537],[135.45392,34.63624],[135.45464,34.63634],[135.45561,34.63646],[135.45569,34.63644],[135.45647,34.63633],[135.45724,34.63621],[135.45725,34.63621],[135.45724,34.63628],[135.45717,34.63676],[135.45724,34.6368],[135.45801,34.63718],[135.45949,34.63697],[135.46074,34.63679]]]}},{"type":"Feature","properties":{"name":"鶴町二丁目","setai":807,"jinko":1746,"key":"27108011002","units":1},"geometry":{"type":"Polygon","coordinates":[[[135.45188,34.63966],[135.45194,34.63926],[135.45249,34.63933],[135.45311,34.63939],[135.45332,34.63943],[135.45339,34.63944],[135.45353,34.63947],[135.45419,34.63956],[135.4542,34.63956],[135.45438,34.63958],[135.45469,34.6396],[135.45502,34.63964],[135.45551,34.63972],[135.45587,34.63977],[135.45619,34.63981],[135.45645,34.63985],[135.45659,34.63986],[135.45664,34.63986],[135.45722,34.63994],[135.45749,34.63995],[135.45766,34.63909],[135.45773,34.63861],[135.45785,34.63805],[135.45792,34.63766],[135.45795,34.63748],[135.45801,34.63724],[135.45801,34.63718],[135.45724,34.6368],[135.45717,34.63676],[135.45724,34.63628],[135.45725,34.63621],[135.45724,34.63621],[135.45647,34.63633],[135.45569,34.63644],[135.45561,34.63646],[135.45464,34.63634],[135.45392,34.63624],[135.45406,34.63537],[135.45467,34.63527],[135.45491,34.63374],[135.45396,34.63388],[135.45392,34.63389],[135.45385,34.6339],[135.45386,34.63394],[135.45368,34.63397],[135.45365,34.63399],[135.45362,34.63412],[135.45326,34.63418],[135.45324,34.63423],[135.4531,34.63426],[135.45304,34.63422],[135.45277,34.63428],[135.45271,34.63461],[135.45261,34.63463],[135.45256,34.63494],[135.45093,34.63519],[135.44828,34.63485],[135.44811,34.63574],[135.448,34.6363],[135.44801,34.6363],[135.44757,34.63873],[135.44738,34.63972],[135.44799,34.63979],[135.4481,34.63992],[135.44829,34.64005],[135.44846,34.6401],[135.4501,34.64031],[135.45032,34.64036],[135.45041,34.64038],[135.45044,34.64039],[135.45078,34.64056],[135.451,34.64069],[135.45126,34.64081],[135.45148,34.64089],[135.45158,34.64094],[135.45165,34.64101],[135.45167,34.64089],[135.45173,34.64055],[135.45177,34.6403],[135.45178,34.64016],[135.45182,34.63992],[135.45188,34.63966]]]}},{"type":"Feature","properties":{"name":"鶴町三丁目","setai":948,"jinko":2146,"key":"27108011003","units":1},"geometry":{"type":"Polygon","coordinates":[[[135.457,34.643],[135.4572,34.64193],[135.45758,34.63995],[135.45749,34.63995],[135.45722,34.63994],[135.45664,34.63986],[135.45659,34.63986],[135.45645,34.63985],[135.45619,34.63981],[135.45587,34.63977],[135.45551,34.63972],[135.45502,34.63964],[135.45469,34.6396],[135.45438,34.63958],[135.4542,34.63956],[135.45419,34.63956],[135.45353,34.63947],[135.45339,34.63944],[135.45332,34.63943],[135.45311,34.63939],[135.45249,34.63933],[135.45194,34.63926],[135.45188,34.63966],[135.45182,34.63992],[135.45178,34.64016],[135.45177,34.6403],[135.45173,34.64055],[135.45167,34.64089],[135.45165,34.64101],[135.45158,34.64094],[135.45148,34.64089],[135.45126,34.64081],[135.451,34.64069],[135.45078,34.64056],[135.45044,34.64039],[135.45041,34.64038],[135.45032,34.64036],[135.4501,34.64031],[135.44846,34.6401],[135.44829,34.64005],[135.4481,34.63992],[135.44799,34.63979],[135.44738,34.63972],[135.44713,34.64111],[135.4471,34.64127],[135.45012,34.6422],[135.45128,34.64256],[135.4513,34.64247],[135.45281,34.64265],[135.45328,34.64271],[135.45364,34.64275],[135.4537,34.64276],[135.45407,34.6428],[135.45445,34.64285],[135.45483,34.6429],[135.45492,34.6429],[135.45531,34.64296],[135.45562,34.64301],[135.45585,34.64303],[135.45605,34.64305],[135.45598,34.64343],[135.45601,34.64346],[135.45625,34.64357],[135.45657,34.64371],[135.45719,34.64399],[135.45731,34.64405],[135.45839,34.64454],[135.45843,34.64455],[135.45871,34.64407],[135.45861,34.64372],[135.4572,34.64308],[135.45703,34.64301],[135.457,34.643]]]}},{"type":"Feature","properties":{"name":"鶴町四丁目","setai":858,"jinko":1470,"key":"27108011004","units":1},"geometry":{"type":"Polygon","coordinates":[[[135.45281,34.64265],[135.4513,34.64247],[135.45128,34.64256],[135.45116,34.64313],[135.45111,34.64356],[135.45099,34.64413],[135.45098,34.64419],[135.45103,34.64422],[135.45097,34.64448],[135.45094,34.6447],[135.45091,34.64494],[135.45086,34.64515],[135.45084,34.64536],[135.45135,34.64554],[135.45165,34.64563],[135.45185,34.64571],[135.4522,34.64582],[135.45239,34.64589],[135.45311,34.64612],[135.45339,34.64622],[135.45367,34.6463],[135.45388,34.64638],[135.45421,34.64648],[135.4542,34.6465],[135.45477,34.64667],[135.45502,34.64676],[135.45548,34.64644],[135.456,34.64609],[135.45657,34.64573],[135.45675,34.6456],[135.45697,34.64545],[135.45718,34.64533],[135.45778,34.64496],[135.45801,34.6448],[135.45819,34.64467],[135.45838,34.64457],[135.45839,34.64454],[135.45731,34.64405],[135.45719,34.64399],[135.45657,34.64371],[135.45625,34.64357],[135.45601,34.64346],[135.45598,34.64343],[135.45605,34.64305],[135.45585,34.64303],[135.45562,34.64301],[135.45531,34.64296],[135.45492,34.6429],[135.45483,34.6429],[135.45445,34.64285],[135.45407,34.6428],[135.4537,34.64276],[135.45364,34.64275],[135.45328,34.64271],[135.45281,34.64265]]]}},{"type":"Feature","properties":{"name":"鶴町五丁目","setai":0,"jinko":0,"key":"27108011005","units":1},"geometry":{"type":"Polygon","coordinates":[[[135.45914,34.64349],[135.46096,34.64066],[135.46095,34.64066],[135.46125,34.64024],[135.46045,34.63711],[135.45985,34.63719],[135.45953,34.63722],[135.45932,34.63725],[135.45871,34.63734],[135.45859,34.63736],[135.45843,34.63751],[135.45831,34.63761],[135.45817,34.63828],[135.45794,34.63958],[135.45791,34.63982],[135.45786,34.63998],[135.45788,34.64003],[135.45793,34.64003],[135.45785,34.64042],[135.4578,34.64075],[135.45774,34.64102],[135.45761,34.64171],[135.45755,34.64209],[135.45752,34.64243],[135.45745,34.64242],[135.45741,34.64262],[135.45764,34.64293],[135.45794,34.64307],[135.45836,34.64326],[135.45884,34.64349],[135.45914,34.64349]]]}},{"type":"Feature","properties":{"name":"船町一丁目","setai":0,"jinko":0,"key":"27108012001","units":1},"geometry":{"type":"Polygon","coordinates":[[[135.46505,34.63155],[135.4678,34.63112],[135.46783,34.63131],[135.46797,34.63126],[135.46796,34.63109],[135.47184,34.63045],[135.47195,34.63012],[135.47193,34.62975],[135.47197,34.62954],[135.47191,34.62951],[135.47141,34.62923],[135.47097,34.62893],[135.47092,34.62894],[135.4705,34.6287],[135.47002,34.62847],[135.46959,34.62822],[135.46922,34.62798],[135.46914,34.62791],[135.46872,34.62785],[135.46811,34.62772],[135.46789,34.6276],[135.46749,34.62755],[135.46708,34.62743],[135.46255,34.62672],[135.46243,34.62671],[135.46249,34.62693],[135.46254,34.62701],[135.46322,34.6292],[135.45728,34.63016],[135.45725,34.63017],[135.45728,34.6303],[135.45781,34.63268],[135.46505,34.63155]]]}},{"type":"Feature","properties":{"name":"船町二丁目","setai":0,"jinko":0,"key":"27108012002","units":1},"geometry":{"type":"Polygon","coordinates":[[[135.45781,34.63268],[135.45728,34.6303],[135.45725,34.63017],[135.45728,34.63016],[135.46322,34.6292],[135.46254,34.62701],[135.46249,34.62693],[135.46243,34.62671],[135.4618,34.6266],[135.46097,34.62642],[135.46049,34.62634],[135.46002,34.62625],[135.45955,34.62613],[135.45907,34.62606],[135.45848,34.62595],[135.45792,34.62583],[135.45752,34.62582],[135.45731,34.6258],[135.45697,34.62577],[135.45628,34.62577],[135.45567,34.62583],[135.45514,34.62586],[135.45504,34.62587],[135.45432,34.62602],[135.45401,34.62598],[135.45378,34.62607],[135.45331,34.62628],[135.45329,34.62628],[135.45308,34.62638],[135.45264,34.62658],[135.45191,34.6269],[135.45131,34.62718],[135.45066,34.62746],[135.45006,34.62772],[135.44941,34.628],[135.44883,34.62826],[135.44859,34.62834],[135.44858,34.62836],[135.44848,34.62841],[135.44836,34.62899],[135.44824,34.62962],[135.44814,34.63014],[135.44805,34.63065],[135.44831,34.63101],[135.45032,34.63062],[135.45355,34.62918],[135.45335,34.63054],[135.45342,34.63054],[135.45342,34.6306],[135.45332,34.63072],[135.45324,34.63117],[135.45324,34.63126],[135.45327,34.6313],[135.45303,34.63134],[135.45309,34.63154],[135.45324,34.63151],[135.45328,34.63175],[135.45537,34.63141],[135.45539,34.63146],[135.45549,34.63149],[135.4555,34.63156],[135.45544,34.63159],[135.45544,34.63168],[135.4534,34.632],[135.45309,34.63214],[135.45295,34.63265],[135.45277,34.63285],[135.4528,34.63297],[135.45463,34.63266],[135.45468,34.63289],[135.45283,34.63319],[135.45289,34.63345],[135.45726,34.63277],[135.45781,34.63268]]]}}]}