{"type":"FeatureCollection","features":[{"type":"Feature","properties":{"name":"東町一丁目","setai":1637,"jinko":3769,"key":"13210001001","units":1},"geometry":{"type":"Polygon","coordinates":[[[139.5314,35.69482],[139.53154,35.69383],[139.53156,35.69362],[139.53165,35.6931],[139.53175,35.69243],[139.53179,35.69211],[139.53192,35.69132],[139.53202,35.69079],[139.53211,35.69014],[139.53225,35.68932],[139.53225,35.68927],[139.53232,35.68862],[139.53172,35.68866],[139.53173,35.6889],[139.5307,35.68946],[139.52996,35.68952],[139.52999,35.68986],[139.52891,35.69045],[139.52837,35.68955],[139.5275,35.69],[139.52703,35.68967],[139.52631,35.69011],[139.52597,35.69],[139.52596,35.68999],[139.52585,35.68996],[139.52566,35.69006],[139.52552,35.68992],[139.52543,35.68983],[139.525,35.68941],[139.52517,35.6893],[139.52516,35.68929],[139.52513,35.68924],[139.52451,35.68848],[139.52496,35.6883],[139.52525,35.68812],[139.5256,35.68791],[139.52621,35.68762],[139.52625,35.68755],[139.52639,35.68737],[139.52641,35.68735],[139.52654,35.68715],[139.52662,35.68693],[139.52673,35.68651],[139.52681,35.68627],[139.52683,35.68621],[139.52683,35.686],[139.52681,35.68587],[139.5268,35.68584],[139.5267,35.68568],[139.52665,35.68562],[139.52668,35.68547],[139.52672,35.68539],[139.52681,35.68509],[139.52689,35.68497],[139.52697,35.68481],[139.52707,35.68463],[139.52733,35.68417],[139.52747,35.68402],[139.52764,35.68389],[139.52732,35.6839],[139.5269,35.68396],[139.52689,35.68396],[139.52675,35.68399],[139.52671,35.68399],[139.52665,35.684],[139.52663,35.684],[139.52662,35.684],[139.52658,35.68399],[139.52654,35.68398],[139.52652,35.68397],[139.5265,35.68397],[139.52644,35.68394],[139.52641,35.68394],[139.52641,35.68394],[139.52638,35.68394],[139.52632,35.68397],[139.52627,35.68406],[139.52608,35.68432],[139.52593,35.68459],[139.52587,35.68461],[139.52582,35.68463],[139.52573,35.68472],[139.52572,35.68473],[139.52571,35.68473],[139.52555,35.68518],[139.52555,35.68528],[139.52555,35.68529],[139.52557,35.68536],[139.52557,35.68537],[139.52559,35.68542],[139.52559,35.68543],[139.52559,35.68549],[139.52559,35.68551],[139.52559,35.68551],[139.52557,35.68555],[139.52556,35.68555],[139.52555,35.68556],[139.52554,35.68558],[139.52551,35.68559],[139.5255,35.68559],[139.52547,35.6856],[139.52533,35.68563],[139.5253,35.68563],[139.52517,35.68567],[139.52516,35.68567],[139.52512,35.68568],[139.5251,35.68569],[139.52509,35.6857],[139.52507,35.68572],[139.52506,35.68574],[139.52505,35.68576],[139.52505,35.68577],[139.52505,35.6858],[139.52504,35.68584],[139.52504,35.68587],[139.52505,35.68596],[139.52505,35.68597],[139.52504,35.68604],[139.52504,35.68605],[139.52502,35.68614],[139.52502,35.68614],[139.52503,35.68618],[139.52503,35.6862],[139.52503,35.68621],[139.52504,35.68623],[139.52507,35.68628],[139.52515,35.68641],[139.52517,35.68644],[139.52518,35.68646],[139.5252,35.68647],[139.52521,35.68649],[139.52522,35.6865],[139.52525,35.68652],[139.52534,35.68655],[139.52542,35.68658],[139.52543,35.68659],[139.52547,35.68661],[139.52548,35.68662],[139.52551,35.68664],[139.52551,35.68665],[139.52553,35.68667],[139.52553,35.68668],[139.52553,35.68669],[139.52553,35.68675],[139.52551,35.68683],[139.52543,35.6869],[139.52539,35.68693],[139.52534,35.68696],[139.52532,35.68697],[139.52527,35.687],[139.52526,35.68701],[139.52516,35.68704],[139.52513,35.68706],[139.52494,35.68712],[139.52489,35.68714],[139.52488,35.68715],[139.52478,35.68719],[139.52465,35.68725],[139.52462,35.68726],[139.52457,35.6873],[139.52456,35.6873],[139.5243,35.68748],[139.52427,35.6875],[139.52426,35.6875],[139.52423,35.68753],[139.5242,35.68758],[139.5242,35.68759],[139.52415,35.6878],[139.52414,35.68783],[139.52402,35.68785],[139.52392,35.68787],[139.5239,35.68788],[139.52378,35.68791],[139.52349,35.68808],[139.52335,35.68816],[139.5233,35.68818],[139.52328,35.68819],[139.52326,35.68815],[139.52324,35.68812],[139.52324,35.68811],[139.52322,35.68804],[139.52322,35.68803],[139.52317,35.6879],[139.52316,35.68789],[139.52315,35.68785],[139.52315,35.68782],[139.52315,35.68781],[139.52316,35.68776],[139.52317,35.6877],[139.52319,35.68758],[139.52319,35.68757],[139.52319,35.68751],[139.52317,35.68747],[139.52313,35.6874],[139.52312,35.68739],[139.52307,35.68734],[139.52221,35.68761],[139.52225,35.68771],[139.52259,35.68842],[139.52284,35.68895],[139.52284,35.68895],[139.52303,35.68935],[139.52317,35.68962],[139.52318,35.6897],[139.52326,35.68999],[139.52372,35.69093],[139.52381,35.69111],[139.52382,35.69113],[139.52425,35.69202],[139.52446,35.69248],[139.52487,35.69334],[139.52523,35.69409],[139.52539,35.69439],[139.5255,35.69438],[139.52556,35.69438],[139.52581,35.69438],[139.52634,35.69441],[139.52646,35.69441],[139.52672,35.69442],[139.52733,35.69441],[139.5276,35.69442],[139.52775,35.69443],[139.52781,35.69442],[139.52865,35.69455],[139.52889,35.69457],[139.52934,35.69462],[139.52983,35.69467],[139.53022,35.69471],[139.53056,35.69474],[139.53116,35.6948],[139.5314,35.69482]]]}},{"type":"Feature","properties":{"name":"東町二丁目","setai":1480,"jinko":2957,"key":"13210001002","units":1},"geometry":{"type":"Polygon","coordinates":[[[139.52865,35.69455],[139.52781,35.69442],[139.52775,35.69443],[139.5276,35.69442],[139.52748,35.69615],[139.5274,35.69623],[139.52724,35.69643],[139.52724,35.69647],[139.52837,35.69719],[139.52902,35.69761],[139.53013,35.69829],[139.53019,35.69832],[139.53026,35.69837],[139.53044,35.6985],[139.53065,35.69862],[139.53091,35.69877],[139.53143,35.69911],[139.53185,35.69937],[139.53224,35.69962],[139.53248,35.69977],[139.53348,35.7004],[139.53356,35.69994],[139.5337,35.69921],[139.53374,35.69895],[139.53378,35.69855],[139.5338,35.69819],[139.53384,35.69755],[139.53385,35.69749],[139.53387,35.69719],[139.53389,35.69686],[139.53393,35.69631],[139.53401,35.69503],[139.53344,35.69498],[139.53314,35.69496],[139.53278,35.69493],[139.53224,35.69488],[139.53215,35.69488],[139.53176,35.69484],[139.5314,35.69482],[139.53116,35.6948],[139.53056,35.69474],[139.53022,35.69471],[139.52983,35.69467],[139.52934,35.69462],[139.52889,35.69457],[139.52865,35.69455]]]}},{"type":"Feature","properties":{"name":"東町三丁目","setai":1281,"jinko":2340,"key":"13210001003","units":1},"geometry":{"type":"Polygon","coordinates":[[[139.53249,35.70128],[139.5325,35.70113],[139.5333,35.70117],[139.53331,35.70114],[139.53335,35.7009],[139.53341,35.70084],[139.53348,35.7004],[139.53248,35.69977],[139.53224,35.69962],[139.53185,35.69937],[139.53143,35.69911],[139.53091,35.69877],[139.53065,35.69862],[139.53044,35.6985],[139.53026,35.69837],[139.53019,35.69832],[139.53013,35.69829],[139.52902,35.69761],[139.52837,35.69719],[139.52724,35.69647],[139.52717,35.69752],[139.52716,35.69762],[139.52737,35.69766],[139.52732,35.69846],[139.52727,35.69911],[139.52726,35.69928],[139.52727,35.6994],[139.52721,35.69987],[139.52689,35.69989],[139.52697,35.70024],[139.52703,35.70052],[139.52711,35.70087],[139.52703,35.70089],[139.52699,35.70157],[139.52759,35.70158],[139.52813,35.7016],[139.52955,35.70166],[139.5298,35.70167],[139.53208,35.70171],[139.53242,35.70172],[139.53244,35.7013],[139.53249,35.70128]]]}},{"type":"Feature","properties":{"name":"東町四丁目","setai":3663,"jinko":5963,"key":"13210001004","units":1},"geometry":{"type":"Polygon","coordinates":[[[139.52748,35.69615],[139.5276,35.69442],[139.52733,35.69441],[139.52672,35.69442],[139.52646,35.69441],[139.52634,35.69441],[139.52581,35.69438],[139.52556,35.69438],[139.5255,35.69438],[139.52539,35.69439],[139.52537,35.69439],[139.52529,35.69439],[139.52495,35.69438],[139.52456,35.69438],[139.52408,35.69439],[139.52399,35.6944],[139.52397,35.6944],[139.52368,35.6944],[139.52342,35.6944],[139.52302,35.69439],[139.52256,35.6944],[139.52218,35.6944],[139.52219,35.69534],[139.52219,35.69551],[139.52218,35.69572],[139.52219,35.69629],[139.52218,35.69664],[139.52218,35.69674],[139.52217,35.69714],[139.52216,35.69758],[139.52216,35.69759],[139.52214,35.6984],[139.52212,35.69938],[139.52212,35.69958],[139.5221,35.70054],[139.5221,35.70071],[139.5221,35.70072],[139.52207,35.70144],[139.52346,35.70147],[139.52359,35.70147],[139.52496,35.7015],[139.52502,35.70151],[139.52574,35.70153],[139.52623,35.70154],[139.52699,35.70157],[139.52703,35.70089],[139.52711,35.70087],[139.52703,35.70052],[139.52697,35.70024],[139.52689,35.69989],[139.52721,35.69987],[139.52727,35.6994],[139.52726,35.69928],[139.52727,35.69911],[139.52732,35.69846],[139.52737,35.69766],[139.52716,35.69762],[139.52717,35.69752],[139.52724,35.69647],[139.52724,35.69643],[139.5274,35.69623],[139.52748,35.69615]]]}},{"type":"Feature","properties":{"name":"東町五丁目","setai":1216,"jinko":2501,"key":"13210001005","units":1},"geometry":{"type":"Polygon","coordinates":[[[139.52187,35.69439],[139.52218,35.69439],[139.52218,35.6944],[139.52256,35.6944],[139.52302,35.69439],[139.52342,35.6944],[139.52368,35.6944],[139.52397,35.6944],[139.52399,35.6944],[139.52408,35.69439],[139.52456,35.69438],[139.52495,35.69438],[139.52529,35.69439],[139.52537,35.69439],[139.52539,35.69439],[139.52523,35.69409],[139.52487,35.69334],[139.52446,35.69248],[139.52425,35.69202],[139.52382,35.69113],[139.52381,35.69111],[139.52372,35.69093],[139.52326,35.68999],[139.52318,35.6897],[139.52317,35.68962],[139.52303,35.68935],[139.52284,35.68895],[139.52284,35.68895],[139.52259,35.68842],[139.52225,35.68771],[139.52221,35.68761],[139.52206,35.68722],[139.52206,35.68721],[139.52204,35.68727],[139.52201,35.68742],[139.522,35.68743],[139.52193,35.68756],[139.52183,35.68771],[139.52163,35.68789],[139.52158,35.68796],[139.5215,35.68817],[139.52142,35.68831],[139.52127,35.68841],[139.52106,35.68849],[139.52076,35.68862],[139.5206,35.68873],[139.52055,35.68883],[139.52045,35.68906],[139.52039,35.68925],[139.52027,35.68966],[139.52025,35.6897],[139.5201,35.68981],[139.51958,35.69016],[139.5194,35.69032],[139.51925,35.69048],[139.51912,35.69064],[139.51897,35.69063],[139.51871,35.69084],[139.51884,35.69112],[139.5188,35.69116],[139.51863,35.69125],[139.51829,35.69143],[139.51835,35.69153],[139.51871,35.69191],[139.51887,35.69211],[139.51911,35.69242],[139.51913,35.69247],[139.51902,35.69252],[139.519,35.69257],[139.51913,35.69289],[139.5192,35.69312],[139.5191,35.69315],[139.51908,35.69318],[139.51915,35.69329],[139.51921,35.69345],[139.51934,35.69371],[139.5194,35.69387],[139.51945,35.69417],[139.51949,35.69436],[139.5195,35.69442],[139.5197,35.69443],[139.51982,35.69443],[139.52045,35.6944],[139.52066,35.6944],[139.52078,35.69439],[139.52148,35.69439],[139.52151,35.69439],[139.52187,35.69439]]]}},{"type":"Feature","properties":{"name":"梶野町一丁目","setai":555,"jinko":959,"key":"13210002001","units":1},"geometry":{"type":"Polygon","coordinates":[[[139.52813,35.7016],[139.52759,35.70158],[139.52753,35.70223],[139.52741,35.70365],[139.52738,35.70515],[139.5281,35.70518],[139.52823,35.70518],[139.52875,35.7052],[139.52911,35.70521],[139.52949,35.70521],[139.53002,35.70521],[139.53018,35.70522],[139.53059,35.70523],[139.53078,35.70523],[139.53139,35.70524],[139.5321,35.70525],[139.53211,35.70497],[139.53211,35.70471],[139.53209,35.70432],[139.53208,35.70391],[139.53208,35.70381],[139.53208,35.7036],[139.53209,35.70317],[139.53208,35.7027],[139.5321,35.70205],[139.53241,35.702],[139.53242,35.70184],[139.53242,35.70172],[139.53208,35.70171],[139.5298,35.70167],[139.52955,35.70166],[139.52813,35.7016]]]}},{"type":"Feature","properties":{"name":"梶野町二丁目","setai":1197,"jinko":2518,"key":"13210002002","units":1},"geometry":{"type":"Polygon","coordinates":[[[139.5322,35.70752],[139.5322,35.7075],[139.53219,35.7075],[139.53217,35.70723],[139.53216,35.7067],[139.53215,35.70661],[139.53213,35.70564],[139.53212,35.70538],[139.53212,35.70533],[139.5321,35.70525],[139.53139,35.70524],[139.53078,35.70523],[139.53059,35.70523],[139.53018,35.70522],[139.53002,35.70521],[139.52949,35.70521],[139.52911,35.70521],[139.52875,35.7052],[139.52823,35.70518],[139.5281,35.70518],[139.52738,35.70515],[139.52734,35.70514],[139.52739,35.70523],[139.52741,35.70537],[139.52753,35.70609],[139.52766,35.70688],[139.52766,35.70691],[139.52776,35.70766],[139.52781,35.70796],[139.52781,35.70799],[139.52786,35.70852],[139.52792,35.70902],[139.52793,35.70916],[139.52797,35.70931],[139.52803,35.70944],[139.52812,35.70962],[139.5286,35.70956],[139.52918,35.70948],[139.52953,35.70944],[139.52962,35.70943],[139.5299,35.70939],[139.53061,35.7093],[139.5309,35.70926],[139.53092,35.70926],[139.53187,35.70912],[139.53231,35.70906],[139.53229,35.70875],[139.53228,35.70855],[139.53225,35.70803],[139.5322,35.70752]]]}},{"type":"Feature","properties":{"name":"梶野町三丁目","setai":1162,"jinko":2610,"key":"13210002003","units":1},"geometry":{"type":"Polygon","coordinates":[[[139.52718,35.70985],[139.5277,35.70949],[139.52772,35.70958],[139.52772,35.7097],[139.52803,35.70967],[139.52809,35.70963],[139.52812,35.70962],[139.52803,35.70944],[139.52797,35.70931],[139.52793,35.70916],[139.52792,35.70902],[139.52786,35.70852],[139.52703,35.70859],[139.52641,35.70863],[139.52576,35.70869],[139.52575,35.70859],[139.52574,35.70858],[139.52509,35.70864],[139.52491,35.70866],[139.52477,35.70867],[139.52437,35.70871],[139.52385,35.70874],[139.52258,35.70882],[139.52253,35.70882],[139.52254,35.70892],[139.52174,35.70887],[139.52173,35.7094],[139.52173,35.70952],[139.52173,35.70974],[139.52173,35.71025],[139.52172,35.71044],[139.52169,35.71094],[139.52167,35.71129],[139.52163,35.71201],[139.52162,35.71218],[139.52163,35.71257],[139.52179,35.71257],[139.5226,35.71256],[139.5228,35.71256],[139.52293,35.71255],[139.52327,35.71254],[139.52354,35.71253],[139.52355,35.71253],[139.52445,35.7125],[139.52448,35.7125],[139.52464,35.71249],[139.52506,35.71249],[139.52595,35.71246],[139.52614,35.71245],[139.52721,35.71242],[139.52752,35.7124],[139.52741,35.71162],[139.52738,35.71143],[139.52738,35.71142],[139.52732,35.71092],[139.52729,35.71067],[139.52721,35.71008],[139.52703,35.70995],[139.52708,35.70991],[139.52718,35.70985]]]}},{"type":"Feature","properties":{"name":"梶野町四丁目","setai":1448,"jinko":2764,"key":"13210002004","units":1},"geometry":{"type":"Polygon","coordinates":[[[139.52509,35.70864],[139.52574,35.70858],[139.52575,35.70859],[139.52576,35.70869],[139.52641,35.70863],[139.52703,35.70859],[139.52786,35.70852],[139.52781,35.70799],[139.52781,35.70796],[139.52776,35.70766],[139.52766,35.70691],[139.52766,35.70688],[139.52753,35.70609],[139.52741,35.70537],[139.52739,35.70523],[139.52734,35.70514],[139.52682,35.70508],[139.52586,35.70495],[139.52538,35.70491],[139.52503,35.70489],[139.52462,35.70487],[139.52398,35.7049],[139.52382,35.7049],[139.52341,35.70492],[139.52318,35.70493],[139.52284,35.70496],[139.52262,35.70505],[139.5219,35.70522],[139.52189,35.70536],[139.52189,35.70547],[139.52188,35.70558],[139.52185,35.70623],[139.52185,35.70625],[139.52184,35.70654],[139.5218,35.70744],[139.5218,35.70749],[139.52176,35.70855],[139.52175,35.70881],[139.52174,35.70887],[139.52254,35.70892],[139.52253,35.70882],[139.52258,35.70882],[139.52385,35.70874],[139.52437,35.70871],[139.52477,35.70867],[139.52491,35.70866],[139.52509,35.70864]]]}},{"type":"Feature","properties":{"name":"梶野町五丁目","setai":1182,"jinko":2019,"key":"13210002005","units":1},"geometry":{"type":"Polygon","coordinates":[[[139.52398,35.7049],[139.52462,35.70487],[139.52503,35.70489],[139.52538,35.70491],[139.52586,35.70495],[139.52682,35.70508],[139.52734,35.70514],[139.52738,35.70515],[139.52741,35.70365],[139.52753,35.70223],[139.52759,35.70158],[139.52699,35.70157],[139.52623,35.70154],[139.52574,35.70153],[139.52502,35.70151],[139.52496,35.7015],[139.52359,35.70147],[139.52346,35.70147],[139.52207,35.70144],[139.52205,35.70146],[139.52205,35.70212],[139.52204,35.70239],[139.52204,35.7024],[139.52202,35.70283],[139.52199,35.70327],[139.52198,35.70344],[139.52196,35.70404],[139.52195,35.70431],[139.52191,35.70498],[139.5219,35.70522],[139.52262,35.70505],[139.52284,35.70496],[139.52318,35.70493],[139.52341,35.70492],[139.52382,35.7049],[139.52398,35.7049]]]}},{"type":"Feature","properties":{"name":"関野町一丁目","setai":310,"jinko":604,"key":"13210003001","units":1},"geometry":{"type":"Polygon","coordinates":[[[139.52502,35.71358],[139.52464,35.71249],[139.52448,35.7125],[139.52445,35.7125],[139.52355,35.71253],[139.52354,35.71253],[139.52327,35.71254],[139.52293,35.71255],[139.5228,35.71256],[139.5226,35.71256],[139.52179,35.71257],[139.52163,35.71257],[139.52071,35.71259],[139.5207,35.71259],[139.52015,35.7126],[139.52008,35.7126],[139.51931,35.71261],[139.51907,35.71261],[139.51863,35.7126],[139.51819,35.7126],[139.51819,35.71261],[139.51821,35.71261],[139.51821,35.7136],[139.51822,35.71363],[139.51823,35.71429],[139.51822,35.71434],[139.51822,35.71438],[139.51823,35.71791],[139.51836,35.71793],[139.52137,35.71857],[139.52293,35.7189],[139.52293,35.71752],[139.52644,35.71745],[139.52625,35.71691],[139.52534,35.71433],[139.52529,35.71432],[139.52502,35.71358]]]}},{"type":"Feature","properties":{"name":"関野町二丁目","setai":299,"jinko":643,"key":"13210003002","units":1},"geometry":{"type":"Polygon","coordinates":[[[139.51607,35.71259],[139.51529,35.71257],[139.51523,35.71257],[139.51519,35.71257],[139.51443,35.71258],[139.51421,35.71258],[139.51371,35.71258],[139.51275,35.71257],[139.5129,35.7134],[139.51299,35.71402],[139.51304,35.71436],[139.51314,35.71437],[139.51316,35.717],[139.515,35.71733],[139.51823,35.71791],[139.51822,35.71438],[139.51822,35.71434],[139.51823,35.71429],[139.51822,35.71363],[139.51821,35.7136],[139.51821,35.71261],[139.51819,35.71261],[139.51805,35.71261],[139.51712,35.7126],[139.51677,35.7126],[139.51649,35.71259],[139.51607,35.71259]]]}},{"type":"Feature","properties":{"name":"緑町一丁目","setai":948,"jinko":1919,"key":"13210004001","units":1},"geometry":{"type":"Polygon","coordinates":[[[139.5177,35.70491],[139.51787,35.70491],[139.51813,35.70492],[139.51818,35.70491],[139.51829,35.7049],[139.51849,35.70485],[139.51881,35.70478],[139.5193,35.7047],[139.52032,35.70453],[139.52133,35.70438],[139.52195,35.70431],[139.52196,35.70404],[139.52198,35.70344],[139.52199,35.70327],[139.52202,35.70283],[139.52204,35.7024],[139.52204,35.70239],[139.52205,35.70212],[139.52205,35.70146],[139.52205,35.70143],[139.5208,35.7014],[139.52078,35.7014],[139.51993,35.70137],[139.51962,35.70136],[139.51876,35.70134],[139.51845,35.70133],[139.51714,35.70129],[139.51702,35.70129],[139.51708,35.70145],[139.51715,35.70145],[139.51715,35.70147],[139.51764,35.70223],[139.51821,35.70308],[139.51793,35.70309],[139.51771,35.70309],[139.51757,35.70309],[139.5169,35.70309],[139.517,35.70348],[139.51703,35.70358],[139.51705,35.70364],[139.51743,35.70496],[139.5177,35.70491]]]}},{"type":"Feature","properties":{"name":"緑町二丁目","setai":1815,"jinko":3834,"key":"13210004002","units":1},"geometry":{"type":"Polygon","coordinates":[[[139.52191,35.70498],[139.52195,35.70431],[139.52133,35.70438],[139.52032,35.70453],[139.5193,35.7047],[139.51881,35.70478],[139.51849,35.70485],[139.51829,35.7049],[139.51818,35.70491],[139.51813,35.70492],[139.51787,35.70491],[139.5177,35.70491],[139.51743,35.70496],[139.51724,35.705],[139.51736,35.70535],[139.51738,35.70542],[139.51746,35.70566],[139.51754,35.70589],[139.51765,35.70624],[139.51769,35.70635],[139.51779,35.70705],[139.51788,35.70767],[139.51787,35.70799],[139.51793,35.70817],[139.51816,35.70893],[139.51818,35.70904],[139.51838,35.7096],[139.51846,35.70978],[139.51865,35.7102],[139.51889,35.7107],[139.519,35.71094],[139.51926,35.71146],[139.51931,35.71261],[139.52008,35.7126],[139.52015,35.7126],[139.5207,35.71259],[139.52071,35.71259],[139.52163,35.71257],[139.52162,35.71218],[139.52163,35.71201],[139.52167,35.71129],[139.52169,35.71094],[139.52172,35.71044],[139.52173,35.71025],[139.52173,35.70974],[139.52173,35.70952],[139.52173,35.7094],[139.52174,35.70887],[139.52175,35.70881],[139.52176,35.70855],[139.5218,35.70749],[139.5218,35.70744],[139.52184,35.70654],[139.52185,35.70625],[139.52185,35.70623],[139.52188,35.70558],[139.52189,35.70547],[139.52189,35.70536],[139.5219,35.70522],[139.52191,35.70498]]]}},{"type":"Feature","properties":{"name":"緑町三丁目","setai":1207,"jinko":2574,"key":"13210004003","units":1},"geometry":{"type":"Polygon","coordinates":[[[139.51819,35.71261],[139.51819,35.7126],[139.51863,35.7126],[139.51907,35.71261],[139.51931,35.71261],[139.51926,35.71146],[139.519,35.71094],[139.51889,35.7107],[139.51865,35.7102],[139.51824,35.7101],[139.51766,35.71016],[139.5168,35.70957],[139.51653,35.70945],[139.51632,35.70937],[139.51574,35.70905],[139.51536,35.70882],[139.51522,35.70875],[139.51497,35.70865],[139.51475,35.70858],[139.51452,35.70848],[139.51424,35.70834],[139.51397,35.70831],[139.51307,35.7082],[139.51287,35.70819],[139.51266,35.70816],[139.51246,35.70816],[139.51213,35.70815],[139.51212,35.70817],[139.51217,35.70858],[139.51228,35.7089],[139.51234,35.70906],[139.51233,35.70913],[139.51239,35.70956],[139.51242,35.71],[139.51242,35.71007],[139.51249,35.7103],[139.5125,35.71042],[139.51255,35.71078],[139.51262,35.71109],[139.51265,35.71136],[139.51362,35.71139],[139.51375,35.71139],[139.51432,35.71138],[139.51434,35.71141],[139.51443,35.71258],[139.51519,35.71257],[139.51523,35.71257],[139.51529,35.71257],[139.51607,35.71259],[139.51649,35.71259],[139.51677,35.7126],[139.51712,35.7126],[139.51805,35.71261],[139.51819,35.71261]]]}},{"type":"Feature","properties":{"name":"緑町四丁目","setai":1151,"jinko":2452,"key":"13210004004","units":1},"geometry":{"type":"Polygon","coordinates":[[[139.51865,35.7102],[139.51846,35.70978],[139.51838,35.7096],[139.51818,35.70904],[139.51816,35.70893],[139.51793,35.70817],[139.51787,35.70799],[139.51788,35.70767],[139.51779,35.70705],[139.51769,35.70635],[139.51765,35.70624],[139.51754,35.70589],[139.51746,35.70566],[139.51738,35.70542],[139.51736,35.70535],[139.51724,35.705],[139.51694,35.70505],[139.51675,35.70509],[139.51618,35.70519],[139.51612,35.7052],[139.51557,35.7053],[139.51532,35.70534],[139.51528,35.70535],[139.51481,35.70543],[139.5148,35.70543],[139.51431,35.70552],[139.51426,35.70553],[139.51387,35.70553],[139.51311,35.70555],[139.51265,35.70556],[139.51227,35.70556],[139.51173,35.70557],[139.51152,35.70557],[139.5116,35.7059],[139.51171,35.70616],[139.51183,35.70658],[139.51193,35.70694],[139.512,35.70721],[139.51202,35.70729],[139.51214,35.70764],[139.51216,35.70777],[139.51218,35.70789],[139.51216,35.70801],[139.51213,35.70815],[139.51246,35.70816],[139.51266,35.70816],[139.51287,35.70819],[139.51307,35.7082],[139.51397,35.70831],[139.51424,35.70834],[139.51452,35.70848],[139.51475,35.70858],[139.51497,35.70865],[139.51522,35.70875],[139.51536,35.70882],[139.51574,35.70905],[139.51632,35.70937],[139.51653,35.70945],[139.5168,35.70957],[139.51766,35.71016],[139.51824,35.7101],[139.51865,35.7102]]]}},{"type":"Feature","properties":{"name":"緑町五丁目","setai":3106,"jinko":5848,"key":"13210004005","units":1},"geometry":{"type":"Polygon","coordinates":[[[139.517,35.70348],[139.5169,35.70309],[139.51757,35.70309],[139.51771,35.70309],[139.51793,35.70309],[139.51821,35.70308],[139.51764,35.70223],[139.51715,35.70147],[139.51715,35.70145],[139.51708,35.70145],[139.51702,35.70129],[139.51691,35.70128],[139.51688,35.70128],[139.5166,35.70129],[139.51608,35.70127],[139.51525,35.70124],[139.5148,35.70123],[139.51477,35.70122],[139.51425,35.70121],[139.5142,35.70121],[139.51341,35.70119],[139.51228,35.70115],[139.51227,35.70115],[139.51185,35.70113],[139.51119,35.7011],[139.51086,35.7011],[139.51011,35.7011],[139.51015,35.70111],[139.51033,35.70146],[139.51034,35.70148],[139.51067,35.70208],[139.51072,35.70207],[139.51075,35.70207],[139.51121,35.70306],[139.51114,35.70309],[139.51144,35.70412],[139.51152,35.70445],[139.51152,35.70453],[139.51153,35.70473],[139.51168,35.70533],[139.51173,35.70557],[139.51227,35.70556],[139.51265,35.70556],[139.51311,35.70555],[139.51387,35.70553],[139.51426,35.70553],[139.51431,35.70552],[139.5148,35.70543],[139.51481,35.70543],[139.51528,35.70535],[139.51532,35.70534],[139.51557,35.7053],[139.51612,35.7052],[139.51618,35.70519],[139.51675,35.70509],[139.51694,35.70505],[139.51724,35.705],[139.51743,35.70496],[139.51705,35.70364],[139.51703,35.70358],[139.517,35.70348]]]}},{"type":"Feature","properties":{"name":"中町一丁目","setai":984,"jinko":2147,"key":"13210005001","units":1},"geometry":{"type":"Polygon","coordinates":[[[139.51035,35.69739],[139.51076,35.69721],[139.51076,35.69722],[139.51121,35.697],[139.51166,35.69678],[139.51198,35.69658],[139.51223,35.69644],[139.51255,35.69626],[139.51265,35.69617],[139.51304,35.69597],[139.51321,35.69587],[139.51349,35.69577],[139.51372,35.69571],[139.51396,35.69566],[139.51404,35.69565],[139.51435,35.69557],[139.51443,35.69555],[139.5149,35.6954],[139.51515,35.69535],[139.5156,35.69519],[139.51628,35.695],[139.51699,35.6948],[139.51708,35.69476],[139.51732,35.69468],[139.51772,35.6946],[139.51783,35.6946],[139.51819,35.69457],[139.51832,35.69456],[139.51874,35.69451],[139.51919,35.69446],[139.51949,35.69443],[139.5195,35.69442],[139.51949,35.69436],[139.51945,35.69417],[139.5194,35.69387],[139.51934,35.69371],[139.51921,35.69345],[139.51915,35.69329],[139.51908,35.69318],[139.5191,35.69315],[139.5192,35.69312],[139.51913,35.69289],[139.519,35.69257],[139.51902,35.69252],[139.51913,35.69247],[139.51911,35.69242],[139.51887,35.69211],[139.51871,35.69191],[139.51835,35.69153],[139.51818,35.69163],[139.51781,35.69183],[139.51723,35.69204],[139.51671,35.69222],[139.516,35.69248],[139.51527,35.69273],[139.5148,35.69289],[139.51459,35.69297],[139.51394,35.6932],[139.51357,35.69334],[139.51319,35.69346],[139.51296,35.69352],[139.51272,35.69355],[139.51244,35.69359],[139.51216,35.6936],[139.51206,35.69361],[139.51188,35.6936],[139.51146,35.69357],[139.51114,35.69352],[139.51083,35.69343],[139.51041,35.69333],[139.5102,35.69327],[139.50986,35.69319],[139.50966,35.69316],[139.50947,35.69317],[139.50932,35.69317],[139.50903,35.69322],[139.50887,35.69327],[139.50872,35.69335],[139.50904,35.69387],[139.50926,35.69426],[139.50928,35.69432],[139.5093,35.69434],[139.50953,35.69479],[139.50971,35.69529],[139.50991,35.69585],[139.50992,35.69587],[139.51008,35.69616],[139.5101,35.69639],[139.51011,35.69642],[139.51005,35.69664],[139.51004,35.69674],[139.51011,35.69689],[139.51035,35.69739]]]}},{"type":"Feature","properties":{"name":"中町二丁目","setai":2258,"jinko":4483,"key":"13210005002","units":1},"geometry":{"type":"Polygon","coordinates":[[[139.52219,35.69534],[139.52218,35.6944],[139.52218,35.69439],[139.52187,35.69439],[139.52151,35.69439],[139.52148,35.69439],[139.52078,35.69439],[139.52066,35.6944],[139.52045,35.6944],[139.51982,35.69443],[139.5197,35.69443],[139.5195,35.69442],[139.51949,35.69443],[139.51919,35.69446],[139.51874,35.69451],[139.51832,35.69456],[139.51819,35.69457],[139.51783,35.6946],[139.51772,35.6946],[139.51732,35.69468],[139.51708,35.69476],[139.51699,35.6948],[139.51628,35.695],[139.5156,35.69519],[139.51515,35.69535],[139.5149,35.6954],[139.51443,35.69555],[139.51435,35.69557],[139.51404,35.69565],[139.51396,35.69566],[139.51402,35.69591],[139.51417,35.69632],[139.51427,35.69657],[139.51439,35.69678],[139.51446,35.69691],[139.51451,35.69704],[139.5146,35.69734],[139.51476,35.69759],[139.51486,35.6978],[139.51501,35.69807],[139.51502,35.69808],[139.51504,35.69811],[139.5152,35.69833],[139.51555,35.6986],[139.51557,35.69863],[139.5159,35.69913],[139.51609,35.69969],[139.51628,35.70016],[139.51656,35.70072],[139.51658,35.70075],[139.51676,35.70097],[139.51688,35.70116],[139.51691,35.70128],[139.51702,35.70129],[139.51714,35.70129],[139.51845,35.70133],[139.51876,35.70134],[139.51962,35.70136],[139.51993,35.70137],[139.52078,35.7014],[139.5208,35.7014],[139.52205,35.70143],[139.52205,35.70146],[139.52207,35.70144],[139.5221,35.70072],[139.5221,35.70071],[139.5221,35.70054],[139.52212,35.69958],[139.52212,35.69938],[139.52214,35.6984],[139.52216,35.69759],[139.52216,35.69758],[139.52217,35.69714],[139.52218,35.69674],[139.52218,35.69664],[139.52219,35.69629],[139.52218,35.69572],[139.52219,35.69551],[139.52219,35.69534]]]}},{"type":"Feature","properties":{"name":"中町三丁目","setai":2041,"jinko":4100,"key":"13210005003","units":1},"geometry":{"type":"Polygon","coordinates":[[[139.5166,35.70129],[139.51688,35.70128],[139.51691,35.70128],[139.51688,35.70116],[139.51676,35.70097],[139.51658,35.70075],[139.51656,35.70072],[139.51628,35.70016],[139.51609,35.69969],[139.5159,35.69913],[139.51557,35.69863],[139.51555,35.6986],[139.5152,35.69833],[139.51504,35.69811],[139.51502,35.69808],[139.51501,35.69807],[139.51486,35.6978],[139.51476,35.69759],[139.5146,35.69734],[139.51451,35.69704],[139.51446,35.69691],[139.51439,35.69678],[139.51427,35.69657],[139.51417,35.69632],[139.51402,35.69591],[139.51396,35.69566],[139.51372,35.69571],[139.51349,35.69577],[139.51321,35.69587],[139.51304,35.69597],[139.51265,35.69617],[139.51255,35.69626],[139.51223,35.69644],[139.51198,35.69658],[139.51166,35.69678],[139.51121,35.697],[139.51076,35.69722],[139.51074,35.69723],[139.511,35.69779],[139.51117,35.6982],[139.51127,35.69842],[139.51138,35.69868],[139.51139,35.6987],[139.5115,35.69896],[139.51163,35.69932],[139.51168,35.69945],[139.5118,35.6998],[139.51189,35.70009],[139.51196,35.70027],[139.51212,35.70073],[139.51227,35.70115],[139.51228,35.70115],[139.51341,35.70119],[139.5142,35.70121],[139.51425,35.70121],[139.51477,35.70122],[139.5148,35.70123],[139.51525,35.70124],[139.51608,35.70127],[139.5166,35.70129]]]}},{"type":"Feature","properties":{"name":"中町四丁目","setai":1150,"jinko":1991,"key":"13210005004","units":1},"geometry":{"type":"Polygon","coordinates":[[[139.50904,35.69387],[139.50872,35.69335],[139.5082,35.6936],[139.50806,35.69365],[139.50798,35.69367],[139.50796,35.69368],[139.50783,35.69372],[139.50749,35.69377],[139.50698,35.69381],[139.50598,35.6939],[139.50556,35.69487],[139.50547,35.69509],[139.50551,35.69521],[139.50556,35.69536],[139.50556,35.69537],[139.5056,35.69548],[139.50578,35.69603],[139.50595,35.69662],[139.50621,35.69747],[139.50622,35.69773],[139.50625,35.69796],[139.50626,35.69837],[139.5063,35.69854],[139.50634,35.69874],[139.50662,35.69865],[139.50705,35.6985],[139.50737,35.69841],[139.50791,35.69823],[139.5087,35.69798],[139.509,35.69789],[139.50925,35.69781],[139.5094,35.69775],[139.50992,35.69761],[139.51035,35.69739],[139.51011,35.69689],[139.51004,35.69674],[139.51005,35.69664],[139.51011,35.69642],[139.5101,35.69639],[139.51008,35.69616],[139.50992,35.69587],[139.50991,35.69585],[139.50971,35.69529],[139.50953,35.69479],[139.5093,35.69434],[139.50928,35.69432],[139.50926,35.69426],[139.50904,35.69387]]]}},{"type":"Feature","properties":{"name":"前原町一丁目","setai":733,"jinko":1703,"key":"13210006001","units":1},"geometry":{"type":"Polygon","coordinates":[[[139.51287,35.6908],[139.51308,35.69078],[139.51317,35.69079],[139.51359,35.69071],[139.51373,35.69068],[139.51388,35.69063],[139.51389,35.69059],[139.51569,35.69025],[139.51591,35.69019],[139.51601,35.6901],[139.51591,35.68984],[139.5152,35.69003],[139.51498,35.68952],[139.51469,35.68887],[139.51443,35.68831],[139.51439,35.68822],[139.51475,35.68816],[139.51473,35.68802],[139.51439,35.68562],[139.51222,35.68583],[139.51218,35.68584],[139.50806,35.68622],[139.50686,35.68633],[139.50686,35.68633],[139.50637,35.6866],[139.50609,35.68651],[139.50584,35.68681],[139.50621,35.68719],[139.50614,35.68729],[139.50594,35.68751],[139.50585,35.68752],[139.50624,35.68794],[139.50647,35.68818],[139.50676,35.68849],[139.50682,35.68853],[139.50706,35.6886],[139.5084,35.68876],[139.50833,35.68892],[139.50815,35.68929],[139.50809,35.68942],[139.50774,35.69014],[139.5077,35.69023],[139.50737,35.69092],[139.50692,35.69185],[139.50691,35.69187],[139.5068,35.69209],[139.50643,35.69286],[139.50675,35.6928],[139.50687,35.69276],[139.50722,35.69261],[139.50746,35.69251],[139.50758,35.69244],[139.50802,35.69226],[139.50825,35.69217],[139.50881,35.69193],[139.50909,35.69181],[139.50936,35.6917],[139.50952,35.69162],[139.50964,35.6915],[139.50976,35.6914],[139.50984,35.69137],[139.51017,35.69128],[139.51062,35.69117],[139.5112,35.69105],[139.51124,35.69104],[139.51145,35.69099],[139.51165,35.69096],[139.51209,35.69091],[139.51217,35.6909],[139.51257,35.69085],[139.51287,35.6908]]]}},{"type":"Feature","properties":{"name":"前原町二丁目","setai":830,"jinko":1795,"key":"13210006002","units":1},"geometry":{"type":"Polygon","coordinates":[[[139.50947,35.69317],[139.50966,35.69316],[139.50986,35.69319],[139.5102,35.69327],[139.51041,35.69333],[139.51083,35.69343],[139.51114,35.69352],[139.51146,35.69357],[139.51188,35.6936],[139.51206,35.69361],[139.51216,35.6936],[139.51244,35.69359],[139.51272,35.69355],[139.51296,35.69352],[139.51319,35.69346],[139.51357,35.69334],[139.51394,35.6932],[139.51459,35.69297],[139.5148,35.69289],[139.51527,35.69273],[139.516,35.69248],[139.51671,35.69222],[139.51723,35.69204],[139.51781,35.69183],[139.51818,35.69163],[139.51835,35.69153],[139.51829,35.69143],[139.51827,35.69141],[139.51816,35.69145],[139.51794,35.69122],[139.51798,35.69117],[139.5176,35.69078],[139.51659,35.69081],[139.51655,35.69064],[139.51608,35.69067],[139.51591,35.69019],[139.51569,35.69025],[139.51389,35.69059],[139.51388,35.69063],[139.51373,35.69068],[139.51359,35.69071],[139.51317,35.69079],[139.51308,35.69078],[139.51287,35.6908],[139.51257,35.69085],[139.51217,35.6909],[139.51209,35.69091],[139.51165,35.69096],[139.51145,35.69099],[139.51124,35.69104],[139.5112,35.69105],[139.51062,35.69117],[139.51017,35.69128],[139.50984,35.69137],[139.50976,35.6914],[139.50964,35.6915],[139.50952,35.69162],[139.50936,35.6917],[139.50909,35.69181],[139.50881,35.69193],[139.50825,35.69217],[139.50802,35.69226],[139.50758,35.69244],[139.50746,35.69251],[139.50722,35.69261],[139.50687,35.69276],[139.50675,35.6928],[139.50643,35.69286],[139.50642,35.69289],[139.50627,35.69322],[139.50615,35.69353],[139.50598,35.6939],[139.50698,35.69381],[139.50749,35.69377],[139.50783,35.69372],[139.50796,35.69368],[139.50798,35.69367],[139.50806,35.69365],[139.5082,35.6936],[139.50872,35.69335],[139.50887,35.69327],[139.50903,35.69322],[139.50932,35.69317],[139.50947,35.69317]]]}},{"type":"Feature","properties":{"name":"前原町三丁目","setai":2327,"jinko":4363,"key":"13210006003","units":1},"geometry":{"type":"Polygon","coordinates":[[[139.50284,35.69905],[139.50351,35.699],[139.50358,35.699],[139.5043,35.69893],[139.50468,35.69887],[139.50501,35.69884],[139.5053,35.69882],[139.50561,35.6988],[139.50578,35.69878],[139.5059,35.69877],[139.50603,35.69876],[139.50634,35.69874],[139.5063,35.69854],[139.50626,35.69837],[139.50625,35.69796],[139.50622,35.69773],[139.50621,35.69747],[139.50595,35.69662],[139.50578,35.69603],[139.5056,35.69548],[139.50556,35.69537],[139.50556,35.69536],[139.50551,35.69521],[139.50547,35.69509],[139.50556,35.69487],[139.50598,35.6939],[139.50566,35.69392],[139.50479,35.69399],[139.50454,35.6936],[139.50449,35.69359],[139.5043,35.69351],[139.50417,35.69343],[139.50404,35.69332],[139.50395,35.69328],[139.5038,35.69326],[139.50342,35.69323],[139.50311,35.69328],[139.50282,35.69327],[139.5026,35.69339],[139.50252,35.69343],[139.50233,35.69346],[139.50172,35.69361],[139.50158,35.69359],[139.50148,35.69352],[139.50143,35.6934],[139.50133,35.69326],[139.50121,35.69313],[139.50099,35.69294],[139.50092,35.6929],[139.50062,35.69295],[139.50026,35.69305],[139.50013,35.69304],[139.4999,35.69297],[139.4996,35.69294],[139.49946,35.69296],[139.49927,35.6931],[139.49918,35.69324],[139.49918,35.6934],[139.49924,35.69352],[139.49928,35.69364],[139.49931,35.69376],[139.49927,35.69391],[139.49921,35.69404],[139.49908,35.69412],[139.49885,35.69423],[139.4988,35.69428],[139.49875,35.69447],[139.49874,35.69459],[139.49876,35.69473],[139.49876,35.69473],[139.49882,35.6953],[139.49879,35.69548],[139.49867,35.69571],[139.49865,35.69584],[139.49867,35.69593],[139.49878,35.69607],[139.49879,35.69607],[139.49909,35.69579],[139.49914,35.69579],[139.49942,35.69583],[139.49946,35.69596],[139.49946,35.69597],[139.49982,35.69596],[139.49991,35.69597],[139.49985,35.69625],[139.49973,35.69633],[139.49969,35.69648],[139.49935,35.69646],[139.49933,35.69647],[139.49921,35.69677],[139.49921,35.6968],[139.49918,35.69703],[139.49914,35.69718],[139.49939,35.69721],[139.49938,35.69763],[139.49936,35.69807],[139.49936,35.69835],[139.49936,35.69872],[139.49927,35.69876],[139.49926,35.69887],[139.49919,35.69899],[139.49926,35.69935],[139.49978,35.69927],[139.50036,35.69923],[139.50076,35.69922],[139.50148,35.69916],[139.50213,35.69911],[139.50252,35.69909],[139.50284,35.69905]]]}},{"type":"Feature","properties":{"name":"前原町四丁目","setai":1923,"jinko":4518,"key":"13210006004","units":1},"geometry":{"type":"Polygon","coordinates":[[[139.50569,35.68721],[139.5057,35.68718],[139.50555,35.68719],[139.50553,35.68718],[139.50496,35.68652],[139.50472,35.68625],[139.50471,35.68624],[139.50409,35.68562],[139.5037,35.68521],[139.50348,35.68499],[139.50329,35.68479],[139.50305,35.68454],[139.5028,35.68432],[139.5028,35.68432],[139.50212,35.68387],[139.50212,35.68386],[139.50209,35.68384],[139.50196,35.68381],[139.50131,35.68393],[139.50111,35.68397],[139.50098,35.68399],[139.50077,35.68403],[139.50038,35.68411],[139.50011,35.68416],[139.50017,35.68437],[139.50018,35.6844],[139.5008,35.68426],[139.50093,35.68465],[139.50115,35.6852],[139.50119,35.68531],[139.50199,35.68515],[139.5023,35.68557],[139.50234,35.68565],[139.5026,35.6861],[139.50283,35.68649],[139.5029,35.68663],[139.50304,35.6869],[139.50323,35.68726],[139.50318,35.68726],[139.50305,35.68727],[139.50259,35.68728],[139.50233,35.68732],[139.50213,35.68735],[139.50168,35.68742],[139.50122,35.6875],[139.5015,35.68779],[139.50167,35.68796],[139.50178,35.68807],[139.50207,35.68843],[139.50221,35.68866],[139.5023,35.68887],[139.50242,35.6891],[139.50254,35.68937],[139.50256,35.68938],[139.50265,35.6896],[139.50274,35.68984],[139.50283,35.69012],[139.50287,35.69026],[139.50286,35.6904],[139.50286,35.69052],[139.50299,35.6909],[139.50306,35.69109],[139.50311,35.69118],[139.5032,35.69129],[139.50333,35.69151],[139.50356,35.69189],[139.5036,35.69199],[139.50356,35.69205],[139.50363,35.69211],[139.50368,35.6922],[139.50389,35.69254],[139.50427,35.69316],[139.5044,35.69337],[139.50454,35.6936],[139.50479,35.69399],[139.50566,35.69392],[139.50598,35.6939],[139.50615,35.69353],[139.50627,35.69322],[139.50642,35.69289],[139.50643,35.69286],[139.5068,35.69209],[139.50691,35.69187],[139.50692,35.69185],[139.50737,35.69092],[139.5077,35.69023],[139.50774,35.69014],[139.50809,35.68942],[139.50815,35.68929],[139.50833,35.68892],[139.5084,35.68876],[139.50706,35.6886],[139.50682,35.68853],[139.50676,35.68849],[139.50647,35.68818],[139.50624,35.68794],[139.50585,35.68752],[139.50566,35.68731],[139.50565,35.6873],[139.50567,35.68729],[139.50569,35.68721]]]}},{"type":"Feature","properties":{"name":"前原町五丁目","setai":1164,"jinko":2523,"key":"13210006005","units":1},"geometry":{"type":"Polygon","coordinates":[[[139.5026,35.69339],[139.50282,35.69327],[139.50311,35.69328],[139.50342,35.69323],[139.5038,35.69326],[139.50395,35.69328],[139.50404,35.69332],[139.50417,35.69343],[139.5043,35.69351],[139.50449,35.69359],[139.50454,35.6936],[139.5044,35.69337],[139.50427,35.69316],[139.50389,35.69254],[139.50368,35.6922],[139.50363,35.69211],[139.50356,35.69205],[139.5036,35.69199],[139.50356,35.69189],[139.50333,35.69151],[139.5032,35.69129],[139.50311,35.69118],[139.50306,35.69109],[139.50299,35.6909],[139.50286,35.69052],[139.50286,35.6904],[139.50287,35.69026],[139.50283,35.69012],[139.50274,35.68984],[139.50265,35.6896],[139.50256,35.68938],[139.50254,35.68937],[139.50242,35.6891],[139.5023,35.68887],[139.50221,35.68866],[139.50207,35.68843],[139.50178,35.68807],[139.50167,35.68796],[139.5015,35.68779],[139.50122,35.6875],[139.50084,35.68714],[139.50073,35.68703],[139.49999,35.68733],[139.49949,35.68686],[139.49933,35.68691],[139.49912,35.68656],[139.4987,35.68564],[139.49828,35.68564],[139.49798,35.68565],[139.49803,35.68594],[139.49803,35.68603],[139.49788,35.68604],[139.49787,35.68597],[139.49787,35.68597],[139.49771,35.68597],[139.49704,35.68604],[139.49752,35.68672],[139.49716,35.68673],[139.49714,35.68673],[139.49678,35.68675],[139.49663,35.68679],[139.49652,35.68686],[139.49644,35.68691],[139.49636,35.68689],[139.4962,35.68684],[139.49596,35.68682],[139.49571,35.68679],[139.49543,35.68678],[139.49535,35.68686],[139.4955,35.68716],[139.49551,35.68716],[139.49556,35.68719],[139.49561,35.6872],[139.49629,35.68725],[139.49635,35.68742],[139.49676,35.68741],[139.49669,35.68718],[139.49674,35.68717],[139.49718,35.68714],[139.49738,35.68715],[139.49768,35.68721],[139.49768,35.68727],[139.49767,35.68753],[139.4976,35.68751],[139.49764,35.68766],[139.49792,35.68831],[139.49861,35.68816],[139.49845,35.68892],[139.49834,35.68947],[139.49834,35.68948],[139.49874,35.68947],[139.49925,35.69061],[139.49948,35.69101],[139.49959,35.69131],[139.49975,35.6917],[139.49971,35.6917],[139.5,35.69257],[139.50005,35.69271],[139.50012,35.69296],[139.50013,35.69304],[139.50026,35.69305],[139.50062,35.69295],[139.50092,35.6929],[139.50099,35.69294],[139.50121,35.69313],[139.50133,35.69326],[139.50143,35.6934],[139.50148,35.69352],[139.50158,35.69359],[139.50172,35.69361],[139.50233,35.69346],[139.50252,35.69343],[139.5026,35.69339]]]}},{"type":"Feature","properties":{"name":"本町一丁目","setai":2236,"jinko":4121,"key":"13210007001","units":1},"geometry":{"type":"Polygon","coordinates":[[[139.51076,35.69722],[139.51076,35.69721],[139.51035,35.69739],[139.50992,35.69761],[139.5094,35.69775],[139.50925,35.69781],[139.509,35.69789],[139.5087,35.69798],[139.50791,35.69823],[139.50737,35.69841],[139.50705,35.6985],[139.50662,35.69865],[139.50634,35.69874],[139.50641,35.69889],[139.50646,35.69899],[139.50662,35.69928],[139.5069,35.69978],[139.50691,35.69979],[139.50693,35.69984],[139.507,35.7],[139.50703,35.70006],[139.50711,35.70021],[139.5072,35.70037],[139.5072,35.70088],[139.50721,35.70097],[139.50721,35.70101],[139.50867,35.70106],[139.50936,35.70108],[139.51011,35.7011],[139.51086,35.7011],[139.51119,35.7011],[139.51185,35.70113],[139.51227,35.70115],[139.51212,35.70073],[139.51196,35.70027],[139.51189,35.70009],[139.5118,35.6998],[139.51168,35.69945],[139.51163,35.69932],[139.5115,35.69896],[139.51139,35.6987],[139.51138,35.69868],[139.51127,35.69842],[139.51117,35.6982],[139.511,35.69779],[139.51074,35.69723],[139.51076,35.69722]]]}},{"type":"Feature","properties":{"name":"本町二丁目","setai":2128,"jinko":3432,"key":"13210007002","units":1},"geometry":{"type":"Polygon","coordinates":[[[139.51021,35.70559],[139.51035,35.70558],[139.51087,35.70557],[139.51152,35.70557],[139.51173,35.70557],[139.51168,35.70533],[139.51153,35.70473],[139.51152,35.70453],[139.51152,35.70445],[139.51144,35.70412],[139.51114,35.70309],[139.51121,35.70306],[139.51075,35.70207],[139.51072,35.70207],[139.51067,35.70208],[139.51034,35.70148],[139.51033,35.70146],[139.51015,35.70111],[139.51011,35.7011],[139.50936,35.70108],[139.50867,35.70106],[139.50721,35.70101],[139.50719,35.70126],[139.50719,35.70141],[139.5072,35.70155],[139.50723,35.70205],[139.50732,35.70248],[139.50739,35.70282],[139.50743,35.70304],[139.50745,35.70315],[139.50751,35.70339],[139.50753,35.7035],[139.50761,35.70387],[139.50764,35.70416],[139.50766,35.70428],[139.50772,35.70464],[139.50775,35.70487],[139.50779,35.70513],[139.50782,35.70532],[139.50786,35.70553],[139.50787,35.70553],[139.50826,35.70554],[139.50846,35.70555],[139.50859,35.70555],[139.50919,35.70559],[139.5092,35.70558],[139.50957,35.70559],[139.50964,35.70559],[139.50969,35.70559],[139.51021,35.70559]]]}},{"type":"Feature","properties":{"name":"本町三丁目","setai":1147,"jinko":2081,"key":"13210007003","units":1},"geometry":{"type":"Polygon","coordinates":[[[139.51095,35.7093],[139.51093,35.7087],[139.51093,35.70846],[139.51089,35.70777],[139.51143,35.708],[139.51212,35.70817],[139.51213,35.70815],[139.51216,35.70801],[139.51218,35.70789],[139.51216,35.70777],[139.51214,35.70764],[139.51202,35.70729],[139.512,35.70721],[139.51193,35.70694],[139.51183,35.70658],[139.51171,35.70616],[139.5116,35.7059],[139.51152,35.70557],[139.51087,35.70557],[139.51035,35.70558],[139.51021,35.70559],[139.50969,35.70559],[139.50964,35.70559],[139.50957,35.70559],[139.5092,35.70558],[139.50919,35.70559],[139.50859,35.70555],[139.50846,35.70555],[139.50826,35.70554],[139.50787,35.70553],[139.50793,35.70624],[139.50797,35.70639],[139.50798,35.70654],[139.50797,35.70685],[139.50796,35.7071],[139.50796,35.70724],[139.50794,35.70747],[139.50794,35.70782],[139.50795,35.70807],[139.50795,35.70828],[139.50794,35.70844],[139.50795,35.70862],[139.50796,35.70879],[139.50797,35.70909],[139.50797,35.70921],[139.50854,35.70922],[139.50873,35.70922],[139.50907,35.70923],[139.50999,35.70924],[139.51011,35.70924],[139.51059,35.70926],[139.51064,35.70931],[139.51063,35.70942],[139.51093,35.70943],[139.51095,35.7093]]]}},{"type":"Feature","properties":{"name":"本町四丁目","setai":1572,"jinko":3009,"key":"13210007004","units":1},"geometry":{"type":"Polygon","coordinates":[[[139.502,35.7095],[139.50212,35.70949],[139.50212,35.7095],[139.50217,35.70949],[139.50291,35.70943],[139.503,35.70942],[139.50379,35.70936],[139.50419,35.70933],[139.50425,35.70933],[139.50418,35.709],[139.50444,35.70898],[139.50446,35.7089],[139.50448,35.70877],[139.50443,35.70837],[139.50481,35.70834],[139.50588,35.70826],[139.50592,35.7089],[139.50631,35.70888],[139.50659,35.70887],[139.50692,35.70883],[139.50796,35.70879],[139.50795,35.70862],[139.50794,35.70844],[139.50795,35.70828],[139.50795,35.70807],[139.50794,35.70782],[139.50794,35.70747],[139.50796,35.70724],[139.50796,35.7071],[139.50797,35.70685],[139.50798,35.70654],[139.50797,35.70639],[139.50793,35.70624],[139.50787,35.70553],[139.50786,35.70553],[139.50761,35.70551],[139.50718,35.70548],[139.507,35.70547],[139.50665,35.70544],[139.50645,35.70546],[139.5062,35.70554],[139.50596,35.7056],[139.50576,35.70566],[139.50553,35.70572],[139.50521,35.70573],[139.50504,35.70574],[139.50479,35.70578],[139.50439,35.70586],[139.50437,35.70586],[139.50382,35.70601],[139.50351,35.70611],[139.50321,35.70622],[139.50306,35.7064],[139.50291,35.70651],[139.5027,35.70657],[139.50251,35.7066],[139.50249,35.70659],[139.50241,35.70653],[139.50156,35.70674],[139.50103,35.70688],[139.50102,35.70685],[139.50087,35.7065],[139.50028,35.70662],[139.50035,35.70706],[139.50036,35.70712],[139.50044,35.70761],[139.50044,35.70762],[139.50044,35.70763],[139.50049,35.70793],[139.50054,35.70826],[139.50054,35.70826],[139.50058,35.70855],[139.50061,35.70873],[139.50063,35.70885],[139.50063,35.70886],[139.50068,35.70916],[139.50069,35.70923],[139.50071,35.70942],[139.50074,35.70961],[139.5015,35.70954],[139.502,35.7095]]]}},{"type":"Feature","properties":{"name":"本町五丁目","setai":3212,"jinko":5991,"key":"13210007005","units":1},"geometry":{"type":"Polygon","coordinates":[[[139.50156,35.70674],[139.50241,35.70653],[139.50249,35.70659],[139.50251,35.7066],[139.5027,35.70657],[139.50291,35.70651],[139.50306,35.7064],[139.50321,35.70622],[139.50351,35.70611],[139.50382,35.70601],[139.50437,35.70586],[139.50439,35.70586],[139.50479,35.70578],[139.50504,35.70574],[139.50521,35.70573],[139.50553,35.70572],[139.50576,35.70566],[139.50596,35.7056],[139.5062,35.70554],[139.50645,35.70546],[139.50665,35.70544],[139.507,35.70547],[139.50718,35.70548],[139.50761,35.70551],[139.50786,35.70553],[139.50782,35.70532],[139.50779,35.70513],[139.50775,35.70487],[139.50772,35.70464],[139.50766,35.70428],[139.50764,35.70416],[139.50761,35.70387],[139.50753,35.7035],[139.50751,35.70339],[139.50745,35.70315],[139.50743,35.70304],[139.50739,35.70282],[139.50732,35.70248],[139.50723,35.70205],[139.5072,35.70155],[139.50719,35.70141],[139.50719,35.70126],[139.50721,35.70101],[139.50721,35.70097],[139.5072,35.70094],[139.50663,35.70094],[139.50596,35.70093],[139.50516,35.70092],[139.50457,35.70091],[139.50404,35.7009],[139.504,35.7009],[139.50355,35.70089],[139.50282,35.70087],[139.50269,35.70087],[139.50185,35.70084],[139.4994,35.70077],[139.49937,35.70079],[139.49942,35.70094],[139.49953,35.70133],[139.49954,35.70136],[139.49972,35.70198],[139.49972,35.702],[139.49981,35.70232],[139.49993,35.70275],[139.5,35.7029],[139.49968,35.703],[139.49991,35.70363],[139.49987,35.70365],[139.49985,35.70365],[139.50001,35.70484],[139.50007,35.70524],[139.50007,35.7053],[139.50008,35.70535],[139.50016,35.70593],[139.50016,35.70595],[139.50022,35.7064],[139.50025,35.70662],[139.50028,35.70662],[139.50087,35.7065],[139.50102,35.70685],[139.50103,35.70688],[139.50156,35.70674]]]}},{"type":"Feature","properties":{"name":"本町六丁目","setai":1572,"jinko":2863,"key":"13210007006","units":1},"geometry":{"type":"Polygon","coordinates":[[[139.50721,35.70097],[139.5072,35.70088],[139.5072,35.70037],[139.50711,35.70021],[139.50703,35.70006],[139.507,35.7],[139.50693,35.69984],[139.50691,35.69979],[139.5069,35.69978],[139.50662,35.69928],[139.50646,35.69899],[139.50641,35.69889],[139.50634,35.69874],[139.50603,35.69876],[139.5059,35.69877],[139.50578,35.69878],[139.50561,35.6988],[139.5053,35.69882],[139.50501,35.69884],[139.50468,35.69887],[139.5043,35.69893],[139.50358,35.699],[139.50351,35.699],[139.50284,35.69905],[139.50252,35.69909],[139.50213,35.69911],[139.50148,35.69916],[139.50076,35.69922],[139.50036,35.69923],[139.49978,35.69927],[139.49926,35.69935],[139.4994,35.70075],[139.49937,35.70079],[139.4994,35.70077],[139.50185,35.70084],[139.50269,35.70087],[139.50282,35.70087],[139.50355,35.70089],[139.504,35.7009],[139.50404,35.7009],[139.50457,35.70091],[139.50516,35.70092],[139.50596,35.70093],[139.50663,35.70094],[139.5072,35.70094],[139.50721,35.70097]]]}},{"type":"Feature","properties":{"name":"桜町一丁目","setai":1167,"jinko":2666,"key":"13210008001","units":1},"geometry":{"type":"Polygon","coordinates":[[[139.51434,35.71141],[139.51432,35.71138],[139.51375,35.71139],[139.51362,35.71139],[139.51265,35.71136],[139.51262,35.71109],[139.51255,35.71078],[139.5125,35.71042],[139.51249,35.7103],[139.51242,35.71007],[139.51242,35.71],[139.51239,35.70956],[139.51233,35.70913],[139.51234,35.70906],[139.51228,35.7089],[139.51217,35.70858],[139.51212,35.70817],[139.51143,35.708],[139.51089,35.70777],[139.51093,35.70846],[139.51093,35.7087],[139.51095,35.7093],[139.51093,35.70943],[139.51063,35.70942],[139.51064,35.70931],[139.51059,35.70926],[139.51011,35.70924],[139.50999,35.70924],[139.50907,35.70923],[139.50873,35.70922],[139.50854,35.70922],[139.50797,35.70921],[139.50797,35.70969],[139.50796,35.70983],[139.50797,35.70988],[139.50796,35.71049],[139.50796,35.71052],[139.50798,35.71095],[139.50801,35.7113],[139.508,35.71152],[139.50803,35.71172],[139.50804,35.71199],[139.50804,35.71251],[139.50924,35.71252],[139.50942,35.71252],[139.50943,35.71252],[139.50978,35.71253],[139.51043,35.71255],[139.51047,35.71255],[139.51099,35.71255],[139.51149,35.71256],[139.51174,35.71256],[139.51269,35.71257],[139.51275,35.71257],[139.51371,35.71258],[139.51421,35.71258],[139.51443,35.71258],[139.51434,35.71141]]]}},{"type":"Feature","properties":{"name":"桜町二丁目","setai":740,"jinko":1590,"key":"13210008002","units":1},"geometry":{"type":"Polygon","coordinates":[[[139.50797,35.70909],[139.50796,35.70879],[139.50692,35.70883],[139.50659,35.70887],[139.50631,35.70888],[139.50592,35.7089],[139.50588,35.70826],[139.50481,35.70834],[139.50443,35.70837],[139.50448,35.70877],[139.50446,35.7089],[139.50444,35.70898],[139.50418,35.709],[139.50425,35.70933],[139.50419,35.70933],[139.50379,35.70936],[139.503,35.70942],[139.50291,35.70943],[139.50217,35.70949],[139.50212,35.7095],[139.50215,35.70974],[139.50221,35.71014],[139.50221,35.71028],[139.50221,35.71029],[139.50221,35.71063],[139.50237,35.71067],[139.50237,35.71069],[139.50239,35.71106],[139.50277,35.71108],[139.50277,35.7111],[139.50306,35.7119],[139.50307,35.7119],[139.50328,35.7125],[139.50336,35.7125],[139.50426,35.7125],[139.50507,35.71251],[139.50518,35.71251],[139.5055,35.71251],[139.50625,35.71252],[139.50645,35.71252],[139.50804,35.71251],[139.50804,35.71199],[139.50803,35.71172],[139.508,35.71152],[139.50801,35.7113],[139.50798,35.71095],[139.50796,35.71052],[139.50796,35.71049],[139.50797,35.70988],[139.50796,35.70983],[139.50797,35.70969],[139.50797,35.70921],[139.50797,35.70909]]]}},{"type":"Feature","properties":{"name":"桜町三丁目","setai":233,"jinko":470,"key":"13210008003","units":1},"geometry":{"type":"Polygon","coordinates":[[[139.50924,35.71252],[139.50804,35.71251],[139.50809,35.71339],[139.5082,35.7145],[139.50822,35.71473],[139.50827,35.71529],[139.5083,35.71568],[139.50834,35.71628],[139.51316,35.717],[139.51314,35.71437],[139.51304,35.71436],[139.51299,35.71402],[139.5129,35.7134],[139.51275,35.71257],[139.51269,35.71257],[139.51174,35.71256],[139.51149,35.71256],[139.51099,35.71255],[139.51047,35.71255],[139.51043,35.71255],[139.50978,35.71253],[139.50943,35.71252],[139.50942,35.71252],[139.50924,35.71252]]]}},{"type":"Feature","properties":{"name":"貫井北町一丁目","setai":1081,"jinko":2044,"key":"13210009001","units":1},"geometry":{"type":"Polygon","coordinates":[[[139.49981,35.70232],[139.49972,35.702],[139.49972,35.70198],[139.49954,35.70136],[139.49953,35.70133],[139.49942,35.70094],[139.49937,35.70079],[139.4994,35.70075],[139.49872,35.70074],[139.49775,35.70072],[139.49745,35.70071],[139.49689,35.7007],[139.49665,35.70069],[139.49552,35.70066],[139.49513,35.70065],[139.49467,35.70064],[139.4939,35.70062],[139.49306,35.7006],[139.49184,35.70057],[139.49184,35.70058],[139.49194,35.70092],[139.49215,35.70129],[139.49245,35.70189],[139.49253,35.70206],[139.49252,35.70206],[139.4926,35.70222],[139.49289,35.70276],[139.49294,35.70285],[139.49317,35.7033],[139.49321,35.70338],[139.4934,35.70374],[139.49346,35.7038],[139.4936,35.70409],[139.49483,35.70394],[139.496,35.70381],[139.49622,35.70378],[139.49693,35.7037],[139.49696,35.70365],[139.4983,35.70335],[139.49842,35.70333],[139.49939,35.70308],[139.49968,35.703],[139.5,35.7029],[139.49993,35.70275],[139.49981,35.70232]]]}},{"type":"Feature","properties":{"name":"貫井北町二丁目","setai":1146,"jinko":2020,"key":"13210009002","units":1},"geometry":{"type":"Polygon","coordinates":[[[139.49991,35.70363],[139.49968,35.703],[139.49939,35.70308],[139.49842,35.70333],[139.4983,35.70335],[139.49696,35.70365],[139.49693,35.7037],[139.4969,35.70379],[139.49674,35.70429],[139.49651,35.70506],[139.49644,35.70529],[139.49612,35.70643],[139.49592,35.70712],[139.4959,35.7073],[139.4959,35.70753],[139.49587,35.70778],[139.49589,35.7078],[139.49589,35.70783],[139.49596,35.70835],[139.496,35.70834],[139.49632,35.70809],[139.49674,35.70775],[139.49671,35.70773],[139.49693,35.7077],[139.49691,35.70752],[139.49704,35.70743],[139.49721,35.70731],[139.49757,35.70707],[139.49764,35.70703],[139.49788,35.70701],[139.49859,35.70696],[139.49862,35.70695],[139.49899,35.7069],[139.49936,35.70674],[139.50022,35.7064],[139.50016,35.70595],[139.50016,35.70593],[139.50008,35.70535],[139.50007,35.7053],[139.50007,35.70524],[139.50001,35.70484],[139.49985,35.70365],[139.49987,35.70365],[139.49991,35.70363]]]}},{"type":"Feature","properties":{"name":"貫井北町三丁目","setai":2510,"jinko":5963,"key":"13210009003","units":1},"geometry":{"type":"Polygon","coordinates":[[[139.50221,35.71014],[139.50215,35.70974],[139.50212,35.7095],[139.50212,35.70949],[139.502,35.7095],[139.5015,35.70954],[139.50074,35.70961],[139.50071,35.70942],[139.50069,35.70923],[139.50068,35.70916],[139.50063,35.70886],[139.50063,35.70885],[139.50061,35.70873],[139.50058,35.70855],[139.50054,35.70826],[139.50054,35.70826],[139.50049,35.70793],[139.50044,35.70763],[139.50044,35.70762],[139.50044,35.70761],[139.50036,35.70712],[139.50035,35.70706],[139.50028,35.70662],[139.50025,35.70662],[139.50022,35.7064],[139.49936,35.70674],[139.49899,35.7069],[139.49862,35.70695],[139.49859,35.70696],[139.49788,35.70701],[139.49764,35.70703],[139.49757,35.70707],[139.49721,35.70731],[139.49704,35.70743],[139.49691,35.70752],[139.49693,35.7077],[139.49671,35.70773],[139.49674,35.70775],[139.49632,35.70809],[139.496,35.70834],[139.49596,35.70835],[139.49589,35.70783],[139.49524,35.7079],[139.49463,35.70796],[139.49413,35.70802],[139.49353,35.70809],[139.4928,35.70817],[139.4925,35.70817],[139.49194,35.70824],[139.49207,35.70903],[139.49208,35.70905],[139.49214,35.70904],[139.49286,35.7089],[139.49311,35.71025],[139.49314,35.71024],[139.49317,35.71024],[139.49429,35.71002],[139.49483,35.70991],[139.49557,35.70976],[139.49559,35.70982],[139.49559,35.70983],[139.49559,35.70984],[139.49563,35.70983],[139.49564,35.70985],[139.49566,35.70995],[139.49583,35.70993],[139.49583,35.70993],[139.49584,35.70998],[139.49586,35.71006],[139.49564,35.71009],[139.49575,35.71061],[139.49572,35.71062],[139.49581,35.71117],[139.49588,35.71158],[139.49593,35.7119],[139.49617,35.71349],[139.49666,35.7134],[139.49669,35.71339],[139.49741,35.71327],[139.49772,35.71321],[139.49805,35.71315],[139.49857,35.71304],[139.49862,35.71303],[139.49903,35.71295],[139.49935,35.71289],[139.49965,35.71284],[139.49978,35.7128],[139.50015,35.71271],[139.50052,35.71263],[139.50077,35.71259],[139.50117,35.71255],[139.50146,35.71253],[139.50189,35.71252],[139.5023,35.71251],[139.50328,35.7125],[139.50307,35.7119],[139.50306,35.7119],[139.50277,35.7111],[139.50277,35.71108],[139.50239,35.71106],[139.50237,35.71069],[139.50237,35.71067],[139.50221,35.71063],[139.50221,35.71029],[139.50221,35.71028],[139.50221,35.71014]]]}},{"type":"Feature","properties":{"name":"貫井北町四丁目","setai":104,"jinko":198,"key":"13210009004","units":1},"geometry":{"type":"Polygon","coordinates":[[[139.49194,35.70824],[139.4925,35.70817],[139.4928,35.70817],[139.49353,35.70809],[139.49413,35.70802],[139.49463,35.70796],[139.49524,35.7079],[139.49589,35.70783],[139.49589,35.7078],[139.49587,35.70778],[139.4959,35.70753],[139.4959,35.7073],[139.49592,35.70712],[139.49612,35.70643],[139.49644,35.70529],[139.49651,35.70506],[139.49674,35.70429],[139.4969,35.70379],[139.49693,35.7037],[139.49622,35.70378],[139.496,35.70381],[139.49483,35.70394],[139.4936,35.70409],[139.49365,35.70417],[139.49271,35.70427],[139.49216,35.70433],[139.49207,35.70391],[139.49127,35.70401],[139.49064,35.70409],[139.48995,35.70417],[139.48952,35.70422],[139.48852,35.70434],[139.48839,35.70436],[139.48805,35.7044],[139.48746,35.70447],[139.48736,35.70448],[139.48741,35.70483],[139.48748,35.70526],[139.48761,35.7062],[139.48767,35.70657],[139.48747,35.70677],[139.48719,35.70708],[139.48713,35.70714],[139.48687,35.70741],[139.4866,35.70769],[139.48639,35.70792],[139.48604,35.70829],[139.48585,35.70847],[139.48568,35.70863],[139.48608,35.70861],[139.48689,35.70856],[139.48744,35.70853],[139.48768,35.70853],[139.4884,35.70847],[139.48863,35.70846],[139.4892,35.70842],[139.49007,35.70836],[139.49047,35.70834],[139.49127,35.70828],[139.49193,35.70824],[139.49194,35.70824]]]}},{"type":"Feature","properties":{"name":"貫井北町五丁目","setai":1225,"jinko":2463,"key":"13210009005","units":1},"geometry":{"type":"Polygon","coordinates":[[[139.49064,35.70409],[139.49127,35.70401],[139.49207,35.70391],[139.49216,35.70433],[139.49271,35.70427],[139.49365,35.70417],[139.4936,35.70409],[139.49346,35.7038],[139.4934,35.70374],[139.49321,35.70338],[139.49317,35.7033],[139.49294,35.70285],[139.49289,35.70276],[139.4926,35.70222],[139.49252,35.70206],[139.49253,35.70206],[139.49245,35.70189],[139.49215,35.70129],[139.49194,35.70092],[139.49184,35.70058],[139.49064,35.70055],[139.49005,35.70053],[139.48985,35.70052],[139.48868,35.70049],[139.48868,35.70056],[139.48868,35.70072],[139.48868,35.70103],[139.48819,35.7012],[139.4879,35.7013],[139.488,35.70149],[139.48791,35.70159],[139.48808,35.70194],[139.48798,35.70197],[139.48762,35.70208],[139.48682,35.7023],[139.48659,35.70236],[139.4863,35.70184],[139.48569,35.70205],[139.48447,35.70251],[139.48453,35.70265],[139.48466,35.70288],[139.48481,35.70311],[139.48482,35.70315],[139.48492,35.70336],[139.48521,35.7039],[139.48531,35.70411],[139.48558,35.70463],[139.48575,35.70457],[139.48599,35.70444],[139.48648,35.7042],[139.48677,35.70407],[139.48702,35.70477],[139.48717,35.70526],[139.48725,35.70548],[139.48746,35.7061],[139.48755,35.70633],[139.48767,35.70657],[139.48761,35.7062],[139.48748,35.70526],[139.48741,35.70483],[139.48736,35.70448],[139.48746,35.70447],[139.48805,35.7044],[139.48839,35.70436],[139.48852,35.70434],[139.48952,35.70422],[139.48995,35.70417],[139.49064,35.70409]]]}},{"type":"Feature","properties":{"name":"貫井南町一丁目","setai":1167,"jinko":2765,"key":"13210010001","units":1},"geometry":{"type":"Polygon","coordinates":[[[139.49925,35.69061],[139.49874,35.68947],[139.49834,35.68948],[139.49834,35.68947],[139.49845,35.68892],[139.49861,35.68816],[139.49792,35.68831],[139.49764,35.68766],[139.49745,35.68773],[139.49747,35.68781],[139.49684,35.68792],[139.49703,35.68838],[139.49664,35.68848],[139.49636,35.68857],[139.49622,35.68858],[139.49597,35.688],[139.49579,35.68804],[139.49575,35.68805],[139.49574,35.68801],[139.49556,35.68806],[139.49557,35.6881],[139.49582,35.6888],[139.49583,35.68884],[139.49551,35.68891],[139.4953,35.68895],[139.49483,35.68906],[139.49468,35.68909],[139.49344,35.68936],[139.49275,35.68952],[139.49213,35.68965],[139.49223,35.68982],[139.49248,35.69011],[139.49278,35.69052],[139.49296,35.69077],[139.49302,35.69086],[139.49323,35.69122],[139.49332,35.69133],[139.49357,35.69178],[139.49365,35.6919],[139.49386,35.69227],[139.4939,35.69231],[139.49409,35.69259],[139.4942,35.69276],[139.49434,35.69292],[139.49455,35.69313],[139.49516,35.69288],[139.49519,35.69287],[139.49556,35.69273],[139.49585,35.69263],[139.49598,35.69257],[139.49651,35.69239],[139.49691,35.69225],[139.49724,35.69218],[139.49765,35.69206],[139.49779,35.69202],[139.49805,35.69197],[139.49853,35.69188],[139.49871,35.69186],[139.49938,35.69176],[139.49971,35.6917],[139.49975,35.6917],[139.49959,35.69131],[139.49948,35.69101],[139.49925,35.69061]]]}},{"type":"Feature","properties":{"name":"貫井南町二丁目","setai":822,"jinko":1975,"key":"13210010002","units":1},"geometry":{"type":"Polygon","coordinates":[[[139.49864,35.69757],[139.49887,35.69753],[139.49912,35.69761],[139.49938,35.69763],[139.49939,35.69721],[139.49914,35.69718],[139.49918,35.69703],[139.49921,35.6968],[139.49921,35.69677],[139.49933,35.69647],[139.49935,35.69646],[139.49969,35.69648],[139.49973,35.69633],[139.49985,35.69625],[139.49991,35.69597],[139.49982,35.69596],[139.49946,35.69597],[139.49946,35.69596],[139.49942,35.69583],[139.49914,35.69579],[139.49909,35.69579],[139.49879,35.69607],[139.49878,35.69607],[139.49867,35.69593],[139.49865,35.69584],[139.49867,35.69571],[139.49879,35.69548],[139.49882,35.6953],[139.49876,35.69473],[139.49876,35.69473],[139.49874,35.69459],[139.49875,35.69447],[139.4988,35.69428],[139.49885,35.69423],[139.49908,35.69412],[139.49921,35.69404],[139.49927,35.69391],[139.49931,35.69376],[139.49928,35.69364],[139.49924,35.69352],[139.49918,35.6934],[139.49918,35.69324],[139.49927,35.6931],[139.49946,35.69296],[139.4996,35.69294],[139.4999,35.69297],[139.50013,35.69304],[139.50012,35.69296],[139.50005,35.69271],[139.5,35.69257],[139.49971,35.6917],[139.49938,35.69176],[139.49871,35.69186],[139.49853,35.69188],[139.49805,35.69197],[139.49779,35.69202],[139.49765,35.69206],[139.49724,35.69218],[139.49691,35.69225],[139.49651,35.69239],[139.49598,35.69257],[139.49585,35.69263],[139.49556,35.69273],[139.49519,35.69287],[139.49516,35.69288],[139.49455,35.69313],[139.49457,35.69313],[139.49479,35.69336],[139.49494,35.69354],[139.49503,35.69365],[139.49516,35.69384],[139.49518,35.69387],[139.49542,35.69417],[139.49575,35.69456],[139.49577,35.69457],[139.49606,35.69491],[139.49616,35.69504],[139.49617,35.69506],[139.49653,35.69549],[139.49662,35.69564],[139.49669,35.69572],[139.49678,35.69594],[139.49689,35.69625],[139.49698,35.6964],[139.49712,35.69659],[139.49733,35.69683],[139.49754,35.69705],[139.49779,35.69732],[139.49791,35.6975],[139.49795,35.69755],[139.49809,35.69772],[139.49845,35.69763],[139.49864,35.69757]]]}},{"type":"Feature","properties":{"name":"貫井南町三丁目","setai":1380,"jinko":2842,"key":"13210010003","units":1},"geometry":{"type":"Polygon","coordinates":[[[139.4994,35.70075],[139.49926,35.69935],[139.49919,35.69899],[139.49926,35.69887],[139.49927,35.69876],[139.49936,35.69872],[139.49936,35.69835],[139.49936,35.69807],[139.49938,35.69763],[139.49912,35.69761],[139.49887,35.69753],[139.49864,35.69757],[139.49845,35.69763],[139.49809,35.69772],[139.49808,35.69772],[139.4982,35.698],[139.49784,35.69801],[139.49718,35.69803],[139.49667,35.69804],[139.49654,35.69804],[139.49621,35.69805],[139.49591,35.69804],[139.49538,35.69806],[139.49467,35.69806],[139.49427,35.69806],[139.49418,35.69807],[139.49409,35.69808],[139.49364,35.69818],[139.49337,35.69818],[139.4931,35.6982],[139.49286,35.69821],[139.4926,35.69822],[139.49224,35.6982],[139.49193,35.69814],[139.49167,35.69806],[139.49149,35.69799],[139.49134,35.6979],[139.49135,35.69804],[139.49141,35.6981],[139.49155,35.69836],[139.49159,35.6986],[139.49164,35.69903],[139.49164,35.69939],[139.49167,35.70001],[139.49167,35.70003],[139.49163,35.70004],[139.49123,35.70019],[139.49126,35.70035],[139.49062,35.70041],[139.49055,35.70044],[139.49043,35.70049],[139.49042,35.70049],[139.49015,35.70049],[139.49015,35.70049],[139.49012,35.70048],[139.49005,35.70053],[139.49064,35.70055],[139.49184,35.70058],[139.49184,35.70057],[139.49306,35.7006],[139.4939,35.70062],[139.49467,35.70064],[139.49513,35.70065],[139.49552,35.70066],[139.49665,35.70069],[139.49689,35.7007],[139.49745,35.70071],[139.49775,35.70072],[139.49872,35.70074],[139.4994,35.70075]]]}},{"type":"Feature","properties":{"name":"貫井南町四丁目","setai":1505,"jinko":3338,"key":"13210010004","units":1},"geometry":{"type":"Polygon","coordinates":[[[139.4931,35.6982],[139.49337,35.69818],[139.49364,35.69818],[139.49409,35.69808],[139.49418,35.69807],[139.49427,35.69806],[139.49467,35.69806],[139.49538,35.69806],[139.49591,35.69804],[139.49621,35.69805],[139.49654,35.69804],[139.49667,35.69804],[139.49718,35.69803],[139.49784,35.69801],[139.4982,35.698],[139.49808,35.69772],[139.49809,35.69772],[139.49795,35.69755],[139.49791,35.6975],[139.49779,35.69732],[139.49754,35.69705],[139.49733,35.69683],[139.49712,35.69659],[139.49698,35.6964],[139.49689,35.69625],[139.49678,35.69594],[139.49669,35.69572],[139.49662,35.69564],[139.49653,35.69549],[139.49617,35.69506],[139.49616,35.69504],[139.49606,35.69491],[139.49577,35.69457],[139.49575,35.69456],[139.49542,35.69417],[139.49518,35.69387],[139.49516,35.69384],[139.49503,35.69365],[139.49494,35.69354],[139.49479,35.69336],[139.49457,35.69313],[139.49455,35.69313],[139.49389,35.69331],[139.49385,35.69331],[139.49322,35.69348],[139.49305,35.6935],[139.49292,35.69351],[139.49194,35.69364],[139.49102,35.69379],[139.49104,35.69382],[139.49046,35.69392],[139.49006,35.694],[139.48946,35.69412],[139.48911,35.69424],[139.48935,35.69463],[139.48947,35.69483],[139.48977,35.69539],[139.48994,35.69564],[139.49004,35.69578],[139.49025,35.69606],[139.49034,35.69617],[139.49065,35.69653],[139.49105,35.69699],[139.49106,35.69699],[139.49136,35.69746],[139.49135,35.69767],[139.49135,35.69778],[139.49134,35.6979],[139.49149,35.69799],[139.49167,35.69806],[139.49193,35.69814],[139.49224,35.6982],[139.4926,35.69822],[139.49286,35.69821],[139.4931,35.6982]]]}},{"type":"Feature","properties":{"name":"貫井南町五丁目","setai":1168,"jinko":2346,"key":"13210010005","units":1},"geometry":{"type":"Polygon","coordinates":[[[139.49409,35.69259],[139.4939,35.69231],[139.49386,35.69227],[139.49365,35.6919],[139.49357,35.69178],[139.49332,35.69133],[139.49323,35.69122],[139.49302,35.69086],[139.49296,35.69077],[139.49278,35.69052],[139.49248,35.69011],[139.49223,35.68982],[139.49184,35.6899],[139.49154,35.68996],[139.49118,35.69003],[139.49123,35.69023],[139.49084,35.69018],[139.49072,35.69016],[139.49049,35.69014],[139.49058,35.69054],[139.4902,35.69066],[139.4899,35.69074],[139.48969,35.6908],[139.48953,35.69084],[139.48933,35.69089],[139.48913,35.69094],[139.48899,35.69098],[139.48919,35.69176],[139.48932,35.69251],[139.4886,35.69248],[139.48854,35.69232],[139.48832,35.69196],[139.48825,35.69191],[139.48818,35.6919],[139.48773,35.69197],[139.48778,35.69205],[139.48809,35.69257],[139.48836,35.69302],[139.48855,35.69333],[139.48858,35.6934],[139.48877,35.69375],[139.48889,35.69395],[139.48891,35.69397],[139.48911,35.69424],[139.48946,35.69412],[139.49006,35.694],[139.49046,35.69392],[139.49104,35.69382],[139.49102,35.69379],[139.49194,35.69364],[139.49292,35.69351],[139.49305,35.6935],[139.49322,35.69348],[139.49385,35.69331],[139.49389,35.69331],[139.49455,35.69313],[139.49434,35.69292],[139.4942,35.69276],[139.49409,35.69259]]]}}]}