{"type":"FeatureCollection","features":[{"type":"Feature","properties":{"name":"字上歌","setai":69,"jinko":133,"key":"012270010","units":1,"m":64,"f":69,"gk":0,"a0":4,"a1":55,"a2":74,"a75":33,"ag":[0,0,4,1,3,1,4,10,10,5,5,6,10,17,24,17,9,7,0,0,0]},"geometry":{"type":"Polygon","coordinates":[[[142.05783,43.52905],[142.05824,43.52905],[142.05873,43.52907],[142.05899,43.52907],[142.0593,43.52894],[142.05963,43.52877],[142.05982,43.52868],[142.06073,43.52845],[142.06114,43.52829],[142.06141,43.52828],[142.0622,43.52835],[142.06247,43.52832],[142.06281,43.52827],[142.06298,43.52817],[142.06311,43.52778],[142.06318,43.52764],[142.06319,43.52731],[142.06322,43.5271],[142.06331,43.52688],[142.0634,43.52683],[142.06383,43.52669],[142.06423,43.52654],[142.06447,43.52651],[142.06486,43.52657],[142.06524,43.52651],[142.06546,43.52648],[142.06562,43.52645],[142.06599,43.52631],[142.06611,43.52622],[142.06626,43.52589],[142.06655,43.52543],[142.06693,43.52522],[142.06767,43.52499],[142.06837,43.52476],[142.06892,43.52459],[142.06924,43.52453],[142.06935,43.52452],[142.07025,43.52458],[142.07068,43.52465],[142.07101,43.52469],[142.07122,43.52463],[142.07165,43.5242],[142.0719,43.52397],[142.07225,43.52389],[142.07273,43.52377],[142.07309,43.52372],[142.07336,43.52375],[142.07364,43.52372],[142.07421,43.52364],[142.07436,43.52364],[142.07449,43.52364],[142.07486,43.52379],[142.07532,43.52394],[142.07588,43.52402],[142.07622,43.52425],[142.07645,43.52435],[142.07677,43.52443],[142.07704,43.5245],[142.07717,43.5246],[142.07753,43.5249],[142.07776,43.52523],[142.0779,43.52529],[142.07856,43.5254],[142.07935,43.5256],[142.07966,43.52563],[142.0812,43.52559],[142.08138,43.52553],[142.08159,43.52538],[142.082,43.5253],[142.08235,43.52522],[142.08273,43.52511],[142.08316,43.52506],[142.08341,43.52496],[142.08372,43.52485],[142.08399,43.52481],[142.0847,43.52479],[142.08529,43.52478],[142.08577,43.52472],[142.08634,43.52461],[142.08688,43.5245],[142.0872,43.52439],[142.08742,43.52423],[142.0877,43.52402],[142.08779,43.52382],[142.08792,43.52361],[142.08815,43.5234],[142.0884,43.52329],[142.0889,43.52313],[142.08926,43.5229],[142.09016,43.52227],[142.09015,43.52202],[142.09013,43.52178],[142.09004,43.52165],[142.08933,43.52137],[142.089,43.52125],[142.08806,43.52078],[142.0879,43.52065],[142.08737,43.52008],[142.08707,43.51973],[142.08651,43.51941],[142.08617,43.51926],[142.08555,43.519],[142.0853,43.51887],[142.08515,43.51872],[142.08521,43.51858],[142.08549,43.51827],[142.08554,43.51809],[142.08523,43.51788],[142.08519,43.51784],[142.08519,43.51777],[142.08524,43.51764],[142.08526,43.51743],[142.08517,43.51722],[142.08501,43.51708],[142.08464,43.51681],[142.08431,43.51648],[142.08418,43.51626],[142.08411,43.51597],[142.08387,43.51526],[142.08359,43.51494],[142.08311,43.51453],[142.08341,43.51422],[142.08352,43.51399],[142.0836,43.51367],[142.08361,43.5135],[142.08334,43.51261],[142.08324,43.51256],[142.08307,43.51253],[142.08292,43.51247],[142.08283,43.51242],[142.0828,43.51235],[142.0829,43.51223],[142.08306,43.51201],[142.08309,43.51188],[142.08307,43.51177],[142.08276,43.51127],[142.08252,43.51107],[142.08244,43.511],[142.08223,43.51087],[142.08254,43.5103],[142.08274,43.50992],[142.08295,43.50963],[142.08307,43.50949],[142.08329,43.50936],[142.08375,43.50916],[142.08401,43.50908],[142.08425,43.50903],[142.0845,43.50834],[142.08458,43.50828],[142.08491,43.5082],[142.08569,43.50802],[142.08627,43.50799],[142.08664,43.50798],[142.08678,43.50795],[142.08685,43.5079],[142.08692,43.50767],[142.08713,43.5073],[142.08723,43.50695],[142.08726,43.50643],[142.08747,43.50569],[142.08746,43.50544],[142.08743,43.50524],[142.08735,43.50509],[142.08735,43.50504],[142.0874,43.50497],[142.08754,43.50484],[142.08769,43.50468],[142.08778,43.50457],[142.08781,43.50447],[142.08782,43.5044],[142.08771,43.50417],[142.08761,43.50399],[142.08755,43.50381],[142.08753,43.50355],[142.08755,43.50338],[142.08763,43.50324],[142.08768,43.50317],[142.08782,43.50309],[142.08786,43.50303],[142.08785,43.5029],[142.08774,43.5025],[142.08772,43.50226],[142.08773,43.50206],[142.08791,43.50167],[142.0883,43.50098],[142.08856,43.50049],[142.0886,43.50022],[142.08873,43.50013],[142.0889,43.50009],[142.08911,43.50006],[142.08971,43.50007],[142.08981,43.50004],[142.08988,43.49997],[142.09033,43.49941],[142.09046,43.4993],[142.09067,43.49918],[142.09097,43.49903],[142.09112,43.49893],[142.09117,43.49878],[142.09117,43.49848],[142.09112,43.49797],[142.09111,43.4978],[142.09112,43.4977],[142.09121,43.49755],[142.0913,43.49742],[142.09163,43.4971],[142.09168,43.49701],[142.09197,43.49634],[142.09216,43.49601],[142.09212,43.49594],[142.09155,43.49501],[142.09147,43.4948],[142.09146,43.49471],[142.09155,43.49461],[142.09168,43.4945],[142.09181,43.49445],[142.09208,43.49436],[142.09224,43.49428],[142.09281,43.49394],[142.09324,43.49372],[142.09347,43.49348],[142.09355,43.49337],[142.0935,43.49315],[142.0934,43.49293],[142.09279,43.49219],[142.09245,43.49176],[142.09238,43.49159],[142.09234,43.49142],[142.09234,43.4913],[142.09243,43.49117],[142.0926,43.49107],[142.0929,43.49095],[142.09307,43.49082],[142.09321,43.49066],[142.09337,43.49045],[142.09341,43.4903],[142.09345,43.49021],[142.09313,43.48992],[142.09272,43.48963],[142.09238,43.48945],[142.09182,43.48921],[142.09145,43.489],[142.09117,43.48885],[142.08991,43.48926],[142.0889,43.4889],[142.08786,43.48871],[142.08658,43.4888],[142.08536,43.48908],[142.08401,43.48972],[142.08365,43.48983],[142.08258,43.48969],[142.07997,43.48959],[142.07879,43.48858],[142.07833,43.48825],[142.07802,43.48817],[142.07668,43.48806],[142.07657,43.48793],[142.07528,43.48848],[142.07457,43.48893],[142.07419,43.48929],[142.07344,43.49037],[142.07287,43.49159],[142.07258,43.49234],[142.07253,43.49322],[142.0723,43.49418],[142.0721,43.49454],[142.07156,43.49499],[142.06983,43.49575],[142.06874,43.49635],[142.06819,43.4968],[142.06737,43.49771],[142.06653,43.49917],[142.06625,43.49952],[142.0659,43.49986],[142.06577,43.50014],[142.06548,43.50078],[142.0651,43.50117],[142.06483,43.50146],[142.0647,43.50171],[142.06444,43.50304],[142.06393,43.50387],[142.06303,43.50508],[142.06306,43.50537],[142.06338,43.50578],[142.06357,43.50609],[142.06386,43.50644],[142.06405,43.50685],[142.06427,43.50733],[142.06425,43.50785],[142.06379,43.50911],[142.06336,43.51009],[142.06276,43.51079],[142.06225,43.51104],[142.06152,43.51098],[142.06047,43.51102],[142.05944,43.51113],[142.05862,43.51129],[142.05832,43.51143],[142.05811,43.51164],[142.05798,43.51193],[142.05804,43.51234],[142.05804,43.51274],[142.05804,43.51319],[142.05796,43.51347],[142.05801,43.51365],[142.05826,43.51403],[142.05831,43.51427],[142.05837,43.51451],[142.05858,43.51507],[142.05862,43.51537],[142.05859,43.51575],[142.05862,43.51605],[142.05871,43.51626],[142.05882,43.51646],[142.05876,43.51665],[142.05858,43.51692],[142.05828,43.51731],[142.05802,43.51758],[142.05793,43.51782],[142.05763,43.51813],[142.0575,43.51823],[142.05736,43.51826],[142.05712,43.51843],[142.05673,43.51864],[142.05653,43.51877],[142.05639,43.51891],[142.05626,43.51903],[142.05411,43.51992],[142.05168,43.5211],[142.05109,43.52177],[142.05078,43.52219],[142.04995,43.52186],[142.04962,43.52173],[142.04881,43.52142],[142.04805,43.52112],[142.04789,43.52105],[142.04764,43.52139],[142.04771,43.5214],[142.04789,43.52145],[142.0486,43.52173],[142.04858,43.52175],[142.04853,43.52209],[142.04826,43.52394],[142.04815,43.52497],[142.0482,43.52508],[142.04836,43.52524],[142.04876,43.5255],[142.0493,43.52587],[142.04977,43.52617],[142.05009,43.52638],[142.05048,43.52664],[142.05082,43.52687],[142.05116,43.52707],[142.05227,43.52768],[142.05345,43.52829],[142.05462,43.52883],[142.05477,43.52892],[142.05487,43.52901],[142.05489,43.52895],[142.05503,43.52899],[142.05534,43.52923],[142.05566,43.52932],[142.0561,43.52941],[142.05655,43.52951],[142.05679,43.52956],[142.05698,43.52952],[142.0572,43.52939],[142.05737,43.52917],[142.05748,43.52909],[142.05764,43.52906],[142.05783,43.52905]]]}},{"type":"Feature","properties":{"name":"字東光","setai":95,"jinko":169,"key":"012270020","units":1,"m":82,"f":87,"gk":0,"a0":13,"a1":77,"a2":78,"a75":50,"ag":[5,5,3,6,7,6,4,9,9,5,10,10,11,14,14,18,14,14,3,1,0],"nf":1},"geometry":{"type":"Polygon","coordinates":[[[142.06047,43.51102],[142.06152,43.51098],[142.06225,43.51104],[142.06276,43.51079],[142.06336,43.51009],[142.06379,43.50911],[142.06425,43.50785],[142.06427,43.50733],[142.06405,43.50685],[142.06386,43.50644],[142.06357,43.50609],[142.06338,43.50578],[142.06306,43.50537],[142.06303,43.50508],[142.06393,43.50387],[142.06444,43.50304],[142.0647,43.50171],[142.06483,43.50146],[142.0651,43.50117],[142.06548,43.50078],[142.06577,43.50014],[142.0659,43.49986],[142.06625,43.49952],[142.06653,43.49917],[142.06737,43.49771],[142.06819,43.4968],[142.06874,43.49635],[142.06983,43.49575],[142.07156,43.49499],[142.0721,43.49454],[142.0723,43.49418],[142.07253,43.49322],[142.07258,43.49234],[142.07287,43.49159],[142.07344,43.49037],[142.07419,43.48929],[142.07457,43.48893],[142.07528,43.48848],[142.07657,43.48793],[142.07629,43.4876],[142.07595,43.487],[142.07583,43.48682],[142.0758,43.48673],[142.07577,43.48665],[142.07575,43.48655],[142.07573,43.48645],[142.07573,43.48639],[142.07572,43.48636],[142.07572,43.48635],[142.0757,43.48634],[142.07568,43.48633],[142.07563,43.48631],[142.07558,43.48629],[142.07551,43.48625],[142.07542,43.4862],[142.07529,43.48613],[142.07514,43.48605],[142.07502,43.48599],[142.07493,43.48593],[142.07485,43.48588],[142.07492,43.48578],[142.07497,43.48574],[142.07502,43.48569],[142.07508,43.48562],[142.07512,43.48558],[142.07519,43.4855],[142.07526,43.48541],[142.07528,43.48536],[142.07532,43.48528],[142.07535,43.48519],[142.07535,43.48515],[142.07536,43.48506],[142.07537,43.48496],[142.07536,43.48486],[142.07535,43.48482],[142.07534,43.48477],[142.07532,43.48473],[142.07529,43.48468],[142.07528,43.48467],[142.07526,43.48464],[142.0752,43.48456],[142.07513,43.48448],[142.07507,43.48442],[142.075,43.48435],[142.07492,43.48429],[142.07482,43.48423],[142.07473,43.48417],[142.07463,43.48411],[142.07452,43.48404],[142.0744,43.48395],[142.07426,43.48385],[142.07419,43.4838],[142.07404,43.48371],[142.0739,43.48364],[142.07375,43.48356],[142.07363,43.4835],[142.07352,43.48343],[142.07348,43.4834],[142.07345,43.48337],[142.0734,43.48331],[142.07338,43.48329],[142.07335,43.48322],[142.07332,43.48315],[142.07329,43.48307],[142.07327,43.48298],[142.07324,43.4829],[142.07322,43.48286],[142.07319,43.48283],[142.07314,43.48276],[142.07314,43.48276],[142.07309,43.4827],[142.07304,43.48264],[142.07301,43.48262],[142.07298,43.4826],[142.07294,43.48258],[142.07289,43.48257],[142.07284,43.48255],[142.07272,43.48253],[142.0726,43.4825],[142.07245,43.48247],[142.0723,43.48243],[142.07213,43.48239],[142.07197,43.48234],[142.07181,43.48229],[142.07167,43.48224],[142.07155,43.48219],[142.07144,43.48215],[142.07133,43.4821],[142.06922,43.48237],[142.06877,43.48244],[142.06643,43.48307],[142.06626,43.48318],[142.06606,43.48342],[142.06587,43.48417],[142.06583,43.48507],[142.06599,43.48636],[142.0662,43.48734],[142.06612,43.48749],[142.06564,43.48778],[142.06523,43.48794],[142.06504,43.48798],[142.06488,43.48791],[142.0643,43.48738],[142.06322,43.48677],[142.06254,43.48663],[142.062,43.48665],[142.0614,43.48675],[142.06065,43.48705],[142.05807,43.48856],[142.05723,43.48893],[142.05584,43.48926],[142.05552,43.48932],[142.05493,43.48942],[142.05467,43.48941],[142.0545,43.48935],[142.05408,43.48925],[142.05388,43.48922],[142.05358,43.48924],[142.05295,43.48923],[142.05259,43.48925],[142.05239,43.48933],[142.05216,43.48941],[142.05173,43.48954],[142.0509,43.48989],[142.05058,43.49012],[142.05041,43.49034],[142.05042,43.49078],[142.0505,43.49106],[142.05043,43.49118],[142.05008,43.49134],[142.04834,43.49184],[142.04816,43.4919],[142.04802,43.49204],[142.04779,43.49267],[142.04783,43.49391],[142.04759,43.49559],[142.04735,43.49634],[142.04669,43.49729],[142.04557,43.49826],[142.04483,43.49901],[142.04461,43.49976],[142.04469,43.50026],[142.04484,43.50083],[142.0451,43.50198],[142.04523,43.50276],[142.04513,43.50318],[142.0449,43.50343],[142.04443,43.50367],[142.04368,43.50412],[142.04372,43.50442],[142.04369,43.50479],[142.04356,43.50515],[142.0435,43.50543],[142.04352,43.50566],[142.04374,43.50612],[142.0441,43.50654],[142.0443,43.50697],[142.04429,43.50716],[142.04416,43.5073],[142.0438,43.50752],[142.04298,43.50774],[142.04131,43.5081],[142.04104,43.50832],[142.04093,43.50843],[142.04048,43.50889],[142.03994,43.50969],[142.03961,43.51048],[142.03945,43.51096],[142.03941,43.5116],[142.03954,43.512],[142.03956,43.51245],[142.03947,43.51306],[142.03931,43.51336],[142.03836,43.51399],[142.03815,43.51427],[142.03806,43.51458],[142.03822,43.51505],[142.04115,43.5158],[142.04435,43.51655],[142.04651,43.5172],[142.04646,43.51732],[142.04633,43.51762],[142.04616,43.51786],[142.04605,43.51799],[142.04587,43.51816],[142.04567,43.5183],[142.04561,43.51838],[142.0456,43.51859],[142.04556,43.51869],[142.04542,43.5189],[142.04522,43.51906],[142.04479,43.5193],[142.04452,43.5194],[142.04463,43.51949],[142.04475,43.51965],[142.04487,43.51973],[142.04501,43.51979],[142.04513,43.51983],[142.04453,43.52007],[142.04599,43.52035],[142.04729,43.52082],[142.04745,43.52089],[142.04789,43.52105],[142.04805,43.52112],[142.04881,43.52142],[142.04962,43.52173],[142.04995,43.52186],[142.05078,43.52219],[142.05109,43.52177],[142.05168,43.5211],[142.05411,43.51992],[142.05626,43.51903],[142.05639,43.51891],[142.05653,43.51877],[142.05673,43.51864],[142.05712,43.51843],[142.05736,43.51826],[142.0575,43.51823],[142.05763,43.51813],[142.05793,43.51782],[142.05802,43.51758],[142.05828,43.51731],[142.05858,43.51692],[142.05876,43.51665],[142.05882,43.51646],[142.05871,43.51626],[142.05862,43.51605],[142.05859,43.51575],[142.05862,43.51537],[142.05858,43.51507],[142.05837,43.51451],[142.05831,43.51427],[142.05826,43.51403],[142.05801,43.51365],[142.05796,43.51347],[142.05804,43.51319],[142.05804,43.51274],[142.05804,43.51234],[142.05798,43.51193],[142.05811,43.51164],[142.05832,43.51143],[142.05862,43.51129],[142.05944,43.51113],[142.06047,43.51102]]]}},{"type":"Feature","properties":{"name":"字本町","setai":305,"jinko":603,"key":"012270030","units":1,"m":283,"f":320,"gk":4,"a0":30,"a1":276,"a2":297,"a75":150,"ag":[8,8,14,20,14,20,11,18,35,41,37,39,41,65,82,77,39,24,9,1,0]},"geometry":{"type":"Polygon","coordinates":[[[142.05067,43.53359],[142.05101,43.53278],[142.05108,43.53243],[142.05128,43.53207],[142.05136,43.5319],[142.05149,43.53185],[142.05214,43.53174],[142.05255,43.53167],[142.05288,43.5316],[142.05307,43.53148],[142.05332,43.53104],[142.0535,43.53093],[142.05387,43.53083],[142.05426,43.53067],[142.05476,43.53031],[142.05508,43.53005],[142.05512,43.52978],[142.05509,43.52949],[142.05489,43.52909],[142.05487,43.52901],[142.05477,43.52892],[142.05462,43.52883],[142.05345,43.52829],[142.05227,43.52768],[142.05116,43.52707],[142.05082,43.52687],[142.05048,43.52664],[142.05009,43.52638],[142.04977,43.52617],[142.0493,43.52587],[142.04876,43.5255],[142.04836,43.52524],[142.0482,43.52508],[142.04815,43.52497],[142.04826,43.52394],[142.04853,43.52209],[142.04858,43.52175],[142.0486,43.52173],[142.04789,43.52145],[142.04771,43.5214],[142.04764,43.52139],[142.04789,43.52105],[142.04745,43.52089],[142.04729,43.52082],[142.04599,43.52035],[142.04453,43.52007],[142.04513,43.51983],[142.04501,43.51979],[142.04487,43.51973],[142.04475,43.51965],[142.04463,43.51949],[142.04452,43.5194],[142.04479,43.5193],[142.04522,43.51906],[142.04542,43.5189],[142.04556,43.51869],[142.0456,43.51859],[142.04561,43.51838],[142.04567,43.5183],[142.04587,43.51816],[142.04605,43.51799],[142.04616,43.51786],[142.04633,43.51762],[142.04646,43.51732],[142.04651,43.5172],[142.04435,43.51655],[142.04115,43.5158],[142.03822,43.51505],[142.03831,43.51548],[142.03816,43.51623],[142.03794,43.5165],[142.03769,43.51662],[142.03713,43.51671],[142.03662,43.51688],[142.0364,43.517],[142.03634,43.51719],[142.03635,43.51756],[142.03623,43.51779],[142.03596,43.51797],[142.03495,43.51841],[142.03452,43.51866],[142.03426,43.51902],[142.03417,43.51949],[142.03412,43.51999],[142.03413,43.52093],[142.03401,43.52083],[142.03395,43.52074],[142.03387,43.52055],[142.03382,43.52041],[142.03377,43.52036],[142.03372,43.52034],[142.03364,43.52031],[142.03356,43.52032],[142.03341,43.52036],[142.03322,43.52043],[142.03302,43.52049],[142.03288,43.52052],[142.03252,43.52056],[142.03238,43.52059],[142.03221,43.52066],[142.03215,43.52061],[142.03208,43.52057],[142.03104,43.52024],[142.03102,43.52021],[142.03081,43.51989],[142.03064,43.51994],[142.03045,43.51999],[142.03072,43.52053],[142.03049,43.5206],[142.03047,43.5206],[142.03072,43.52091],[142.0309,43.52112],[142.03128,43.52142],[142.03153,43.52157],[142.03192,43.52178],[142.03232,43.52191],[142.03237,43.52193],[142.03158,43.52296],[142.03121,43.52377],[142.03031,43.52452],[142.03009,43.52483],[142.02987,43.52524],[142.02992,43.52572],[142.02992,43.52592],[142.02988,43.52607],[142.02971,43.52624],[142.02957,43.5264],[142.02949,43.52652],[142.02947,43.52662],[142.02945,43.52668],[142.02947,43.5268],[142.02951,43.5269],[142.02954,43.52708],[142.02949,43.52723],[142.02939,43.5275],[142.02936,43.52757],[142.02938,43.52762],[142.02955,43.52775],[142.02964,43.52784],[142.02968,43.52791],[142.02971,43.52826],[142.02973,43.52863],[142.02994,43.52942],[142.02997,43.53012],[142.02982,43.53088],[142.02964,43.53148],[142.02969,43.53152],[142.03093,43.53256],[142.03101,43.53262],[142.03133,43.53261],[142.0317,43.53265],[142.03203,43.53274],[142.03218,43.53282],[142.03243,43.53284],[142.03264,43.5328],[142.03285,43.5327],[142.03362,43.53249],[142.03388,43.53243],[142.0341,43.53243],[142.03475,43.53256],[142.03501,43.5326],[142.03542,43.53267],[142.03562,43.53269],[142.03634,43.53262],[142.03652,43.53263],[142.03674,43.53266],[142.03733,43.53287],[142.03772,43.53288],[142.03828,43.53285],[142.0388,43.53277],[142.03913,43.5327],[142.03956,43.53256],[142.03975,43.53255],[142.04011,43.53263],[142.04044,43.53278],[142.0408,43.53285],[142.04132,43.53286],[142.04159,43.53286],[142.04172,43.53289],[142.04214,43.53312],[142.04228,43.53314],[142.04265,43.53319],[142.04334,43.53323],[142.04398,43.53327],[142.04425,43.53325],[142.04465,43.53332],[142.04482,43.53345],[142.0449,43.5335],[142.04509,43.53395],[142.0458,43.53479],[142.04612,43.53516],[142.04661,43.53532],[142.04704,43.53533],[142.04733,43.5353],[142.0479,43.53518],[142.04858,43.53509],[142.04902,43.53484],[142.04927,43.53462],[142.04953,43.5343],[142.04978,43.53414],[142.05042,43.53401],[142.05067,43.53359]]]}},{"type":"Feature","properties":{"name":"字歌神","setai":126,"jinko":231,"key":"012270040","units":1,"m":117,"f":114,"gk":1,"a0":6,"a1":74,"a2":151,"a75":80,"ag":[2,3,1,5,2,3,2,5,9,13,11,11,13,41,30,33,31,14,1,1,0]},"geometry":{"type":"Polygon","coordinates":[[[142.02869,43.5313],[142.02915,43.53128],[142.0295,43.53137],[142.02964,43.53148],[142.02982,43.53088],[142.02997,43.53012],[142.02994,43.52942],[142.02973,43.52863],[142.02971,43.52826],[142.02968,43.52791],[142.02964,43.52784],[142.02955,43.52775],[142.02938,43.52762],[142.02936,43.52757],[142.02939,43.5275],[142.02949,43.52723],[142.02954,43.52708],[142.02951,43.5269],[142.02947,43.5268],[142.02945,43.52668],[142.02947,43.52662],[142.02949,43.52652],[142.02957,43.5264],[142.02971,43.52624],[142.02988,43.52607],[142.02992,43.52592],[142.02992,43.52572],[142.02987,43.52524],[142.03009,43.52483],[142.03031,43.52452],[142.03121,43.52377],[142.03158,43.52296],[142.03237,43.52193],[142.03232,43.52191],[142.03192,43.52178],[142.03153,43.52157],[142.03128,43.52142],[142.0309,43.52112],[142.03072,43.52091],[142.03047,43.5206],[142.03049,43.5206],[142.03072,43.52053],[142.03045,43.51999],[142.03064,43.51994],[142.03081,43.51989],[142.03102,43.52021],[142.03104,43.52024],[142.03208,43.52057],[142.03215,43.52061],[142.03221,43.52066],[142.03238,43.52059],[142.03252,43.52056],[142.03288,43.52052],[142.03302,43.52049],[142.03322,43.52043],[142.03341,43.52036],[142.03356,43.52032],[142.03364,43.52031],[142.03372,43.52034],[142.03377,43.52036],[142.03382,43.52041],[142.03387,43.52055],[142.03395,43.52074],[142.03401,43.52083],[142.03413,43.52093],[142.03412,43.51999],[142.03417,43.51949],[142.03426,43.51902],[142.03452,43.51866],[142.03495,43.51841],[142.03596,43.51797],[142.03623,43.51779],[142.03635,43.51756],[142.03634,43.51719],[142.0364,43.517],[142.03662,43.51688],[142.03713,43.51671],[142.03769,43.51662],[142.03794,43.5165],[142.03816,43.51623],[142.03831,43.51548],[142.03822,43.51505],[142.03806,43.51458],[142.03815,43.51427],[142.03836,43.51399],[142.03931,43.51336],[142.03947,43.51306],[142.03956,43.51245],[142.03954,43.512],[142.03941,43.5116],[142.03945,43.51096],[142.03961,43.51048],[142.03994,43.50969],[142.04048,43.50889],[142.04093,43.50843],[142.04104,43.50832],[142.04131,43.5081],[142.04064,43.50812],[142.03962,43.50806],[142.03845,43.50797],[142.03799,43.50795],[142.03763,43.508],[142.03716,43.5082],[142.03652,43.50858],[142.03552,43.50937],[142.03501,43.50986],[142.03429,43.51044],[142.03378,43.51077],[142.03314,43.51113],[142.03044,43.51211],[142.02799,43.51284],[142.02778,43.51289],[142.02761,43.51295],[142.02726,43.51306],[142.02676,43.51325],[142.02665,43.51327],[142.0262,43.51324],[142.02291,43.51302],[142.02064,43.51293],[142.02019,43.51305],[142.01975,43.5133],[142.01917,43.5139],[142.01846,43.5146],[142.01758,43.51519],[142.01673,43.51562],[142.01613,43.51588],[142.01508,43.51625],[142.01401,43.51642],[142.01171,43.5167],[142.01071,43.51692],[142.00948,43.51734],[142.00868,43.51771],[142.00788,43.51813],[142.00662,43.51896],[142.00672,43.51899],[142.00711,43.51979],[142.00726,43.52002],[142.00767,43.52044],[142.00793,43.52081],[142.00812,43.52152],[142.00849,43.52202],[142.00944,43.52311],[142.0099,43.52387],[142.00999,43.52401],[142.01014,43.52408],[142.01038,43.52417],[142.01055,43.52441],[142.01065,43.52448],[142.01094,43.52455],[142.01139,43.52471],[142.01171,43.52483],[142.012,43.52504],[142.01324,43.52599],[142.01367,43.52617],[142.01375,43.52617],[142.0139,43.52615],[142.01514,43.52594],[142.01598,43.5256],[142.01638,43.52553],[142.01676,43.52559],[142.01769,43.52599],[142.02047,43.52737],[142.02077,43.52753],[142.02086,43.52767],[142.02061,43.52824],[142.02046,43.52885],[142.0205,43.52903],[142.0206,43.52919],[142.02111,43.52952],[142.02125,43.52965],[142.02177,43.5303],[142.02205,43.53073],[142.02213,43.53094],[142.0222,43.53147],[142.02239,43.53314],[142.02259,43.53334],[142.0231,43.53354],[142.02398,43.53352],[142.0245,43.5335],[142.02494,43.53327],[142.02556,43.53269],[142.02625,43.53215],[142.027,43.53174],[142.02829,43.53139],[142.02869,43.5313]]]}},{"type":"Feature","properties":{"name":"字神威","setai":142,"jinko":331,"key":"012270050","units":1,"m":140,"f":191,"gk":0,"a0":13,"a1":107,"a2":211,"a75":136,"ag":[1,4,8,4,2,8,6,12,12,10,9,18,26,36,39,22,21,54,27,8,4]},"geometry":{"type":"Polygon","coordinates":[[[142.02019,43.51305],[142.02064,43.51293],[142.02291,43.51302],[142.0262,43.51324],[142.02665,43.51327],[142.02676,43.51325],[142.02726,43.51306],[142.02761,43.51295],[142.02778,43.51289],[142.02799,43.51284],[142.03044,43.51211],[142.03314,43.51113],[142.03378,43.51077],[142.03429,43.51044],[142.03501,43.50986],[142.03552,43.50937],[142.03652,43.50858],[142.03716,43.5082],[142.03763,43.508],[142.03799,43.50795],[142.03845,43.50797],[142.03962,43.50806],[142.04064,43.50812],[142.04131,43.5081],[142.04298,43.50774],[142.0438,43.50752],[142.04416,43.5073],[142.04429,43.50716],[142.0443,43.50697],[142.0441,43.50654],[142.04374,43.50612],[142.04352,43.50566],[142.0435,43.50543],[142.04356,43.50515],[142.04369,43.50479],[142.04372,43.50442],[142.04368,43.50412],[142.04443,43.50367],[142.0449,43.50343],[142.04513,43.50318],[142.04523,43.50276],[142.0451,43.50198],[142.04484,43.50083],[142.04469,43.50026],[142.04461,43.49976],[142.04483,43.49901],[142.04557,43.49826],[142.04669,43.49729],[142.04735,43.49634],[142.04759,43.49559],[142.04783,43.49391],[142.04779,43.49267],[142.04802,43.49204],[142.04816,43.4919],[142.04834,43.49184],[142.05008,43.49134],[142.05043,43.49118],[142.0505,43.49106],[142.05042,43.49078],[142.05041,43.49034],[142.05058,43.49012],[142.0509,43.48989],[142.05173,43.48954],[142.05216,43.48941],[142.05239,43.48933],[142.05,43.48911],[142.04942,43.48917],[142.04871,43.48944],[142.04796,43.48976],[142.04694,43.48963],[142.04621,43.48971],[142.04518,43.49011],[142.0435,43.49058],[142.04227,43.49069],[142.04106,43.49066],[142.03916,43.49051],[142.0371,43.49143],[142.03432,43.49255],[142.0324,43.49303],[142.029,43.49357],[142.02665,43.4938],[142.02492,43.49376],[142.02445,43.49368],[142.02383,43.49409],[142.02339,43.49459],[142.02322,43.49492],[142.02311,43.4955],[142.02296,43.49628],[142.02284,43.49677],[142.02259,43.49693],[142.02227,43.49703],[142.02176,43.49711],[142.02126,43.49727],[142.02074,43.49746],[142.02036,43.49775],[142.02015,43.49804],[142.01994,43.49813],[142.01944,43.4982],[142.01816,43.4985],[142.01616,43.49904],[142.0153,43.49944],[142.01495,43.49969],[142.0147,43.49988],[142.01443,43.50016],[142.01382,43.50065],[142.01329,43.50104],[142.01246,43.5015],[142.0113,43.50215],[142.01077,43.5025],[142.0107,43.50238],[142.01047,43.50234],[142.01027,43.50229],[142.01014,43.50233],[142.01005,43.50236],[142.00998,43.50237],[142.00993,43.5024],[142.00937,43.50294],[142.0092,43.50311],[142.00919,43.50312],[142.00909,43.50337],[142.00903,43.50348],[142.00889,43.50374],[142.00919,43.50525],[142.00926,43.50579],[142.0089,43.50641],[142.00879,43.5069],[142.00854,43.50814],[142.00837,43.50919],[142.00823,43.50987],[142.00808,43.51086],[142.00792,43.5126],[142.00763,43.51317],[142.00733,43.51355],[142.00717,43.51375],[142.00732,43.51465],[142.00728,43.51606],[142.00723,43.51704],[142.00715,43.51781],[142.00699,43.51829],[142.00687,43.51849],[142.00669,43.5187],[142.00661,43.51896],[142.00662,43.51896],[142.00788,43.51813],[142.00868,43.51771],[142.00948,43.51734],[142.01071,43.51692],[142.01171,43.5167],[142.01401,43.51642],[142.01508,43.51625],[142.01613,43.51588],[142.01673,43.51562],[142.01758,43.51519],[142.01846,43.5146],[142.01917,43.5139],[142.01975,43.5133],[142.02019,43.51305]]]}},{"type":"Feature","properties":{"name":"字中村","setai":140,"jinko":252,"key":"012270060","units":1,"m":113,"f":139,"gk":0,"a0":6,"a1":105,"a2":141,"a75":86,"ag":[5,0,1,3,1,3,13,5,7,9,18,16,30,24,31,36,20,20,8,2,0]},"geometry":{"type":"Polygon","coordinates":[[[142.00567,43.519],[142.00606,43.51891],[142.00642,43.51891],[142.00661,43.51896],[142.00669,43.5187],[142.00687,43.51849],[142.00699,43.51829],[142.00715,43.51781],[142.00723,43.51704],[142.00728,43.51606],[142.00732,43.51465],[142.00717,43.51375],[142.00733,43.51355],[142.00763,43.51317],[142.00792,43.5126],[142.00808,43.51086],[142.00823,43.50987],[142.00837,43.50919],[142.00854,43.50814],[142.00879,43.5069],[142.0089,43.50641],[142.00926,43.50579],[142.00919,43.50525],[142.00889,43.50374],[142.00903,43.50348],[142.00909,43.50337],[142.00919,43.50312],[142.0092,43.50311],[142.00937,43.50294],[142.00993,43.5024],[142.00998,43.50237],[142.01005,43.50236],[142.01014,43.50233],[142.01027,43.50229],[142.01047,43.50234],[142.0107,43.50238],[142.01077,43.5025],[142.0113,43.50215],[142.01246,43.5015],[142.01329,43.50104],[142.01382,43.50065],[142.01443,43.50016],[142.0147,43.49988],[142.01495,43.49969],[142.0153,43.49944],[142.01616,43.49904],[142.01816,43.4985],[142.01944,43.4982],[142.01994,43.49813],[142.02015,43.49804],[142.02036,43.49775],[142.02074,43.49746],[142.02126,43.49727],[142.02176,43.49711],[142.02227,43.49703],[142.02259,43.49693],[142.02284,43.49677],[142.02296,43.49628],[142.02311,43.4955],[142.02322,43.49492],[142.02339,43.49459],[142.02383,43.49409],[142.02445,43.49368],[142.02394,43.49352],[142.02342,43.49332],[142.02301,43.49308],[142.02248,43.49272],[142.02223,43.4925],[142.02203,43.49223],[142.02187,43.49193],[142.02168,43.49165],[142.02127,43.49132],[142.02061,43.49087],[142.01996,43.49027],[142.01959,43.48995],[142.01919,43.48968],[142.01877,43.48945],[142.01803,43.48915],[142.0174,43.48895],[142.01677,43.48881],[142.01653,43.4887],[142.01611,43.48834],[142.01585,43.48891],[142.01552,43.48937],[142.01473,43.49032],[142.01401,43.4912],[142.01341,43.49176],[142.01204,43.4925],[142.01064,43.49296],[142.01031,43.49314],[142.0101,43.49334],[142.00972,43.49385],[142.00953,43.49421],[142.0094,43.49471],[142.00933,43.49502],[142.00929,43.49574],[142.00919,43.49603],[142.00909,43.4962],[142.00893,43.49644],[142.00868,43.4967],[142.0084,43.49687],[142.00808,43.49697],[142.00769,43.49705],[142.00637,43.49729],[142.00601,43.4974],[142.00566,43.49766],[142.00525,43.49802],[142.00453,43.49892],[142.00342,43.49874],[142.00335,43.49885],[142.00287,43.49861],[142.00261,43.499],[142.0017,43.49871],[142.00166,43.49873],[142.00154,43.49895],[142.00102,43.49883],[142.00017,43.49831],[141.9998,43.49866],[141.99945,43.49899],[141.9997,43.49916],[142.00024,43.4995],[142.00023,43.49951],[142.0004,43.49971],[142.00051,43.49968],[142.00063,43.49966],[142.00078,43.49969],[142.0011,43.4998],[142.00153,43.50002],[142.00171,43.50014],[142.00186,43.50026],[142.00194,43.50036],[142.00197,43.50044],[142.002,43.50071],[142.00196,43.50119],[142.00196,43.50133],[142.00194,43.50146],[142.0019,43.50156],[142.00183,43.50164],[142.00299,43.50229],[142.00242,43.50304],[142.00228,43.5032],[142.00204,43.50515],[142.00192,43.5059],[142.00166,43.50654],[142.0012,43.50718],[142.00041,43.5082],[142.00009,43.50846],[141.99959,43.50872],[141.99847,43.50913],[141.99782,43.50954],[141.99751,43.5099],[141.99741,43.51011],[141.99734,43.51046],[141.99719,43.51106],[141.99714,43.51194],[141.99715,43.51349],[141.99713,43.51396],[141.99717,43.51466],[141.99725,43.51553],[141.9979,43.51576],[141.99847,43.51597],[141.99871,43.51624],[141.99791,43.5163],[141.99757,43.5164],[141.99712,43.51658],[141.99624,43.51693],[141.99587,43.51715],[141.99515,43.51759],[141.99492,43.51773],[141.99456,43.51819],[141.99359,43.51879],[141.99276,43.51932],[141.99419,43.52024],[141.99442,43.52054],[141.99448,43.52097],[141.99428,43.52122],[141.99456,43.52157],[141.99481,43.52181],[141.99497,43.52192],[141.99566,43.5222],[141.99629,43.52241],[141.9965,43.52255],[141.99674,43.52283],[141.99704,43.52297],[141.99752,43.52307],[141.99843,43.52313],[141.99943,43.52324],[141.99972,43.52323],[141.99997,43.52321],[142.00016,43.52315],[142.00072,43.52258],[142.00095,43.52235],[142.00107,43.52207],[142.00129,43.52192],[142.0016,43.52181],[142.00237,43.52172],[142.00262,43.52168],[142.00278,43.52162],[142.00296,43.52153],[142.00315,43.52121],[142.00348,43.52092],[142.00391,43.52058],[142.00404,43.52042],[142.00423,43.52003],[142.00439,43.51984],[142.00531,43.51926],[142.00567,43.519]]]}},{"type":"Feature","properties":{"name":"字文珠","setai":547,"jinko":1270,"key":"012270070","units":1,"m":600,"f":670,"gk":5,"a0":70,"a1":558,"a2":640,"a75":353,"ag":[18,17,35,39,30,29,18,51,66,73,60,93,99,155,132,106,97,80,47,18,5],"nf":2},"geometry":{"type":"Polygon","coordinates":[[[141.99518,43.51572],[141.99621,43.51537],[141.99694,43.51542],[141.99707,43.51546],[141.99725,43.51553],[141.99717,43.51466],[141.99713,43.51396],[141.99715,43.51349],[141.99714,43.51194],[141.99719,43.51106],[141.99734,43.51046],[141.99741,43.51011],[141.99751,43.5099],[141.99782,43.50954],[141.99847,43.50913],[141.99959,43.50872],[142.00009,43.50846],[142.00041,43.5082],[142.0012,43.50718],[142.00166,43.50654],[142.00192,43.5059],[142.00204,43.50515],[142.00228,43.5032],[142.00242,43.50304],[142.00299,43.50229],[142.00183,43.50164],[142.0019,43.50156],[142.00194,43.50146],[142.00196,43.50133],[142.00196,43.50119],[142.002,43.50071],[142.00197,43.50044],[142.00194,43.50036],[142.00186,43.50026],[142.00171,43.50014],[142.00153,43.50002],[142.0011,43.4998],[142.00078,43.49969],[142.00063,43.49966],[142.00051,43.49968],[142.0004,43.49971],[142.00023,43.49951],[142.00024,43.4995],[141.9997,43.49916],[141.99945,43.49899],[141.9998,43.49866],[142.00017,43.49831],[142.00102,43.49883],[142.00154,43.49895],[142.00166,43.49873],[142.0017,43.49871],[142.00261,43.499],[142.00287,43.49861],[142.00335,43.49885],[142.00342,43.49874],[142.00453,43.49892],[142.00525,43.49802],[142.00566,43.49766],[142.00601,43.4974],[142.00637,43.49729],[142.00769,43.49705],[142.00808,43.49697],[142.0084,43.49687],[142.00868,43.4967],[142.00893,43.49644],[142.00909,43.4962],[142.00919,43.49603],[142.00929,43.49574],[142.00933,43.49502],[142.0094,43.49471],[142.00953,43.49421],[142.00972,43.49385],[142.0101,43.49334],[142.01031,43.49314],[142.01064,43.49296],[142.01204,43.4925],[142.01341,43.49176],[142.01401,43.4912],[142.01473,43.49032],[142.01552,43.48937],[142.01585,43.48891],[142.01611,43.48834],[142.01565,43.48764],[142.01548,43.48724],[142.01537,43.48646],[142.0153,43.48609],[142.01522,43.48585],[142.01512,43.4857],[142.01473,43.48534],[142.01468,43.48524],[142.01462,43.4851],[142.01457,43.48478],[142.01454,43.48467],[142.01415,43.48401],[142.01408,43.48378],[142.01409,43.48353],[142.01439,43.48293],[142.01445,43.48265],[142.01402,43.48203],[142.01368,43.48189],[142.01336,43.48175],[142.01294,43.48158],[142.01283,43.48152],[142.01275,43.48146],[142.01268,43.48136],[142.01263,43.48126],[142.01262,43.48119],[142.0126,43.481],[142.0126,43.48071],[142.0126,43.48038],[142.01255,43.48023],[142.01249,43.48011],[142.01237,43.47994],[142.01225,43.47981],[142.0121,43.47969],[142.01196,43.4796],[142.01183,43.47953],[142.01168,43.47947],[142.01155,43.47943],[142.01129,43.47937],[142.0111,43.4793],[142.01075,43.47913],[142.01042,43.47899],[142.01025,43.47893],[142.00997,43.47885],[142.0098,43.47882],[142.00953,43.47878],[142.00943,43.47876],[142.00922,43.47867],[142.00895,43.47858],[142.00884,43.47854],[142.00865,43.47845],[142.00851,43.4784],[142.00846,43.47841],[142.0084,43.47843],[142.00815,43.47851],[142.00798,43.47858],[142.00774,43.47869],[142.00748,43.47884],[142.00668,43.47932],[142.00648,43.47946],[142.00625,43.47964],[142.00603,43.47981],[142.00594,43.47987],[142.00586,43.47996],[142.00569,43.48017],[142.00558,43.4803],[142.00547,43.48044],[142.00535,43.48063],[142.00519,43.48093],[142.00507,43.48116],[142.00493,43.48137],[142.00483,43.48149],[142.00476,43.48155],[142.00467,43.48161],[142.00449,43.48171],[142.00428,43.48181],[142.00416,43.48189],[142.0041,43.48193],[142.00404,43.48199],[142.00393,43.48219],[142.00381,43.48235],[142.00369,43.48245],[142.00361,43.48251],[142.00342,43.48261],[142.0033,43.48268],[142.00322,43.48275],[142.00316,43.48284],[142.00309,43.483],[142.00306,43.48303],[142.003,43.48305],[142.00279,43.48308],[142.00265,43.48311],[142.00226,43.48319],[142.00211,43.48322],[142.00198,43.48322],[142.00192,43.48321],[142.00178,43.48316],[142.00163,43.4831],[142.00141,43.483],[142.00116,43.4829],[142.00086,43.48278],[142.00073,43.48276],[142.00062,43.48278],[142.00025,43.48285],[141.99992,43.4829],[141.99975,43.4829],[141.99957,43.48286],[141.99935,43.48277],[141.99913,43.48265],[141.99898,43.48259],[141.99885,43.48257],[141.99872,43.48258],[141.99861,43.48261],[141.99858,43.48264],[141.99846,43.48277],[141.99831,43.48292],[141.99825,43.483],[141.99807,43.4834],[141.99804,43.48346],[141.99798,43.48349],[141.99792,43.48349],[141.99768,43.48338],[141.99744,43.48326],[141.99714,43.48313],[141.99675,43.48298],[141.99621,43.48277],[141.99583,43.48263],[141.99548,43.48251],[141.99524,43.48248],[141.99498,43.4825],[141.99481,43.48253],[141.99463,43.48257],[141.99443,43.48261],[141.99428,43.48262],[141.99406,43.48263],[141.99364,43.48264],[141.99344,43.48267],[141.99324,43.4827],[141.99308,43.48271],[141.99289,43.48271],[141.99268,43.48269],[141.99251,43.48267],[141.99231,43.48262],[141.99217,43.48257],[141.99199,43.48249],[141.99191,43.48247],[141.99185,43.48246],[141.99181,43.48248],[141.99174,43.48252],[141.99168,43.48258],[141.99163,43.48265],[141.99151,43.4828],[141.99145,43.48289],[141.9914,43.48296],[141.99138,43.48303],[141.99135,43.4831],[141.99131,43.48316],[141.99125,43.4832],[141.99105,43.48331],[141.99079,43.48343],[141.99016,43.48372],[141.98983,43.48387],[141.98963,43.48393],[141.98945,43.48399],[141.98933,43.48401],[141.98926,43.48401],[141.98918,43.48401],[141.9891,43.48399],[141.989,43.48397],[141.9888,43.48393],[141.98867,43.48392],[141.98853,43.48394],[141.98837,43.48397],[141.9882,43.48401],[141.98784,43.4841],[141.98741,43.48422],[141.98694,43.48436],[141.9868,43.4844],[141.98654,43.48449],[141.98643,43.48452],[141.98635,43.48454],[141.9863,43.48453],[141.98622,43.4845],[141.98611,43.48446],[141.98603,43.48442],[141.98581,43.48437],[141.98569,43.48433],[141.98551,43.48428],[141.98545,43.48428],[141.98538,43.48428],[141.98531,43.4843],[141.9852,43.48435],[141.98505,43.48441],[141.98466,43.48454],[141.98445,43.4846],[141.9841,43.4847],[141.98382,43.48477],[141.98359,43.48483],[141.98353,43.48484],[141.98343,43.48485],[141.98333,43.48485],[141.98318,43.48484],[141.98294,43.48481],[141.98288,43.48481],[141.98283,43.48481],[141.98273,43.48481],[141.98264,43.48482],[141.98255,43.48482],[141.98243,43.48483],[141.98224,43.48485],[141.98195,43.48491],[141.98187,43.48493],[141.9817,43.48494],[141.98145,43.48496],[141.98141,43.48497],[141.98105,43.48502],[141.98079,43.48504],[141.98058,43.48505],[141.98043,43.48505],[141.98037,43.48505],[141.98022,43.48505],[141.98,43.48504],[141.97986,43.48501],[141.97975,43.48499],[141.97964,43.48496],[141.9796,43.48493],[141.97954,43.48486],[141.97947,43.48475],[141.97932,43.48463],[141.97922,43.48458],[141.97909,43.48453],[141.97904,43.48452],[141.97894,43.48451],[141.9788,43.4845],[141.9787,43.48451],[141.97859,43.48453],[141.9784,43.48458],[141.97824,43.48463],[141.97801,43.48471],[141.97781,43.48478],[141.97765,43.48482],[141.97747,43.48485],[141.97732,43.48487],[141.97716,43.48487],[141.97704,43.48486],[141.97686,43.48485],[141.97675,43.48483],[141.97654,43.48479],[141.97611,43.48471],[141.97578,43.48464],[141.97556,43.4846],[141.9754,43.48458],[141.97514,43.48455],[141.975,43.48454],[141.97489,43.48454],[141.97466,43.48456],[141.9745,43.48457],[141.97441,43.48457],[141.97433,43.48456],[141.97423,43.48454],[141.97411,43.4845],[141.97382,43.48441],[141.9736,43.48435],[141.97336,43.48429],[141.97318,43.48423],[141.973,43.48418],[141.97284,43.48414],[141.97279,43.48413],[141.97254,43.48413],[141.97217,43.48413],[141.97198,43.48414],[141.97176,43.48415],[141.97156,43.48418],[141.97139,43.48421],[141.97114,43.48427],[141.9708,43.48434],[141.97057,43.48438],[141.97034,43.48442],[141.9702,43.48443],[141.97011,43.48444],[141.97001,43.48443],[141.96974,43.48438],[141.96944,43.48434],[141.96921,43.48432],[141.96911,43.48432],[141.96908,43.48432],[141.96907,43.48435],[141.96924,43.48441],[141.97014,43.48581],[141.97014,43.48633],[141.96896,43.48803],[141.96895,43.48877],[141.96953,43.49096],[141.96952,43.49223],[141.96952,43.49232],[141.96947,43.49277],[141.96948,43.49287],[141.9695,43.49294],[141.96953,43.493],[141.96957,43.49304],[141.96962,43.49307],[141.96971,43.4931],[141.96999,43.49318],[141.97167,43.49363],[141.97316,43.49363],[141.97468,43.49403],[141.97822,43.4957],[141.97878,43.49611],[141.97924,43.49664],[141.97966,43.49796],[141.98079,43.49968],[141.98141,43.50082],[141.98191,43.50196],[141.98223,43.50215],[141.98318,43.50134],[141.98364,43.50119],[141.98418,43.50122],[141.98523,43.50174],[141.98596,43.50189],[141.98597,43.50189],[141.98667,43.50209],[141.98721,43.50242],[141.9873,43.50273],[141.98744,43.50319],[141.98774,43.50346],[141.98827,43.50394],[141.98855,43.50459],[141.98862,43.50477],[141.98886,43.50512],[141.98922,43.50542],[141.98949,43.50565],[141.98977,43.50577],[141.99036,43.50603],[141.99057,43.5062],[141.99045,43.50645],[141.99023,43.50693],[141.99027,43.5074],[141.99017,43.5075],[141.9899,43.50785],[141.98965,43.50817],[141.98955,43.5083],[141.98937,43.5087],[141.98991,43.50934],[141.99018,43.50966],[141.99041,43.50984],[141.99068,43.51005],[141.9911,43.51038],[141.99117,43.51048],[141.99136,43.51076],[141.99173,43.51107],[141.99202,43.51162],[141.99215,43.51185],[141.99248,43.51221],[141.99267,43.51241],[141.99292,43.51267],[141.99306,43.51288],[141.99319,43.51307],[141.99323,43.51346],[141.99322,43.51352],[141.99313,43.51398],[141.99313,43.51402],[141.99334,43.51451],[141.99341,43.5146],[141.9936,43.51481],[141.9939,43.51516],[141.99461,43.51574],[141.99518,43.51572]]]}},{"type":"Feature","properties":{"name":"字新歌","setai":0,"jinko":0,"key":"012270080","units":1,"m":0,"f":0,"gk":0,"a0":0,"a1":0,"a2":0,"a75":0,"ag":[0,0,0,0,0,0,0,0,0,0,0,0,0,0,0,0,0,0,0,0,0]},"geometry":{"type":"Polygon","coordinates":[[[142.05239,43.48933],[142.05259,43.48925],[142.05295,43.48923],[142.05358,43.48924],[142.05388,43.48922],[142.05408,43.48925],[142.0545,43.48935],[142.05467,43.48941],[142.05493,43.48942],[142.05552,43.48932],[142.05584,43.48926],[142.05723,43.48893],[142.05807,43.48856],[142.06065,43.48705],[142.0614,43.48675],[142.062,43.48665],[142.06254,43.48663],[142.06322,43.48677],[142.0643,43.48738],[142.06488,43.48791],[142.06504,43.48798],[142.06523,43.48794],[142.06564,43.48778],[142.06612,43.48749],[142.0662,43.48734],[142.06599,43.48636],[142.06583,43.48507],[142.06587,43.48417],[142.06606,43.48342],[142.06626,43.48318],[142.06643,43.48307],[142.06877,43.48244],[142.06922,43.48237],[142.07133,43.4821],[142.07132,43.48183],[142.07132,43.48175],[142.07133,43.48167],[142.07134,43.48159],[142.07136,43.48155],[142.07139,43.48147],[142.07142,43.4814],[142.07143,43.48137],[142.07143,43.48133],[142.07143,43.48129],[142.07142,43.48126],[142.07141,43.48118],[142.0714,43.4811],[142.0714,43.48107],[142.07142,43.481],[142.07146,43.48093],[142.07148,43.4809],[142.07154,43.48084],[142.0716,43.48078],[142.07165,43.48074],[142.07168,43.4807],[142.07168,43.48068],[142.07168,43.48066],[142.07168,43.48064],[142.07165,43.48058],[142.07162,43.48051],[142.07159,43.48042],[142.07156,43.48032],[142.07154,43.48023],[142.07152,43.48016],[142.07148,43.48],[142.07148,43.47997],[142.07149,43.47992],[142.07151,43.47988],[142.07155,43.47984],[142.0716,43.47981],[142.07164,43.47978],[142.07167,43.47976],[142.07169,43.47974],[142.07172,43.47971],[142.07177,43.47967],[142.07181,43.47964],[142.07182,43.4796],[142.07183,43.47958],[142.07183,43.47953],[142.07182,43.47947],[142.07182,43.47941],[142.07182,43.47934],[142.07183,43.47928],[142.07184,43.4792],[142.07185,43.47911],[142.07186,43.47902],[142.07187,43.47893],[142.07188,43.47886],[142.07188,43.47878],[142.07187,43.47875],[142.07185,43.47867],[142.07182,43.47859],[142.07177,43.47851],[142.07173,43.47843],[142.07169,43.47835],[142.07167,43.47831],[142.07165,43.47824],[142.07165,43.47821],[142.07165,43.47818],[142.07166,43.47816],[142.07168,43.47814],[142.07172,43.47809],[142.07173,43.47805],[142.07176,43.47797],[142.07179,43.47789],[142.0718,43.47781],[142.07181,43.47778],[142.0718,43.47774],[142.07179,43.4777],[142.07177,43.47765],[142.07173,43.47759],[142.07165,43.47748],[142.07158,43.47738],[142.07151,43.47729],[142.07145,43.47722],[142.07139,43.47716],[142.07136,43.47713],[142.07132,43.47711],[142.07128,43.47709],[142.07123,43.47708],[142.07112,43.47707],[142.071,43.47706],[142.07087,43.47704],[142.07074,43.47703],[142.07061,43.47701],[142.07047,43.47699],[142.07032,43.47697],[142.07017,43.47695],[142.07002,43.47692],[142.06988,43.4769],[142.06976,43.47688],[142.06965,43.47687],[142.06953,43.47687],[142.06941,43.47687],[142.06929,43.47688],[142.06922,43.47689],[142.06911,43.47691],[142.06902,43.47692],[142.06896,43.47694],[142.06891,43.47695],[142.06889,43.47694],[142.06888,43.47694],[142.06886,43.47693],[142.06883,43.47691],[142.06879,43.47688],[142.06874,43.47682],[142.06866,43.47674],[142.06856,43.47664],[142.06847,43.47656],[142.0684,43.47649],[142.06837,43.47647],[142.06829,43.47642],[142.06818,43.47635],[142.06804,43.47628],[142.0679,43.47622],[142.06783,43.47619],[142.06775,43.47617],[142.06758,43.47614],[142.06738,43.4761],[142.06717,43.47607],[142.067,43.47605],[142.06689,43.47603],[142.06681,43.47602],[142.06677,43.476],[142.06673,43.47598],[142.06669,43.47595],[142.06664,43.47591],[142.06659,43.47586],[142.06653,43.4758],[142.06641,43.47565],[142.06641,43.47565],[142.06635,43.47558],[142.0663,43.47551],[142.06626,43.47544],[142.06623,43.47538],[142.0662,43.47532],[142.06618,43.47527],[142.06616,43.47514],[142.06614,43.47499],[142.06612,43.47479],[142.06609,43.47454],[142.06612,43.47422],[142.06612,43.47369],[142.06575,43.47148],[142.06515,43.47085],[142.06508,43.47045],[142.06494,43.47021],[142.0641,43.46972],[142.06355,43.46837],[142.06322,43.46787],[142.06283,43.46752],[142.06272,43.46729],[142.06181,43.46808],[142.06139,43.46872],[142.0607,43.47018],[142.06016,43.47155],[142.05931,43.47376],[142.05858,43.47563],[142.05798,43.47629],[142.05689,43.47691],[142.05359,43.47819],[142.05086,43.47945],[142.04403,43.48222],[142.04224,43.48346],[142.04175,43.48394],[142.04118,43.48481],[142.04096,43.48567],[142.04068,43.48686],[142.0405,43.48758],[142.03916,43.49051],[142.04106,43.49066],[142.04227,43.49069],[142.0435,43.49058],[142.04518,43.49011],[142.04621,43.48971],[142.04694,43.48963],[142.04796,43.48976],[142.04871,43.48944],[142.04942,43.48917],[142.05,43.48911],[142.05239,43.48933]]]}},{"type":"Feature","properties":{"name":"字西山","setai":0,"jinko":0,"key":"012270090","units":1,"m":0,"f":0,"gk":0,"a0":0,"a1":0,"a2":0,"a75":0,"ag":[0,0,0,0,0,0,0,0,0,0,0,0,0,0,0,0,0,0,0,0,0]},"geometry":{"type":"Polygon","coordinates":[[[142.03916,43.49051],[142.0405,43.48758],[142.04068,43.48686],[142.04096,43.48567],[142.04118,43.48481],[142.04175,43.48394],[142.04224,43.48346],[142.04403,43.48222],[142.05086,43.47945],[142.05359,43.47819],[142.05689,43.47691],[142.05798,43.47629],[142.05858,43.47563],[142.05931,43.47376],[142.06016,43.47155],[142.0607,43.47018],[142.06139,43.46872],[142.06181,43.46808],[142.06272,43.46729],[142.06264,43.4671],[142.06263,43.4669],[142.06284,43.46675],[142.06406,43.46664],[142.06456,43.46624],[142.06595,43.46458],[142.06599,43.46405],[142.0656,43.46279],[142.06574,43.46178],[142.06691,43.46005],[142.067,43.45732],[142.06717,43.45624],[142.06747,43.45524],[142.06787,43.45459],[142.06739,43.45406],[142.06654,43.45263],[142.06654,43.45205],[142.06678,43.45147],[142.0668,43.45086],[142.06655,43.44999],[142.067,43.44901],[142.0677,43.44792],[142.06764,43.44741],[142.06713,43.44663],[142.06701,43.44625],[142.06701,43.44577],[142.06712,43.44542],[142.06796,43.44534],[142.06853,43.44515],[142.06894,43.44489],[142.06983,43.44336],[142.07026,43.44289],[142.07134,43.44215],[142.07126,43.4412],[142.07146,43.44068],[142.07161,43.43943],[142.07213,43.43804],[142.07225,43.43695],[142.07241,43.43645],[142.07174,43.4364],[142.07089,43.43632],[142.07045,43.4363],[142.07007,43.43625],[142.06985,43.43618],[142.06974,43.43614],[142.06958,43.43608],[142.06944,43.43607],[142.06888,43.43608],[142.0684,43.43608],[142.06822,43.43611],[142.06808,43.43614],[142.06786,43.43626],[142.06774,43.4363],[142.06758,43.43633],[142.0672,43.43637],[142.06703,43.43641],[142.0666,43.43655],[142.06625,43.43666],[142.0659,43.43677],[142.06559,43.43691],[142.06548,43.43694],[142.06533,43.43695],[142.06512,43.43697],[142.06462,43.43712],[142.0642,43.43722],[142.06372,43.43729],[142.06352,43.43732],[142.06306,43.43746],[142.06269,43.43754],[142.06231,43.43755],[142.06202,43.43755],[142.06161,43.4375],[142.06104,43.43741],[142.06083,43.43742],[142.06032,43.4375],[142.06018,43.43756],[142.06004,43.43769],[142.05987,43.43791],[142.05973,43.43805],[142.05931,43.43837],[142.05908,43.43861],[142.05895,43.43873],[142.05873,43.43882],[142.05848,43.43895],[142.05823,43.43912],[142.05789,43.43935],[142.0578,43.43943],[142.0578,43.4395],[142.05778,43.43964],[142.05773,43.43969],[142.05764,43.43971],[142.05749,43.43972],[142.05739,43.43975],[142.05722,43.43984],[142.05707,43.43991],[142.05692,43.43996],[142.05683,43.43999],[142.05665,43.44014],[142.05643,43.4403],[142.05613,43.44041],[142.05592,43.44053],[142.05552,43.44069],[142.05543,43.44075],[142.05535,43.44082],[142.05521,43.44096],[142.05511,43.44102],[142.05501,43.44105],[142.05492,43.44104],[142.0548,43.44101],[142.05432,43.44089],[142.0539,43.44083],[142.05361,43.44075],[142.05334,43.44065],[142.05323,43.44066],[142.05307,43.44068],[142.05299,43.44065],[142.05288,43.44059],[142.0528,43.44059],[142.0527,43.4406],[142.05254,43.44057],[142.05194,43.44055],[142.05164,43.44056],[142.05131,43.44063],[142.05109,43.44072],[142.05095,43.4408],[142.05082,43.44104],[142.05064,43.44116],[142.05042,43.44122],[142.0503,43.4413],[142.0501,43.44165],[142.05002,43.44174],[142.0498,43.44188],[142.04976,43.44194],[142.0497,43.44218],[142.04966,43.44225],[142.04936,43.44242],[142.04929,43.44251],[142.04923,43.44263],[142.04908,43.44306],[142.04901,43.44317],[142.04888,43.44326],[142.04878,43.44333],[142.04874,43.44345],[142.04868,43.44352],[142.04859,43.44353],[142.04784,43.44356],[142.04776,43.44358],[142.04773,43.44364],[142.04776,43.4438],[142.04775,43.44383],[142.04769,43.44383],[142.04745,43.44375],[142.04734,43.44375],[142.04724,43.4438],[142.04703,43.44392],[142.04667,43.44405],[142.0465,43.44408],[142.0462,43.44403],[142.04586,43.44403],[142.04562,43.44406],[142.04546,43.44411],[142.04541,43.44416],[142.04538,43.44423],[142.04534,43.44435],[142.04523,43.44454],[142.04508,43.4447],[142.04495,43.44477],[142.04474,43.44487],[142.04458,43.44504],[142.04444,43.44518],[142.04418,43.44538],[142.04398,43.44549],[142.0438,43.44562],[142.04359,43.4458],[142.04327,43.44635],[142.04316,43.44646],[142.04302,43.44656],[142.04293,43.44664],[142.0428,43.44681],[142.04231,43.44747],[142.04203,43.44779],[142.04188,43.4479],[142.04122,43.44841],[142.04099,43.44854],[142.04011,43.44895],[142.03988,43.44908],[142.03943,43.44938],[142.03892,43.44972],[142.03884,43.44981],[142.03817,43.45082],[142.03779,43.45135],[142.03751,43.45167],[142.03717,43.45202],[142.03677,43.45243],[142.03648,43.45271],[142.03619,43.45293],[142.03605,43.45307],[142.03599,43.45319],[142.03578,43.45352],[142.03542,43.45411],[142.03514,43.45461],[142.03504,43.4548],[142.03501,43.45492],[142.03492,43.45529],[142.03477,43.45571],[142.03453,43.45658],[142.0344,43.45683],[142.03427,43.45696],[142.03416,43.45706],[142.034,43.45715],[142.03353,43.45729],[142.0329,43.45745],[142.0324,43.45757],[142.03195,43.45773],[142.03148,43.45783],[142.03107,43.45787],[142.03076,43.45787],[142.03033,43.45789],[142.02994,43.45794],[142.02975,43.45801],[142.02954,43.45815],[142.02934,43.45837],[142.02925,43.45855],[142.0292,43.45876],[142.02911,43.45919],[142.02905,43.45932],[142.02894,43.45944],[142.02873,43.4596],[142.02854,43.45968],[142.0284,43.45972],[142.02819,43.45975],[142.02785,43.45974],[142.02774,43.45978],[142.02758,43.45989],[142.02732,43.46008],[142.02699,43.46026],[142.02683,43.46039],[142.02671,43.46058],[142.02666,43.46074],[142.02659,43.46108],[142.02652,43.46124],[142.02642,43.46139],[142.02626,43.46154],[142.02589,43.46182],[142.02574,43.46196],[142.02563,43.46211],[142.02559,43.46224],[142.02559,43.46235],[142.02564,43.46274],[142.0257,43.46328],[142.02566,43.46343],[142.0256,43.46358],[142.0255,43.46372],[142.02531,43.46387],[142.02488,43.46416],[142.02453,43.46446],[142.02369,43.46539],[142.02329,43.46583],[142.02297,43.46624],[142.02229,43.46711],[142.02185,43.46766],[142.02153,43.46809],[142.02105,43.46867],[142.02078,43.46902],[142.02004,43.46994],[142.01961,43.47049],[142.01917,43.47105],[142.01914,43.47114],[142.01902,43.47155],[142.01891,43.47213],[142.01855,43.47376],[142.01837,43.47461],[142.0181,43.4758],[142.01792,43.47668],[142.01767,43.47784],[142.01737,43.47921],[142.0171,43.48064],[142.01402,43.48203],[142.01445,43.48265],[142.01439,43.48293],[142.01409,43.48353],[142.01408,43.48378],[142.01415,43.48401],[142.01454,43.48467],[142.01457,43.48478],[142.01462,43.4851],[142.01468,43.48524],[142.01473,43.48534],[142.01512,43.4857],[142.01522,43.48585],[142.0153,43.48609],[142.01537,43.48646],[142.01548,43.48724],[142.01565,43.48764],[142.01611,43.48834],[142.01653,43.4887],[142.01677,43.48881],[142.0174,43.48895],[142.01803,43.48915],[142.01877,43.48945],[142.01919,43.48968],[142.01959,43.48995],[142.01996,43.49027],[142.02061,43.49087],[142.02127,43.49132],[142.02168,43.49165],[142.02187,43.49193],[142.02203,43.49223],[142.02223,43.4925],[142.02248,43.49272],[142.02301,43.49308],[142.02342,43.49332],[142.02394,43.49352],[142.02445,43.49368],[142.02492,43.49376],[142.02665,43.4938],[142.029,43.49357],[142.0324,43.49303],[142.03432,43.49255],[142.0371,43.49143],[142.03916,43.49051]]]}}]}