{"type":"FeatureCollection","features":[{"type":"Feature","properties":{"name":"鶴橋一丁目","setai":864,"jinko":1304,"key":"27116001001","units":1},"geometry":{"type":"Polygon","coordinates":[[[135.5311,34.6622],[135.53106,34.66211],[135.53097,34.66211],[135.53043,34.6621],[135.53039,34.6621],[135.53039,34.66211],[135.52961,34.66209],[135.52922,34.66217],[135.52944,34.66284],[135.52968,34.66355],[135.52968,34.66357],[135.52979,34.6639],[135.52988,34.66416],[135.52989,34.6642],[135.52991,34.66426],[135.52992,34.66429],[135.52993,34.66432],[135.52995,34.66439],[135.52997,34.66447],[135.53018,34.6651],[135.53029,34.66541],[135.53106,34.66543],[135.53154,34.66544],[135.53158,34.66544],[135.53158,34.66518],[135.53158,34.66516],[135.53157,34.66507],[135.53157,34.66505],[135.53157,34.66498],[135.53157,34.66494],[135.53157,34.66489],[135.53157,34.66485],[135.53157,34.66484],[135.53157,34.66478],[135.53156,34.66447],[135.53156,34.66427],[135.53156,34.66425],[135.53155,34.66386],[135.53153,34.66342],[135.53151,34.66318],[135.53153,34.66289],[135.53153,34.66285],[135.53154,34.66277],[135.53146,34.6624],[135.53113,34.66223],[135.5311,34.6622]]]}},{"type":"Feature","properties":{"name":"鶴橋二丁目","setai":798,"jinko":1266,"key":"27116001002","units":1},"geometry":{"type":"Polygon","coordinates":[[[135.53407,34.66554],[135.53389,34.66492],[135.53389,34.66442],[135.5339,34.66409],[135.5339,34.6639],[135.53393,34.66227],[135.53376,34.66224],[135.53347,34.66219],[135.53296,34.66231],[135.53294,34.66232],[135.53258,34.66227],[135.53244,34.66229],[135.53211,34.66233],[135.53159,34.66242],[135.53146,34.6624],[135.53154,34.66277],[135.53153,34.66285],[135.53153,34.66289],[135.53151,34.66318],[135.53153,34.66342],[135.53155,34.66386],[135.53156,34.66425],[135.53156,34.66427],[135.53156,34.66447],[135.53157,34.66478],[135.53157,34.66484],[135.53157,34.66485],[135.53157,34.66489],[135.53157,34.66494],[135.53157,34.66498],[135.53157,34.66505],[135.53157,34.66507],[135.53158,34.66516],[135.53158,34.66518],[135.53158,34.66544],[135.53197,34.66545],[135.53223,34.66545],[135.53288,34.66547],[135.53292,34.66547],[135.53369,34.66552],[135.53407,34.66554]]]}},{"type":"Feature","properties":{"name":"鶴橋三丁目","setai":617,"jinko":1066,"key":"27116001003","units":1},"geometry":{"type":"Polygon","coordinates":[[[135.53615,34.66229],[135.53605,34.66221],[135.53599,34.66222],[135.53552,34.66228],[135.53525,34.66227],[135.53522,34.66227],[135.53522,34.66228],[135.5349,34.66228],[135.53471,34.66227],[135.53469,34.66227],[135.53437,34.66226],[135.53393,34.66227],[135.5339,34.6639],[135.5339,34.66409],[135.53389,34.66442],[135.53389,34.66492],[135.53407,34.66554],[135.53415,34.66554],[135.53478,34.66557],[135.53533,34.66558],[135.53538,34.66558],[135.53581,34.66559],[135.53599,34.66499],[135.53608,34.6647],[135.53614,34.66449],[135.53616,34.66444],[135.53618,34.66436],[135.53621,34.66425],[135.53621,34.66423],[135.53628,34.66392],[135.53632,34.66381],[135.53627,34.66336],[135.53622,34.66286],[135.53621,34.66279],[135.53615,34.66229]]]}},{"type":"Feature","properties":{"name":"鶴橋四丁目","setai":610,"jinko":1100,"key":"27116001004","units":1},"geometry":{"type":"Polygon","coordinates":[[[135.53775,34.66247],[135.53778,34.66195],[135.53725,34.66202],[135.53694,34.66207],[135.53615,34.6622],[135.53605,34.66221],[135.53615,34.66229],[135.53621,34.66279],[135.53622,34.66286],[135.53627,34.66336],[135.53632,34.66381],[135.53628,34.66392],[135.53621,34.66423],[135.53621,34.66425],[135.53618,34.66436],[135.53616,34.66444],[135.53614,34.66449],[135.53608,34.6647],[135.53599,34.66499],[135.53581,34.66559],[135.53614,34.66559],[135.53625,34.6656],[135.53679,34.6656],[135.53772,34.66562],[135.53773,34.66542],[135.53773,34.6653],[135.53772,34.66525],[135.53772,34.66506],[135.5377,34.66474],[135.53769,34.66456],[135.53769,34.66447],[135.53768,34.66442],[135.53767,34.66385],[135.53768,34.66361],[135.53769,34.66342],[135.53769,34.66338],[135.5377,34.66329],[135.5377,34.66327],[135.5377,34.66319],[135.53771,34.66305],[135.53773,34.66286],[135.53776,34.66247],[135.53775,34.66247]]]}},{"type":"Feature","properties":{"name":"鶴橋五丁目","setai":744,"jinko":1352,"key":"27116001005","units":1},"geometry":{"type":"Polygon","coordinates":[[[135.53847,34.66564],[135.53917,34.66562],[135.53928,34.66562],[135.5393,34.66541],[135.53932,34.66512],[135.53933,34.66509],[135.53934,34.66483],[135.53935,34.66456],[135.53936,34.66454],[135.53939,34.66394],[135.53941,34.66369],[135.53943,34.66345],[135.53943,34.66336],[135.53944,34.66328],[135.53944,34.6632],[135.53946,34.663],[135.53946,34.66296],[135.53948,34.66267],[135.53948,34.66266],[135.53952,34.66198],[135.53863,34.66196],[135.53778,34.66195],[135.53775,34.66247],[135.53776,34.66247],[135.53773,34.66286],[135.53771,34.66305],[135.5377,34.66319],[135.5377,34.66327],[135.5377,34.66329],[135.53769,34.66338],[135.53769,34.66342],[135.53768,34.66361],[135.53767,34.66385],[135.53768,34.66442],[135.53769,34.66447],[135.53769,34.66456],[135.5377,34.66474],[135.53772,34.66506],[135.53772,34.66525],[135.53773,34.6653],[135.53773,34.66542],[135.53772,34.66562],[135.53847,34.66564]]]}},{"type":"Feature","properties":{"name":"桃谷一丁目","setai":704,"jinko":1240,"key":"27116002001","units":1},"geometry":{"type":"Polygon","coordinates":[[[135.52922,34.66217],[135.52961,34.66209],[135.53039,34.66211],[135.53039,34.6621],[135.53044,34.66204],[135.53041,34.66202],[135.53044,34.66166],[135.53044,34.66164],[135.53045,34.66154],[135.53045,34.66149],[135.53049,34.66097],[135.53055,34.66024],[135.53058,34.65981],[135.5306,34.65962],[135.53059,34.65956],[135.53062,34.65925],[135.53062,34.6591],[135.53062,34.65867],[135.53063,34.65863],[135.53062,34.65855],[135.53062,34.65851],[135.53062,34.65847],[135.53062,34.65837],[135.53062,34.65834],[135.53063,34.65801],[135.53069,34.65762],[135.53028,34.65756],[135.5302,34.65754],[135.52981,34.65746],[135.52972,34.65744],[135.52948,34.65748],[135.52908,34.6576],[135.52892,34.65767],[135.52842,34.65768],[135.52807,34.65769],[135.5278,34.65769],[135.52779,34.65769],[135.52793,34.65812],[135.52798,34.65817],[135.52811,34.65856],[135.52816,34.65856],[135.52823,34.6588],[135.52814,34.65881],[135.52823,34.65909],[135.52831,34.65934],[135.52832,34.65937],[135.52877,34.6608],[135.52881,34.66091],[135.52922,34.66217]]]}},{"type":"Feature","properties":{"name":"桃谷二丁目","setai":1479,"jinko":2529,"key":"27116002002","units":1},"geometry":{"type":"Polygon","coordinates":[[[135.53244,34.66229],[135.53258,34.66227],[135.53294,34.66232],[135.53296,34.66231],[135.53347,34.66219],[135.53376,34.66224],[135.53393,34.66227],[135.53394,34.66222],[135.53394,34.66188],[135.53395,34.66149],[135.53395,34.66122],[135.53395,34.66044],[135.53398,34.65939],[135.53392,34.65923],[135.5339,34.65914],[135.53389,34.65912],[135.53389,34.65911],[135.53374,34.65871],[135.5337,34.65859],[135.53365,34.65844],[135.53347,34.65789],[135.53345,34.65784],[135.53308,34.65793],[135.53298,34.65794],[135.53281,34.65792],[135.53266,34.6579],[135.53242,34.65784],[135.53227,34.6578],[135.53215,34.65776],[135.53213,34.65776],[135.53172,34.65772],[135.53164,34.65772],[135.53133,34.65769],[135.531,34.65766],[135.53074,34.65762],[135.53069,34.65762],[135.53063,34.65801],[135.53062,34.65834],[135.53062,34.65837],[135.53062,34.65847],[135.53062,34.65851],[135.53062,34.65855],[135.53063,34.65863],[135.53062,34.65867],[135.53062,34.6591],[135.53062,34.65925],[135.53059,34.65956],[135.5306,34.65962],[135.53058,34.65981],[135.53055,34.66024],[135.53049,34.66097],[135.53045,34.66149],[135.53045,34.66154],[135.53044,34.66164],[135.53044,34.66166],[135.53041,34.66202],[135.53044,34.66204],[135.53039,34.6621],[135.53043,34.6621],[135.53097,34.66211],[135.53106,34.66211],[135.5311,34.6622],[135.53113,34.66223],[135.53146,34.6624],[135.53159,34.66242],[135.53211,34.66233],[135.53244,34.66229]]]}},{"type":"Feature","properties":{"name":"桃谷三丁目","setai":900,"jinko":1568,"key":"27116002003","units":1},"geometry":{"type":"Polygon","coordinates":[[[135.53552,34.66228],[135.53599,34.66222],[135.53605,34.66221],[135.53601,34.66218],[135.53607,34.66153],[135.53608,34.66144],[135.53615,34.66086],[135.53615,34.66085],[135.53617,34.66056],[135.53617,34.66055],[135.53624,34.65989],[135.53625,34.6598],[135.53626,34.6597],[135.53626,34.65967],[135.53628,34.65954],[135.53629,34.6595],[135.53633,34.65912],[135.53634,34.65898],[135.53635,34.65895],[135.53639,34.65857],[135.53641,34.65841],[135.53648,34.65778],[135.53648,34.65777],[135.53647,34.65774],[135.53572,34.65785],[135.53506,34.65786],[135.53446,34.65781],[135.53426,34.65779],[135.53418,34.65779],[135.53417,34.6578],[135.53403,34.65778],[135.53347,34.65789],[135.53365,34.65844],[135.5337,34.65859],[135.53374,34.65871],[135.53389,34.65911],[135.53389,34.65912],[135.5339,34.65914],[135.53392,34.65923],[135.53398,34.65939],[135.53395,34.66044],[135.53395,34.66122],[135.53395,34.66149],[135.53394,34.66188],[135.53394,34.66222],[135.53393,34.66227],[135.53437,34.66226],[135.53469,34.66227],[135.53471,34.66227],[135.5349,34.66228],[135.53522,34.66228],[135.53522,34.66227],[135.53525,34.66227],[135.53552,34.66228]]]}},{"type":"Feature","properties":{"name":"桃谷四丁目","setai":974,"jinko":1691,"key":"27116002004","units":1},"geometry":{"type":"Polygon","coordinates":[[[135.53764,34.65753],[135.53737,34.65752],[135.53726,34.65757],[135.537,34.65765],[135.53681,34.65769],[135.53648,34.65777],[135.53648,34.65778],[135.53641,34.65841],[135.53639,34.65857],[135.53635,34.65895],[135.53634,34.65898],[135.53633,34.65912],[135.53629,34.6595],[135.53628,34.65954],[135.53626,34.65967],[135.53626,34.6597],[135.53625,34.6598],[135.53624,34.65989],[135.53617,34.66055],[135.53617,34.66056],[135.53615,34.66085],[135.53615,34.66086],[135.53608,34.66144],[135.53607,34.66153],[135.53601,34.66218],[135.53605,34.66221],[135.53615,34.6622],[135.53694,34.66207],[135.53725,34.66202],[135.53778,34.66195],[135.53781,34.6615],[135.53785,34.66093],[135.53788,34.66064],[135.53792,34.66002],[135.53793,34.65979],[135.53793,34.65978],[135.53794,34.6596],[135.53798,34.65913],[135.53798,34.65904],[135.538,34.6588],[135.538,34.65878],[135.538,34.6587],[135.53805,34.65847],[135.53808,34.65824],[135.53812,34.65808],[135.53813,34.65802],[135.53822,34.65755],[135.53764,34.65753]]]}},{"type":"Feature","properties":{"name":"桃谷五丁目","setai":486,"jinko":938,"key":"27116002005","units":1},"geometry":{"type":"Polygon","coordinates":[[[135.53891,34.65757],[135.53827,34.65755],[135.53822,34.65755],[135.53813,34.65802],[135.53812,34.65808],[135.53808,34.65824],[135.53805,34.65847],[135.538,34.6587],[135.538,34.65878],[135.538,34.6588],[135.53798,34.65904],[135.53798,34.65913],[135.53794,34.6596],[135.53793,34.65978],[135.53793,34.65979],[135.53792,34.66002],[135.53788,34.66064],[135.53785,34.66093],[135.53781,34.6615],[135.53778,34.66195],[135.53863,34.66196],[135.53952,34.66198],[135.53954,34.66173],[135.53954,34.66172],[135.53955,34.66157],[135.5396,34.66071],[135.53961,34.66069],[135.53965,34.65995],[135.53966,34.65976],[135.53966,34.65975],[135.53971,34.65914],[135.53971,34.65911],[135.53971,34.65909],[135.53973,34.65877],[135.53973,34.65865],[135.53977,34.65809],[135.5398,34.65762],[135.5398,34.65759],[135.53923,34.65758],[135.53905,34.65757],[135.53891,34.65757]]]}},{"type":"Feature","properties":{"name":"勝山北一丁目","setai":901,"jinko":1804,"key":"27116003001","units":1},"geometry":{"type":"Polygon","coordinates":[[[135.52948,34.65748],[135.52972,34.65744],[135.52981,34.65746],[135.5302,34.65754],[135.53028,34.65756],[135.53069,34.65762],[135.53074,34.65762],[135.53072,34.65729],[135.53072,34.65726],[135.5307,34.65688],[135.53066,34.65656],[135.53065,34.65609],[135.53065,34.65609],[135.53063,34.6557],[135.53062,34.6555],[135.53059,34.65515],[135.53056,34.65482],[135.53056,34.65481],[135.53054,34.65442],[135.52995,34.65443],[135.52942,34.65445],[135.5289,34.65446],[135.52887,34.65446],[135.52836,34.65448],[135.52834,34.65448],[135.5275,34.6545],[135.52745,34.65451],[135.52691,34.65451],[135.52686,34.65451],[135.52675,34.65454],[135.52677,34.65459],[135.52675,34.6546],[135.5269,34.65507],[135.5271,34.65567],[135.5273,34.65626],[135.52778,34.65768],[135.52779,34.65769],[135.5278,34.65769],[135.52807,34.65769],[135.52842,34.65768],[135.52892,34.65767],[135.52908,34.6576],[135.52948,34.65748]]]}},{"type":"Feature","properties":{"name":"勝山北二丁目","setai":914,"jinko":1582,"key":"27116003002","units":1},"geometry":{"type":"Polygon","coordinates":[[[135.53255,34.65498],[135.53239,34.65429],[135.53174,34.65433],[135.53153,34.65433],[135.53054,34.6544],[135.53054,34.65442],[135.53056,34.65481],[135.53056,34.65482],[135.53059,34.65515],[135.53062,34.6555],[135.53063,34.6557],[135.53065,34.65609],[135.53065,34.65609],[135.53066,34.65656],[135.5307,34.65688],[135.53072,34.65726],[135.53072,34.65729],[135.53074,34.65762],[135.531,34.65766],[135.53133,34.65769],[135.53164,34.65772],[135.53172,34.65772],[135.53213,34.65776],[135.53215,34.65776],[135.53227,34.6578],[135.53242,34.65784],[135.53266,34.6579],[135.53281,34.65792],[135.53298,34.65794],[135.53308,34.65793],[135.53345,34.65784],[135.53324,34.65721],[135.53317,34.657],[135.53301,34.65651],[135.53296,34.65639],[135.53278,34.65585],[135.5327,34.65561],[135.53266,34.65544],[135.53266,34.65543],[135.53262,34.65529],[135.5326,34.65519],[135.53255,34.65498]]]}},{"type":"Feature","properties":{"name":"勝山北三丁目","setai":596,"jinko":1152,"key":"27116003003","units":1},"geometry":{"type":"Polygon","coordinates":[[[135.53639,34.65401],[135.53637,34.65401],[135.53539,34.65407],[135.53504,34.6541],[135.53478,34.65412],[135.53472,34.65412],[135.53462,34.65413],[135.53416,34.65417],[135.53239,34.65429],[135.53255,34.65498],[135.5326,34.65519],[135.53262,34.65529],[135.53266,34.65543],[135.53266,34.65544],[135.5327,34.65561],[135.53278,34.65585],[135.53296,34.65639],[135.53301,34.65651],[135.53317,34.657],[135.53324,34.65721],[135.53345,34.65784],[135.53347,34.65789],[135.53403,34.65778],[135.53418,34.65763],[135.53456,34.65729],[135.53473,34.65709],[135.53485,34.65685],[135.53491,34.65673],[135.53491,34.6567],[135.5351,34.65645],[135.53524,34.65632],[135.53545,34.65624],[135.53557,34.65608],[135.53568,34.65586],[135.53572,34.65582],[135.53593,34.65559],[135.53597,34.65555],[135.536,34.65538],[135.53599,34.65518],[135.53606,34.65499],[135.53618,34.65483],[135.53627,34.65473],[135.5363,34.65452],[135.53639,34.65401]]]}},{"type":"Feature","properties":{"name":"勝山北四丁目","setai":567,"jinko":1252,"key":"27116003004","units":1},"geometry":{"type":"Polygon","coordinates":[[[135.53572,34.65785],[135.53647,34.65774],[135.53648,34.65777],[135.53681,34.65769],[135.537,34.65765],[135.53726,34.65757],[135.53737,34.65752],[135.53755,34.65735],[135.53768,34.65718],[135.53774,34.65707],[135.53779,34.65693],[135.53782,34.65682],[135.53784,34.65671],[135.53786,34.65648],[135.53784,34.65643],[135.53788,34.65642],[135.53782,34.65619],[135.53766,34.65574],[135.5376,34.65563],[135.53755,34.65558],[135.53753,34.65553],[135.53749,34.65545],[135.5374,34.65535],[135.53721,34.65531],[135.53713,34.65528],[135.53702,34.65501],[135.53696,34.65497],[135.53693,34.65481],[135.53693,34.65478],[135.53694,34.65459],[135.53699,34.65433],[135.53707,34.65426],[135.53736,34.65415],[135.53747,34.65407],[135.53753,34.65398],[135.53756,34.65389],[135.53639,34.65401],[135.5363,34.65452],[135.53627,34.65473],[135.53618,34.65483],[135.53606,34.65499],[135.53599,34.65518],[135.536,34.65538],[135.53597,34.65555],[135.53593,34.65559],[135.53572,34.65582],[135.53568,34.65586],[135.53557,34.65608],[135.53545,34.65624],[135.53524,34.65632],[135.5351,34.65645],[135.53491,34.6567],[135.53491,34.65673],[135.53485,34.65685],[135.53473,34.65709],[135.53456,34.65729],[135.53418,34.65763],[135.53403,34.65778],[135.53417,34.6578],[135.53418,34.65779],[135.53426,34.65779],[135.53446,34.65781],[135.53506,34.65786],[135.53572,34.65785]]]}},{"type":"Feature","properties":{"name":"勝山北五丁目","setai":883,"jinko":1744,"key":"27116003005","units":1},"geometry":{"type":"Polygon","coordinates":[[[135.5398,34.65759],[135.53984,34.65712],[135.53985,34.65696],[135.53985,34.65682],[135.53989,34.65627],[135.53989,34.65624],[135.53992,34.65582],[135.53993,34.65565],[135.53996,34.65565],[135.53996,34.65561],[135.53997,34.65544],[135.54001,34.65488],[135.54004,34.65435],[135.54004,34.65427],[135.54004,34.65421],[135.54004,34.65419],[135.54009,34.65362],[135.53932,34.6537],[135.53865,34.65377],[135.53819,34.65382],[135.53802,34.65384],[135.53791,34.65386],[135.53782,34.65387],[135.53775,34.65387],[135.53772,34.65388],[135.53763,34.65389],[135.53756,34.65389],[135.53753,34.65398],[135.53747,34.65407],[135.53736,34.65415],[135.53707,34.65426],[135.53699,34.65433],[135.53694,34.65459],[135.53693,34.65478],[135.53693,34.65481],[135.53696,34.65497],[135.53702,34.65501],[135.53713,34.65528],[135.53721,34.65531],[135.5374,34.65535],[135.53749,34.65545],[135.53753,34.65553],[135.53755,34.65558],[135.5376,34.65563],[135.53766,34.65574],[135.53782,34.65619],[135.53788,34.65642],[135.53784,34.65643],[135.53786,34.65648],[135.53784,34.65671],[135.53782,34.65682],[135.53779,34.65693],[135.53774,34.65707],[135.53768,34.65718],[135.53755,34.65735],[135.53737,34.65752],[135.53764,34.65753],[135.53822,34.65755],[135.53827,34.65755],[135.53891,34.65757],[135.53905,34.65757],[135.53923,34.65758],[135.5398,34.65759]]]}},{"type":"Feature","properties":{"name":"勝山南一丁目","setai":753,"jinko":1582,"key":"27116004001","units":1},"geometry":{"type":"Polygon","coordinates":[[[135.5292,34.65217],[135.5291,34.65205],[135.52874,34.65207],[135.52835,34.65207],[135.52774,34.65208],[135.52751,34.65208],[135.52751,34.65208],[135.52728,34.65208],[135.52676,34.65206],[135.52658,34.65208],[135.5263,34.65217],[135.52613,34.65223],[135.52611,34.65223],[135.52601,34.65227],[135.52618,34.6528],[135.52619,34.65282],[135.52629,34.65314],[135.52645,34.65362],[135.52675,34.65454],[135.52686,34.65451],[135.52691,34.65451],[135.52745,34.65451],[135.5275,34.6545],[135.52834,34.65448],[135.52836,34.65448],[135.52887,34.65446],[135.5289,34.65446],[135.52942,34.65445],[135.52995,34.65443],[135.53054,34.65442],[135.53054,34.6544],[135.53052,34.65424],[135.53047,34.65397],[135.53039,34.65365],[135.53037,34.65356],[135.53034,34.65346],[135.53009,34.65315],[135.52995,34.65297],[135.52983,34.65283],[135.52975,34.65272],[135.52972,34.65268],[135.5292,34.65217]]]}},{"type":"Feature","properties":{"name":"勝山南二丁目","setai":297,"jinko":534,"key":"27116004002","units":1},"geometry":{"type":"Polygon","coordinates":[[[135.53156,34.65214],[135.53151,34.65185],[135.53117,34.65188],[135.53094,34.6519],[135.53068,34.65192],[135.53054,34.65193],[135.52979,34.65199],[135.52909,34.65204],[135.5291,34.65205],[135.5292,34.65217],[135.52972,34.65268],[135.52975,34.65272],[135.52983,34.65283],[135.52995,34.65297],[135.53009,34.65315],[135.53034,34.65346],[135.53037,34.65356],[135.53039,34.65365],[135.53047,34.65397],[135.53052,34.65424],[135.53054,34.6544],[135.53153,34.65433],[135.53174,34.65433],[135.53239,34.65429],[135.53237,34.65417],[135.53228,34.65395],[135.53202,34.65322],[135.53185,34.6528],[135.53185,34.65279],[135.53175,34.65259],[135.53159,34.65223],[135.53156,34.65214]]]}},{"type":"Feature","properties":{"name":"勝山南三丁目","setai":452,"jinko":903,"key":"27116004003","units":1},"geometry":{"type":"Polygon","coordinates":[[[135.53645,34.65296],[135.53609,34.65283],[135.53603,34.65283],[135.53602,34.65254],[135.53601,34.6522],[135.53601,34.652],[135.53545,34.65202],[135.53462,34.65204],[135.53446,34.65204],[135.53406,34.65205],[135.53371,34.65206],[135.53321,34.65206],[135.53314,34.65205],[135.53307,34.65201],[135.53289,34.65184],[135.5328,34.65179],[135.53263,34.65178],[135.53245,34.65179],[135.53236,34.6518],[135.53219,34.65182],[135.53216,34.65182],[135.53208,34.65183],[135.53202,34.65182],[135.53163,34.65185],[135.53151,34.65185],[135.53156,34.65214],[135.53159,34.65223],[135.53175,34.65259],[135.53185,34.65279],[135.53185,34.6528],[135.53202,34.65322],[135.53228,34.65395],[135.53237,34.65417],[135.53239,34.65429],[135.53416,34.65417],[135.53462,34.65413],[135.53472,34.65412],[135.53478,34.65412],[135.53504,34.6541],[135.53539,34.65407],[135.53637,34.65401],[135.53649,34.65369],[135.53652,34.65354],[135.53653,34.65339],[135.53652,34.65319],[135.53652,34.65311],[135.53653,34.65306],[135.53645,34.65296]]]}},{"type":"Feature","properties":{"name":"勝山南四丁目","setai":484,"jinko":1038,"key":"27116004004","units":1},"geometry":{"type":"Polygon","coordinates":[[[135.5408,34.65289],[135.54077,34.65271],[135.54074,34.65256],[135.5407,34.65233],[135.54069,34.65229],[135.54059,34.65173],[135.54003,34.65178],[135.53863,34.65192],[135.53863,34.65191],[135.53736,34.65203],[135.53673,34.65202],[135.53601,34.652],[135.53601,34.6522],[135.53602,34.65254],[135.53603,34.65283],[135.53609,34.65283],[135.53645,34.65296],[135.53653,34.65306],[135.53652,34.65311],[135.53652,34.65319],[135.53653,34.65339],[135.53652,34.65354],[135.53649,34.65369],[135.53637,34.65401],[135.53639,34.65401],[135.53756,34.65389],[135.53763,34.65389],[135.53772,34.65388],[135.53775,34.65387],[135.53782,34.65387],[135.53791,34.65386],[135.53802,34.65384],[135.53819,34.65382],[135.53865,34.65377],[135.53932,34.6537],[135.54009,34.65362],[135.54084,34.65352],[135.54092,34.65352],[135.54083,34.65305],[135.5408,34.65289]]]}},{"type":"Feature","properties":{"name":"生野西一丁目","setai":987,"jinko":1767,"key":"27116005001","units":1},"geometry":{"type":"Polygon","coordinates":[[[135.52658,34.65208],[135.52676,34.65206],[135.52728,34.65208],[135.52751,34.65208],[135.52751,34.65208],[135.52774,34.65208],[135.52835,34.65207],[135.52874,34.65207],[135.5291,34.65205],[135.52909,34.65204],[135.52902,34.65197],[135.52835,34.65138],[135.52821,34.65126],[135.528,34.65108],[135.52789,34.65099],[135.52758,34.65073],[135.52711,34.65033],[135.52692,34.65016],[135.5269,34.65014],[135.52683,34.65002],[135.52678,34.64971],[135.52675,34.64958],[135.52675,34.64952],[135.52674,34.64942],[135.52669,34.64906],[135.52663,34.64883],[135.52663,34.64882],[135.52663,34.64857],[135.52582,34.64859],[135.52514,34.64862],[135.52513,34.64856],[135.52505,34.64858],[135.52434,34.64864],[135.52452,34.64885],[135.52467,34.64903],[135.52492,34.64935],[135.52506,34.64957],[135.52513,34.64968],[135.52517,34.64976],[135.52533,34.65008],[135.52534,34.65012],[135.52557,34.65073],[135.52558,34.65081],[135.52559,34.65088],[135.52574,34.65136],[135.52601,34.65227],[135.52611,34.65223],[135.52613,34.65223],[135.5263,34.65217],[135.52658,34.65208]]]}},{"type":"Feature","properties":{"name":"生野西二丁目","setai":301,"jinko":557,"key":"27116005002","units":1},"geometry":{"type":"Polygon","coordinates":[[[135.52505,34.64858],[135.52513,34.64856],[135.52514,34.64862],[135.52582,34.64859],[135.52663,34.64857],[135.52665,34.64838],[135.52666,34.64822],[135.52665,34.6479],[135.52667,34.64752],[135.52663,34.64743],[135.52642,34.64687],[135.52638,34.64677],[135.52632,34.64655],[135.52588,34.64693],[135.52535,34.64738],[135.52505,34.64763],[135.52491,34.64775],[135.52414,34.64839],[135.52411,34.64841],[135.52418,34.64848],[135.52434,34.64864],[135.52505,34.64858]]]}},{"type":"Feature","properties":{"name":"生野西三丁目","setai":587,"jinko":1208,"key":"27116005003","units":1},"geometry":{"type":"Polygon","coordinates":[[[135.5305,34.64967],[135.53046,34.64962],[135.5304,34.64951],[135.53026,34.64913],[135.53008,34.64858],[135.52969,34.64864],[135.52954,34.64866],[135.52954,34.64871],[135.52906,34.64874],[135.52875,34.64875],[135.52869,34.64951],[135.52845,34.64959],[135.52826,34.64966],[135.52795,34.64961],[135.5278,34.64958],[135.52766,34.64957],[135.52742,34.64954],[135.52675,34.64952],[135.52675,34.64958],[135.52678,34.64971],[135.52683,34.65002],[135.5269,34.65014],[135.52692,34.65016],[135.52711,34.65033],[135.52758,34.65073],[135.52789,34.65099],[135.528,34.65108],[135.52821,34.65126],[135.52835,34.65138],[135.52902,34.65197],[135.52909,34.65204],[135.52979,34.65199],[135.53054,34.65193],[135.53068,34.65192],[135.53094,34.6519],[135.53117,34.65188],[135.53151,34.65185],[135.53147,34.65155],[135.5311,34.65087],[135.53086,34.65035],[135.53076,34.65012],[135.53062,34.64988],[135.5306,34.64985],[135.5305,34.64967]]]}},{"type":"Feature","properties":{"name":"生野西四丁目","setai":939,"jinko":1791,"key":"27116005004","units":1},"geometry":{"type":"Polygon","coordinates":[[[135.52969,34.64671],[135.52958,34.64616],[135.52881,34.64618],[135.52879,34.64618],[135.52875,34.64617],[135.52842,34.64623],[135.5281,34.64628],[135.52801,34.64629],[135.52795,34.6463],[135.52755,34.64635],[135.52722,34.64639],[135.52721,34.64639],[135.52638,34.64677],[135.52642,34.64687],[135.52663,34.64743],[135.52667,34.64752],[135.52665,34.6479],[135.52666,34.64822],[135.52665,34.64838],[135.52663,34.64857],[135.52663,34.64882],[135.52663,34.64883],[135.52669,34.64906],[135.52674,34.64942],[135.52675,34.64952],[135.52742,34.64954],[135.52766,34.64957],[135.5278,34.64958],[135.52795,34.64961],[135.52826,34.64966],[135.52845,34.64959],[135.52869,34.64951],[135.52875,34.64875],[135.52906,34.64874],[135.52954,34.64871],[135.52954,34.64866],[135.52969,34.64864],[135.53008,34.64858],[135.52992,34.64782],[135.52992,34.64781],[135.52991,34.64778],[135.5298,34.64725],[135.5298,34.64722],[135.52969,34.64671]]]}},{"type":"Feature","properties":{"name":"生野東一丁目","setai":639,"jinko":1247,"key":"27116006001","units":1},"geometry":{"type":"Polygon","coordinates":[[[135.53163,34.65185],[135.53202,34.65182],[135.53208,34.65183],[135.53216,34.65182],[135.53219,34.65182],[135.53236,34.6518],[135.53245,34.65179],[135.53263,34.65178],[135.5328,34.65179],[135.53289,34.65184],[135.53289,34.65182],[135.53293,34.65172],[135.53294,34.65155],[135.53294,34.65155],[135.53293,34.65148],[135.5329,34.65094],[135.5329,34.65091],[135.53291,34.65088],[135.53291,34.65085],[135.5329,34.6508],[135.53291,34.65055],[135.53302,34.65037],[135.53304,34.65016],[135.53336,34.64972],[135.53335,34.64924],[135.53348,34.64923],[135.53347,34.64907],[135.53346,34.6489],[135.53344,34.64869],[135.53341,34.6484],[135.53311,34.6484],[135.53226,34.64843],[135.53225,34.64843],[135.53215,34.64843],[135.53203,34.64844],[135.53175,34.64847],[135.53171,34.64848],[135.53159,34.64849],[135.53137,34.64853],[135.53101,34.64859],[135.53062,34.64857],[135.53038,34.64857],[135.53008,34.64858],[135.53026,34.64913],[135.5304,34.64951],[135.53046,34.64962],[135.5305,34.64967],[135.5306,34.64985],[135.53062,34.64988],[135.53076,34.65012],[135.53086,34.65035],[135.5311,34.65087],[135.53147,34.65155],[135.53151,34.65185],[135.53163,34.65185]]]}},{"type":"Feature","properties":{"name":"生野東二丁目","setai":514,"jinko":1010,"key":"27116006002","units":1},"geometry":{"type":"Polygon","coordinates":[[[135.53101,34.64859],[135.53137,34.64853],[135.53159,34.64849],[135.53171,34.64848],[135.53175,34.64847],[135.53203,34.64844],[135.53215,34.64843],[135.53225,34.64843],[135.53226,34.64843],[135.53311,34.6484],[135.53305,34.64815],[135.53305,34.64814],[135.53304,34.64811],[135.53304,34.64809],[135.533,34.6476],[135.533,34.64756],[135.53297,34.64725],[135.53293,34.64704],[135.53293,34.64704],[135.53294,34.6465],[135.53294,34.64648],[135.5329,34.64611],[135.53261,34.6461],[135.53232,34.64611],[135.53196,34.64613],[135.53188,34.64614],[135.53173,34.64616],[135.53172,34.64616],[135.53148,34.64617],[135.53147,34.64617],[135.53123,34.64617],[135.53093,34.64617],[135.53057,34.64616],[135.53028,34.64616],[135.53005,34.64616],[135.52969,34.64616],[135.52958,34.64616],[135.52969,34.64671],[135.5298,34.64722],[135.5298,34.64725],[135.52991,34.64778],[135.52992,34.64781],[135.52992,34.64782],[135.53008,34.64858],[135.53038,34.64857],[135.53062,34.64857],[135.53101,34.64859]]]}},{"type":"Feature","properties":{"name":"生野東三丁目","setai":857,"jinko":1809,"key":"27116006003","units":1},"geometry":{"type":"Polygon","coordinates":[[[135.53406,34.65205],[135.53446,34.65204],[135.53462,34.65204],[135.53545,34.65202],[135.53601,34.652],[135.536,34.6517],[135.53597,34.65129],[135.53595,34.65085],[135.53601,34.65068],[135.53606,34.65065],[135.53605,34.65023],[135.53604,34.65006],[135.53604,34.64977],[135.53604,34.64949],[135.53604,34.64923],[135.53603,34.64921],[135.53601,34.64887],[135.53597,34.64846],[135.53537,34.6485],[135.53527,34.64849],[135.53509,34.64847],[135.53446,34.64837],[135.53444,34.64838],[135.53397,34.64838],[135.53341,34.6484],[135.53344,34.64869],[135.53346,34.6489],[135.53347,34.64907],[135.53348,34.64923],[135.53335,34.64924],[135.53336,34.64972],[135.53304,34.65016],[135.53302,34.65037],[135.53291,34.65055],[135.5329,34.6508],[135.53291,34.65085],[135.53291,34.65088],[135.5329,34.65091],[135.5329,34.65094],[135.53293,34.65148],[135.53294,34.65155],[135.53294,34.65155],[135.53293,34.65172],[135.53289,34.65182],[135.53289,34.65184],[135.53307,34.65201],[135.53314,34.65205],[135.53321,34.65206],[135.53371,34.65206],[135.53406,34.65205]]]}},{"type":"Feature","properties":{"name":"生野東四丁目","setai":548,"jinko":1017,"key":"27116006004","units":1},"geometry":{"type":"Polygon","coordinates":[[[135.53597,34.64846],[135.53592,34.6479],[135.53591,34.64773],[135.53593,34.64751],[135.53596,34.64708],[135.53597,34.64695],[135.53597,34.64693],[135.53596,34.64659],[135.53587,34.64601],[135.53551,34.64602],[135.53519,34.64603],[135.5347,34.64605],[135.53441,34.64607],[135.53394,34.64609],[135.53326,34.64612],[135.53324,34.64612],[135.5329,34.64611],[135.53294,34.64648],[135.53294,34.6465],[135.53293,34.64704],[135.53293,34.64704],[135.53297,34.64725],[135.533,34.64756],[135.533,34.6476],[135.53304,34.64809],[135.53304,34.64811],[135.53305,34.64814],[135.53305,34.64815],[135.53311,34.6484],[135.53341,34.6484],[135.53397,34.64838],[135.53444,34.64838],[135.53446,34.64837],[135.53509,34.64847],[135.53527,34.64849],[135.53537,34.6485],[135.53597,34.64846]]]}},{"type":"Feature","properties":{"name":"舎利寺一丁目","setai":500,"jinko":1114,"key":"27116007001","units":1},"geometry":{"type":"Polygon","coordinates":[[[135.53736,34.65203],[135.53863,34.65191],[135.53863,34.65192],[135.54003,34.65178],[135.54059,34.65173],[135.54055,34.65154],[135.54045,34.65096],[135.54045,34.65093],[135.54039,34.65059],[135.54032,34.65023],[135.53919,34.65034],[135.53919,34.65035],[135.5384,34.65042],[135.5384,34.65042],[135.53713,34.65054],[135.53624,34.65063],[135.53606,34.65065],[135.53601,34.65068],[135.53595,34.65085],[135.53597,34.65129],[135.536,34.6517],[135.53601,34.652],[135.53673,34.65202],[135.53736,34.65203]]]}},{"type":"Feature","properties":{"name":"舎利寺二丁目","setai":785,"jinko":1522,"key":"27116007002","units":1},"geometry":{"type":"Polygon","coordinates":[[[135.53713,34.65054],[135.5384,34.65042],[135.5384,34.65042],[135.53919,34.65035],[135.53919,34.65034],[135.54032,34.65023],[135.54027,34.64997],[135.54026,34.64985],[135.54019,34.64951],[135.54015,34.64922],[135.54013,34.64916],[135.54007,34.64883],[135.54001,34.64847],[135.53994,34.64813],[135.53987,34.6477],[135.53937,34.64783],[135.53881,34.64797],[135.5382,34.64813],[135.53726,34.64831],[135.5368,34.6484],[135.53597,34.64846],[135.53601,34.64887],[135.53603,34.64921],[135.53604,34.64923],[135.53604,34.64949],[135.53604,34.64977],[135.53604,34.65006],[135.53605,34.65023],[135.53606,34.65065],[135.53624,34.65063],[135.53713,34.65054]]]}},{"type":"Feature","properties":{"name":"舎利寺三丁目","setai":568,"jinko":1124,"key":"27116007003","units":1},"geometry":{"type":"Polygon","coordinates":[[[135.53957,34.64595],[135.5395,34.64558],[135.53934,34.6456],[135.53912,34.64563],[135.53784,34.64578],[135.53785,34.64578],[135.53636,34.64597],[135.53631,34.64597],[135.5359,34.64601],[135.53587,34.64601],[135.53596,34.64659],[135.53597,34.64693],[135.53597,34.64695],[135.53596,34.64708],[135.53593,34.64751],[135.53591,34.64773],[135.53592,34.6479],[135.53597,34.64846],[135.5368,34.6484],[135.53726,34.64831],[135.5382,34.64813],[135.53881,34.64797],[135.53937,34.64783],[135.53987,34.6477],[135.53981,34.64736],[135.53975,34.647],[135.53969,34.64666],[135.53962,34.6463],[135.53957,34.64595]]]}},{"type":"Feature","properties":{"name":"林寺一丁目","setai":379,"jinko":742,"key":"27116008001","units":1},"geometry":{"type":"Polygon","coordinates":[[[135.52842,34.64623],[135.52875,34.64617],[135.52879,34.64618],[135.52881,34.64618],[135.52958,34.64616],[135.52969,34.64616],[135.52971,34.64613],[135.52964,34.64558],[135.52957,34.64498],[135.52954,34.64469],[135.5295,34.64446],[135.52948,34.64429],[135.5294,34.64419],[135.52924,34.64431],[135.52892,34.64455],[135.52855,34.6448],[135.52837,34.64494],[135.52785,34.64532],[135.52759,34.64553],[135.52752,34.64558],[135.52742,34.64565],[135.52735,34.6457],[135.52716,34.64585],[135.52698,34.646],[135.52665,34.64628],[135.52652,34.6464],[135.52632,34.64655],[135.52638,34.64677],[135.52721,34.64639],[135.52722,34.64639],[135.52755,34.64635],[135.52795,34.6463],[135.52801,34.64629],[135.5281,34.64628],[135.52842,34.64623]]]}},{"type":"Feature","properties":{"name":"林寺二丁目","setai":1122,"jinko":1944,"key":"27116008002","units":1},"geometry":{"type":"Polygon","coordinates":[[[135.53148,34.64617],[135.53172,34.64616],[135.53173,34.64616],[135.53188,34.64614],[135.53196,34.64613],[135.53232,34.64611],[135.53261,34.6461],[135.5329,34.64611],[135.53324,34.64612],[135.53326,34.64612],[135.53324,34.64591],[135.53322,34.64569],[135.53319,34.64529],[135.53314,34.64488],[135.53306,34.64444],[135.53297,34.64404],[135.5329,34.64361],[135.53283,34.64323],[135.53276,34.64285],[135.5327,34.64248],[135.53266,34.64217],[135.53245,34.64196],[135.5324,34.642],[135.53199,34.64231],[135.53145,34.64269],[135.53116,34.6429],[135.53109,34.64295],[135.53079,34.64317],[135.53061,34.6433],[135.53033,34.64351],[135.53,34.64375],[135.52973,34.64395],[135.5294,34.64419],[135.52948,34.64429],[135.5295,34.64446],[135.52954,34.64469],[135.52957,34.64498],[135.52964,34.64558],[135.52971,34.64613],[135.52969,34.64616],[135.53005,34.64616],[135.53028,34.64616],[135.53057,34.64616],[135.53093,34.64617],[135.53123,34.64617],[135.53147,34.64617],[135.53148,34.64617]]]}},{"type":"Feature","properties":{"name":"林寺三丁目","setai":454,"jinko":890,"key":"27116008003","units":1},"geometry":{"type":"Polygon","coordinates":[[[135.53599,34.64411],[135.5359,34.64367],[135.53425,34.64385],[135.53426,34.64391],[135.53297,34.64404],[135.53306,34.64444],[135.53314,34.64488],[135.53319,34.64529],[135.53322,34.64569],[135.53324,34.64591],[135.53326,34.64612],[135.53394,34.64609],[135.53441,34.64607],[135.5347,34.64605],[135.53519,34.64603],[135.53551,34.64602],[135.53587,34.64601],[135.5359,34.64601],[135.53631,34.64597],[135.53636,34.64597],[135.5363,34.64562],[135.53623,34.64523],[135.53622,34.64521],[135.53614,34.64485],[135.53607,34.64448],[135.53599,34.64411]]]}},{"type":"Feature","properties":{"name":"林寺四丁目","setai":671,"jinko":1471,"key":"27116008004","units":1},"geometry":{"type":"Polygon","coordinates":[[[135.53514,34.63953],[135.53508,34.63953],[135.5344,34.63976],[135.53422,34.63997],[135.5341,34.6401],[135.53389,34.64036],[135.53367,34.64065],[135.53336,34.64106],[135.53324,34.6412],[135.53301,34.64146],[135.53282,34.64164],[135.5326,34.64184],[135.53245,34.64196],[135.53266,34.64217],[135.5327,34.64248],[135.53276,34.64285],[135.53283,34.64323],[135.5329,34.64361],[135.53297,34.64404],[135.53426,34.64391],[135.53425,34.64385],[135.5359,34.64367],[135.53583,34.64326],[135.53575,34.64289],[135.53568,34.6425],[135.53567,34.64243],[135.5356,34.64238],[135.53547,34.6423],[135.53545,34.64219],[135.53545,34.64215],[135.53541,34.64197],[135.53538,34.64178],[135.53533,34.64143],[135.53527,34.64105],[135.53518,34.64048],[135.53537,34.64046],[135.53528,34.64013],[135.53519,34.63976],[135.53514,34.63953]]]}},{"type":"Feature","properties":{"name":"林寺五丁目","setai":506,"jinko":1074,"key":"27116008005","units":1},"geometry":{"type":"Polygon","coordinates":[[[135.53921,34.64372],[135.53914,34.64332],[135.53818,34.64342],[135.5381,34.64343],[135.53796,34.64344],[135.53749,34.6435],[135.5359,34.64367],[135.53599,34.64411],[135.53607,34.64448],[135.53614,34.64485],[135.53622,34.64521],[135.53623,34.64523],[135.5363,34.64562],[135.53636,34.64597],[135.53785,34.64578],[135.53784,34.64578],[135.53912,34.64563],[135.53934,34.6456],[135.5395,34.64558],[135.53948,34.64541],[135.53947,34.64522],[135.53941,34.64485],[135.53934,34.64449],[135.53927,34.6441],[135.53924,34.64392],[135.53924,34.6439],[135.53924,34.64389],[135.53921,34.64375],[135.53921,34.64372]]]}},{"type":"Feature","properties":{"name":"林寺六丁目","setai":420,"jinko":793,"key":"27116008006","units":1},"geometry":{"type":"Polygon","coordinates":[[[135.53901,34.64255],[135.53881,34.64147],[135.53755,34.64161],[135.53719,34.64164],[135.53709,34.64163],[135.53697,34.64158],[135.5368,34.64146],[135.53653,34.64129],[135.53639,34.6412],[135.53571,34.64079],[135.53553,34.64067],[135.53542,34.64058],[135.53539,34.64053],[135.53537,34.64046],[135.53518,34.64048],[135.53527,34.64105],[135.53533,34.64143],[135.53538,34.64178],[135.53541,34.64197],[135.53545,34.64215],[135.53545,34.64219],[135.53547,34.6423],[135.5356,34.64238],[135.53567,34.64243],[135.53568,34.6425],[135.53575,34.64289],[135.53583,34.64326],[135.5359,34.64367],[135.53749,34.6435],[135.53796,34.64344],[135.5381,34.64343],[135.53818,34.64342],[135.53914,34.64332],[135.53908,34.64296],[135.53907,34.64289],[135.53901,34.64255]]]}},{"type":"Feature","properties":{"name":"田島一丁目","setai":683,"jinko":1617,"key":"27116009001","units":1},"geometry":{"type":"Polygon","coordinates":[[[135.5427,34.65349],[135.54322,34.65349],[135.54323,34.6535],[135.54332,34.6535],[135.54337,34.6535],[135.54351,34.6535],[135.54353,34.6535],[135.54357,34.6535],[135.54363,34.6535],[135.54396,34.65349],[135.54396,34.65318],[135.54399,34.65252],[135.54403,34.6518],[135.54406,34.65112],[135.54407,34.65106],[135.54367,34.65104],[135.54367,34.65106],[135.54319,34.65103],[135.54285,34.65102],[135.54226,34.651],[135.54193,34.65099],[135.5419,34.65098],[135.54161,34.65097],[135.54097,34.65096],[135.54045,34.65093],[135.54045,34.65096],[135.54055,34.65154],[135.54059,34.65173],[135.54069,34.65229],[135.5407,34.65233],[135.54074,34.65256],[135.54077,34.65271],[135.5408,34.65289],[135.54083,34.65305],[135.54092,34.65352],[135.54143,34.65352],[135.54207,34.6535],[135.54238,34.6535],[135.5427,34.65349]]]}},{"type":"Feature","properties":{"name":"田島二丁目","setai":651,"jinko":1331,"key":"27116009002","units":1},"geometry":{"type":"Polygon","coordinates":[[[135.54407,34.65106],[135.54412,34.65053],[135.54414,34.65019],[135.54417,34.65015],[135.5442,34.64983],[135.54424,34.64947],[135.54427,34.64914],[135.54378,34.64912],[135.54322,34.64911],[135.54301,34.6491],[135.54262,34.64908],[135.54237,34.64907],[135.54207,34.64907],[135.54171,34.6491],[135.54172,34.64916],[135.54108,34.64909],[135.54089,34.64907],[135.54013,34.64916],[135.54015,34.64922],[135.54019,34.64951],[135.54026,34.64985],[135.54027,34.64997],[135.54032,34.65023],[135.54039,34.65059],[135.54045,34.65093],[135.54097,34.65096],[135.54161,34.65097],[135.5419,34.65098],[135.54193,34.65099],[135.54226,34.651],[135.54285,34.65102],[135.54319,34.65103],[135.54367,34.65106],[135.54367,34.65104],[135.54407,34.65106]]]}},{"type":"Feature","properties":{"name":"田島三丁目","setai":372,"jinko":783,"key":"27116009003","units":1},"geometry":{"type":"Polygon","coordinates":[[[135.54013,34.64916],[135.54089,34.64907],[135.54108,34.64909],[135.54172,34.64916],[135.54171,34.6491],[135.54207,34.64907],[135.54237,34.64907],[135.54262,34.64908],[135.54301,34.6491],[135.54322,34.64911],[135.54378,34.64912],[135.54427,34.64914],[135.54434,34.6484],[135.54437,34.64804],[135.54442,34.64769],[135.54343,34.64762],[135.54317,34.6476],[135.54274,34.6476],[135.54172,34.64755],[135.54162,34.64755],[135.541,34.6476],[135.54092,34.64761],[135.53987,34.6477],[135.53994,34.64813],[135.54001,34.64847],[135.54007,34.64883],[135.54013,34.64916]]]}},{"type":"Feature","properties":{"name":"田島四丁目","setai":699,"jinko":1537,"key":"27116009004","units":1},"geometry":{"type":"Polygon","coordinates":[[[135.541,34.6476],[135.54162,34.64755],[135.54172,34.64755],[135.54274,34.6476],[135.54317,34.6476],[135.54343,34.64762],[135.54442,34.64769],[135.54449,34.64709],[135.5445,34.647],[135.54455,34.64665],[135.54461,34.64628],[135.54465,34.64594],[135.5447,34.6456],[135.54342,34.64543],[135.54296,34.64537],[135.54218,34.64527],[135.54206,34.64524],[135.54179,34.64529],[135.54165,34.64532],[135.54104,34.6454],[135.5395,34.64558],[135.53957,34.64595],[135.53962,34.6463],[135.53969,34.64666],[135.53975,34.647],[135.53981,34.64736],[135.53987,34.6477],[135.54092,34.64761],[135.541,34.6476]]]}},{"type":"Feature","properties":{"name":"田島五丁目","setai":789,"jinko":1672,"key":"27116009005","units":1},"geometry":{"type":"Polygon","coordinates":[[[135.54475,34.64525],[135.54479,34.64494],[135.54484,34.64456],[135.54488,34.64411],[135.54499,34.64411],[135.54498,34.64386],[135.54493,34.64378],[135.54493,34.64373],[135.54494,34.64336],[135.54495,34.64264],[135.54474,34.64265],[135.54472,34.64266],[135.54456,34.64267],[135.54454,34.6427],[135.54402,34.64276],[135.54376,34.64279],[135.54207,34.64298],[135.54067,34.64314],[135.53914,34.64332],[135.53921,34.64372],[135.53921,34.64375],[135.53924,34.64389],[135.53924,34.6439],[135.53924,34.64392],[135.53927,34.6441],[135.53934,34.64449],[135.53941,34.64485],[135.53947,34.64522],[135.53948,34.64541],[135.5395,34.64558],[135.54104,34.6454],[135.54165,34.64532],[135.54179,34.64529],[135.54206,34.64524],[135.54218,34.64527],[135.54296,34.64537],[135.54342,34.64543],[135.5447,34.6456],[135.54475,34.64525]]]}},{"type":"Feature","properties":{"name":"田島六丁目","setai":534,"jinko":1024,"key":"27116009006","units":1},"geometry":{"type":"Polygon","coordinates":[[[135.54496,34.64087],[135.5449,34.64058],[135.54477,34.64072],[135.54469,34.64075],[135.54455,34.64079],[135.54431,34.64083],[135.5437,34.64089],[135.5433,34.64093],[135.54176,34.64109],[135.54135,34.64113],[135.54035,34.64126],[135.54019,34.64128],[135.53953,34.64136],[135.53915,34.64142],[135.53881,34.64147],[135.53901,34.64255],[135.53907,34.64289],[135.53908,34.64296],[135.53914,34.64332],[135.54067,34.64314],[135.54207,34.64298],[135.54376,34.64279],[135.54402,34.64276],[135.54457,34.64216],[135.54486,34.64185],[135.54495,34.64174],[135.54499,34.64166],[135.54501,34.64161],[135.54499,34.64127],[135.54496,34.64087]]]}},{"type":"Feature","properties":{"name":"中川一丁目","setai":663,"jinko":1014,"key":"27116010001","units":1},"geometry":{"type":"Polygon","coordinates":[[[135.54242,34.66208],[135.54201,34.66208],[135.54205,34.66233],[135.54208,34.66253],[135.54214,34.66303],[135.54219,34.66338],[135.54221,34.66353],[135.54221,34.66357],[135.54222,34.66359],[135.54222,34.66363],[135.54222,34.66366],[135.54226,34.66406],[135.5424,34.66494],[135.54274,34.66446],[135.5429,34.66418],[135.54292,34.66407],[135.54295,34.664],[135.54297,34.66391],[135.54301,34.66375],[135.54305,34.66362],[135.54311,34.66341],[135.54318,34.66318],[135.54334,34.66291],[135.54353,34.66264],[135.54371,34.66241],[135.54387,34.66221],[135.54389,34.66218],[135.54381,34.66217],[135.54347,34.66215],[135.54337,34.66214],[135.54282,34.6621],[135.54242,34.66208]]]}},{"type":"Feature","properties":{"name":"中川二丁目","setai":731,"jinko":1542,"key":"27116010002","units":1},"geometry":{"type":"Polygon","coordinates":[[[135.54398,34.65915],[135.54397,34.65861],[135.54367,34.65862],[135.54336,34.65862],[135.54306,34.65862],[135.54274,34.65862],[135.54237,34.65863],[135.54206,34.65868],[135.54157,34.65867],[135.54163,34.65914],[135.54164,34.65919],[135.54174,34.66001],[135.54174,34.66003],[135.54186,34.6608],[135.54194,34.66142],[135.54196,34.66155],[135.54197,34.66166],[135.54197,34.6617],[135.54197,34.66173],[135.54201,34.66208],[135.54242,34.66208],[135.54282,34.6621],[135.54337,34.66214],[135.54347,34.66215],[135.54381,34.66217],[135.54389,34.66218],[135.54398,34.66211],[135.54408,34.662],[135.54418,34.66187],[135.54405,34.66176],[135.54401,34.66174],[135.54401,34.66096],[135.544,34.66061],[135.54398,34.65995],[135.54398,34.65931],[135.54398,34.65915]]]}},{"type":"Feature","properties":{"name":"中川三丁目","setai":427,"jinko":778,"key":"27116010003","units":1},"geometry":{"type":"Polygon","coordinates":[[[135.54593,34.65896],[135.54613,34.6586],[135.54538,34.6586],[135.54499,34.6586],[135.54464,34.6586],[135.54431,34.65861],[135.54397,34.65861],[135.54398,34.65915],[135.54398,34.65931],[135.54398,34.65995],[135.544,34.66061],[135.54401,34.66096],[135.54401,34.66174],[135.54405,34.66176],[135.54418,34.66187],[135.54436,34.66166],[135.54456,34.66137],[135.5448,34.66099],[135.54483,34.66094],[135.54505,34.66057],[135.54538,34.65999],[135.54539,34.65998],[135.54542,34.6599],[135.54548,34.65978],[135.54557,34.65963],[135.54568,34.65944],[135.54583,34.65916],[135.54593,34.65896]]]}},{"type":"Feature","properties":{"name":"中川四丁目","setai":563,"jinko":1148,"key":"27116010004","units":1},"geometry":{"type":"Polygon","coordinates":[[[135.54395,34.65726],[135.54395,34.65637],[135.54364,34.65637],[135.54351,34.65637],[135.54347,34.65637],[135.54334,34.65637],[135.54331,34.65637],[135.54303,34.65637],[135.54279,34.65637],[135.5419,34.65634],[135.54126,34.65631],[135.54134,34.65687],[135.54135,34.65694],[135.54137,34.65709],[135.5414,34.65725],[135.54144,34.6577],[135.54154,34.65841],[135.54154,34.65845],[135.54155,34.65853],[135.54156,34.65855],[135.54157,34.65867],[135.54206,34.65868],[135.54237,34.65863],[135.54274,34.65862],[135.54306,34.65862],[135.54336,34.65862],[135.54367,34.65862],[135.54397,34.65861],[135.54397,34.65793],[135.54395,34.65726]]]}},{"type":"Feature","properties":{"name":"中川五丁目","setai":253,"jinko":619,"key":"27116010005","units":1},"geometry":{"type":"Polygon","coordinates":[[[135.54654,34.65668],[135.54658,34.65636],[135.54658,34.65635],[135.54537,34.65636],[135.54532,34.65636],[135.54497,34.65636],[135.54461,34.65636],[135.54459,34.65636],[135.54429,34.65637],[135.54396,34.65637],[135.54395,34.65637],[135.54395,34.65726],[135.54397,34.65793],[135.54397,34.65861],[135.54431,34.65861],[135.54464,34.6586],[135.54499,34.6586],[135.54538,34.6586],[135.54613,34.6586],[135.5462,34.6584],[135.54626,34.65827],[135.54628,34.65823],[135.54633,34.65808],[135.54637,34.65791],[135.54642,34.65762],[135.54647,34.65724],[135.5465,34.65696],[135.54651,34.65694],[135.54654,34.65668]]]}},{"type":"Feature","properties":{"name":"中川六丁目","setai":409,"jinko":722,"key":"27116010006","units":1},"geometry":{"type":"Polygon","coordinates":[[[135.54323,34.6535],[135.54322,34.65349],[135.5427,34.65349],[135.54238,34.6535],[135.54207,34.6535],[135.54143,34.65352],[135.54092,34.65352],[135.54084,34.65352],[135.54092,34.65393],[135.54097,34.6542],[135.54097,34.65426],[135.54107,34.65494],[135.54112,34.65533],[135.54117,34.65562],[135.54117,34.65563],[135.54118,34.65565],[135.5412,34.6558],[135.54126,34.65631],[135.5419,34.65634],[135.54279,34.65637],[135.54291,34.65615],[135.54292,34.65611],[135.54295,34.65597],[135.54294,34.65588],[135.54297,34.65547],[135.54298,34.65514],[135.54298,34.65512],[135.54299,34.65482],[135.54299,34.65464],[135.54301,34.6546],[135.54302,34.65457],[135.54305,34.65446],[135.54306,34.65439],[135.54309,34.65429],[135.54323,34.6535]]]}},{"type":"Feature","properties":{"name":"中川西一丁目","setai":991,"jinko":1732,"key":"27116011001","units":1},"geometry":{"type":"Polygon","coordinates":[[[135.53994,34.66199],[135.53954,34.66197],[135.53952,34.66198],[135.53948,34.66266],[135.53948,34.66267],[135.53946,34.66296],[135.53946,34.663],[135.53944,34.6632],[135.53944,34.66328],[135.53943,34.66336],[135.53943,34.66345],[135.53941,34.66369],[135.53939,34.66394],[135.53936,34.66454],[135.53935,34.66456],[135.53934,34.66483],[135.53933,34.66509],[135.53932,34.66512],[135.5393,34.66541],[135.53928,34.66562],[135.53929,34.66562],[135.53941,34.66562],[135.53969,34.6656],[135.53972,34.6656],[135.54,34.66557],[135.54011,34.66556],[135.54043,34.66554],[135.54056,34.66553],[135.54094,34.6655],[135.54156,34.66545],[135.54196,34.66542],[135.54239,34.66539],[135.54247,34.66538],[135.54243,34.66513],[135.5424,34.66494],[135.54226,34.66406],[135.54222,34.66366],[135.54222,34.66363],[135.54222,34.66359],[135.54221,34.66357],[135.54221,34.66353],[135.54219,34.66338],[135.54214,34.66303],[135.54208,34.66253],[135.54205,34.66233],[135.54201,34.66208],[135.5416,34.66206],[135.54149,34.66205],[135.54086,34.66202],[135.54053,34.66201],[135.54022,34.662],[135.53994,34.66199]]]}},{"type":"Feature","properties":{"name":"中川西二丁目","setai":676,"jinko":1397,"key":"27116011002","units":1},"geometry":{"type":"Polygon","coordinates":[[[135.54201,34.66208],[135.54197,34.66173],[135.54197,34.6617],[135.54197,34.66166],[135.54196,34.66155],[135.54194,34.66142],[135.54186,34.6608],[135.54174,34.66003],[135.54174,34.66001],[135.54164,34.65919],[135.54163,34.65914],[135.54157,34.65867],[135.54156,34.65855],[135.54155,34.65853],[135.54154,34.65845],[135.54154,34.65841],[135.54144,34.6577],[135.54113,34.65768],[135.54051,34.65765],[135.54024,34.65764],[135.5398,34.65762],[135.53977,34.65809],[135.53973,34.65865],[135.53973,34.65877],[135.53971,34.65909],[135.53971,34.65911],[135.53971,34.65914],[135.53966,34.65975],[135.53966,34.65976],[135.53965,34.65995],[135.53961,34.66069],[135.5396,34.66071],[135.53955,34.66157],[135.53954,34.66172],[135.53954,34.66173],[135.53952,34.66198],[135.53954,34.66197],[135.53994,34.66199],[135.54022,34.662],[135.54053,34.66201],[135.54086,34.66202],[135.54149,34.66205],[135.5416,34.66206],[135.54201,34.66208]]]}},{"type":"Feature","properties":{"name":"中川西三丁目","setai":215,"jinko":486,"key":"27116011003","units":1},"geometry":{"type":"Polygon","coordinates":[[[135.5412,34.6558],[135.54118,34.65565],[135.54117,34.65563],[135.54117,34.65562],[135.54112,34.65533],[135.54107,34.65494],[135.54097,34.65426],[135.54097,34.6542],[135.54092,34.65393],[135.54084,34.65352],[135.54009,34.65362],[135.54004,34.65419],[135.54004,34.65421],[135.54004,34.65427],[135.54004,34.65435],[135.54001,34.65488],[135.53997,34.65544],[135.53996,34.65561],[135.53996,34.65565],[135.53993,34.65565],[135.53992,34.65582],[135.53989,34.65624],[135.53989,34.65627],[135.53985,34.65682],[135.53985,34.65696],[135.53984,34.65712],[135.5398,34.65759],[135.5398,34.65762],[135.54024,34.65764],[135.54051,34.65765],[135.54113,34.65768],[135.54144,34.6577],[135.5414,34.65725],[135.54137,34.65709],[135.54135,34.65694],[135.54134,34.65687],[135.54126,34.65631],[135.5412,34.6558]]]}},{"type":"Feature","properties":{"name":"中川東一丁目","setai":484,"jinko":928,"key":"27116012001","units":1},"geometry":{"type":"Polygon","coordinates":[[[135.54886,34.65664],[135.54878,34.65634],[135.54875,34.65634],[135.54774,34.65634],[135.54658,34.65636],[135.54654,34.65668],[135.54651,34.65694],[135.5465,34.65696],[135.54647,34.65724],[135.54642,34.65762],[135.54637,34.65791],[135.54633,34.65808],[135.54628,34.65823],[135.54626,34.65827],[135.5462,34.6584],[135.54613,34.6586],[135.54658,34.65859],[135.54774,34.65859],[135.54777,34.65859],[135.5486,34.65858],[135.54934,34.65857],[135.54918,34.6579],[135.54918,34.65788],[135.5491,34.6576],[135.54901,34.65723],[135.54894,34.65692],[135.54886,34.65664]]]}},{"type":"Feature","properties":{"name":"中川東二丁目","setai":762,"jinko":1378,"key":"27116012002","units":1},"geometry":{"type":"Polygon","coordinates":[[[135.5523,34.65687],[135.55121,34.65634],[135.55118,34.65633],[135.551,34.65633],[135.55082,34.65633],[135.55054,34.65633],[135.55052,34.65633],[135.55015,34.65633],[135.5498,34.65633],[135.54902,34.65634],[135.54878,34.65634],[135.54886,34.65664],[135.54894,34.65692],[135.54901,34.65723],[135.5491,34.6576],[135.54918,34.65788],[135.54918,34.6579],[135.54934,34.65857],[135.54981,34.65856],[135.55019,34.65856],[135.55075,34.65855],[135.55116,34.65855],[135.55131,34.65855],[135.55148,34.65854],[135.5518,34.65854],[135.55221,34.65853],[135.55239,34.65853],[135.55242,34.6585],[135.55242,34.65821],[135.55242,34.65815],[135.55267,34.65815],[135.55271,34.65804],[135.55275,34.6579],[135.55276,34.65781],[135.55278,34.65746],[135.55318,34.65745],[135.55318,34.6571],[135.55276,34.65709],[135.55232,34.65687],[135.5523,34.65687]]]}},{"type":"Feature","properties":{"name":"新今里一丁目","setai":1270,"jinko":1801,"key":"27116013001","units":1},"geometry":{"type":"Polygon","coordinates":[[[135.54593,34.66258],[135.54587,34.66208],[135.5457,34.66209],[135.54565,34.66209],[135.54554,34.6621],[135.54552,34.6621],[135.54527,34.66212],[135.54481,34.66215],[135.54387,34.66221],[135.54371,34.66241],[135.54353,34.66264],[135.54334,34.66291],[135.54318,34.66318],[135.54311,34.66341],[135.54305,34.66362],[135.54301,34.66375],[135.54297,34.66391],[135.54295,34.664],[135.54292,34.66407],[135.5429,34.66418],[135.54274,34.66446],[135.5424,34.66494],[135.54243,34.66513],[135.54247,34.66538],[135.54253,34.66537],[135.54303,34.66533],[135.54342,34.66531],[135.54404,34.66526],[135.54473,34.66521],[135.54544,34.66514],[135.54546,34.66514],[135.54619,34.6651],[135.54618,34.66492],[135.54613,34.66446],[135.54611,34.66429],[135.54611,34.66424],[135.5461,34.66414],[135.54609,34.66399],[135.54606,34.66375],[135.54604,34.66349],[135.54602,34.66327],[135.54599,34.66304],[135.54593,34.66258]]]}},{"type":"Feature","properties":{"name":"新今里二丁目","setai":886,"jinko":1205,"key":"27116013002","units":1},"geometry":{"type":"Polygon","coordinates":[[[135.54814,34.66239],[135.54809,34.66191],[135.5476,34.66195],[135.54694,34.662],[135.54646,34.66204],[135.54587,34.66208],[135.54593,34.66258],[135.54599,34.66304],[135.54602,34.66327],[135.54604,34.66349],[135.54606,34.66375],[135.54609,34.66399],[135.5461,34.66414],[135.54611,34.66424],[135.54611,34.66429],[135.54613,34.66446],[135.54618,34.66492],[135.54619,34.6651],[135.5472,34.66502],[135.54725,34.66502],[135.54836,34.66494],[135.54834,34.66477],[135.54831,34.66447],[135.5483,34.66433],[135.54826,34.66385],[135.54822,34.66334],[135.54818,34.66286],[135.54814,34.66239]]]}},{"type":"Feature","properties":{"name":"新今里三丁目","setai":2500,"jinko":3109,"key":"27116013003","units":1},"geometry":{"type":"Polygon","coordinates":[[[135.54778,34.65894],[135.54774,34.65859],[135.54658,34.65859],[135.54613,34.6586],[135.54593,34.65896],[135.54583,34.65916],[135.54568,34.65944],[135.54557,34.65963],[135.54548,34.65978],[135.54542,34.6599],[135.54539,34.65998],[135.54538,34.65999],[135.54505,34.66057],[135.54483,34.66094],[135.5448,34.66099],[135.54456,34.66137],[135.54436,34.66166],[135.54418,34.66187],[135.54408,34.662],[135.54398,34.66211],[135.54389,34.66218],[135.54387,34.66221],[135.54481,34.66215],[135.54527,34.66212],[135.54552,34.6621],[135.54554,34.6621],[135.54565,34.66209],[135.5457,34.66209],[135.54587,34.66208],[135.54646,34.66204],[135.54694,34.662],[135.5476,34.66195],[135.54809,34.66191],[135.54805,34.66146],[135.54801,34.6611],[135.54799,34.66095],[135.54798,34.66076],[135.54796,34.66058],[135.54794,34.66037],[135.54789,34.65997],[135.54786,34.65962],[135.54782,34.65927],[135.54781,34.65917],[135.54778,34.65894]]]}},{"type":"Feature","properties":{"name":"新今里四丁目","setai":1119,"jinko":1486,"key":"27116013004","units":1},"geometry":{"type":"Polygon","coordinates":[[[135.55028,34.66225],[135.55015,34.66176],[135.54976,34.66179],[135.54934,34.66182],[135.54925,34.66182],[135.54925,34.66182],[135.54809,34.66191],[135.54814,34.66239],[135.54818,34.66286],[135.54822,34.66334],[135.54826,34.66385],[135.5483,34.66433],[135.54831,34.66447],[135.54834,34.66477],[135.54836,34.66494],[135.54854,34.66492],[135.54911,34.66488],[135.55085,34.66475],[135.55081,34.66464],[135.55074,34.6642],[135.55068,34.66391],[135.55068,34.66384],[135.55065,34.66368],[135.55061,34.66349],[135.55058,34.66336],[135.55052,34.66318],[135.55048,34.66304],[135.5504,34.66271],[135.55032,34.66241],[135.55031,34.66238],[135.55028,34.66225]]]}},{"type":"Feature","properties":{"name":"新今里五丁目","setai":1127,"jinko":1580,"key":"27116013005","units":1},"geometry":{"type":"Polygon","coordinates":[[[135.54809,34.66191],[135.54925,34.66182],[135.54925,34.66182],[135.54934,34.66182],[135.54976,34.66179],[135.55015,34.66176],[135.55005,34.66132],[135.54999,34.66114],[135.54976,34.66024],[135.54973,34.6601],[135.54968,34.65991],[135.54966,34.65985],[135.54961,34.65963],[135.54958,34.6595],[135.54954,34.65933],[135.5495,34.65917],[135.54949,34.65915],[135.54944,34.65893],[135.54934,34.65857],[135.5486,34.65858],[135.54777,34.65859],[135.54774,34.65859],[135.54778,34.65894],[135.54781,34.65917],[135.54782,34.65927],[135.54786,34.65962],[135.54789,34.65997],[135.54794,34.66037],[135.54796,34.66058],[135.54798,34.66076],[135.54799,34.66095],[135.54801,34.6611],[135.54805,34.66146],[135.54809,34.66191]]]}},{"type":"Feature","properties":{"name":"新今里六丁目","setai":680,"jinko":1178,"key":"27116013006","units":1},"geometry":{"type":"Polygon","coordinates":[[[135.55071,34.66177],[135.55015,34.66176],[135.55028,34.66225],[135.55031,34.66238],[135.55032,34.66241],[135.5504,34.66271],[135.55048,34.66304],[135.55052,34.66318],[135.55058,34.66336],[135.55061,34.66349],[135.55065,34.66368],[135.55068,34.66384],[135.55068,34.66391],[135.55074,34.6642],[135.55081,34.66464],[135.55085,34.66475],[135.55191,34.66469],[135.55196,34.66454],[135.5521,34.66414],[135.55215,34.664],[135.5522,34.66377],[135.55224,34.66365],[135.55224,34.66365],[135.55231,34.66323],[135.55237,34.66291],[135.5524,34.66273],[135.55252,34.6626],[135.55249,34.66259],[135.55242,34.66256],[135.5524,34.66224],[135.55244,34.66215],[135.55258,34.66188],[135.5523,34.66185],[135.55211,34.66184],[135.55185,34.66182],[135.55166,34.66181],[135.55119,34.66179],[135.55075,34.66178],[135.55071,34.66177]]]}},{"type":"Feature","properties":{"name":"新今里七丁目","setai":653,"jinko":1218,"key":"27116013007","units":1},"geometry":{"type":"Polygon","coordinates":[[[135.5524,34.65892],[135.55239,34.65853],[135.55221,34.65853],[135.5518,34.65854],[135.55148,34.65854],[135.55131,34.65855],[135.55116,34.65855],[135.55075,34.65855],[135.55019,34.65856],[135.54981,34.65856],[135.54934,34.65857],[135.54944,34.65893],[135.54949,34.65915],[135.5495,34.65917],[135.54954,34.65933],[135.54958,34.6595],[135.54961,34.65963],[135.54966,34.65985],[135.54968,34.65991],[135.54973,34.6601],[135.54976,34.66024],[135.54999,34.66114],[135.55005,34.66132],[135.55015,34.66176],[135.55071,34.66177],[135.55075,34.66178],[135.55119,34.66179],[135.55166,34.66181],[135.55185,34.66182],[135.55211,34.66184],[135.5523,34.66185],[135.55258,34.66188],[135.5526,34.66184],[135.55283,34.66137],[135.55242,34.66123],[135.55242,34.66097],[135.55242,34.66096],[135.55242,34.66093],[135.55242,34.66067],[135.55242,34.66055],[135.55241,34.66038],[135.55242,34.66006],[135.55242,34.66005],[135.55241,34.65974],[135.55239,34.65944],[135.55241,34.65918],[135.55241,34.65915],[135.55241,34.65905],[135.5524,34.65892]]]}},{"type":"Feature","properties":{"name":"小路一丁目","setai":916,"jinko":1735,"key":"27116014001","units":1},"geometry":{"type":"Polygon","coordinates":[[[135.5563,34.66205],[135.55629,34.6619],[135.55628,34.66175],[135.55627,34.66169],[135.556,34.66169],[135.55554,34.66168],[135.55535,34.66168],[135.5553,34.66168],[135.5552,34.66168],[135.55505,34.66168],[135.55488,34.66168],[135.55464,34.66168],[135.55444,34.66168],[135.55397,34.66177],[135.55342,34.66191],[135.55341,34.66194],[135.5526,34.66184],[135.55258,34.66188],[135.55244,34.66215],[135.5524,34.66224],[135.55242,34.66256],[135.55249,34.66259],[135.55252,34.6626],[135.5524,34.66273],[135.55237,34.66291],[135.55231,34.66323],[135.55224,34.66365],[135.55224,34.66365],[135.5522,34.66377],[135.55215,34.664],[135.5521,34.66414],[135.55196,34.66454],[135.55191,34.66469],[135.55252,34.66464],[135.55351,34.66457],[135.55416,34.66451],[135.55472,34.66446],[135.55561,34.6644],[135.55651,34.66435],[135.55646,34.66409],[135.55643,34.66352],[135.55639,34.66323],[135.55637,34.66293],[135.55635,34.66263],[135.55632,34.66236],[135.5563,34.66205]]]}},{"type":"Feature","properties":{"name":"小路二丁目","setai":1218,"jinko":2100,"key":"27116014002","units":1},"geometry":{"type":"Polygon","coordinates":[[[135.55444,34.66168],[135.55464,34.66168],[135.55488,34.66168],[135.55505,34.66168],[135.5552,34.66168],[135.5553,34.66168],[135.55535,34.66168],[135.55554,34.66168],[135.556,34.66169],[135.55627,34.66169],[135.55623,34.66123],[135.55621,34.66085],[135.55557,34.66083],[135.55554,34.66077],[135.55569,34.66073],[135.55576,34.66069],[135.55581,34.66063],[135.55612,34.66009],[135.55614,34.66006],[135.55627,34.65982],[135.5564,34.65965],[135.55663,34.65942],[135.55667,34.65939],[135.55666,34.65931],[135.55598,34.65932],[135.55575,34.65933],[135.55575,34.65919],[135.55575,34.659],[135.55571,34.65849],[135.55476,34.65849],[135.55393,34.6585],[135.55332,34.65851],[135.55286,34.6585],[135.55242,34.6585],[135.55239,34.65853],[135.5524,34.65892],[135.55241,34.65905],[135.55241,34.65915],[135.55241,34.65918],[135.55239,34.65944],[135.55241,34.65974],[135.55242,34.66005],[135.55242,34.66006],[135.55241,34.66038],[135.55242,34.66055],[135.55242,34.66067],[135.55242,34.66093],[135.55242,34.66096],[135.55242,34.66097],[135.55242,34.66123],[135.55283,34.66137],[135.5526,34.66184],[135.55341,34.66194],[135.55342,34.66191],[135.55397,34.66177],[135.55444,34.66168]]]}},{"type":"Feature","properties":{"name":"小路三丁目","setai":701,"jinko":1275,"key":"27116014003","units":1},"geometry":{"type":"Polygon","coordinates":[[[135.55332,34.65851],[135.55393,34.6585],[135.55476,34.65849],[135.55571,34.65849],[135.5557,34.65812],[135.55575,34.65805],[135.55586,34.65803],[135.55582,34.6578],[135.55576,34.65744],[135.55567,34.65706],[135.55562,34.65679],[135.55549,34.65601],[135.55536,34.65601],[135.55476,34.65601],[135.55475,34.65601],[135.55471,34.65601],[135.5539,34.65601],[135.55317,34.65602],[135.55318,34.65606],[135.55317,34.65632],[135.55317,34.65633],[135.55318,34.65658],[135.55318,34.65659],[135.55318,34.65709],[135.55318,34.6571],[135.55318,34.65745],[135.55278,34.65746],[135.55276,34.65781],[135.55275,34.6579],[135.55271,34.65804],[135.55267,34.65815],[135.55242,34.65815],[135.55242,34.65821],[135.55242,34.6585],[135.55286,34.6585],[135.55332,34.65851]]]}},{"type":"Feature","properties":{"name":"小路東一丁目","setai":903,"jinko":1646,"key":"27116015001","units":1},"geometry":{"type":"Polygon","coordinates":[[[135.5571,34.66371],[135.5571,34.66352],[135.55769,34.66353],[135.55771,34.66353],[135.55849,34.66343],[135.55912,34.66336],[135.55906,34.66307],[135.55904,34.66292],[135.55935,34.6629],[135.55937,34.6629],[135.56006,34.66287],[135.56007,34.66287],[135.56053,34.66284],[135.56081,34.66284],[135.56112,34.66283],[135.56116,34.66271],[135.56126,34.66247],[135.56132,34.66221],[135.56132,34.6622],[135.56138,34.66219],[135.56137,34.66191],[135.56136,34.66183],[135.56132,34.66151],[135.56129,34.66148],[135.56118,34.66149],[135.56082,34.66153],[135.56071,34.66154],[135.56058,34.66155],[135.55997,34.66161],[135.55985,34.66163],[135.5595,34.66165],[135.55897,34.66167],[135.55883,34.66167],[135.55846,34.66168],[135.5583,34.66169],[135.5581,34.66169],[135.55807,34.6617],[135.55767,34.66172],[135.55724,34.66173],[135.55686,34.66174],[135.55628,34.66175],[135.55629,34.6619],[135.5563,34.66205],[135.55632,34.66236],[135.55635,34.66263],[135.55637,34.66293],[135.55639,34.66323],[135.55643,34.66352],[135.55646,34.66409],[135.55651,34.66435],[135.5571,34.66431],[135.5571,34.66416],[135.5571,34.66414],[135.5571,34.66371]]]}},{"type":"Feature","properties":{"name":"小路東二丁目","setai":1201,"jinko":2097,"key":"27116015002","units":1},"geometry":{"type":"Polygon","coordinates":[[[135.55886,34.65962],[135.55885,34.6593],[135.55885,34.65921],[135.55886,34.65902],[135.55885,34.65878],[135.55885,34.65849],[135.55819,34.65851],[135.55765,34.65852],[135.55763,34.65852],[135.55764,34.65848],[135.55703,34.65848],[135.55666,34.65848],[135.55594,34.65848],[135.55571,34.65849],[135.55575,34.659],[135.55575,34.65919],[135.55575,34.65933],[135.55598,34.65932],[135.55666,34.65931],[135.55667,34.65939],[135.55663,34.65942],[135.5564,34.65965],[135.55627,34.65982],[135.55614,34.66006],[135.55612,34.66009],[135.55581,34.66063],[135.55576,34.66069],[135.55569,34.66073],[135.55554,34.66077],[135.55557,34.66083],[135.55621,34.66085],[135.55623,34.66123],[135.55627,34.66169],[135.55628,34.66175],[135.55686,34.66174],[135.55724,34.66173],[135.55767,34.66172],[135.55807,34.6617],[135.5581,34.66169],[135.5583,34.66169],[135.55846,34.66168],[135.55883,34.66167],[135.55887,34.66151],[135.55889,34.6612],[135.55889,34.66105],[135.55888,34.66069],[135.55888,34.66047],[135.55887,34.66024],[135.55886,34.65999],[135.55886,34.65964],[135.55886,34.65962]]]}},{"type":"Feature","properties":{"name":"小路東三丁目","setai":729,"jinko":1451,"key":"27116015003","units":1},"geometry":{"type":"Polygon","coordinates":[[[135.56164,34.65874],[135.56164,34.65847],[135.56086,34.65847],[135.56049,34.65847],[135.56001,34.65849],[135.55885,34.65849],[135.55885,34.65878],[135.55886,34.65902],[135.55885,34.65921],[135.55885,34.6593],[135.55886,34.65962],[135.55886,34.65964],[135.55886,34.65999],[135.55887,34.66024],[135.55888,34.66047],[135.55888,34.66069],[135.55889,34.66105],[135.55889,34.6612],[135.55887,34.66151],[135.55883,34.66167],[135.55897,34.66167],[135.5595,34.66165],[135.55985,34.66163],[135.55997,34.66161],[135.56058,34.66155],[135.56071,34.66154],[135.56082,34.66153],[135.56118,34.66149],[135.56129,34.66148],[135.56107,34.66124],[135.56107,34.66118],[135.56119,34.66091],[135.5612,34.66089],[135.56124,34.66081],[135.56143,34.66044],[135.56149,34.66033],[135.56153,34.66008],[135.56146,34.66007],[135.5615,34.65986],[135.56151,34.65984],[135.56155,34.65968],[135.5616,34.65944],[135.56161,34.65939],[135.56163,34.65922],[135.56163,34.65917],[135.56164,34.65878],[135.56164,34.65874]]]}},{"type":"Feature","properties":{"name":"小路東四丁目","setai":744,"jinko":1410,"key":"27116015004","units":1},"geometry":{"type":"Polygon","coordinates":[[[135.55885,34.65849],[135.55884,34.65821],[135.55884,34.65796],[135.55883,34.65775],[135.55884,34.65772],[135.55883,34.65739],[135.55882,34.65704],[135.55881,34.65652],[135.55881,34.65626],[135.5588,34.65599],[135.55844,34.656],[135.55799,34.656],[135.55787,34.656],[135.55759,34.656],[135.55756,34.656],[135.55664,34.656],[135.55662,34.656],[135.5557,34.65601],[135.55549,34.65601],[135.55562,34.65679],[135.55567,34.65706],[135.55576,34.65744],[135.55582,34.6578],[135.55586,34.65803],[135.55575,34.65805],[135.5557,34.65812],[135.55571,34.65849],[135.55594,34.65848],[135.55666,34.65848],[135.55703,34.65848],[135.55764,34.65848],[135.55763,34.65852],[135.55765,34.65852],[135.55819,34.65851],[135.55885,34.65849]]]}},{"type":"Feature","properties":{"name":"小路東五丁目","setai":530,"jinko":994,"key":"27116015005","units":1},"geometry":{"type":"Polygon","coordinates":[[[135.56001,34.65849],[135.56049,34.65847],[135.56086,34.65847],[135.56164,34.65847],[135.56164,34.65821],[135.56164,34.65817],[135.56164,34.65792],[135.56164,34.65791],[135.56164,34.65768],[135.56163,34.65736],[135.56163,34.65702],[135.56166,34.65703],[135.56169,34.65647],[135.56167,34.65647],[135.5617,34.65581],[135.561,34.65586],[135.561,34.65577],[135.561,34.65572],[135.56034,34.65574],[135.56001,34.65575],[135.55995,34.65576],[135.55995,34.65598],[135.55888,34.65599],[135.55881,34.65599],[135.5588,34.65599],[135.55881,34.65626],[135.55881,34.65652],[135.55882,34.65704],[135.55883,34.65739],[135.55884,34.65772],[135.55883,34.65775],[135.55884,34.65796],[135.55884,34.65821],[135.55885,34.65849],[135.56001,34.65849]]]}},{"type":"Feature","properties":{"name":"小路東六丁目","setai":570,"jinko":1006,"key":"27116015006","units":1},"geometry":{"type":"Polygon","coordinates":[[[135.564,34.6585],[135.56399,34.65807],[135.56398,34.6577],[135.56398,34.65744],[135.56398,34.65716],[135.56397,34.65697],[135.56397,34.65689],[135.56397,34.65656],[135.56371,34.65656],[135.56349,34.65656],[135.56344,34.65656],[135.56295,34.65657],[135.56293,34.65616],[135.56293,34.65598],[135.56292,34.6558],[135.56286,34.65579],[135.56267,34.65579],[135.56241,34.65579],[135.5617,34.65581],[135.56167,34.65647],[135.56169,34.65647],[135.56166,34.65703],[135.56163,34.65702],[135.56163,34.65736],[135.56164,34.65768],[135.56164,34.65791],[135.56164,34.65792],[135.56164,34.65817],[135.56164,34.65821],[135.56164,34.65847],[135.5623,34.65845],[135.56234,34.65845],[135.56252,34.65845],[135.56293,34.65844],[135.56307,34.65844],[135.56311,34.65844],[135.56329,34.65845],[135.56365,34.65848],[135.564,34.6585]]]}},{"type":"Feature","properties":{"name":"巽中一丁目","setai":1084,"jinko":1987,"key":"27116016001","units":1},"geometry":{"type":"Polygon","coordinates":[[[135.55113,34.65338],[135.55142,34.65336],[135.55155,34.65336],[135.55179,34.65336],[135.55229,34.65335],[135.55314,34.65334],[135.55323,34.65333],[135.55346,34.65333],[135.55362,34.65333],[135.55376,34.65333],[135.5538,34.65333],[135.55502,34.65332],[135.55497,34.65292],[135.55492,34.65265],[135.55492,34.65264],[135.55482,34.65202],[135.55481,34.65199],[135.55473,34.6515],[135.55471,34.65145],[135.55462,34.65093],[135.55461,34.65088],[135.5535,34.65084],[135.55216,34.6508],[135.55165,34.65078],[135.55125,34.65076],[135.55042,34.65074],[135.54913,34.65068],[135.54842,34.65066],[135.5484,34.65126],[135.5484,34.65127],[135.54836,34.65194],[135.54836,34.65197],[135.5483,34.65342],[135.54902,34.65341],[135.55005,34.65339],[135.55055,34.65338],[135.55113,34.65338]]]}},{"type":"Feature","properties":{"name":"巽中二丁目","setai":1055,"jinko":2330,"key":"27116016002","units":1},"geometry":{"type":"Polygon","coordinates":[[[135.55452,34.65026],[135.55444,34.64986],[135.55434,34.64932],[135.5543,34.64917],[135.5543,34.64916],[135.55416,34.64839],[135.55366,34.64832],[135.55363,34.64831],[135.55303,34.64822],[135.55301,34.64822],[135.55237,34.64812],[135.55236,34.64819],[135.5519,34.64817],[135.55141,34.64816],[135.55137,34.64816],[135.55055,34.64812],[135.55022,34.6481],[135.55021,34.6481],[135.54931,34.64806],[135.54861,34.648],[135.54857,34.64858],[135.54853,34.64964],[135.5485,34.65014],[135.54843,34.65014],[135.54842,34.65066],[135.54913,34.65068],[135.55042,34.65074],[135.55125,34.65076],[135.55165,34.65078],[135.55216,34.6508],[135.5535,34.65084],[135.55461,34.65088],[135.55452,34.65034],[135.55452,34.65026]]]}},{"type":"Feature","properties":{"name":"巽中三丁目","setai":837,"jinko":1942,"key":"27116016003","units":1},"geometry":{"type":"Polygon","coordinates":[[[135.55415,34.64831],[135.55408,34.6479],[135.55405,34.64776],[135.55399,34.64735],[135.55387,34.64672],[135.55381,34.64635],[135.5538,34.64629],[135.5536,34.64528],[135.5536,34.64524],[135.55314,34.64522],[135.55272,34.6452],[135.55235,34.64518],[135.55173,34.64516],[135.55138,34.64521],[135.55072,34.64523],[135.55068,34.64521],[135.55052,34.6451],[135.54947,34.64508],[135.54944,34.64508],[135.54872,34.64505],[135.54868,34.64612],[135.54864,34.64714],[135.54861,34.648],[135.54931,34.64806],[135.55021,34.6481],[135.55022,34.6481],[135.55055,34.64812],[135.55137,34.64816],[135.55141,34.64816],[135.5519,34.64817],[135.55236,34.64819],[135.55237,34.64812],[135.55301,34.64822],[135.55303,34.64822],[135.55363,34.64831],[135.55366,34.64832],[135.55416,34.64839],[135.55415,34.64831]]]}},{"type":"Feature","properties":{"name":"巽中四丁目","setai":745,"jinko":1740,"key":"27116016004","units":1},"geometry":{"type":"Polygon","coordinates":[[[135.5536,34.64524],[135.5535,34.6447],[135.55345,34.64443],[135.55342,34.64431],[135.5534,34.6442],[135.55336,34.644],[135.55321,34.64317],[135.5532,34.64314],[135.55312,34.64268],[135.55242,34.64267],[135.55189,34.64265],[135.5516,34.64265],[135.5514,34.64264],[135.55092,34.64263],[135.55083,34.64263],[135.55043,34.64262],[135.54956,34.6426],[135.54953,34.6426],[135.54883,34.64257],[135.5488,34.64257],[135.54877,34.64347],[135.54875,34.64415],[135.54872,34.64505],[135.54944,34.64508],[135.54947,34.64508],[135.55052,34.6451],[135.55068,34.64521],[135.55072,34.64523],[135.55138,34.64521],[135.55173,34.64516],[135.55235,34.64518],[135.55272,34.6452],[135.55314,34.64522],[135.5536,34.64524]]]}},{"type":"Feature","properties":{"name":"巽西一丁目","setai":430,"jinko":859,"key":"27116017001","units":1},"geometry":{"type":"Polygon","coordinates":[[[135.5484,34.65126],[135.54842,34.65066],[135.5479,34.65066],[135.54652,34.65062],[135.54549,34.65059],[135.54412,34.65053],[135.54407,34.65106],[135.54406,34.65112],[135.54403,34.6518],[135.54399,34.65252],[135.54396,34.65318],[135.54396,34.65349],[135.54464,34.65348],[135.5453,34.65347],[135.54534,34.65347],[135.54539,34.65346],[135.54591,34.65347],[135.54591,34.65347],[135.54614,34.65346],[135.54617,34.65346],[135.54651,34.65345],[135.54696,34.65344],[135.54777,34.65344],[135.5483,34.65342],[135.54836,34.65197],[135.54836,34.65194],[135.5484,34.65127],[135.5484,34.65126]]]}},{"type":"Feature","properties":{"name":"巽西二丁目","setai":420,"jinko":991,"key":"27116017002","units":1},"geometry":{"type":"Polygon","coordinates":[[[135.54842,34.65066],[135.54843,34.65014],[135.5485,34.65014],[135.54853,34.64964],[135.54857,34.64858],[135.54861,34.648],[135.54849,34.64799],[135.54808,34.64799],[135.54801,34.64798],[135.54708,34.64789],[135.54663,34.64785],[135.54569,34.64776],[135.5456,34.64775],[135.54528,34.64774],[135.54517,34.64773],[135.54509,34.64773],[135.54442,34.64769],[135.54437,34.64804],[135.54434,34.6484],[135.54427,34.64914],[135.54424,34.64947],[135.5442,34.64983],[135.54417,34.65015],[135.54414,34.65019],[135.54412,34.65053],[135.54549,34.65059],[135.54652,34.65062],[135.5479,34.65066],[135.54842,34.65066]]]}},{"type":"Feature","properties":{"name":"巽西三丁目","setai":644,"jinko":1328,"key":"27116017003","units":1},"geometry":{"type":"Polygon","coordinates":[[[135.54861,34.648],[135.54864,34.64714],[135.54868,34.64612],[135.54872,34.64505],[135.54815,34.64503],[135.54704,34.645],[135.54676,34.64499],[135.5458,34.64496],[135.54572,34.64496],[135.54529,34.64494],[135.54479,34.64494],[135.54475,34.64525],[135.5447,34.6456],[135.54465,34.64594],[135.54461,34.64628],[135.54455,34.64665],[135.5445,34.647],[135.54449,34.64709],[135.54442,34.64769],[135.54509,34.64773],[135.54517,34.64773],[135.54528,34.64774],[135.5456,34.64775],[135.54569,34.64776],[135.54663,34.64785],[135.54708,34.64789],[135.54801,34.64798],[135.54808,34.64799],[135.54849,34.64799],[135.54861,34.648]]]}},{"type":"Feature","properties":{"name":"巽西四丁目","setai":581,"jinko":1334,"key":"27116017004","units":1},"geometry":{"type":"Polygon","coordinates":[[[135.54875,34.64415],[135.54877,34.64347],[135.5488,34.64257],[135.54826,34.64256],[135.54757,34.64256],[135.54708,34.64255],[135.54708,34.64255],[135.54683,34.64254],[135.54641,34.64253],[135.5463,34.64253],[135.54575,34.64251],[135.54575,34.6425],[135.54535,34.64255],[135.54529,34.64256],[135.545,34.64264],[135.54495,34.64264],[135.54494,34.64336],[135.54493,34.64373],[135.54493,34.64378],[135.54498,34.64386],[135.54499,34.64411],[135.54488,34.64411],[135.54484,34.64456],[135.54479,34.64494],[135.54529,34.64494],[135.54572,34.64496],[135.5458,34.64496],[135.54676,34.64499],[135.54704,34.645],[135.54815,34.64503],[135.54872,34.64505],[135.54875,34.64415]]]}},{"type":"Feature","properties":{"name":"巽東一丁目","setai":682,"jinko":1304,"key":"27116018001","units":1},"geometry":{"type":"Polygon","coordinates":[[[135.55531,34.64847],[135.55415,34.64831],[135.55416,34.64839],[135.5543,34.64916],[135.5543,34.64917],[135.55434,34.64932],[135.55444,34.64986],[135.55452,34.65026],[135.55452,34.65034],[135.55461,34.65088],[135.55462,34.65093],[135.55471,34.65145],[135.55473,34.6515],[135.55481,34.65199],[135.55482,34.65202],[135.55492,34.65264],[135.55492,34.65265],[135.55497,34.65292],[135.55502,34.65332],[135.55574,34.65328],[135.55605,34.65327],[135.5561,34.65327],[135.55628,34.65326],[135.55632,34.65326],[135.55672,34.65324],[135.55674,34.65323],[135.55676,34.65272],[135.55679,34.65208],[135.55683,34.65152],[135.55686,34.65094],[135.55691,34.65029],[135.55698,34.6498],[135.55698,34.64976],[135.55702,34.64914],[135.55704,34.64869],[135.55678,34.64865],[135.55631,34.64859],[135.5562,34.64858],[135.55615,34.64857],[135.55556,34.64849],[135.55531,34.64847]]]}},{"type":"Feature","properties":{"name":"巽東二丁目","setai":1441,"jinko":2743,"key":"27116018002","units":1},"geometry":{"type":"Polygon","coordinates":[[[135.55389,34.64401],[135.5539,34.64367],[135.55404,34.64368],[135.55405,34.64317],[135.55405,34.64271],[135.5532,34.64269],[135.55312,34.64268],[135.5532,34.64314],[135.55321,34.64317],[135.55336,34.644],[135.5534,34.6442],[135.55342,34.64431],[135.55345,34.64443],[135.5535,34.6447],[135.5536,34.64524],[135.5536,34.64528],[135.5538,34.64629],[135.55381,34.64635],[135.55387,34.64672],[135.55399,34.64735],[135.55405,34.64776],[135.55408,34.6479],[135.55415,34.64831],[135.55531,34.64847],[135.55556,34.64849],[135.55615,34.64857],[135.5562,34.64858],[135.55631,34.64859],[135.55678,34.64865],[135.55682,34.64802],[135.55685,34.64744],[135.55688,34.64693],[135.55686,34.64692],[135.5569,34.64642],[135.55693,34.6459],[135.55696,34.6454],[135.55699,34.64486],[135.55702,34.64433],[135.55577,34.64429],[135.55512,34.64426],[135.55448,34.64424],[135.55408,34.64422],[135.55389,34.64422],[135.5539,34.64402],[135.55389,34.64401]]]}},{"type":"Feature","properties":{"name":"巽東三丁目","setai":714,"jinko":1680,"key":"27116018003","units":1},"geometry":{"type":"Polygon","coordinates":[[[135.55672,34.65324],[135.55737,34.65321],[135.55741,34.65321],[135.55773,34.65319],[135.55778,34.65319],[135.55845,34.65315],[135.55849,34.65315],[135.55946,34.65311],[135.55949,34.6531],[135.56035,34.65306],[135.56041,34.65306],[135.56169,34.65302],[135.56171,34.65296],[135.56174,34.65254],[135.56174,34.65252],[135.56177,34.65209],[135.56177,34.65207],[135.56179,34.65164],[135.56188,34.65163],[135.56191,34.6516],[135.56187,34.65114],[135.56187,34.65113],[135.56187,34.6511],[135.56182,34.6506],[135.56182,34.65058],[135.56176,34.65008],[135.56069,34.65015],[135.56059,34.65015],[135.56063,34.64962],[135.56066,34.64911],[135.56066,34.6491],[135.56066,34.64904],[135.5587,34.64885],[135.55867,34.64885],[135.55802,34.64878],[135.55761,34.64874],[135.55704,34.64869],[135.55702,34.64914],[135.55698,34.64976],[135.55698,34.6498],[135.55691,34.65029],[135.55686,34.65094],[135.55683,34.65152],[135.55679,34.65208],[135.55676,34.65272],[135.55674,34.65323],[135.55672,34.65324]]]}},{"type":"Feature","properties":{"name":"巽東四丁目","setai":614,"jinko":1675,"key":"27116018004","units":1},"geometry":{"type":"Polygon","coordinates":[[[135.55898,34.64337],[135.55708,34.64331],[135.55705,34.64379],[135.55702,34.64433],[135.55699,34.64486],[135.55696,34.6454],[135.55693,34.6459],[135.5569,34.64642],[135.55686,34.64692],[135.55688,34.64693],[135.55685,34.64744],[135.55682,34.64802],[135.55678,34.64865],[135.55704,34.64869],[135.55761,34.64874],[135.55802,34.64878],[135.55867,34.64885],[135.5587,34.64885],[135.56066,34.64904],[135.56068,34.64868],[135.56068,34.64867],[135.56071,34.64817],[135.56074,34.64759],[135.56077,34.64709],[135.5608,34.64657],[135.56083,34.64603],[135.56085,34.64552],[135.56088,34.64501],[135.5609,34.64449],[135.56093,34.64394],[135.56094,34.64344],[135.55898,34.64337]]]}},{"type":"Feature","properties":{"name":"巽南一丁目","setai":774,"jinko":1650,"key":"27116019001","units":1},"geometry":{"type":"Polygon","coordinates":[[[135.54535,34.64255],[135.54575,34.6425],[135.54575,34.64251],[135.5463,34.64253],[135.54641,34.64253],[135.54683,34.64254],[135.54708,34.64255],[135.54708,34.64255],[135.54757,34.64256],[135.54826,34.64256],[135.5488,34.64257],[135.54883,34.64257],[135.54886,34.64196],[135.54892,34.64093],[135.54896,34.63993],[135.54838,34.63992],[135.54771,34.63991],[135.54648,34.63987],[135.54541,34.63984],[135.54484,34.63982],[135.54498,34.64021],[135.545,34.64032],[135.54498,34.64043],[135.5449,34.64058],[135.54496,34.64087],[135.54499,34.64127],[135.54501,34.64161],[135.54499,34.64166],[135.54495,34.64174],[135.54486,34.64185],[135.54457,34.64216],[135.54402,34.64276],[135.54454,34.6427],[135.54456,34.64267],[135.54472,34.64266],[135.54474,34.64265],[135.54495,34.64264],[135.545,34.64264],[135.54529,34.64256],[135.54535,34.64255]]]}},{"type":"Feature","properties":{"name":"巽南二丁目","setai":525,"jinko":995,"key":"27116019002","units":1},"geometry":{"type":"Polygon","coordinates":[[[135.54907,34.63759],[135.54916,34.63561],[135.54896,34.63576],[135.54859,34.63598],[135.54846,34.63606],[135.54805,34.63627],[135.5476,34.63653],[135.54722,34.63677],[135.54689,34.63699],[135.54654,34.63722],[135.54653,34.63722],[135.54628,34.63741],[135.54619,34.63748],[135.54555,34.63796],[135.54544,34.63804],[135.54526,34.63821],[135.54515,34.63841],[135.54511,34.63851],[135.54508,34.63864],[135.54481,34.63938],[135.54482,34.63974],[135.54484,34.63982],[135.54541,34.63984],[135.54648,34.63987],[135.54771,34.63991],[135.54838,34.63992],[135.54896,34.63993],[135.54902,34.63879],[135.54907,34.63759]]]}},{"type":"Feature","properties":{"name":"巽南三丁目","setai":1346,"jinko":2710,"key":"27116019003","units":1},"geometry":{"type":"Polygon","coordinates":[[[135.55197,34.64002],[135.55096,34.64],[135.55096,34.64001],[135.54968,34.63996],[135.54896,34.63993],[135.54892,34.64093],[135.54886,34.64196],[135.54883,34.64257],[135.54953,34.6426],[135.54956,34.6426],[135.55043,34.64262],[135.55083,34.64263],[135.55092,34.64263],[135.5514,34.64264],[135.5516,34.64265],[135.55189,34.64265],[135.55242,34.64267],[135.55312,34.64268],[135.5532,34.64269],[135.55405,34.64271],[135.55408,34.64216],[135.55411,34.6415],[135.55411,34.64144],[135.55371,34.64143],[135.55369,34.64143],[135.55372,34.64116],[135.55374,34.64063],[135.55375,34.64036],[135.55376,34.64029],[135.55377,34.64013],[135.55377,34.6401],[135.55252,34.64005],[135.55197,34.64002]]]}},{"type":"Feature","properties":{"name":"巽南四丁目","setai":216,"jinko":476,"key":"27116019004","units":1},"geometry":{"type":"Polygon","coordinates":[[[135.55197,34.64002],[135.55133,34.63888],[135.55104,34.63835],[135.55065,34.63764],[135.55038,34.63715],[135.54996,34.63637],[135.54962,34.63574],[135.5494,34.63534],[135.54916,34.63561],[135.54907,34.63759],[135.54902,34.63879],[135.54896,34.63993],[135.54968,34.63996],[135.55096,34.64001],[135.55096,34.64],[135.55197,34.64002]]]}},{"type":"Feature","properties":{"name":"巽南五丁目","setai":1132,"jinko":2133,"key":"27116019005","units":1},"geometry":{"type":"Polygon","coordinates":[[[135.55232,34.63634],[135.5523,34.63578],[135.55283,34.6358],[135.55286,34.6356],[135.55289,34.63532],[135.5529,34.63527],[135.55296,34.63479],[135.55346,34.63482],[135.55409,34.63484],[135.55411,34.63467],[135.55415,34.63436],[135.55415,34.63433],[135.55419,34.63402],[135.55416,34.63356],[135.55414,34.63346],[135.55417,34.63324],[135.55385,34.63319],[135.5536,34.63328],[135.55336,34.63326],[135.55328,34.63326],[135.55298,34.63324],[135.55274,34.63323],[135.55227,34.63329],[135.55216,34.63332],[135.55177,34.63348],[135.55137,34.63371],[135.55121,34.63381],[135.55106,34.6339],[135.55022,34.63446],[135.54982,34.6349],[135.54958,34.63514],[135.5494,34.63534],[135.54962,34.63574],[135.54996,34.63637],[135.55038,34.63715],[135.55065,34.63764],[135.55104,34.63835],[135.55133,34.63888],[135.55197,34.64002],[135.55252,34.64005],[135.55377,34.6401],[135.5538,34.63979],[135.55381,34.63968],[135.55385,34.63898],[135.55387,34.63846],[135.55297,34.63843],[135.55301,34.63775],[135.55304,34.63687],[135.55304,34.63684],[135.55234,34.63682],[135.55232,34.63634]]]}},{"type":"Feature","properties":{"name":"巽北一丁目","setai":1147,"jinko":2405,"key":"27116020001","units":1},"geometry":{"type":"Polygon","coordinates":[[[135.54364,34.65637],[135.54395,34.65637],[135.54396,34.65637],[135.54429,34.65637],[135.54459,34.65636],[135.54461,34.65636],[135.54497,34.65636],[135.54532,34.65636],[135.54537,34.65636],[135.54658,34.65635],[135.54658,34.65636],[135.54774,34.65634],[135.54875,34.65634],[135.54868,34.65602],[135.5486,34.6557],[135.54842,34.65503],[135.54826,34.65437],[135.54826,34.65433],[135.54829,34.65352],[135.5483,34.65342],[135.54777,34.65344],[135.54696,34.65344],[135.54651,34.65345],[135.54617,34.65346],[135.54614,34.65346],[135.54591,34.65347],[135.54591,34.65347],[135.54539,34.65346],[135.54534,34.65347],[135.5453,34.65347],[135.54464,34.65348],[135.54396,34.65349],[135.54363,34.6535],[135.54357,34.6535],[135.54353,34.6535],[135.54351,34.6535],[135.54337,34.6535],[135.54332,34.6535],[135.54323,34.6535],[135.54309,34.65429],[135.54306,34.65439],[135.54305,34.65446],[135.54302,34.65457],[135.54301,34.6546],[135.54299,34.65464],[135.54299,34.65482],[135.54298,34.65512],[135.54298,34.65514],[135.54297,34.65547],[135.54294,34.65588],[135.54295,34.65597],[135.54292,34.65611],[135.54291,34.65615],[135.54279,34.65637],[135.54303,34.65637],[135.54331,34.65637],[135.54334,34.65637],[135.54347,34.65637],[135.54351,34.65637],[135.54364,34.65637]]]}},{"type":"Feature","properties":{"name":"巽北二丁目","setai":1021,"jinko":1896,"key":"27116020002","units":1},"geometry":{"type":"Polygon","coordinates":[[[135.5523,34.65633],[135.55231,34.65606],[135.55228,34.6558],[135.55228,34.65579],[135.55228,34.65553],[135.55227,34.65528],[135.55226,34.65498],[135.5523,34.65498],[135.55229,34.65466],[135.55229,34.65433],[135.55229,34.65388],[135.55229,34.65335],[135.55179,34.65336],[135.55155,34.65336],[135.55142,34.65336],[135.55113,34.65338],[135.55055,34.65338],[135.55005,34.65339],[135.54902,34.65341],[135.5483,34.65342],[135.54829,34.65352],[135.54826,34.65433],[135.54826,34.65437],[135.54842,34.65503],[135.5486,34.6557],[135.54868,34.65602],[135.54875,34.65634],[135.54878,34.65634],[135.54902,34.65634],[135.5498,34.65633],[135.55015,34.65633],[135.55052,34.65633],[135.55054,34.65633],[135.55082,34.65633],[135.551,34.65633],[135.55118,34.65633],[135.55121,34.65634],[135.5523,34.65687],[135.55232,34.65687],[135.55232,34.6566],[135.5523,34.65633]]]}},{"type":"Feature","properties":{"name":"巽北三丁目","setai":1096,"jinko":2017,"key":"27116020003","units":1},"geometry":{"type":"Polygon","coordinates":[[[135.55569,34.65548],[135.55569,34.65497],[135.55565,34.65495],[135.55531,34.65495],[135.55526,34.65465],[135.55521,34.65432],[135.55513,34.65384],[135.55502,34.65332],[135.5538,34.65333],[135.55376,34.65333],[135.55362,34.65333],[135.55346,34.65333],[135.55323,34.65333],[135.55314,34.65334],[135.55229,34.65335],[135.55229,34.65388],[135.55229,34.65433],[135.55229,34.65466],[135.5523,34.65498],[135.55226,34.65498],[135.55227,34.65528],[135.55228,34.65553],[135.55228,34.65579],[135.55228,34.6558],[135.55231,34.65606],[135.5523,34.65633],[135.55232,34.6566],[135.55232,34.65687],[135.55276,34.65709],[135.55318,34.6571],[135.55318,34.65709],[135.55318,34.65659],[135.55318,34.65658],[135.55317,34.65633],[135.55317,34.65632],[135.55318,34.65606],[135.55317,34.65602],[135.5539,34.65601],[135.55471,34.65601],[135.55475,34.65601],[135.55476,34.65601],[135.55536,34.65601],[135.55549,34.65601],[135.5557,34.65601],[135.55569,34.65548]]]}},{"type":"Feature","properties":{"name":"巽北四丁目","setai":663,"jinko":1390,"key":"27116020004","units":1},"geometry":{"type":"Polygon","coordinates":[[[135.55756,34.656],[135.55759,34.656],[135.55787,34.656],[135.55799,34.656],[135.55844,34.656],[135.55844,34.65547],[135.55844,34.65547],[135.55844,34.65547],[135.55844,34.65547],[135.55844,34.65547],[135.55843,34.65547],[135.55843,34.65546],[135.55843,34.65546],[135.55843,34.65546],[135.55843,34.65545],[135.55843,34.65545],[135.55842,34.65545],[135.55842,34.65544],[135.55842,34.65544],[135.55842,34.65544],[135.55842,34.65544],[135.55842,34.65543],[135.55842,34.65543],[135.55841,34.65543],[135.55841,34.65543],[135.55841,34.65542],[135.55841,34.65542],[135.55841,34.65542],[135.55841,34.65542],[135.55841,34.65542],[135.55841,34.65541],[135.5584,34.65534],[135.55839,34.65531],[135.5584,34.65522],[135.5584,34.65495],[135.5588,34.65495],[135.55881,34.65495],[135.55921,34.65495],[135.55922,34.6547],[135.55922,34.6543],[135.5594,34.65431],[135.5594,34.6543],[135.55941,34.65397],[135.5594,34.65389],[135.55939,34.65385],[135.5594,34.65377],[135.55941,34.65366],[135.55943,34.65354],[135.55946,34.65312],[135.55946,34.65311],[135.55849,34.65315],[135.55845,34.65315],[135.55778,34.65319],[135.55773,34.65319],[135.55741,34.65321],[135.55737,34.65321],[135.55672,34.65324],[135.55632,34.65326],[135.55628,34.65326],[135.5561,34.65327],[135.55605,34.65327],[135.55574,34.65328],[135.55502,34.65332],[135.55513,34.65384],[135.55521,34.65432],[135.55526,34.65465],[135.55531,34.65495],[135.55565,34.65495],[135.55569,34.65497],[135.55569,34.65548],[135.5557,34.65601],[135.55662,34.656],[135.55664,34.656],[135.55756,34.656]]]}}]}