{"type":"FeatureCollection","features":[{"type":"Feature","properties":{"name":"川崎","setai":0,"jinko":0,"key":"13227001000","units":1},"geometry":{"type":"MultiPolygon","coordinates":[[[[139.3383,35.75533],[139.3383,35.75532],[139.33833,35.75534],[139.33853,35.75546],[139.33874,35.75558],[139.3392,35.75554],[139.33907,35.75539],[139.33899,35.75531],[139.3391,35.7552],[139.33912,35.75515],[139.33885,35.75499],[139.33875,35.75493],[139.33872,35.75491],[139.33896,35.75447],[139.33899,35.75432],[139.33971,35.75431],[139.33994,35.75395],[139.33995,35.75392],[139.33996,35.75393],[139.34046,35.75408],[139.34142,35.75373],[139.34166,35.75404],[139.34217,35.75394],[139.34234,35.75408],[139.34323,35.75362],[139.34262,35.74966],[139.34193,35.74956],[139.34176,35.74975],[139.34175,35.74976],[139.341,35.74947],[139.34094,35.74949],[139.34081,35.74955],[139.34058,35.74982],[139.34058,35.74983],[139.34033,35.7503],[139.34016,35.7502],[139.33912,35.75027],[139.33923,35.75048],[139.3389,35.7506],[139.33864,35.75067],[139.33867,35.75074],[139.33845,35.75081],[139.33843,35.75075],[139.3382,35.75082],[139.3381,35.75118],[139.33806,35.75118],[139.33802,35.75125],[139.33795,35.75145],[139.3379,35.75194],[139.33744,35.75203],[139.33738,35.75194],[139.33744,35.75169],[139.33723,35.75145],[139.33709,35.75149],[139.33707,35.75203],[139.33674,35.75212],[139.33654,35.75205],[139.33628,35.75194],[139.33627,35.75193],[139.33637,35.75172],[139.33641,35.75163],[139.33617,35.75159],[139.33586,35.75138],[139.33586,35.75115],[139.33552,35.75112],[139.33539,35.75115],[139.33463,35.7511],[139.33446,35.75112],[139.33439,35.75112],[139.33436,35.75112],[139.33437,35.75113],[139.33459,35.75128],[139.33456,35.75135],[139.33466,35.75139],[139.33411,35.7525],[139.33392,35.7525],[139.33388,35.75295],[139.33388,35.75309],[139.33397,35.7534],[139.33377,35.75421],[139.33366,35.75461],[139.33362,35.75475],[139.33355,35.75491],[139.33345,35.7551],[139.3339,35.75547],[139.33447,35.75596],[139.33457,35.75601],[139.33482,35.75612],[139.33523,35.7563],[139.33605,35.75665],[139.3374,35.75723],[139.3381,35.75708],[139.33813,35.75707],[139.33829,35.75704],[139.33834,35.75703],[139.33843,35.75701],[139.33855,35.75698],[139.33855,35.75696],[139.33855,35.75695],[139.3385,35.75673],[139.33849,35.75671],[139.33848,35.75662],[139.33847,35.75654],[139.33848,35.75641],[139.33848,35.75641],[139.33857,35.75603],[139.33858,35.75601],[139.33817,35.7559],[139.33817,35.7559],[139.33822,35.75566],[139.33824,35.75556],[139.3383,35.75533]]],[[[139.33518,35.76383],[139.33531,35.7636],[139.33566,35.7637],[139.33578,35.76351],[139.33632,35.76372],[139.33635,35.76367],[139.33636,35.76363],[139.33636,35.76361],[139.33634,35.76359],[139.33611,35.76341],[139.33558,35.7631],[139.33576,35.76279],[139.33586,35.76262],[139.33609,35.76269],[139.33615,35.76256],[139.33616,35.76255],[139.33628,35.76233],[139.3363,35.7623],[139.33586,35.76213],[139.33596,35.76174],[139.33589,35.76171],[139.33512,35.76144],[139.33493,35.76141],[139.33489,35.7614],[139.3345,35.76133],[139.334,35.7612],[139.33358,35.76109],[139.33309,35.76096],[139.3324,35.76075],[139.33201,35.76063],[139.3318,35.76159],[139.33204,35.7616],[139.33245,35.76164],[139.33287,35.76171],[139.33289,35.762],[139.33289,35.76202],[139.33304,35.76201],[139.33325,35.762],[139.3333,35.76245],[139.33331,35.76263],[139.33333,35.76282],[139.33334,35.76318],[139.33338,35.76319],[139.33365,35.7632],[139.33396,35.76323],[139.334,35.76273],[139.33401,35.76262],[139.33405,35.76268],[139.33458,35.76282],[139.33449,35.7633],[139.33449,35.76331],[139.33444,35.76345],[139.33434,35.76358],[139.33455,35.76366],[139.33516,35.76386],[139.33518,35.76383]]]]}},{"type":"Feature","properties":{"name":"川崎一丁目","setai":251,"jinko":564,"key":"13227001001","units":1},"geometry":{"type":"Polygon","coordinates":[[[139.31798,35.75269],[139.31764,35.75263],[139.31757,35.75264],[139.31728,35.75272],[139.3168,35.75346],[139.31651,35.7539],[139.31559,35.75493],[139.31548,35.75507],[139.31549,35.75508],[139.31581,35.7555],[139.31604,35.75587],[139.3161,35.75595],[139.31662,35.7568],[139.31662,35.7568],[139.31682,35.75721],[139.31748,35.75635],[139.31744,35.75632],[139.31788,35.75574],[139.31848,35.75492],[139.3185,35.75488],[139.31922,35.7539],[139.31882,35.75361],[139.31875,35.75356],[139.31842,35.7533],[139.31813,35.753],[139.31802,35.75277],[139.31798,35.75269]]]}},{"type":"Feature","properties":{"name":"川崎二丁目","setai":252,"jinko":562,"key":"13227001002","units":1},"geometry":{"type":"Polygon","coordinates":[[[139.31923,35.75391],[139.32026,35.75252],[139.321,35.75152],[139.32106,35.75156],[139.32172,35.75066],[139.32169,35.75067],[139.32097,35.75028],[139.32072,35.75031],[139.32059,35.75039],[139.32037,35.7505],[139.31945,35.75086],[139.31926,35.75085],[139.31914,35.75084],[139.31887,35.75091],[139.31879,35.75089],[139.31863,35.75074],[139.31862,35.75074],[139.3183,35.75113],[139.31787,35.75178],[139.31728,35.75272],[139.31757,35.75264],[139.31764,35.75263],[139.31798,35.75269],[139.31802,35.75277],[139.31813,35.753],[139.31842,35.7533],[139.31875,35.75356],[139.31882,35.75361],[139.31922,35.7539],[139.31923,35.75391]]]}},{"type":"Feature","properties":{"name":"川崎三丁目","setai":192,"jinko":463,"key":"13227001003","units":1},"geometry":{"type":"Polygon","coordinates":[[[139.31788,35.74975],[139.31733,35.74902],[139.31719,35.74903],[139.31717,35.74903],[139.31712,35.74898],[139.317,35.74885],[139.31621,35.74945],[139.31598,35.74957],[139.31549,35.7499],[139.31528,35.7501],[139.31511,35.75032],[139.31487,35.75082],[139.3147,35.75115],[139.31475,35.75118],[139.31481,35.75131],[139.3148,35.75138],[139.31486,35.75141],[139.31501,35.75155],[139.31523,35.75168],[139.31575,35.75205],[139.31661,35.75262],[139.31684,35.75277],[139.31692,35.75279],[139.31728,35.75272],[139.31787,35.75178],[139.3183,35.75113],[139.31862,35.75074],[139.31852,35.75063],[139.31822,35.75024],[139.31822,35.75024],[139.31801,35.74981],[139.3179,35.74976],[139.31788,35.74975]]]}},{"type":"Feature","properties":{"name":"川崎四丁目","setai":143,"jinko":378,"key":"13227001004","units":1},"geometry":{"type":"Polygon","coordinates":[[[139.3168,35.75346],[139.31728,35.75272],[139.31692,35.75279],[139.31684,35.75277],[139.31661,35.75262],[139.31575,35.75205],[139.31523,35.75168],[139.31501,35.75155],[139.31486,35.75141],[139.3148,35.75138],[139.31481,35.75131],[139.31475,35.75118],[139.3147,35.75115],[139.31452,35.75147],[139.31425,35.75184],[139.31412,35.75199],[139.31376,35.7523],[139.31361,35.75241],[139.31359,35.7524],[139.31268,35.75313],[139.31254,35.75319],[139.31305,35.75334],[139.31306,35.75333],[139.31377,35.75351],[139.31384,35.75353],[139.314,35.75357],[139.31414,35.75364],[139.31451,35.75395],[139.31459,35.75402],[139.31548,35.75507],[139.31559,35.75493],[139.31651,35.7539],[139.3168,35.75346]]]}},{"type":"Feature","properties":{"name":"五ノ神","setai":2,"jinko":206,"key":"13227002000","units":1},"geometry":{"type":"Polygon","coordinates":[[[139.33283,35.77115],[139.33285,35.77113],[139.33338,35.77117],[139.33338,35.77117],[139.33339,35.77109],[139.3334,35.77107],[139.33353,35.77104],[139.33367,35.77107],[139.33371,35.77106],[139.33371,35.77103],[139.33369,35.77069],[139.33368,35.77024],[139.33368,35.77022],[139.33362,35.77022],[139.33361,35.77017],[139.33358,35.76984],[139.33356,35.76946],[139.33354,35.76932],[139.33352,35.76911],[139.33349,35.76899],[139.33345,35.76878],[139.3334,35.7686],[139.33334,35.76831],[139.33325,35.76799],[139.33322,35.76795],[139.3332,35.76793],[139.33318,35.76791],[139.33316,35.76789],[139.33314,35.7678],[139.33315,35.7678],[139.33315,35.76778],[139.33317,35.76771],[139.33321,35.76765],[139.3332,35.76765],[139.33317,35.76765],[139.3329,35.76759],[139.33268,35.7677],[139.3323,35.76782],[139.3319,35.76787],[139.33158,35.76791],[139.33142,35.76791],[139.33052,35.76705],[139.32951,35.76776],[139.3286,35.76836],[139.32901,35.76877],[139.32937,35.76917],[139.3297,35.7695],[139.33031,35.7701],[139.33006,35.77027],[139.33,35.77031],[139.32974,35.77049],[139.32952,35.77067],[139.32924,35.77089],[139.32902,35.77107],[139.32886,35.77119],[139.3289,35.77122],[139.33097,35.77257],[139.33102,35.77261],[139.33129,35.77278],[139.33182,35.77232],[139.33187,35.77228],[139.33228,35.77195],[139.3323,35.77192],[139.33265,35.77158],[139.33274,35.7715],[139.33275,35.77147],[139.33277,35.77144],[139.33278,35.77141],[139.33283,35.77115]]]}},{"type":"Feature","properties":{"name":"五ノ神一丁目","setai":318,"jinko":768,"key":"13227002001","units":1},"geometry":{"type":"Polygon","coordinates":[[[139.31786,35.75666],[139.31748,35.75635],[139.31682,35.75721],[139.31675,35.7573],[139.31597,35.75842],[139.31645,35.75874],[139.31668,35.7589],[139.31691,35.75906],[139.31747,35.75943],[139.31807,35.75984],[139.31864,35.76039],[139.31937,35.75967],[139.31981,35.75923],[139.3204,35.75864],[139.32039,35.75863],[139.32,35.75834],[139.31999,35.75833],[139.31946,35.75792],[139.31946,35.75791],[139.31892,35.75749],[139.31889,35.75747],[139.31829,35.757],[139.3179,35.7567],[139.31786,35.75666]]]}},{"type":"Feature","properties":{"name":"五ノ神二丁目","setai":486,"jinko":1023,"key":"13227002002","units":1},"geometry":{"type":"Polygon","coordinates":[[[139.32087,35.75902],[139.3204,35.75864],[139.31981,35.75923],[139.31937,35.75967],[139.31864,35.76039],[139.31916,35.761],[139.31949,35.76138],[139.31989,35.76181],[139.3202,35.76204],[139.32039,35.76214],[139.32148,35.76269],[139.32212,35.76303],[139.3228,35.76214],[139.32281,35.76212],[139.32353,35.76114],[139.32357,35.76109],[139.32318,35.7608],[139.32302,35.76067],[139.32277,35.76048],[139.32201,35.7599],[139.322,35.75989],[139.32165,35.75962],[139.32087,35.75902]]]}},{"type":"Feature","properties":{"name":"五ノ神三丁目","setai":485,"jinko":1088,"key":"13227002003","units":1},"geometry":{"type":"Polygon","coordinates":[[[139.32054,35.76514],[139.32134,35.76408],[139.32211,35.76305],[139.32212,35.76303],[139.32148,35.76269],[139.32039,35.76214],[139.3202,35.76204],[139.31989,35.76181],[139.31949,35.76138],[139.31916,35.761],[139.31864,35.76039],[139.31851,35.76053],[139.31839,35.76065],[139.31823,35.76089],[139.31821,35.76105],[139.31817,35.76139],[139.31816,35.76154],[139.3181,35.76187],[139.31809,35.7619],[139.31773,35.76239],[139.31735,35.76291],[139.31782,35.76324],[139.31806,35.76345],[139.31892,35.76405],[139.31992,35.76475],[139.31996,35.76474],[139.32054,35.76514]]]}},{"type":"Feature","properties":{"name":"五ノ神四丁目","setai":384,"jinko":846,"key":"13227002004","units":1},"geometry":{"type":"Polygon","coordinates":[[[139.31823,35.76089],[139.31839,35.76065],[139.31851,35.76053],[139.31864,35.76039],[139.31807,35.75984],[139.31747,35.75943],[139.31691,35.75906],[139.31668,35.7589],[139.31645,35.75874],[139.31597,35.75842],[139.31509,35.75957],[139.31488,35.75978],[139.31455,35.76022],[139.31418,35.76073],[139.3142,35.76076],[139.31423,35.76074],[139.31455,35.76095],[139.31519,35.7614],[139.31572,35.76177],[139.3157,35.76179],[139.31629,35.7622],[139.31731,35.76292],[139.31735,35.76291],[139.31773,35.76239],[139.31809,35.7619],[139.3181,35.76187],[139.31816,35.76154],[139.31817,35.76139],[139.31821,35.76105],[139.31823,35.76089]]]}},{"type":"Feature","properties":{"name":"羽","setai":170,"jinko":595,"key":"132270040","units":1},"geometry":{"type":"MultiPolygon","coordinates":[[[[139.30475,35.75515],[139.30523,35.7549],[139.30533,35.75485],[139.3063,35.7543],[139.30667,35.754],[139.3073,35.75345],[139.30735,35.75339],[139.30773,35.75286],[139.3083,35.75199],[139.30802,35.75212],[139.30794,35.75225],[139.30794,35.75226],[139.30784,35.75221],[139.30777,35.75217],[139.30772,35.75224],[139.30772,35.75223],[139.30771,35.75224],[139.30764,35.7522],[139.30753,35.75236],[139.30744,35.75241],[139.30733,35.75233],[139.30701,35.75212],[139.30664,35.75246],[139.30619,35.75285],[139.3057,35.75316],[139.30465,35.75378],[139.30259,35.75499],[139.3023,35.75502],[139.30214,35.75497],[139.30194,35.75489],[139.30178,35.75485],[139.30226,35.75572],[139.30332,35.75553],[139.30399,35.75541],[139.30433,35.75531],[139.30475,35.75515]]],[[[139.32951,35.76776],[139.33052,35.76705],[139.33142,35.76791],[139.33158,35.76791],[139.3319,35.76787],[139.3323,35.76782],[139.33268,35.7677],[139.3329,35.76759],[139.33317,35.76765],[139.3332,35.76765],[139.33321,35.76765],[139.33326,35.76762],[139.33358,35.76748],[139.33358,35.76747],[139.33433,35.76715],[139.33433,35.76714],[139.33534,35.76665],[139.33536,35.76664],[139.33535,35.76664],[139.33559,35.76652],[139.3358,35.76642],[139.33586,35.76639],[139.33665,35.76601],[139.33663,35.76597],[139.33596,35.7662],[139.33566,35.76631],[139.33561,35.76632],[139.33509,35.76615],[139.3351,35.76612],[139.33533,35.76557],[139.33534,35.76555],[139.33526,35.76552],[139.33525,35.76551],[139.33544,35.76507],[139.33546,35.76501],[139.3353,35.76502],[139.33524,35.76501],[139.33523,35.76501],[139.33517,35.76501],[139.33512,35.76502],[139.335,35.76505],[139.3347,35.76479],[139.33476,35.76475],[139.3348,35.76471],[139.3352,35.76429],[139.33526,35.76422],[139.33529,35.76424],[139.33571,35.76445],[139.33575,35.7644],[139.33593,35.76416],[139.33614,35.7639],[139.33624,35.76379],[139.33629,35.76374],[139.33632,35.76372],[139.33578,35.76351],[139.33566,35.7637],[139.33531,35.7636],[139.33518,35.76383],[139.33516,35.76386],[139.33455,35.76366],[139.33434,35.76358],[139.33444,35.76345],[139.33449,35.76331],[139.33449,35.7633],[139.33458,35.76282],[139.33405,35.76268],[139.33401,35.76262],[139.334,35.76273],[139.33396,35.76323],[139.33365,35.7632],[139.33338,35.76319],[139.33334,35.76318],[139.33333,35.76282],[139.33331,35.76263],[139.3333,35.76245],[139.33325,35.762],[139.33304,35.76201],[139.33289,35.76202],[139.33289,35.762],[139.33287,35.76171],[139.33245,35.76164],[139.33204,35.7616],[139.3318,35.76159],[139.3316,35.76237],[139.33149,35.76259],[139.33148,35.76261],[139.33141,35.76276],[139.33104,35.7633],[139.33095,35.76336],[139.3308,35.76358],[139.33088,35.76363],[139.3307,35.76389],[139.3308,35.76393],[139.33078,35.76395],[139.33063,35.76417],[139.33064,35.76417],[139.33071,35.76422],[139.33018,35.76505],[139.33014,35.76512],[139.33006,35.76519],[139.32976,35.76546],[139.32972,35.76551],[139.3294,35.76591],[139.32939,35.7659],[139.32915,35.76567],[139.32913,35.76569],[139.3291,35.76575],[139.32907,35.76574],[139.32899,35.7657],[139.32887,35.76588],[139.32894,35.76592],[139.32897,35.76593],[139.32859,35.76645],[139.32847,35.76659],[139.32771,35.7674],[139.32781,35.76752],[139.32799,35.76773],[139.32823,35.768],[139.3286,35.76836],[139.32951,35.76776]]]]}},{"type":"Feature","properties":{"name":"小作台一丁目","setai":405,"jinko":772,"key":"13227008001","units":1},"geometry":{"type":"Polygon","coordinates":[[[139.30167,35.77989],[139.30178,35.77964],[139.30183,35.77964],[139.30203,35.77905],[139.30221,35.77863],[139.3023,35.77845],[139.3024,35.77811],[139.30242,35.77801],[139.30245,35.77801],[139.30289,35.77802],[139.30311,35.77802],[139.30384,35.77805],[139.30393,35.77799],[139.30393,35.77799],[139.30399,35.77798],[139.30407,35.77798],[139.30452,35.77789],[139.30487,35.77783],[139.30491,35.77782],[139.30526,35.77774],[139.30529,35.77775],[139.30531,35.77774],[139.30564,35.77767],[139.30563,35.77764],[139.3056,35.77765],[139.30542,35.77732],[139.30543,35.77725],[139.30519,35.77679],[139.30516,35.77671],[139.30493,35.77625],[139.30442,35.77551],[139.30429,35.77536],[139.30387,35.77476],[139.30362,35.77495],[139.30301,35.77549],[139.30296,35.77553],[139.3028,35.77571],[139.30214,35.77626],[139.30223,35.77633],[139.30199,35.77652],[139.302,35.77659],[139.30192,35.77662],[139.30173,35.77644],[139.30135,35.77669],[139.30096,35.77697],[139.30081,35.77707],[139.30118,35.77747],[139.30115,35.77748],[139.30076,35.77773],[139.30069,35.77778],[139.30076,35.77845],[139.3008,35.77859],[139.3009,35.77874],[139.30112,35.77926],[139.30118,35.77939],[139.30124,35.77963],[139.3012,35.77977],[139.30108,35.77998],[139.30107,35.78001],[139.30165,35.7799],[139.30166,35.7799],[139.30167,35.77989],[139.30167,35.77989]]]}},{"type":"Feature","properties":{"name":"小作台二丁目","setai":792,"jinko":1383,"key":"13227008002","units":1},"geometry":{"type":"Polygon","coordinates":[[[139.30118,35.77747],[139.30081,35.77707],[139.29994,35.77756],[139.29965,35.77767],[139.29935,35.7778],[139.29897,35.77797],[139.29891,35.778],[139.29842,35.77822],[139.29837,35.77824],[139.29714,35.77879],[139.297,35.77886],[139.29685,35.77893],[139.29663,35.77902],[139.2966,35.77904],[139.29662,35.77907],[139.29665,35.77912],[139.29669,35.77915],[139.29687,35.77931],[139.29695,35.7794],[139.29709,35.77954],[139.29714,35.77964],[139.29715,35.7797],[139.29717,35.77979],[139.29728,35.77994],[139.29733,35.78001],[139.29742,35.78056],[139.29742,35.78057],[139.29743,35.78071],[139.29746,35.78097],[139.29748,35.78122],[139.29748,35.7813],[139.29752,35.7813],[139.29761,35.78131],[139.29762,35.78131],[139.2979,35.78132],[139.29793,35.78131],[139.29808,35.7813],[139.29814,35.78129],[139.29815,35.78129],[139.29848,35.78122],[139.29894,35.78116],[139.2991,35.78113],[139.29913,35.78113],[139.29943,35.78109],[139.29945,35.78109],[139.29952,35.78108],[139.2996,35.78107],[139.29961,35.78107],[139.29969,35.78104],[139.2997,35.78104],[139.2998,35.78099],[139.29981,35.78098],[139.29982,35.78096],[139.29983,35.78095],[139.29986,35.78078],[139.29988,35.78068],[139.29992,35.7806],[139.30003,35.78052],[139.3001,35.78041],[139.3001,35.78032],[139.3001,35.78016],[139.30011,35.78014],[139.30032,35.78013],[139.3006,35.78011],[139.30061,35.78011],[139.30087,35.78005],[139.30088,35.78005],[139.30095,35.78004],[139.30104,35.78001],[139.30107,35.78001],[139.30108,35.77998],[139.3012,35.77977],[139.30124,35.77963],[139.30118,35.77939],[139.30112,35.77926],[139.3009,35.77874],[139.3008,35.77859],[139.30076,35.77845],[139.30069,35.77778],[139.30076,35.77773],[139.30115,35.77748],[139.30118,35.77747]]]}},{"type":"Feature","properties":{"name":"小作台三丁目","setai":592,"jinko":1284,"key":"13227008003","units":1},"geometry":{"type":"Polygon","coordinates":[[[139.29714,35.77879],[139.29837,35.77824],[139.29842,35.77822],[139.29891,35.778],[139.29897,35.77797],[139.29935,35.7778],[139.29965,35.77767],[139.29994,35.77756],[139.30081,35.77707],[139.30096,35.77697],[139.30135,35.77669],[139.30173,35.77644],[139.30159,35.77632],[139.30132,35.77607],[139.30155,35.77591],[139.30097,35.77548],[139.30049,35.77511],[139.30006,35.77477],[139.2993,35.77526],[139.29858,35.77574],[139.29856,35.77572],[139.29735,35.77651],[139.29711,35.77667],[139.2971,35.77667],[139.29677,35.77687],[139.29634,35.7771],[139.29583,35.77729],[139.29513,35.77746],[139.29505,35.77749],[139.29507,35.77752],[139.29512,35.77751],[139.29515,35.77751],[139.29531,35.7777],[139.29552,35.77796],[139.29556,35.77801],[139.29557,35.77803],[139.29577,35.77833],[139.29586,35.77829],[139.29592,35.77836],[139.29613,35.77871],[139.29619,35.77869],[139.29628,35.77859],[139.2966,35.77904],[139.2966,35.77904],[139.29663,35.77902],[139.29685,35.77893],[139.297,35.77886],[139.29714,35.77879]]]}},{"type":"Feature","properties":{"name":"小作台四丁目","setai":408,"jinko":870,"key":"13227008004","units":1},"geometry":{"type":"Polygon","coordinates":[[[139.29513,35.77746],[139.29583,35.77729],[139.29634,35.7771],[139.29677,35.77687],[139.2971,35.77667],[139.29711,35.77667],[139.29735,35.77651],[139.29856,35.77572],[139.29858,35.77574],[139.2993,35.77526],[139.30006,35.77477],[139.29969,35.77433],[139.29934,35.77391],[139.29863,35.77303],[139.29917,35.77293],[139.29931,35.77291],[139.29961,35.77287],[139.30026,35.77279],[139.30131,35.77265],[139.30147,35.77261],[139.30179,35.77248],[139.30171,35.77248],[139.30112,35.77251],[139.30087,35.77254],[139.30034,35.77255],[139.30005,35.77257],[139.29975,35.77255],[139.2994,35.77248],[139.2986,35.7723],[139.29851,35.77228],[139.29838,35.77232],[139.29835,35.77239],[139.29807,35.77252],[139.29778,35.77257],[139.29779,35.77272],[139.29759,35.7732],[139.29746,35.77335],[139.2973,35.77358],[139.29711,35.77374],[139.29712,35.77375],[139.29688,35.77386],[139.29639,35.77417],[139.29623,35.77425],[139.29521,35.77474],[139.29486,35.77494],[139.29446,35.77531],[139.29408,35.77583],[139.29368,35.77651],[139.29366,35.77655],[139.294,35.77669],[139.294,35.77671],[139.29408,35.77679],[139.29435,35.77692],[139.29436,35.77692],[139.2944,35.77695],[139.29449,35.77704],[139.2945,35.77704],[139.2947,35.77734],[139.29476,35.77739],[139.29479,35.77742],[139.29483,35.77741],[139.29497,35.77738],[139.29505,35.77749],[139.29513,35.77746]]]}},{"type":"Feature","properties":{"name":"小作台五丁目","setai":721,"jinko":1528,"key":"13227008005","units":1},"geometry":{"type":"Polygon","coordinates":[[[139.30356,35.77134],[139.30345,35.77119],[139.30269,35.77185],[139.30244,35.77209],[139.30212,35.77232],[139.30186,35.77243],[139.30179,35.77248],[139.30147,35.77261],[139.30131,35.77265],[139.30026,35.77279],[139.29961,35.77287],[139.29931,35.77291],[139.29917,35.77293],[139.29863,35.77303],[139.29934,35.77391],[139.29969,35.77433],[139.30006,35.77477],[139.30049,35.77511],[139.30097,35.77548],[139.30155,35.77591],[139.30132,35.77607],[139.30159,35.77632],[139.30173,35.77644],[139.30192,35.77662],[139.302,35.77659],[139.30199,35.77652],[139.30223,35.77633],[139.30214,35.77626],[139.3028,35.77571],[139.30296,35.77553],[139.30301,35.77549],[139.30362,35.77495],[139.30387,35.77476],[139.3038,35.77468],[139.30398,35.77449],[139.30418,35.77425],[139.30436,35.77394],[139.30455,35.7737],[139.30538,35.77258],[139.30514,35.77248],[139.30481,35.77231],[139.30495,35.77212],[139.30451,35.77189],[139.30407,35.77165],[139.30362,35.77141],[139.30356,35.77134]]]}},{"type":"Feature","properties":{"name":"双葉町一丁目","setai":44,"jinko":123,"key":"13227009001","units":1},"geometry":{"type":"Polygon","coordinates":[[[139.33201,35.76063],[139.33169,35.76053],[139.33142,35.76153],[139.3314,35.76158],[139.33126,35.7621],[139.33113,35.76248],[139.33086,35.76295],[139.33059,35.76334],[139.3305,35.76347],[139.33016,35.76389],[139.33017,35.76391],[139.33039,35.76403],[139.33063,35.76417],[139.33078,35.76395],[139.3308,35.76393],[139.3307,35.76389],[139.33088,35.76363],[139.3308,35.76358],[139.33095,35.76336],[139.33104,35.7633],[139.33141,35.76276],[139.33148,35.76261],[139.33149,35.76259],[139.3316,35.76237],[139.3318,35.76159],[139.33201,35.76063]]]}},{"type":"Feature","properties":{"name":"双葉町二丁目","setai":771,"jinko":2064,"key":"13227009002","units":1},"geometry":{"type":"Polygon","coordinates":[[[139.33568,35.76],[139.33568,35.75999],[139.33599,35.76],[139.33579,35.75945],[139.33576,35.75937],[139.33568,35.75923],[139.33603,35.75905],[139.33604,35.75906],[139.33604,35.75906],[139.3359,35.75888],[139.33579,35.75873],[139.33564,35.75854],[139.33561,35.75849],[139.33545,35.75832],[139.33535,35.75822],[139.33517,35.75802],[139.33495,35.75774],[139.33493,35.75771],[139.33468,35.75739],[139.33432,35.75703],[139.33415,35.75686],[139.3341,35.75681],[139.33404,35.75675],[139.33391,35.75658],[139.33375,35.75638],[139.33355,35.75606],[139.33323,35.75553],[139.33308,35.75528],[139.33303,35.75524],[139.33271,35.75651],[139.33249,35.75737],[139.33249,35.75739],[139.33225,35.75837],[139.33221,35.7585],[139.332,35.75934],[139.33187,35.75983],[139.33169,35.76053],[139.33201,35.76063],[139.3324,35.76075],[139.33309,35.76096],[139.33358,35.76109],[139.334,35.7612],[139.3345,35.76133],[139.33489,35.7614],[139.33493,35.76141],[139.33512,35.76144],[139.33589,35.76171],[139.33596,35.76174],[139.33597,35.76172],[139.33599,35.76169],[139.33616,35.7614],[139.33616,35.76139],[139.33617,35.76138],[139.33613,35.76136],[139.33612,35.76135],[139.33617,35.76127],[139.3362,35.76124],[139.33618,35.76122],[139.33617,35.76122],[139.3361,35.76114],[139.3361,35.76113],[139.33609,35.76101],[139.33598,35.76083],[139.33591,35.76074],[139.33586,35.76067],[139.33577,35.76049],[139.33571,35.76041],[139.33568,35.76003],[139.33568,35.76]]]}},{"type":"Feature","properties":{"name":"双葉町三丁目","setai":292,"jinko":740,"key":"13227009003","units":1},"geometry":{"type":"Polygon","coordinates":[[[139.33722,35.75755],[139.33733,35.75742],[139.33753,35.75751],[139.33767,35.75738],[139.33783,35.75746],[139.3381,35.75708],[139.3374,35.75723],[139.33605,35.75665],[139.33523,35.7563],[139.33482,35.75612],[139.33457,35.75601],[139.33447,35.75596],[139.3339,35.75547],[139.33345,35.7551],[139.33355,35.75491],[139.33362,35.75475],[139.33366,35.75461],[139.33377,35.75421],[139.33397,35.7534],[139.33388,35.75309],[139.33388,35.75295],[139.33392,35.7525],[139.33411,35.7525],[139.33466,35.75139],[139.33456,35.75135],[139.33459,35.75128],[139.33437,35.75113],[139.33436,35.75112],[139.33422,35.75111],[139.33421,35.75113],[139.33418,35.75111],[139.33404,35.7511],[139.33402,35.75111],[139.334,35.75114],[139.33386,35.75114],[139.33376,35.75188],[139.3337,35.75228],[139.33353,35.75331],[139.33331,35.75418],[139.33303,35.75524],[139.33308,35.75528],[139.33323,35.75553],[139.33355,35.75606],[139.33375,35.75638],[139.33391,35.75658],[139.33404,35.75675],[139.3341,35.75681],[139.33415,35.75686],[139.33432,35.75703],[139.33468,35.75739],[139.33493,35.75771],[139.33495,35.75774],[139.33517,35.75802],[139.33535,35.75822],[139.33545,35.75832],[139.33561,35.75849],[139.33564,35.75854],[139.33579,35.75873],[139.3359,35.75888],[139.33604,35.75906],[139.33604,35.75906],[139.33612,35.75915],[139.33629,35.75904],[139.33634,35.75896],[139.33644,35.75882],[139.33647,35.75877],[139.33648,35.75876],[139.33671,35.75843],[139.33692,35.75816],[139.33696,35.75811],[139.33719,35.75786],[139.3372,35.75786],[139.33737,35.75768],[139.33722,35.75756],[139.33723,35.75755],[139.33722,35.75755]]]}},{"type":"Feature","properties":{"name":"神明台一丁目","setai":1011,"jinko":2154,"key":"13227010001","units":1},"geometry":{"type":"Polygon","coordinates":[[[139.32283,35.7557],[139.32314,35.75526],[139.32334,35.75532],[139.32391,35.75512],[139.32452,35.7549],[139.32468,35.75469],[139.32424,35.75448],[139.32385,35.75429],[139.32298,35.75385],[139.32257,35.75364],[139.32252,35.75361],[139.32245,35.75358],[139.32203,35.75339],[139.32269,35.75248],[139.32269,35.75236],[139.32211,35.75208],[139.32158,35.75181],[139.32157,35.75181],[139.32106,35.75156],[139.321,35.75152],[139.32026,35.75252],[139.31923,35.75391],[139.31922,35.7539],[139.3185,35.75488],[139.31848,35.75492],[139.31788,35.75574],[139.31744,35.75632],[139.31748,35.75635],[139.31786,35.75666],[139.3179,35.7567],[139.31829,35.757],[139.31889,35.75747],[139.31892,35.75749],[139.31946,35.75791],[139.31946,35.75792],[139.31999,35.75833],[139.32,35.75834],[139.32039,35.75863],[139.32107,35.75802],[139.32122,35.75788],[139.32144,35.75756],[139.32153,35.75741],[139.32157,35.75731],[139.32162,35.75716],[139.3219,35.75659],[139.32234,35.75616],[139.32277,35.75577],[139.32283,35.7557]]]}},{"type":"Feature","properties":{"name":"神明台二丁目","setai":1202,"jinko":2884,"key":"13227010002","units":1},"geometry":{"type":"Polygon","coordinates":[[[139.32717,35.7564],[139.32812,35.75515],[139.32813,35.75513],[139.32856,35.75456],[139.32892,35.75406],[139.32915,35.75369],[139.32903,35.75364],[139.32906,35.75358],[139.32838,35.75324],[139.32814,35.75312],[139.32741,35.75276],[139.32733,35.75282],[139.32728,35.7528],[139.32666,35.75367],[139.32634,35.75421],[139.32632,35.75424],[139.32546,35.75383],[139.3254,35.75383],[139.32501,35.75433],[139.32472,35.75471],[139.32468,35.75469],[139.32452,35.7549],[139.32391,35.75512],[139.32334,35.75532],[139.32314,35.75526],[139.32283,35.7557],[139.32277,35.75577],[139.32234,35.75616],[139.3219,35.75659],[139.32162,35.75716],[139.32157,35.75731],[139.32153,35.75741],[139.32144,35.75756],[139.32122,35.75788],[139.32107,35.75802],[139.32039,35.75863],[139.3204,35.75864],[139.32087,35.75902],[139.32165,35.75962],[139.322,35.75989],[139.32201,35.7599],[139.32277,35.76048],[139.32302,35.76067],[139.32318,35.7608],[139.32357,35.76109],[139.32407,35.76045],[139.32426,35.76021],[139.32426,35.76021],[139.32481,35.75947],[139.32572,35.75829],[139.32574,35.75826],[139.32646,35.75731],[139.32698,35.75664],[139.32705,35.75655],[139.32715,35.75642],[139.32717,35.7564]]]}},{"type":"Feature","properties":{"name":"神明台三丁目","setai":1185,"jinko":2841,"key":"13227010003","units":1},"geometry":{"type":"Polygon","coordinates":[[[139.32632,35.75855],[139.32572,35.75829],[139.32572,35.75829],[139.32481,35.75947],[139.32426,35.76021],[139.32426,35.76021],[139.32407,35.76045],[139.32357,35.76109],[139.32353,35.76114],[139.32396,35.76144],[139.32409,35.76153],[139.32415,35.76156],[139.32465,35.76189],[139.32522,35.76215],[139.32629,35.76249],[139.3273,35.76282],[139.32834,35.76317],[139.32935,35.76351],[139.33014,35.76387],[139.33015,35.76388],[139.33016,35.76389],[139.3305,35.76347],[139.33059,35.76334],[139.33086,35.76295],[139.33113,35.76248],[139.33126,35.7621],[139.3314,35.76158],[139.33142,35.76153],[139.33169,35.76053],[139.33044,35.76014],[139.32993,35.75998],[139.3298,35.75994],[139.32889,35.75965],[139.32888,35.75965],[139.32838,35.75944],[139.32691,35.7588],[139.32632,35.75855]]]}},{"type":"Feature","properties":{"name":"神明台四丁目","setai":212,"jinko":655,"key":"13227010004","units":1},"geometry":{"type":"Polygon","coordinates":[[[139.33225,35.75837],[139.33249,35.75739],[139.33249,35.75737],[139.33271,35.75651],[139.33303,35.75524],[139.33331,35.75418],[139.33353,35.75331],[139.3337,35.75228],[139.33376,35.75188],[139.3321,35.7516],[139.33193,35.75212],[139.33164,35.75302],[139.33151,35.75303],[139.33055,35.75268],[139.3297,35.75237],[139.32959,35.75233],[139.32956,35.75235],[139.32909,35.75359],[139.32906,35.75358],[139.32903,35.75364],[139.32915,35.75369],[139.32892,35.75406],[139.32856,35.75456],[139.32813,35.75513],[139.32812,35.75515],[139.32717,35.7564],[139.32715,35.75642],[139.32705,35.75655],[139.32698,35.75664],[139.32646,35.75731],[139.32574,35.75826],[139.32572,35.75829],[139.32572,35.75829],[139.32632,35.75855],[139.32691,35.7588],[139.32838,35.75944],[139.32888,35.75965],[139.32889,35.75965],[139.3298,35.75994],[139.32993,35.75998],[139.33044,35.76014],[139.33169,35.76053],[139.33187,35.75983],[139.332,35.75934],[139.33221,35.7585],[139.33225,35.75837]]]}},{"type":"Feature","properties":{"name":"栄町一丁目","setai":1042,"jinko":2130,"key":"13227011001","units":1},"geometry":{"type":"Polygon","coordinates":[[[139.30631,35.77767],[139.30672,35.77711],[139.30689,35.77692],[139.30689,35.77692],[139.30699,35.77682],[139.30701,35.77679],[139.30702,35.7768],[139.30754,35.77705],[139.30782,35.77718],[139.30786,35.77715],[139.30804,35.77693],[139.30818,35.77672],[139.30836,35.77648],[139.30843,35.77638],[139.30863,35.77611],[139.30889,35.77576],[139.30972,35.77616],[139.30973,35.77616],[139.30979,35.77608],[139.31018,35.77554],[139.31047,35.77515],[139.31082,35.77471],[139.30995,35.77425],[139.3091,35.77386],[139.30824,35.77347],[139.30784,35.77328],[139.30735,35.77305],[139.30653,35.77268],[139.30609,35.77247],[139.30564,35.77225],[139.30538,35.77258],[139.30455,35.7737],[139.30436,35.77394],[139.30418,35.77425],[139.30398,35.77449],[139.3038,35.77468],[139.30387,35.77476],[139.30429,35.77536],[139.30442,35.77551],[139.30493,35.77625],[139.30516,35.77671],[139.30519,35.77679],[139.30543,35.77725],[139.30542,35.77732],[139.3056,35.77765],[139.30563,35.77764],[139.30564,35.77767],[139.30569,35.77777],[139.30571,35.77782],[139.30584,35.77807],[139.30585,35.77811],[139.306,35.77809],[139.30631,35.77767]]]}},{"type":"Feature","properties":{"name":"栄町二丁目","setai":1484,"jinko":3006,"key":"13227011002","units":1},"geometry":{"type":"Polygon","coordinates":[[[139.30966,35.76776],[139.30914,35.76753],[139.30887,35.76801],[139.30857,35.76839],[139.30841,35.7686],[139.30839,35.76864],[139.3082,35.76891],[139.30801,35.76916],[139.30783,35.76939],[139.30768,35.76959],[139.3076,35.76971],[139.30736,35.77004],[139.30734,35.77006],[139.30705,35.77046],[139.30646,35.77122],[139.30639,35.77131],[139.30611,35.77164],[139.30564,35.77225],[139.30609,35.77247],[139.30653,35.77268],[139.30735,35.77305],[139.30784,35.77328],[139.30824,35.77347],[139.3091,35.77386],[139.30995,35.77425],[139.31082,35.77471],[139.31165,35.77357],[139.31203,35.77304],[139.31246,35.77245],[139.31331,35.77132],[139.31365,35.77086],[139.31398,35.77042],[139.31358,35.77018],[139.3132,35.76996],[139.3124,35.7695],[139.31238,35.76948],[139.31164,35.76898],[139.3114,35.76882],[139.31082,35.76844],[139.31079,35.76842],[139.31053,35.76824],[139.31008,35.76794],[139.31003,35.76789],[139.30966,35.76776]]]}},{"type":"Feature","properties":{"name":"栄町三丁目","setai":1,"jinko":100,"key":"13227011003","units":1},"geometry":{"type":"Polygon","coordinates":[[[139.31946,35.77585],[139.31857,35.77534],[139.31692,35.77456],[139.3168,35.7745],[139.31423,35.77331],[139.31463,35.7728],[139.31564,35.7715],[139.31506,35.77112],[139.31398,35.77042],[139.31365,35.77086],[139.31331,35.77132],[139.31246,35.77245],[139.31203,35.77304],[139.31165,35.77357],[139.31082,35.77471],[139.31047,35.77515],[139.31018,35.77554],[139.30979,35.77608],[139.30973,35.77616],[139.31092,35.77673],[139.31096,35.77675],[139.31142,35.77693],[139.31161,35.77675],[139.31161,35.77674],[139.3125,35.77561],[139.31255,35.77555],[139.31518,35.7768],[139.31865,35.77845],[139.31866,35.77845],[139.31873,35.7785],[139.31875,35.77849],[139.32031,35.77735],[139.32069,35.77706],[139.3207,35.77706],[139.32042,35.77678],[139.32027,35.77662],[139.31978,35.77614],[139.31946,35.77585]]]}},{"type":"Feature","properties":{"name":"緑ケ丘一丁目","setai":616,"jinko":1277,"key":"13227012001","units":1},"geometry":{"type":"Polygon","coordinates":[[[139.31455,35.76095],[139.31423,35.76074],[139.3142,35.76076],[139.31373,35.76139],[139.31337,35.76187],[139.31305,35.76232],[139.31269,35.76281],[139.31226,35.76339],[139.31197,35.76376],[139.31304,35.76428],[139.31366,35.76458],[139.31308,35.76535],[139.31373,35.76568],[139.31487,35.76626],[139.31522,35.76579],[139.31554,35.76536],[139.31561,35.76526],[139.31563,35.76524],[139.31585,35.76493],[139.31592,35.76484],[139.31618,35.7645],[139.31695,35.76344],[139.31731,35.76292],[139.31629,35.7622],[139.3157,35.76179],[139.31572,35.76177],[139.31519,35.7614],[139.31455,35.76095]]]}},{"type":"Feature","properties":{"name":"緑ケ丘二丁目","setai":715,"jinko":1670,"key":"13227012002","units":1},"geometry":{"type":"Polygon","coordinates":[[[139.32054,35.76514],[139.31996,35.76474],[139.31992,35.76475],[139.31892,35.76405],[139.31806,35.76345],[139.31782,35.76324],[139.31735,35.76291],[139.31731,35.76292],[139.31695,35.76344],[139.31618,35.7645],[139.31592,35.76484],[139.31585,35.76493],[139.31563,35.76524],[139.31561,35.76526],[139.31554,35.76536],[139.31522,35.76579],[139.31487,35.76626],[139.3155,35.76656],[139.31659,35.76713],[139.31768,35.76769],[139.3183,35.768],[139.31968,35.76621],[139.32009,35.76566],[139.32054,35.76514]]]}},{"type":"Feature","properties":{"name":"緑ケ丘三丁目","setai":343,"jinko":747,"key":"13227012003","units":1},"geometry":{"type":"Polygon","coordinates":[[[139.32873,35.77125],[139.32883,35.77117],[139.32886,35.77119],[139.32902,35.77107],[139.32924,35.77089],[139.32952,35.77067],[139.32974,35.77049],[139.33,35.77031],[139.33006,35.77027],[139.33031,35.7701],[139.3297,35.7695],[139.32937,35.76917],[139.32921,35.76904],[139.32887,35.76876],[139.32875,35.76868],[139.32862,35.76859],[139.32838,35.76847],[139.3281,35.76834],[139.32739,35.76806],[139.32719,35.76795],[139.32717,35.76795],[139.32659,35.7677],[139.32557,35.7673],[139.32505,35.76712],[139.32459,35.7669],[139.32349,35.76647],[139.32235,35.76601],[139.32108,35.76547],[139.32101,35.76548],[139.32054,35.76514],[139.32009,35.76566],[139.31968,35.76621],[139.3183,35.768],[139.31777,35.7687],[139.31736,35.76923],[139.31642,35.77046],[139.31564,35.7715],[139.31463,35.7728],[139.31423,35.77331],[139.3168,35.7745],[139.31692,35.77456],[139.31857,35.77534],[139.31946,35.77585],[139.31978,35.77614],[139.32027,35.77662],[139.32042,35.77678],[139.3207,35.77706],[139.32069,35.77706],[139.32073,35.7771],[139.32183,35.77629],[139.32235,35.7759],[139.32349,35.77507],[139.32368,35.77493],[139.32428,35.77449],[139.32568,35.77346],[139.32722,35.77232],[139.32723,35.77232],[139.32725,35.7723],[139.32856,35.77137],[139.32871,35.77126],[139.32873,35.77125]]]}},{"type":"Feature","properties":{"name":"緑ケ丘四丁目","setai":535,"jinko":1173,"key":"13227012004","units":1},"geometry":{"type":"Polygon","coordinates":[[[139.3155,35.76656],[139.31487,35.76626],[139.31447,35.76677],[139.31357,35.76794],[139.3128,35.76895],[139.31238,35.76948],[139.3124,35.7695],[139.3132,35.76996],[139.31358,35.77018],[139.31398,35.77042],[139.31506,35.77112],[139.31564,35.7715],[139.31642,35.77046],[139.31736,35.76923],[139.31777,35.7687],[139.3183,35.768],[139.31768,35.76769],[139.31659,35.76713],[139.3155,35.76656]]]}},{"type":"Feature","properties":{"name":"緑ケ丘五丁目","setai":695,"jinko":1449,"key":"13227012005","units":1},"geometry":{"type":"Polygon","coordinates":[[[139.31304,35.76428],[139.31197,35.76376],[139.31149,35.76443],[139.31121,35.7648],[139.31101,35.76508],[139.31069,35.76551],[139.31025,35.7661],[139.31014,35.76624],[139.30998,35.76642],[139.30985,35.7666],[139.30917,35.76749],[139.30916,35.76751],[139.30914,35.76753],[139.30966,35.76776],[139.31003,35.76789],[139.31008,35.76794],[139.31053,35.76824],[139.31079,35.76842],[139.31082,35.76844],[139.3114,35.76882],[139.31164,35.76898],[139.31238,35.76948],[139.3128,35.76895],[139.31357,35.76794],[139.31447,35.76677],[139.31487,35.76626],[139.31373,35.76568],[139.31308,35.76535],[139.31366,35.76458],[139.31304,35.76428]]]}},{"type":"Feature","properties":{"name":"玉川一丁目","setai":103,"jinko":249,"key":"13227013001","units":1},"geometry":{"type":"Polygon","coordinates":[[[139.30972,35.75534],[139.31034,35.75502],[139.3109,35.75471],[139.31113,35.75459],[139.31156,35.75429],[139.31222,35.75381],[139.31236,35.75371],[139.31293,35.75346],[139.31303,35.75339],[139.31305,35.75334],[139.31254,35.75319],[139.31268,35.75313],[139.31359,35.7524],[139.3136,35.75239],[139.313,35.75196],[139.31299,35.75195],[139.31266,35.75175],[139.31251,35.75167],[139.31225,35.75152],[139.31224,35.75151],[139.31117,35.75291],[139.31028,35.75408],[139.3096,35.75497],[139.30907,35.75526],[139.30889,35.75525],[139.30882,35.75526],[139.3087,35.75569],[139.3087,35.75572],[139.30847,35.75582],[139.30823,35.7561],[139.30801,35.75633],[139.30816,35.75639],[139.30849,35.75614],[139.30931,35.7556],[139.30948,35.7555],[139.30972,35.75534]]]}},{"type":"Feature","properties":{"name":"玉川二丁目","setai":354,"jinko":877,"key":"13227013002","units":1},"geometry":{"type":"Polygon","coordinates":[[[139.31586,35.74797],[139.31542,35.74768],[139.3154,35.74771],[139.31535,35.74772],[139.31491,35.74825],[139.31471,35.74848],[139.31444,35.74877],[139.31393,35.7494],[139.31311,35.75039],[139.31225,35.75152],[139.31251,35.75167],[139.31266,35.75175],[139.31299,35.75195],[139.313,35.75196],[139.3136,35.75239],[139.31359,35.7524],[139.31361,35.75241],[139.31376,35.7523],[139.31412,35.75199],[139.31425,35.75184],[139.31452,35.75147],[139.3147,35.75115],[139.31487,35.75082],[139.31511,35.75032],[139.31528,35.7501],[139.31549,35.7499],[139.31598,35.74957],[139.31621,35.74945],[139.317,35.74885],[139.31688,35.74873],[139.31687,35.74872],[139.3168,35.74865],[139.31679,35.74865],[139.31678,35.74863],[139.3162,35.74818],[139.31619,35.74818],[139.31619,35.74817],[139.31586,35.74797]]]}},{"type":"Feature","properties":{"name":"富士見平一丁目","setai":951,"jinko":2054,"key":"13227014001","units":1},"geometry":{"type":"Polygon","coordinates":[[[139.32807,35.76566],[139.32751,35.76544],[139.32732,35.76537],[139.32689,35.76519],[139.32687,35.76519],[139.32646,35.76502],[139.32632,35.76496],[139.32598,35.76482],[139.32539,35.76458],[139.32501,35.76441],[139.32423,35.7641],[139.3235,35.76373],[139.32271,35.76333],[139.32211,35.76305],[139.32134,35.76408],[139.32054,35.76514],[139.32101,35.76548],[139.32108,35.76547],[139.32235,35.76601],[139.32349,35.76647],[139.32459,35.7669],[139.32505,35.76712],[139.32557,35.7673],[139.32659,35.7677],[139.32717,35.76795],[139.32719,35.76795],[139.32791,35.76695],[139.32868,35.76591],[139.32807,35.76566]]]}},{"type":"Feature","properties":{"name":"富士見平二丁目","setai":971,"jinko":1850,"key":"13227014002","units":1},"geometry":{"type":"Polygon","coordinates":[[[139.32396,35.76144],[139.32353,35.76114],[139.32281,35.76212],[139.3228,35.76214],[139.32212,35.76303],[139.32211,35.76305],[139.32271,35.76333],[139.3235,35.76373],[139.32423,35.7641],[139.32501,35.76441],[139.32539,35.76458],[139.32598,35.76482],[139.32632,35.76496],[139.32646,35.76502],[139.32687,35.76519],[139.32689,35.76519],[139.32732,35.76537],[139.32751,35.76544],[139.32807,35.76566],[139.32868,35.76591],[139.32895,35.76553],[139.32916,35.76524],[139.32943,35.76487],[139.32944,35.76486],[139.33001,35.76405],[139.33015,35.76388],[139.33014,35.76387],[139.32935,35.76351],[139.32834,35.76317],[139.3273,35.76282],[139.32629,35.76249],[139.32522,35.76215],[139.32465,35.76189],[139.32415,35.76156],[139.32409,35.76153],[139.32396,35.76144]]]}},{"type":"Feature","properties":{"name":"富士見平三丁目","setai":23,"jinko":65,"key":"13227014003","units":1},"geometry":{"type":"Polygon","coordinates":[[[139.32887,35.76588],[139.32899,35.7657],[139.32907,35.76574],[139.3291,35.76575],[139.32913,35.76569],[139.32915,35.76567],[139.32939,35.7659],[139.3294,35.76591],[139.32972,35.76551],[139.32976,35.76546],[139.33006,35.76519],[139.33014,35.76512],[139.33018,35.76505],[139.33071,35.76422],[139.33064,35.76417],[139.33063,35.76417],[139.33039,35.76403],[139.33017,35.76391],[139.33016,35.76389],[139.33015,35.76388],[139.33001,35.76405],[139.32944,35.76486],[139.32943,35.76487],[139.32916,35.76524],[139.32895,35.76553],[139.32868,35.76591],[139.32791,35.76695],[139.32719,35.76795],[139.32739,35.76806],[139.3281,35.76834],[139.32838,35.76847],[139.32862,35.76859],[139.32875,35.76868],[139.32887,35.76876],[139.32921,35.76904],[139.32937,35.76917],[139.32901,35.76877],[139.3286,35.76836],[139.32823,35.768],[139.32799,35.76773],[139.32781,35.76752],[139.32771,35.7674],[139.32847,35.76659],[139.32859,35.76645],[139.32897,35.76593],[139.32894,35.76592],[139.32887,35.76588]]]}},{"type":"Feature","properties":{"name":"羽東一丁目","setai":732,"jinko":1561,"key":"13227015001","units":1},"geometry":{"type":"Polygon","coordinates":[[[139.31197,35.76376],[139.31226,35.76339],[139.31269,35.76281],[139.31305,35.76232],[139.31337,35.76187],[139.31373,35.76139],[139.3142,35.76076],[139.31418,35.76073],[139.31455,35.76022],[139.31488,35.75978],[139.31509,35.75957],[139.31597,35.75842],[139.31675,35.7573],[139.31682,35.75721],[139.31662,35.7568],[139.31662,35.7568],[139.3161,35.75595],[139.31604,35.75587],[139.31581,35.7555],[139.31549,35.75508],[139.31521,35.75539],[139.31497,35.75566],[139.31405,35.75668],[139.31389,35.75685],[139.31294,35.7579],[139.31289,35.75795],[139.3126,35.75829],[139.31155,35.75946],[139.31104,35.76004],[139.31077,35.76032],[139.31058,35.76054],[139.31036,35.76085],[139.31017,35.76117],[139.30989,35.76174],[139.31092,35.76289],[139.31104,35.76303],[139.31133,35.7633],[139.31135,35.76333],[139.31161,35.76355],[139.31172,35.76362],[139.31173,35.76361],[139.31197,35.76372],[139.31197,35.76376]]]}},{"type":"Feature","properties":{"name":"羽東二丁目","setai":272,"jinko":644,"key":"13227015002","units":1},"geometry":{"type":"Polygon","coordinates":[[[139.31294,35.7579],[139.31389,35.75685],[139.31405,35.75668],[139.31497,35.75566],[139.31521,35.75539],[139.31549,35.75508],[139.31548,35.75507],[139.31459,35.75402],[139.31451,35.75395],[139.31414,35.75364],[139.314,35.75357],[139.31384,35.75353],[139.31365,35.75361],[139.31323,35.75371],[139.31304,35.7538],[139.3127,35.75404],[139.31257,35.75414],[139.31251,35.75428],[139.31243,35.7546],[139.31237,35.75504],[139.31237,35.75529],[139.31238,35.75554],[139.31249,35.75556],[139.31265,35.75592],[139.3127,35.75598],[139.31296,35.75613],[139.31307,35.7562],[139.3131,35.75626],[139.31279,35.75612],[139.31258,35.75607],[139.31243,35.75606],[139.3121,35.75608],[139.31228,35.75641],[139.31234,35.75658],[139.31222,35.75734],[139.31216,35.75764],[139.31219,35.75783],[139.31206,35.75768],[139.31192,35.75754],[139.31145,35.75778],[139.31134,35.75793],[139.31101,35.75833],[139.31083,35.75851],[139.31064,35.75867],[139.3103,35.75897],[139.31014,35.75909],[139.30974,35.75944],[139.3094,35.75966],[139.30919,35.75998],[139.30918,35.75998],[139.30909,35.76014],[139.30897,35.7603],[139.3089,35.76033],[139.30867,35.76056],[139.30866,35.76074],[139.30868,35.76075],[139.30901,35.76076],[139.30945,35.76124],[139.30964,35.76146],[139.30989,35.76174],[139.31017,35.76117],[139.31036,35.76085],[139.31058,35.76054],[139.31077,35.76032],[139.31104,35.76004],[139.31155,35.75946],[139.3126,35.75829],[139.31289,35.75795],[139.31294,35.7579]]]}},{"type":"Feature","properties":{"name":"羽東三丁目","setai":487,"jinko":1148,"key":"13227015003","units":1},"geometry":{"type":"Polygon","coordinates":[[[139.31145,35.75778],[139.31192,35.75754],[139.31206,35.75768],[139.31219,35.75783],[139.31216,35.75764],[139.31222,35.75734],[139.31234,35.75658],[139.31228,35.75641],[139.3121,35.75608],[139.31243,35.75606],[139.31258,35.75607],[139.31279,35.75612],[139.3131,35.75626],[139.31307,35.7562],[139.31296,35.75613],[139.3127,35.75598],[139.31265,35.75592],[139.31249,35.75556],[139.31238,35.75554],[139.31237,35.75529],[139.31237,35.75504],[139.31243,35.7546],[139.31251,35.75428],[139.31257,35.75414],[139.3127,35.75404],[139.31304,35.7538],[139.31323,35.75371],[139.31365,35.75361],[139.31384,35.75353],[139.31377,35.75351],[139.31306,35.75333],[139.31305,35.75334],[139.31303,35.75339],[139.31293,35.75346],[139.31236,35.75371],[139.31222,35.75381],[139.31156,35.75429],[139.31113,35.75459],[139.3109,35.75471],[139.31034,35.75502],[139.30972,35.75534],[139.30948,35.7555],[139.30931,35.7556],[139.30849,35.75614],[139.30816,35.75639],[139.30803,35.75655],[139.30795,35.75676],[139.3079,35.75698],[139.30783,35.75726],[139.30767,35.7579],[139.30763,35.75801],[139.3075,35.75821],[139.30776,35.75835],[139.30776,35.75837],[139.30829,35.75902],[139.30896,35.75974],[139.30918,35.75998],[139.30919,35.75998],[139.3094,35.75966],[139.30974,35.75944],[139.31014,35.75909],[139.3103,35.75897],[139.31064,35.75867],[139.31083,35.75851],[139.31101,35.75833],[139.31134,35.75793],[139.31145,35.75778]]]}},{"type":"Feature","properties":{"name":"羽中一丁目","setai":340,"jinko":838,"key":"13227016001","units":1},"geometry":{"type":"Polygon","coordinates":[[[139.31197,35.76372],[139.31173,35.76361],[139.31172,35.76362],[139.31161,35.76355],[139.31135,35.76333],[139.31133,35.7633],[139.31104,35.76303],[139.31092,35.76289],[139.30989,35.76174],[139.30969,35.7625],[139.30944,35.76329],[139.30931,35.76367],[139.30895,35.76475],[139.30872,35.7654],[139.30852,35.76579],[139.30834,35.76612],[139.30854,35.76625],[139.30825,35.76654],[139.30769,35.76697],[139.30811,35.76713],[139.30916,35.76751],[139.30917,35.76749],[139.30985,35.7666],[139.30998,35.76642],[139.31014,35.76624],[139.31025,35.7661],[139.31069,35.76551],[139.31101,35.76508],[139.31121,35.7648],[139.31149,35.76443],[139.31197,35.76376],[139.31197,35.76372]]]}},{"type":"Feature","properties":{"name":"羽中二丁目","setai":507,"jinko":1215,"key":"13227016002","units":1},"geometry":{"type":"Polygon","coordinates":[[[139.30989,35.76174],[139.30964,35.76146],[139.30917,35.76166],[139.30845,35.76197],[139.30773,35.76237],[139.30717,35.76269],[139.30682,35.76287],[139.30578,35.76344],[139.30523,35.76379],[139.30415,35.76448],[139.30449,35.76483],[139.30483,35.7651],[139.30527,35.76539],[139.30538,35.76545],[139.30553,35.76554],[139.30561,35.76558],[139.30626,35.76602],[139.30681,35.76642],[139.30702,35.76654],[139.30719,35.76667],[139.30731,35.76676],[139.30757,35.76693],[139.30769,35.76697],[139.30825,35.76654],[139.30854,35.76625],[139.30834,35.76612],[139.30852,35.76579],[139.30872,35.7654],[139.30895,35.76475],[139.30931,35.76367],[139.30944,35.76329],[139.30969,35.7625],[139.30989,35.76174]]]}},{"type":"Feature","properties":{"name":"羽中三丁目","setai":422,"jinko":1013,"key":"13227016003","units":1},"geometry":{"type":"Polygon","coordinates":[[[139.30776,35.75835],[139.3075,35.75821],[139.30741,35.75834],[139.30721,35.75861],[139.30707,35.75877],[139.30677,35.75911],[139.30657,35.75932],[139.30603,35.7599],[139.30573,35.76021],[139.30548,35.7605],[139.30547,35.76051],[139.3048,35.76095],[139.3045,35.76113],[139.3044,35.76119],[139.30415,35.76131],[139.30374,35.7614],[139.30358,35.76145],[139.30284,35.76163],[139.3027,35.76169],[139.30249,35.76188],[139.30249,35.76189],[139.30264,35.76229],[139.30275,35.76267],[139.30288,35.76294],[139.30301,35.76317],[139.30323,35.76351],[139.30359,35.76391],[139.30415,35.76448],[139.30523,35.76379],[139.30578,35.76344],[139.30682,35.76287],[139.30717,35.76269],[139.30773,35.76237],[139.30845,35.76197],[139.30917,35.76166],[139.30964,35.76146],[139.30945,35.76124],[139.30901,35.76076],[139.30868,35.76075],[139.30866,35.76074],[139.30867,35.76056],[139.3089,35.76033],[139.30897,35.7603],[139.30909,35.76014],[139.30918,35.75998],[139.30896,35.75974],[139.30829,35.75902],[139.30776,35.75837],[139.30776,35.75835]]]}},{"type":"Feature","properties":{"name":"羽中四丁目","setai":203,"jinko":552,"key":"13227016004","units":1},"geometry":{"type":"Polygon","coordinates":[[[139.30801,35.75633],[139.30795,35.75629],[139.30776,35.75638],[139.30761,35.75652],[139.30751,35.75659],[139.30714,35.75691],[139.30712,35.757],[139.30692,35.7571],[139.30475,35.75746],[139.30335,35.75787],[139.30318,35.75791],[139.30234,35.75821],[139.30192,35.75839],[139.30156,35.75856],[139.30191,35.7591],[139.30236,35.75985],[139.30258,35.76024],[139.30275,35.76052],[139.30262,35.76058],[139.30248,35.76066],[139.30225,35.76086],[139.30228,35.76134],[139.30228,35.76137],[139.30253,35.76175],[139.30249,35.76188],[139.3027,35.76169],[139.30284,35.76163],[139.30358,35.76145],[139.30374,35.7614],[139.30415,35.76131],[139.3044,35.76119],[139.3045,35.76113],[139.3048,35.76095],[139.30547,35.76051],[139.30548,35.7605],[139.30573,35.76021],[139.30603,35.7599],[139.30657,35.75932],[139.30677,35.75911],[139.30707,35.75877],[139.30721,35.75861],[139.30741,35.75834],[139.3075,35.75821],[139.30763,35.75801],[139.30767,35.7579],[139.30783,35.75726],[139.3079,35.75698],[139.30795,35.75676],[139.30803,35.75655],[139.30816,35.75639],[139.30801,35.75633]]]}},{"type":"Feature","properties":{"name":"羽加美一丁目","setai":539,"jinko":1328,"key":"13227017001","units":1},"geometry":{"type":"Polygon","coordinates":[[[139.30811,35.76713],[139.30769,35.76697],[139.30757,35.76693],[139.30731,35.76676],[139.30719,35.76667],[139.30702,35.76654],[139.30681,35.76642],[139.30644,35.76666],[139.30633,35.76671],[139.30606,35.76678],[139.30561,35.76702],[139.30516,35.76674],[139.30489,35.76682],[139.3049,35.76698],[139.3049,35.76712],[139.30483,35.76727],[139.30479,35.7675],[139.30469,35.76756],[139.30469,35.76781],[139.30469,35.7679],[139.30466,35.76803],[139.30457,35.76826],[139.30449,35.76845],[139.30436,35.76873],[139.30403,35.76909],[139.30401,35.76913],[139.30398,35.76917],[139.30381,35.76934],[139.30378,35.76937],[139.30343,35.76958],[139.30337,35.7696],[139.30328,35.76962],[139.30322,35.76963],[139.30296,35.76965],[139.30262,35.76969],[139.30272,35.77002],[139.3028,35.77014],[139.30286,35.77025],[139.30286,35.77029],[139.30302,35.77062],[139.30311,35.77072],[139.30321,35.77088],[139.30327,35.77097],[139.30345,35.77119],[139.30356,35.77134],[139.30362,35.77141],[139.30407,35.77165],[139.30451,35.77189],[139.30495,35.77212],[139.30481,35.77231],[139.30514,35.77248],[139.30538,35.77258],[139.30564,35.77225],[139.30611,35.77164],[139.30639,35.77131],[139.30646,35.77122],[139.30705,35.77046],[139.30734,35.77006],[139.30736,35.77004],[139.3076,35.76971],[139.30768,35.76959],[139.30783,35.76939],[139.30801,35.76916],[139.3082,35.76891],[139.30839,35.76864],[139.30841,35.7686],[139.30857,35.76839],[139.30887,35.76801],[139.30914,35.76753],[139.30916,35.76751],[139.30811,35.76713]]]}},{"type":"Feature","properties":{"name":"羽加美二丁目","setai":417,"jinko":1036,"key":"13227017002","units":1},"geometry":{"type":"Polygon","coordinates":[[[139.30489,35.76682],[139.30516,35.76674],[139.30561,35.76702],[139.30606,35.76678],[139.30633,35.76671],[139.30644,35.76666],[139.30681,35.76642],[139.30626,35.76602],[139.30561,35.76558],[139.30553,35.76554],[139.30538,35.76545],[139.30527,35.76539],[139.30483,35.7651],[139.30449,35.76483],[139.30415,35.76448],[139.30334,35.76497],[139.30268,35.76534],[139.30224,35.76559],[139.30216,35.76563],[139.30197,35.76574],[139.30205,35.76645],[139.30218,35.7672],[139.30227,35.76769],[139.30251,35.76795],[139.30255,35.76806],[139.30262,35.76815],[139.30279,35.76855],[139.30283,35.76896],[139.30278,35.76913],[139.30264,35.76937],[139.30261,35.76951],[139.30262,35.76969],[139.30296,35.76965],[139.30322,35.76963],[139.30328,35.76962],[139.30337,35.7696],[139.30343,35.76958],[139.30378,35.76937],[139.30381,35.76934],[139.30398,35.76917],[139.30401,35.76913],[139.30403,35.76909],[139.30436,35.76873],[139.30449,35.76845],[139.30457,35.76826],[139.30466,35.76803],[139.30469,35.7679],[139.30469,35.76781],[139.30469,35.76756],[139.30479,35.7675],[139.30483,35.76727],[139.3049,35.76712],[139.3049,35.76698],[139.30489,35.76682]]]}},{"type":"Feature","properties":{"name":"羽加美三丁目","setai":353,"jinko":970,"key":"13227017003","units":1},"geometry":{"type":"Polygon","coordinates":[[[139.30272,35.77002],[139.30262,35.76969],[139.30261,35.76951],[139.30264,35.76937],[139.30278,35.76913],[139.30283,35.76896],[139.30279,35.76855],[139.30262,35.76815],[139.30255,35.76806],[139.30251,35.76795],[139.30227,35.76769],[139.30218,35.7672],[139.30205,35.76645],[139.30197,35.76574],[139.30216,35.76563],[139.30224,35.76559],[139.30268,35.76534],[139.30334,35.76497],[139.30415,35.76448],[139.30359,35.76391],[139.30323,35.76351],[139.30301,35.76317],[139.30288,35.76294],[139.30275,35.76267],[139.30264,35.76229],[139.30249,35.76189],[139.30221,35.76218],[139.30186,35.76253],[139.30168,35.76274],[139.30152,35.76291],[139.30138,35.76309],[139.3012,35.76337],[139.30095,35.76385],[139.30081,35.76407],[139.30077,35.76424],[139.30056,35.76468],[139.30048,35.7649],[139.30036,35.7654],[139.30029,35.76561],[139.30021,35.76592],[139.3002,35.76655],[139.30021,35.76686],[139.3002,35.767],[139.30011,35.76709],[139.30004,35.7672],[139.29993,35.76734],[139.29961,35.76781],[139.29996,35.76798],[139.30013,35.76808],[139.30015,35.76807],[139.3003,35.76818],[139.30034,35.76822],[139.30064,35.76837],[139.30067,35.76853],[139.30072,35.76859],[139.30105,35.76876],[139.30134,35.76905],[139.30137,35.76912],[139.30168,35.76954],[139.3017,35.76953],[139.30184,35.76974],[139.30187,35.76974],[139.30194,35.76978],[139.30218,35.76984],[139.30215,35.7698],[139.30235,35.76986],[139.30274,35.77015],[139.3028,35.77014],[139.30272,35.77002]]]}},{"type":"Feature","properties":{"name":"羽加美四丁目","setai":310,"jinko":781,"key":"13227017004","units":1},"geometry":{"type":"Polygon","coordinates":[[[139.30036,35.7654],[139.30048,35.7649],[139.30056,35.76468],[139.30077,35.76424],[139.30081,35.76407],[139.30095,35.76385],[139.3012,35.76337],[139.30138,35.76309],[139.30152,35.76291],[139.30168,35.76274],[139.30186,35.76253],[139.30221,35.76218],[139.30249,35.76189],[139.30249,35.76188],[139.30253,35.76175],[139.30228,35.76137],[139.30228,35.76134],[139.30225,35.76086],[139.30248,35.76066],[139.30262,35.76058],[139.30275,35.76052],[139.30258,35.76024],[139.30236,35.75985],[139.30191,35.7591],[139.30156,35.75856],[139.29951,35.75946],[139.29937,35.75954],[139.29922,35.75968],[139.29808,35.76138],[139.29794,35.76163],[139.29802,35.7617],[139.29791,35.76209],[139.29778,35.76254],[139.29774,35.76262],[139.29775,35.76271],[139.29812,35.76375],[139.29831,35.76417],[139.2984,35.76445],[139.29838,35.76454],[139.2984,35.76497],[139.29846,35.76504],[139.29866,35.765],[139.2987,35.76504],[139.29906,35.76528],[139.29911,35.76542],[139.29919,35.76578],[139.29927,35.76602],[139.29942,35.7662],[139.29952,35.7663],[139.29954,35.76637],[139.29963,35.76653],[139.29976,35.76665],[139.29951,35.7669],[139.29975,35.7671],[139.29985,35.7672],[139.29993,35.76734],[139.30004,35.7672],[139.30011,35.76709],[139.3002,35.767],[139.30021,35.76686],[139.3002,35.76655],[139.30021,35.76592],[139.30029,35.76561],[139.30036,35.7654]]]}},{"type":"Feature","properties":{"name":"羽西一丁目","setai":522,"jinko":1319,"key":"13227018001","units":1},"geometry":{"type":"Polygon","coordinates":[[[139.29838,35.77232],[139.29851,35.77228],[139.2986,35.7723],[139.2994,35.77248],[139.29975,35.77255],[139.30005,35.77257],[139.30034,35.77255],[139.30087,35.77254],[139.30112,35.77251],[139.30171,35.77248],[139.30179,35.77248],[139.30186,35.77243],[139.30212,35.77232],[139.30244,35.77209],[139.30269,35.77185],[139.30345,35.77119],[139.30327,35.77097],[139.30321,35.77088],[139.30311,35.77072],[139.30302,35.77062],[139.30286,35.77029],[139.30286,35.77025],[139.3028,35.77014],[139.30274,35.77015],[139.30235,35.76986],[139.30215,35.7698],[139.30218,35.76984],[139.30194,35.76978],[139.30187,35.76974],[139.30184,35.76974],[139.3017,35.76953],[139.30168,35.76954],[139.30137,35.76912],[139.30134,35.76905],[139.30105,35.76876],[139.30072,35.76859],[139.30067,35.76853],[139.30064,35.76837],[139.30034,35.76822],[139.3003,35.76818],[139.30015,35.76807],[139.30013,35.76808],[139.29996,35.76798],[139.29961,35.76781],[139.29902,35.76871],[139.29896,35.76881],[139.29887,35.76895],[139.29861,35.76933],[139.29852,35.76949],[139.29844,35.76959],[139.29828,35.7699],[139.29819,35.77015],[139.29806,35.77073],[139.29791,35.77163],[139.29791,35.77171],[139.29784,35.77209],[139.29781,35.77224],[139.29781,35.77229],[139.29771,35.77257],[139.29778,35.77257],[139.29807,35.77252],[139.29835,35.77239],[139.29838,35.77232]]]}},{"type":"Feature","properties":{"name":"羽西二丁目","setai":283,"jinko":736,"key":"13227018002","units":1},"geometry":{"type":"Polygon","coordinates":[[[139.29791,35.77163],[139.29806,35.77073],[139.29819,35.77015],[139.29828,35.7699],[139.29844,35.76959],[139.29852,35.76949],[139.29861,35.76933],[139.29887,35.76895],[139.29896,35.76881],[139.29902,35.76871],[139.29961,35.76781],[139.29993,35.76734],[139.29985,35.7672],[139.29975,35.7671],[139.29951,35.7669],[139.29976,35.76665],[139.29963,35.76653],[139.29954,35.76637],[139.29952,35.7663],[139.29942,35.7662],[139.29927,35.76602],[139.29919,35.76578],[139.29911,35.76542],[139.29906,35.76528],[139.2987,35.76504],[139.29866,35.765],[139.29846,35.76504],[139.29848,35.76667],[139.29847,35.76697],[139.29845,35.76713],[139.29839,35.7671],[139.29832,35.76733],[139.29835,35.76748],[139.29819,35.76785],[139.298,35.76832],[139.29791,35.76842],[139.29769,35.76865],[139.29733,35.769],[139.29712,35.76931],[139.2969,35.76966],[139.29697,35.76977],[139.297,35.76987],[139.297,35.76999],[139.29691,35.77006],[139.29688,35.77035],[139.29692,35.77033],[139.29682,35.77064],[139.29676,35.77078],[139.29641,35.77121],[139.29605,35.77159],[139.29594,35.77155],[139.29571,35.77151],[139.29544,35.77123],[139.29514,35.7713],[139.29487,35.77147],[139.29478,35.77149],[139.29461,35.77159],[139.2946,35.77165],[139.29392,35.77231],[139.29408,35.77242],[139.29413,35.77244],[139.29439,35.7724],[139.29497,35.77233],[139.29515,35.77231],[139.29563,35.77226],[139.29674,35.77214],[139.2968,35.77213],[139.29784,35.77209],[139.29791,35.77171],[139.29791,35.77163]]]}},{"type":"Feature","properties":{"name":"羽西三丁目","setai":271,"jinko":747,"key":"13227018003","units":1},"geometry":{"type":"Polygon","coordinates":[[[139.29357,35.77653],[139.29358,35.77652],[139.29366,35.77655],[139.29368,35.77651],[139.29408,35.77583],[139.29446,35.77531],[139.29486,35.77494],[139.29521,35.77474],[139.29623,35.77425],[139.29639,35.77417],[139.29688,35.77386],[139.29712,35.77375],[139.29711,35.77374],[139.2973,35.77358],[139.29746,35.77335],[139.29759,35.7732],[139.29779,35.77272],[139.29778,35.77257],[139.29771,35.77257],[139.29781,35.77229],[139.29781,35.77224],[139.29784,35.77209],[139.2968,35.77213],[139.29674,35.77214],[139.29563,35.77226],[139.29515,35.77231],[139.29497,35.77233],[139.29439,35.7724],[139.29413,35.77244],[139.29408,35.77242],[139.29392,35.77231],[139.29391,35.77232],[139.29365,35.77216],[139.29362,35.77214],[139.2934,35.77235],[139.29325,35.77254],[139.29306,35.77283],[139.29297,35.77297],[139.29288,35.77313],[139.29284,35.77321],[139.29283,35.77328],[139.29282,35.77333],[139.29283,35.77341],[139.293,35.77329],[139.29283,35.7736],[139.29278,35.77384],[139.29266,35.77426],[139.29257,35.7746],[139.29253,35.77474],[139.29248,35.77494],[139.29239,35.77536],[139.29238,35.7757],[139.29241,35.77578],[139.29258,35.77611],[139.29261,35.77616],[139.29288,35.77664],[139.29302,35.77668],[139.29303,35.77668],[139.29338,35.77684],[139.29349,35.77666],[139.29357,35.77653]]]}},{"type":"Feature","properties":{"name":"多摩川","setai":0,"jinko":0,"key":"132270190","units":1},"geometry":{"type":"Polygon","coordinates":[[[139.29392,35.77231],[139.2946,35.77165],[139.29461,35.77159],[139.29478,35.77149],[139.29487,35.77147],[139.29514,35.7713],[139.29544,35.77123],[139.29571,35.77151],[139.29594,35.77155],[139.29605,35.77159],[139.29641,35.77121],[139.29676,35.77078],[139.29682,35.77064],[139.29692,35.77033],[139.29688,35.77035],[139.29691,35.77006],[139.297,35.76999],[139.297,35.76987],[139.29697,35.76977],[139.2969,35.76966],[139.29712,35.76931],[139.29733,35.769],[139.29769,35.76865],[139.29791,35.76842],[139.298,35.76832],[139.29819,35.76785],[139.29835,35.76748],[139.29832,35.76733],[139.29839,35.7671],[139.29845,35.76713],[139.29847,35.76697],[139.29848,35.76667],[139.29846,35.76504],[139.2984,35.76497],[139.29838,35.76454],[139.2984,35.76445],[139.29831,35.76417],[139.29812,35.76375],[139.29775,35.76271],[139.29774,35.76262],[139.29778,35.76254],[139.29791,35.76209],[139.29802,35.7617],[139.29794,35.76163],[139.29808,35.76138],[139.29922,35.75968],[139.29937,35.75954],[139.29951,35.75946],[139.30156,35.75856],[139.30192,35.75839],[139.30234,35.75821],[139.30318,35.75791],[139.30335,35.75787],[139.30475,35.75746],[139.30692,35.7571],[139.30712,35.757],[139.30714,35.75691],[139.30751,35.75659],[139.30761,35.75652],[139.30776,35.75638],[139.30795,35.75629],[139.30801,35.75633],[139.30823,35.7561],[139.30847,35.75582],[139.3087,35.75572],[139.3087,35.75569],[139.30882,35.75526],[139.30889,35.75525],[139.30907,35.75526],[139.3096,35.75497],[139.31028,35.75408],[139.31117,35.75291],[139.31224,35.75151],[139.31225,35.75152],[139.31311,35.75039],[139.31393,35.7494],[139.31444,35.74877],[139.31471,35.74848],[139.31491,35.74825],[139.31535,35.74772],[139.3154,35.74771],[139.31542,35.74768],[139.31401,35.7468],[139.31399,35.74678],[139.31239,35.74923],[139.31092,35.7508],[139.30944,35.75135],[139.30897,35.7516],[139.30846,35.75187],[139.3083,35.75199],[139.30773,35.75286],[139.30735,35.75339],[139.3073,35.75345],[139.30667,35.754],[139.3063,35.7543],[139.30533,35.75485],[139.30523,35.7549],[139.30475,35.75515],[139.30433,35.75531],[139.30399,35.75541],[139.30332,35.75553],[139.30226,35.75572],[139.30178,35.75485],[139.3017,35.7548],[139.30152,35.75478],[139.30117,35.75477],[139.29931,35.75471],[139.29896,35.75478],[139.29836,35.75496],[139.29801,35.75489],[139.29773,35.75478],[139.29751,35.75479],[139.29724,35.75469],[139.29704,35.75465],[139.29679,35.75392],[139.29663,35.75404],[139.29643,35.75412],[139.29628,35.75426],[139.29614,35.75442],[139.29594,35.7546],[139.29591,35.75461],[139.2962,35.75487],[139.29653,35.75534],[139.29686,35.75596],[139.29704,35.75656],[139.29721,35.75745],[139.29716,35.75913],[139.29714,35.75984],[139.2972,35.76055],[139.29707,35.76137],[139.29696,35.76196],[139.29673,35.76268],[139.29661,35.76336],[139.29665,35.76397],[139.29667,35.76437],[139.29671,35.76582],[139.29662,35.76646],[139.29658,35.76659],[139.29648,35.76696],[139.29619,35.7676],[139.29591,35.76806],[139.29534,35.76882],[139.29509,35.76916],[139.29444,35.77032],[139.29436,35.77048],[139.29387,35.7714],[139.29387,35.77141],[139.2937,35.77187],[139.29369,35.7719],[139.29368,35.7721],[139.29366,35.77211],[139.29362,35.77214],[139.29365,35.77216],[139.29391,35.77232],[139.29392,35.77231]]]}}]}