{"type":"FeatureCollection","features":[{"type":"Feature","properties":{"name":"八重洲一丁目","setai":6,"jinko":11,"key":"13102001001","units":1},"geometry":{"type":"Polygon","coordinates":[[[139.77288,35.68381],[139.77266,35.68346],[139.7724,35.68305],[139.77202,35.68241],[139.7717,35.68189],[139.77131,35.68128],[139.77105,35.68086],[139.77084,35.68052],[139.77064,35.6802],[139.7704,35.67982],[139.76903,35.68038],[139.769,35.68039],[139.76878,35.68048],[139.76906,35.68091],[139.76933,35.68129],[139.76943,35.68146],[139.76966,35.68173],[139.76967,35.68174],[139.7696,35.68178],[139.76968,35.68193],[139.76979,35.68185],[139.76985,35.68196],[139.76988,35.68198],[139.77017,35.68246],[139.7701,35.68249],[139.7701,35.68251],[139.77012,35.68255],[139.77021,35.68253],[139.77064,35.68341],[139.77065,35.68342],[139.7706,35.68348],[139.77058,35.68351],[139.77057,35.68352],[139.77056,35.68353],[139.77059,35.68363],[139.7706,35.68367],[139.77065,35.68383],[139.77081,35.68379],[139.77081,35.6838],[139.77086,35.68395],[139.771,35.68433],[139.77086,35.68437],[139.7709,35.68447],[139.77091,35.68463],[139.77128,35.68456],[139.77301,35.68428],[139.77288,35.68381]]]}},{"type":"Feature","properties":{"name":"八重洲二丁目","setai":24,"jinko":27,"key":"13102001002","units":1},"geometry":{"type":"Polygon","coordinates":[[[139.76967,35.67866],[139.76946,35.67832],[139.7692,35.6779],[139.76905,35.67765],[139.7688,35.67725],[139.76849,35.67674],[139.7682,35.67628],[139.76798,35.67592],[139.76779,35.67562],[139.7677,35.67547],[139.76621,35.67591],[139.76615,35.67582],[139.76591,35.67591],[139.76575,35.67596],[139.76581,35.67598],[139.76664,35.67723],[139.7667,35.67731],[139.76679,35.67744],[139.76683,35.67744],[139.76687,35.67747],[139.76689,35.67753],[139.76689,35.67754],[139.76688,35.67756],[139.76699,35.67771],[139.76702,35.6777],[139.76702,35.67771],[139.76702,35.6777],[139.76726,35.67807],[139.76724,35.67808],[139.76753,35.67853],[139.76753,35.67852],[139.76775,35.67888],[139.76784,35.67901],[139.76803,35.6793],[139.76878,35.68048],[139.769,35.68039],[139.76903,35.68038],[139.7704,35.67982],[139.77009,35.67933],[139.76986,35.67898],[139.76968,35.67868],[139.76967,35.67866]]]}},{"type":"Feature","properties":{"name":"京橋一丁目","setai":52,"jinko":61,"key":"13102002001","units":1},"geometry":{"type":"Polygon","coordinates":[[[139.77253,35.67892],[139.77303,35.67872],[139.77304,35.67872],[139.7737,35.67846],[139.77371,35.67843],[139.77441,35.67816],[139.77442,35.67818],[139.77473,35.67805],[139.77474,35.67803],[139.77386,35.67659],[139.77384,35.67659],[139.7735,35.67669],[139.77281,35.67696],[139.77212,35.67725],[139.77074,35.67781],[139.76946,35.67832],[139.76967,35.67866],[139.76968,35.67868],[139.76986,35.67898],[139.77009,35.67933],[139.7704,35.67982],[139.77166,35.67928],[139.77253,35.67892]]]}},{"type":"Feature","properties":{"name":"京橋二丁目","setai":56,"jinko":94,"key":"13102002002","units":1},"geometry":{"type":"Polygon","coordinates":[[[139.77314,35.67549],[139.7728,35.67498],[139.77251,35.6751],[139.77182,35.67536],[139.77112,35.67565],[139.76975,35.67622],[139.76849,35.67674],[139.7688,35.67725],[139.76905,35.67765],[139.7692,35.6779],[139.76946,35.67832],[139.77074,35.67781],[139.77212,35.67725],[139.77281,35.67696],[139.7735,35.67669],[139.77384,35.67659],[139.77314,35.67549]]]}},{"type":"Feature","properties":{"name":"京橋三丁目","setai":44,"jinko":55,"key":"13102002003","units":1},"geometry":{"type":"Polygon","coordinates":[[[139.77182,35.67536],[139.77251,35.6751],[139.7728,35.67498],[139.77282,35.67497],[139.77248,35.67445],[139.77247,35.67445],[139.77249,35.67405],[139.7721,35.67411],[139.77195,35.6742],[139.77192,35.67422],[139.77149,35.67439],[139.77144,35.67435],[139.77125,35.67442],[139.77124,35.67443],[139.77052,35.6747],[139.77045,35.67473],[139.77039,35.67479],[139.76911,35.67521],[139.76911,35.67519],[139.76864,35.67531],[139.76819,35.67532],[139.7677,35.67547],[139.76779,35.67562],[139.76798,35.67592],[139.7682,35.67628],[139.76849,35.67674],[139.76975,35.67622],[139.77112,35.67565],[139.77182,35.67536]]]}},{"type":"Feature","properties":{"name":"銀座一丁目","setai":892,"jinko":1416,"key":"13102003001","units":1},"geometry":{"type":"Polygon","coordinates":[[[139.76591,35.67591],[139.76615,35.67582],[139.76621,35.67591],[139.7677,35.67547],[139.76819,35.67532],[139.76864,35.67531],[139.76911,35.67519],[139.76911,35.67521],[139.77039,35.67479],[139.77045,35.67473],[139.77052,35.6747],[139.77124,35.67443],[139.77125,35.67442],[139.77144,35.67435],[139.77149,35.67439],[139.77192,35.67422],[139.77195,35.6742],[139.7721,35.67411],[139.77249,35.67405],[139.7725,35.67405],[139.77249,35.67368],[139.77249,35.6736],[139.77242,35.67343],[139.77242,35.67339],[139.7724,35.67337],[139.77215,35.67251],[139.77215,35.6725],[139.77183,35.67153],[139.77177,35.67142],[139.77169,35.67135],[139.77154,35.6714],[139.7711,35.67161],[139.77093,35.67172],[139.77059,35.67195],[139.77025,35.67217],[139.76971,35.67254],[139.76917,35.67289],[139.76881,35.67313],[139.76857,35.67329],[139.76821,35.67353],[139.76779,35.67382],[139.76735,35.67413],[139.767,35.67436],[139.76661,35.67463],[139.76625,35.6749],[139.76623,35.67491],[139.76574,35.67527],[139.76566,35.67517],[139.76527,35.67526],[139.76553,35.67564],[139.7656,35.67574],[139.76575,35.67596],[139.76591,35.67591]]]}},{"type":"Feature","properties":{"name":"銀座二丁目","setai":402,"jinko":566,"key":"13102003002","units":1},"geometry":{"type":"Polygon","coordinates":[[[139.76574,35.67527],[139.76623,35.67491],[139.76625,35.6749],[139.76661,35.67463],[139.767,35.67436],[139.76735,35.67413],[139.76779,35.67382],[139.76821,35.67353],[139.76857,35.67329],[139.76881,35.67313],[139.76917,35.67289],[139.76971,35.67254],[139.77025,35.67217],[139.77059,35.67195],[139.77093,35.67172],[139.7711,35.67161],[139.77154,35.6714],[139.77169,35.67135],[139.77156,35.67121],[139.7712,35.67086],[139.77106,35.67073],[139.77064,35.67036],[139.77063,35.67035],[139.77029,35.67059],[139.76997,35.67081],[139.76973,35.67098],[139.76965,35.67103],[139.76933,35.67125],[139.76884,35.67159],[139.76838,35.6719],[139.76801,35.67215],[139.76778,35.6723],[139.76734,35.67262],[139.76685,35.67295],[139.76642,35.67325],[139.76641,35.67326],[139.76607,35.6735],[139.76569,35.67376],[139.76539,35.67397],[139.76496,35.67426],[139.765,35.67432],[139.76472,35.67446],[139.76524,35.67522],[139.76527,35.67526],[139.76566,35.67517],[139.76574,35.67527]]]}},{"type":"Feature","properties":{"name":"銀座三丁目","setai":195,"jinko":254,"key":"13102003003","units":1},"geometry":{"type":"Polygon","coordinates":[[[139.76984,35.66969],[139.76957,35.66946],[139.76925,35.66969],[139.76925,35.66969],[139.76923,35.66971],[139.76897,35.66988],[139.76893,35.66992],[139.76866,35.67012],[139.76839,35.6703],[139.76814,35.67048],[139.76797,35.67062],[139.7678,35.67077],[139.76755,35.67092],[139.76721,35.67113],[139.76695,35.67129],[139.76645,35.67165],[139.76589,35.67205],[139.76546,35.67235],[139.76511,35.67259],[139.76473,35.67286],[139.76419,35.67322],[139.76443,35.67349],[139.76416,35.67364],[139.76466,35.67438],[139.76472,35.67446],[139.765,35.67432],[139.76496,35.67426],[139.76539,35.67397],[139.76569,35.67376],[139.76607,35.6735],[139.76641,35.67326],[139.76642,35.67325],[139.76685,35.67295],[139.76734,35.67262],[139.76778,35.6723],[139.76801,35.67215],[139.76838,35.6719],[139.76884,35.67159],[139.76933,35.67125],[139.76965,35.67103],[139.76973,35.67098],[139.76997,35.67081],[139.77029,35.67059],[139.77063,35.67035],[139.77003,35.66985],[139.76984,35.66969]]]}},{"type":"Feature","properties":{"name":"銀座四丁目","setai":106,"jinko":152,"key":"13102003004","units":1},"geometry":{"type":"Polygon","coordinates":[[[139.76755,35.67092],[139.7678,35.67077],[139.76797,35.67062],[139.76814,35.67048],[139.76839,35.6703],[139.76866,35.67012],[139.76893,35.66992],[139.76897,35.66988],[139.76923,35.66971],[139.76925,35.66969],[139.76925,35.66969],[139.76957,35.66946],[139.76929,35.66921],[139.7691,35.66905],[139.7684,35.66846],[139.76838,35.66847],[139.76808,35.66872],[139.76782,35.66895],[139.7675,35.66922],[139.76707,35.66959],[139.76703,35.66963],[139.76697,35.66969],[139.76659,35.67001],[139.76659,35.67],[139.76608,35.67043],[139.76607,35.67045],[139.76557,35.67083],[139.76557,35.67082],[139.76503,35.67121],[139.76503,35.67124],[139.76461,35.67156],[139.76428,35.67179],[139.76427,35.6718],[139.76389,35.67207],[139.76388,35.67207],[139.76355,35.67231],[139.76325,35.67254],[139.76318,35.67259],[139.76282,35.67284],[139.76266,35.67296],[139.76268,35.67297],[139.76354,35.67322],[139.76381,35.67332],[139.76393,35.67339],[139.76405,35.67351],[139.76414,35.67361],[139.76416,35.67364],[139.76443,35.67349],[139.76419,35.67322],[139.76473,35.67286],[139.76511,35.67259],[139.76546,35.67235],[139.76589,35.67205],[139.76645,35.67165],[139.76695,35.67129],[139.76721,35.67113],[139.76755,35.67092]]]}},{"type":"Feature","properties":{"name":"銀座五丁目","setai":7,"jinko":11,"key":"13102003005","units":1},"geometry":{"type":"Polygon","coordinates":[[[139.76503,35.67121],[139.76557,35.67082],[139.76557,35.67083],[139.76607,35.67045],[139.76608,35.67043],[139.76659,35.67],[139.76659,35.67001],[139.76697,35.66969],[139.76703,35.66963],[139.76707,35.66959],[139.7675,35.66922],[139.76782,35.66895],[139.76808,35.66872],[139.76838,35.66847],[139.76774,35.66794],[139.76752,35.66764],[139.76747,35.66746],[139.76727,35.66764],[139.76678,35.66811],[139.76651,35.66835],[139.76607,35.66876],[139.76558,35.66923],[139.76553,35.66927],[139.76524,35.66948],[139.76501,35.66964],[139.76494,35.66969],[139.76456,35.66995],[139.76406,35.67031],[139.76362,35.67062],[139.76328,35.67085],[139.7629,35.67112],[139.7629,35.67113],[139.76256,35.67136],[139.76253,35.67138],[139.76223,35.67159],[139.76181,35.67188],[139.76176,35.67191],[139.76132,35.67196],[139.76057,35.67201],[139.76047,35.67205],[139.76047,35.67205],[139.7604,35.67208],[139.76051,35.67222],[139.76055,35.67227],[139.76058,35.67231],[139.76067,35.67239],[139.76077,35.67245],[139.76091,35.67253],[139.76266,35.67296],[139.76282,35.67284],[139.76318,35.67259],[139.76325,35.67254],[139.76355,35.67231],[139.76388,35.67207],[139.76389,35.67207],[139.76427,35.6718],[139.76428,35.67179],[139.76461,35.67156],[139.76503,35.67124],[139.76503,35.67121]]]}},{"type":"Feature","properties":{"name":"銀座六丁目","setai":16,"jinko":31,"key":"13102003006","units":1},"geometry":{"type":"Polygon","coordinates":[[[139.76725,35.66661],[139.76699,35.66641],[139.76672,35.66663],[139.76636,35.66694],[139.7658,35.66739],[139.76552,35.66762],[139.76508,35.66798],[139.76451,35.66843],[139.7642,35.66866],[139.76394,35.66884],[139.76356,35.66911],[139.76313,35.66942],[139.76274,35.66969],[139.76268,35.66973],[139.76233,35.66996],[139.76195,35.67022],[139.7616,35.67047],[139.76158,35.67048],[139.76129,35.67069],[139.76085,35.67099],[139.76053,35.67122],[139.76016,35.67148],[139.76009,35.67153],[139.7604,35.67208],[139.76047,35.67205],[139.76047,35.67205],[139.76057,35.67201],[139.76132,35.67196],[139.76176,35.67191],[139.76181,35.67188],[139.76223,35.67159],[139.76253,35.67138],[139.76256,35.67136],[139.7629,35.67113],[139.7629,35.67112],[139.76328,35.67085],[139.76362,35.67062],[139.76406,35.67031],[139.76456,35.66995],[139.76494,35.66969],[139.76501,35.66964],[139.76524,35.66948],[139.76553,35.66927],[139.76558,35.66923],[139.76607,35.66876],[139.76651,35.66835],[139.76678,35.66811],[139.76727,35.66764],[139.76747,35.66746],[139.76745,35.6673],[139.76743,35.6672],[139.76742,35.66693],[139.76739,35.66678],[139.76725,35.66661]]]}},{"type":"Feature","properties":{"name":"銀座七丁目","setai":182,"jinko":247,"key":"13102003007","units":1},"geometry":{"type":"Polygon","coordinates":[[[139.7658,35.66739],[139.76636,35.66694],[139.76672,35.66663],[139.76699,35.66641],[139.76597,35.66562],[139.76596,35.66562],[139.76571,35.66584],[139.76533,35.66615],[139.76479,35.66659],[139.76453,35.66681],[139.76411,35.66714],[139.76405,35.6671],[139.76401,35.66713],[139.76341,35.66761],[139.76314,35.66784],[139.76289,35.66804],[139.76257,35.66826],[139.76219,35.66853],[139.76174,35.66885],[139.76141,35.66909],[139.76103,35.66935],[139.76068,35.66959],[139.76054,35.66968],[139.76035,35.66982],[139.75993,35.67012],[139.75955,35.67037],[139.75947,35.67042],[139.76009,35.67153],[139.76016,35.67148],[139.76053,35.67122],[139.76085,35.67099],[139.76129,35.67069],[139.76158,35.67048],[139.7616,35.67047],[139.76195,35.67022],[139.76233,35.66996],[139.76268,35.66973],[139.76274,35.66969],[139.76313,35.66942],[139.76356,35.66911],[139.76394,35.66884],[139.7642,35.66866],[139.76451,35.66843],[139.76508,35.66798],[139.76552,35.66762],[139.7658,35.66739]]]}},{"type":"Feature","properties":{"name":"銀座八丁目","setai":534,"jinko":681,"key":"13102003008","units":1},"geometry":{"type":"Polygon","coordinates":[[[139.76401,35.66713],[139.76405,35.6671],[139.76411,35.66714],[139.76453,35.66681],[139.76479,35.66659],[139.76533,35.66615],[139.76571,35.66584],[139.76596,35.66562],[139.76584,35.66552],[139.76541,35.66505],[139.76494,35.66454],[139.76471,35.66429],[139.76471,35.66429],[139.76387,35.66354],[139.7637,35.6634],[139.76346,35.66325],[139.76336,35.66331],[139.76295,35.6636],[139.76307,35.66375],[139.76318,35.66392],[139.76318,35.66392],[139.76325,35.6641],[139.76329,35.66422],[139.76328,35.66434],[139.76325,35.6647],[139.76318,35.66533],[139.76305,35.66565],[139.76288,35.66599],[139.76267,35.66638],[139.76258,35.66654],[139.76256,35.66656],[139.7625,35.66666],[139.7624,35.66687],[139.76226,35.66714],[139.76225,35.66715],[139.76224,35.66716],[139.7619,35.66727],[139.76153,35.66739],[139.76112,35.66752],[139.7611,35.66753],[139.76054,35.66771],[139.7601,35.66785],[139.75976,35.66796],[139.75961,35.66801],[139.75914,35.66817],[139.75879,35.66828],[139.75871,35.66831],[139.7585,35.66838],[139.75852,35.66853],[139.75853,35.66857],[139.75855,35.66863],[139.75859,35.66877],[139.75867,35.66897],[139.75893,35.66944],[139.75897,35.66953],[139.75947,35.67042],[139.75955,35.67037],[139.75993,35.67012],[139.76035,35.66982],[139.76054,35.66968],[139.76068,35.66959],[139.76103,35.66935],[139.76141,35.66909],[139.76174,35.66885],[139.76219,35.66853],[139.76257,35.66826],[139.76289,35.66804],[139.76314,35.66784],[139.76341,35.66761],[139.76401,35.66713]]]}},{"type":"Feature","properties":{"name":"新富一丁目","setai":837,"jinko":1279,"key":"13102004001","units":1},"geometry":{"type":"Polygon","coordinates":[[[139.77572,35.67188],[139.77556,35.67147],[139.77508,35.6716],[139.77466,35.67171],[139.77426,35.67182],[139.7737,35.67197],[139.77334,35.67208],[139.773,35.67217],[139.77266,35.67227],[139.77215,35.6725],[139.77215,35.67251],[139.7724,35.67337],[139.77242,35.67339],[139.77242,35.67343],[139.77249,35.6736],[139.77249,35.67368],[139.7725,35.67405],[139.77308,35.67404],[139.77315,35.67399],[139.77318,35.67399],[139.77423,35.67392],[139.77425,35.67392],[139.77579,35.6739],[139.77654,35.67389],[139.77635,35.67339],[139.77633,35.67336],[139.77616,35.67298],[139.77602,35.67264],[139.77582,35.67211],[139.77578,35.67203],[139.77572,35.67188]]]}},{"type":"Feature","properties":{"name":"新富二丁目","setai":585,"jinko":948,"key":"13102004002","units":1},"geometry":{"type":"Polygon","coordinates":[[[139.77482,35.6701],[139.77481,35.67008],[139.77449,35.67021],[139.77425,35.6703],[139.7741,35.67037],[139.77392,35.67044],[139.77369,35.67053],[139.77311,35.67076],[139.77311,35.67076],[139.7728,35.6709],[139.77249,35.67102],[139.77214,35.67117],[139.77221,35.67123],[139.77212,35.67127],[139.77177,35.67142],[139.77183,35.67153],[139.77215,35.6725],[139.77266,35.67227],[139.773,35.67217],[139.77334,35.67208],[139.7737,35.67197],[139.77426,35.67182],[139.77466,35.67171],[139.77508,35.6716],[139.77556,35.67147],[139.77534,35.67091],[139.77509,35.6703],[139.77487,35.67024],[139.77482,35.6701]]]}},{"type":"Feature","properties":{"name":"入船一丁目","setai":534,"jinko":852,"key":"13102005001","units":1},"geometry":{"type":"Polygon","coordinates":[[[139.77833,35.6724],[139.7782,35.67205],[139.77753,35.67223],[139.77678,35.67243],[139.77602,35.67264],[139.77616,35.67298],[139.77633,35.67336],[139.77635,35.67339],[139.77654,35.67389],[139.7779,35.67386],[139.77856,35.67384],[139.77858,35.67383],[139.77856,35.67329],[139.77852,35.67284],[139.77837,35.6725],[139.77833,35.6724]]]}},{"type":"Feature","properties":{"name":"入船二丁目","setai":612,"jinko":887,"key":"13102005002","units":1},"geometry":{"type":"Polygon","coordinates":[[[139.77801,35.67156],[139.77792,35.67133],[139.77782,35.67108],[139.77713,35.67126],[139.77637,35.67144],[139.7763,35.67129],[139.77556,35.67147],[139.77572,35.67188],[139.77578,35.67203],[139.77582,35.67211],[139.77602,35.67264],[139.77678,35.67243],[139.77753,35.67223],[139.7782,35.67205],[139.7781,35.6718],[139.77801,35.67156]]]}},{"type":"Feature","properties":{"name":"入船三丁目","setai":484,"jinko":748,"key":"13102005003","units":1},"geometry":{"type":"Polygon","coordinates":[[[139.77556,35.67147],[139.7763,35.67129],[139.77637,35.67144],[139.77713,35.67126],[139.77782,35.67108],[139.77776,35.67092],[139.77765,35.67064],[139.77754,35.67036],[139.77743,35.67007],[139.77728,35.66969],[139.77725,35.66961],[139.77692,35.66969],[139.77691,35.66969],[139.77656,35.66978],[139.77579,35.66998],[139.77503,35.67018],[139.77509,35.6703],[139.77534,35.67091],[139.77556,35.67147]]]}},{"type":"Feature","properties":{"name":"湊一丁目","setai":758,"jinko":1282,"key":"13102006001","units":1},"geometry":{"type":"Polygon","coordinates":[[[139.78072,35.67339],[139.78108,35.67291],[139.78133,35.67301],[139.78137,35.67296],[139.7814,35.67291],[139.78115,35.6728],[139.78118,35.67274],[139.78133,35.67243],[139.78136,35.67228],[139.7814,35.67199],[139.78143,35.67168],[139.78096,35.6717],[139.78041,35.67171],[139.77996,35.67171],[139.77983,35.67171],[139.77931,35.67173],[139.77924,35.67175],[139.7788,35.67188],[139.7782,35.67205],[139.77833,35.6724],[139.77837,35.6725],[139.77852,35.67284],[139.77856,35.67329],[139.77858,35.67383],[139.7801,35.67382],[139.7803,35.67382],[139.7803,35.67349],[139.78055,35.67348],[139.78064,35.67345],[139.78072,35.67339]]]}},{"type":"Feature","properties":{"name":"湊二丁目","setai":1350,"jinko":2675,"key":"13102006002","units":1},"geometry":{"type":"Polygon","coordinates":[[[139.7812,35.67045],[139.78108,35.67016],[139.78081,35.67022],[139.78035,35.67034],[139.7803,35.67036],[139.77966,35.67053],[139.77923,35.67065],[139.77926,35.67072],[139.77909,35.67077],[139.77901,35.67079],[139.77895,35.6708],[139.77893,35.67081],[139.77884,35.67083],[139.77882,35.67083],[139.77875,35.67085],[139.77867,35.67087],[139.77851,35.67091],[139.77844,35.67092],[139.77819,35.67099],[139.77782,35.67108],[139.77792,35.67133],[139.77801,35.67156],[139.7781,35.6718],[139.7782,35.67205],[139.7788,35.67188],[139.77924,35.67175],[139.77931,35.67173],[139.77983,35.67171],[139.77996,35.67171],[139.78041,35.67171],[139.78096,35.6717],[139.78143,35.67168],[139.78144,35.67155],[139.78144,35.67154],[139.78137,35.6711],[139.7812,35.67045]]]}},{"type":"Feature","properties":{"name":"湊三丁目","setai":1742,"jinko":3086,"key":"13102006003","units":1},"geometry":{"type":"Polygon","coordinates":[[[139.78085,35.66969],[139.78054,35.6691],[139.78041,35.66881],[139.78019,35.66888],[139.77976,35.66902],[139.77958,35.66907],[139.77915,35.66918],[139.77899,35.66923],[139.77884,35.66927],[139.77875,35.6693],[139.77868,35.66925],[139.77798,35.66943],[139.77794,35.66944],[139.77725,35.66961],[139.77728,35.66969],[139.77743,35.67007],[139.77754,35.67036],[139.77765,35.67064],[139.77776,35.67092],[139.77782,35.67108],[139.77819,35.67099],[139.77844,35.67092],[139.77851,35.67091],[139.77867,35.67087],[139.77875,35.67085],[139.77882,35.67083],[139.77884,35.67083],[139.77893,35.67081],[139.77895,35.6708],[139.77901,35.67079],[139.77909,35.67077],[139.77926,35.67072],[139.77923,35.67065],[139.77966,35.67053],[139.7803,35.67036],[139.78035,35.67034],[139.78081,35.67022],[139.78108,35.67016],[139.78085,35.66969]]]}},{"type":"Feature","properties":{"name":"明石町","setai":1952,"jinko":3543,"key":"131020070","units":1},"geometry":{"type":"Polygon","coordinates":[[[139.77798,35.66943],[139.77868,35.66925],[139.77875,35.6693],[139.77884,35.66927],[139.77899,35.66923],[139.77915,35.66918],[139.77958,35.66907],[139.77976,35.66902],[139.78019,35.66888],[139.78041,35.66881],[139.77989,35.66772],[139.77978,35.6675],[139.77965,35.66724],[139.77921,35.66652],[139.77907,35.66632],[139.77839,35.66574],[139.77735,35.66474],[139.77727,35.6647],[139.77701,35.66461],[139.77688,35.66458],[139.77687,35.66462],[139.77712,35.66473],[139.77695,35.66497],[139.77665,35.66533],[139.77665,35.6654],[139.77763,35.66629],[139.77762,35.66632],[139.77596,35.66671],[139.77589,35.66668],[139.7757,35.66673],[139.77505,35.66689],[139.77508,35.66698],[139.77488,35.66702],[139.77485,35.66697],[139.77451,35.66705],[139.77448,35.66706],[139.7744,35.66701],[139.77415,35.66707],[139.77443,35.66735],[139.77454,35.66754],[139.77455,35.66756],[139.77484,35.6682],[139.77491,35.66831],[139.77499,35.6685],[139.77516,35.66898],[139.7754,35.66967],[139.7754,35.66969],[139.77537,35.66984],[139.77482,35.6701],[139.77487,35.67024],[139.77509,35.6703],[139.77503,35.67018],[139.77579,35.66998],[139.77656,35.66978],[139.77691,35.66969],[139.77692,35.66969],[139.77725,35.66961],[139.77794,35.66944],[139.77798,35.66943]]]}},{"type":"Feature","properties":{"name":"築地一丁目","setai":638,"jinko":942,"key":"13102008001","units":1},"geometry":{"type":"Polygon","coordinates":[[[139.77018,35.66778],[139.76967,35.66738],[139.76923,35.66773],[139.7684,35.66846],[139.7691,35.66905],[139.76929,35.66921],[139.76957,35.66946],[139.76984,35.66969],[139.77003,35.66985],[139.77063,35.67035],[139.77064,35.67036],[139.77106,35.67073],[139.7712,35.67086],[139.77156,35.67121],[139.77169,35.67135],[139.77177,35.67142],[139.77212,35.67127],[139.77221,35.67123],[139.77214,35.67117],[139.77249,35.67102],[139.7728,35.6709],[139.77311,35.67076],[139.77275,35.67026],[139.77259,35.67004],[139.77253,35.66996],[139.77234,35.66969],[139.77232,35.66967],[139.77207,35.66933],[139.77139,35.66877],[139.77128,35.66868],[139.77098,35.66843],[139.77044,35.66799],[139.77018,35.66778]]]}},{"type":"Feature","properties":{"name":"築地二丁目","setai":789,"jinko":1177,"key":"13102008002","units":1},"geometry":{"type":"Polygon","coordinates":[[[139.77094,35.66678],[139.77065,35.66656],[139.76971,35.66735],[139.76967,35.66738],[139.77018,35.66778],[139.77044,35.66799],[139.77098,35.66843],[139.77128,35.66868],[139.77139,35.66877],[139.77207,35.66933],[139.77232,35.66967],[139.77234,35.66969],[139.77253,35.66996],[139.77259,35.67004],[139.77275,35.67026],[139.77311,35.67076],[139.77311,35.67076],[139.77369,35.67053],[139.77392,35.67044],[139.7741,35.67037],[139.77425,35.6703],[139.77449,35.67021],[139.77481,35.67008],[139.7746,35.66983],[139.77446,35.66969],[139.77417,35.66939],[139.77394,35.6692],[139.77371,35.66902],[139.77369,35.669],[139.77311,35.66853],[139.77286,35.66833],[139.7726,35.66812],[139.7723,35.66788],[139.77205,35.66768],[139.77145,35.6672],[139.77119,35.66699],[139.77094,35.66678]]]}},{"type":"Feature","properties":{"name":"築地三丁目","setai":608,"jinko":948,"key":"13102008003","units":1},"geometry":{"type":"Polygon","coordinates":[[[139.77219,35.66564],[139.77183,35.66536],[139.77176,35.66543],[139.77176,35.66543],[139.77157,35.66563],[139.77125,35.66594],[139.77094,35.66626],[139.77065,35.66656],[139.77094,35.66678],[139.77119,35.66699],[139.77145,35.6672],[139.77205,35.66768],[139.7723,35.66788],[139.7726,35.66812],[139.77286,35.66833],[139.77311,35.66853],[139.77369,35.669],[139.77371,35.66902],[139.77394,35.6692],[139.77417,35.66939],[139.77446,35.66969],[139.7746,35.66983],[139.77481,35.67008],[139.77482,35.6701],[139.77537,35.66984],[139.7754,35.66969],[139.7754,35.66967],[139.77516,35.66898],[139.77499,35.6685],[139.77491,35.66831],[139.77484,35.6682],[139.77455,35.66756],[139.77454,35.66754],[139.77443,35.66735],[139.77415,35.66707],[139.77402,35.66698],[139.77374,35.66676],[139.77367,35.66672],[139.77347,35.66658],[139.77336,35.66651],[139.77328,35.66646],[139.77309,35.66632],[139.77219,35.66564]]]}},{"type":"Feature","properties":{"name":"築地四丁目","setai":500,"jinko":686,"key":"13102008004","units":1},"geometry":{"type":"Polygon","coordinates":[[[139.77056,35.66453],[139.77021,35.66429],[139.76909,35.66533],[139.76771,35.66662],[139.768,35.66684],[139.7679,35.66693],[139.76745,35.6673],[139.76747,35.66746],[139.76752,35.66764],[139.76774,35.66794],[139.76838,35.66847],[139.7684,35.66846],[139.76923,35.66773],[139.76967,35.66738],[139.76971,35.66735],[139.77065,35.66656],[139.77094,35.66626],[139.77125,35.66594],[139.77157,35.66563],[139.77176,35.66543],[139.7716,35.66531],[139.77092,35.6648],[139.77056,35.66453]]]}},{"type":"Feature","properties":{"name":"築地五丁目","setai":375,"jinko":441,"key":"13102008005","units":1},"geometry":{"type":"Polygon","coordinates":[[[139.76771,35.66662],[139.76909,35.66533],[139.77021,35.66429],[139.77032,35.66419],[139.77102,35.66353],[139.77107,35.66348],[139.77253,35.66212],[139.77251,35.6621],[139.77264,35.66198],[139.77123,35.66077],[139.77071,35.66042],[139.77087,35.66028],[139.76941,35.65931],[139.76913,35.65958],[139.76908,35.65955],[139.76885,35.65937],[139.76873,35.65946],[139.76897,35.65964],[139.76796,35.66034],[139.76797,35.66036],[139.76567,35.66195],[139.76561,35.66195],[139.76543,35.66208],[139.76545,35.6621],[139.7641,35.66305],[139.76408,35.66303],[139.76397,35.66311],[139.76403,35.66317],[139.7637,35.6634],[139.76387,35.66354],[139.76471,35.66429],[139.76471,35.66429],[139.76494,35.66454],[139.76541,35.66505],[139.76584,35.66552],[139.76596,35.66562],[139.76597,35.66562],[139.76699,35.66641],[139.76725,35.66661],[139.76739,35.66678],[139.76742,35.66693],[139.76743,35.6672],[139.76745,35.6673],[139.7679,35.66693],[139.768,35.66684],[139.76771,35.66662]]]}},{"type":"Feature","properties":{"name":"築地六丁目","setai":854,"jinko":1502,"key":"13102008006","units":1},"geometry":{"type":"Polygon","coordinates":[[[139.77393,35.66555],[139.77422,35.66528],[139.7745,35.66503],[139.77476,35.66478],[139.77505,35.66451],[139.77493,35.66442],[139.77549,35.66393],[139.77418,35.66323],[139.77405,35.66316],[139.77384,35.66303],[139.77386,35.66301],[139.77341,35.6627],[139.77341,35.66268],[139.77286,35.66219],[139.77278,35.66227],[139.77263,35.66221],[139.77253,35.66212],[139.77107,35.66348],[139.77102,35.66353],[139.77032,35.66419],[139.77021,35.66429],[139.77056,35.66453],[139.77092,35.6648],[139.7716,35.66531],[139.77176,35.66543],[139.77176,35.66543],[139.77183,35.66536],[139.77219,35.66564],[139.77309,35.66632],[139.77329,35.66614],[139.77361,35.66584],[139.77393,35.66555]]]}},{"type":"Feature","properties":{"name":"築地七丁目","setai":1591,"jinko":2903,"key":"13102008007","units":1},"geometry":{"type":"Polygon","coordinates":[[[139.77415,35.66707],[139.7744,35.66701],[139.77448,35.66706],[139.77451,35.66705],[139.77485,35.66697],[139.77488,35.66702],[139.77508,35.66698],[139.77505,35.66689],[139.7757,35.66673],[139.77589,35.66668],[139.77596,35.66671],[139.77762,35.66632],[139.77763,35.66629],[139.77665,35.6654],[139.77665,35.66533],[139.77695,35.66497],[139.77712,35.66473],[139.77687,35.66462],[139.77688,35.66458],[139.77663,35.66449],[139.77633,35.66435],[139.77549,35.66393],[139.77493,35.66442],[139.77505,35.66451],[139.77476,35.66478],[139.7745,35.66503],[139.77422,35.66528],[139.77393,35.66555],[139.77361,35.66584],[139.77329,35.66614],[139.77309,35.66632],[139.77328,35.66646],[139.77336,35.66651],[139.77347,35.66658],[139.77367,35.66672],[139.77374,35.66676],[139.77402,35.66698],[139.77415,35.66707]]]}},{"type":"Feature","properties":{"name":"浜離宮庭園","setai":0,"jinko":0,"key":"131020090","units":1},"geometry":{"type":"MultiPolygon","coordinates":[[[[139.76346,35.66325],[139.76331,35.66313],[139.76332,35.66309],[139.76435,35.6623],[139.76427,35.66219],[139.76433,35.66215],[139.76443,35.66225],[139.7677,35.6598],[139.76683,35.65918],[139.76627,35.65887],[139.76621,35.65891],[139.76616,35.65888],[139.76622,35.65884],[139.7651,35.65825],[139.76304,35.65718],[139.75973,35.6591],[139.76156,35.66142],[139.76306,35.66328],[139.76319,35.66319],[139.76323,35.66319],[139.76336,35.66331],[139.76346,35.66325]]],[[[139.76743,35.65835],[139.76475,35.65638],[139.76427,35.65664],[139.76419,35.65654],[139.76413,35.65657],[139.76401,35.65642],[139.76406,35.65639],[139.76404,35.65637],[139.76385,35.65646],[139.76383,35.65647],[139.76384,35.65649],[139.76397,35.65646],[139.76407,35.65658],[139.76405,35.65661],[139.76413,35.6567],[139.76436,35.65686],[139.76449,35.65696],[139.76458,35.65695],[139.76481,35.65711],[139.76477,35.65717],[139.76507,35.65739],[139.7651,35.6574],[139.76546,35.65707],[139.76712,35.6583],[139.76713,35.6586],[139.76741,35.65881],[139.76752,35.65881],[139.7675,35.65872],[139.76748,35.65854],[139.76744,35.65854],[139.76743,35.65835]]],[[[139.76885,35.65937],[139.76778,35.6586],[139.76777,35.65854],[139.76766,35.65854],[139.76768,35.6588],[139.76782,35.65879],[139.76873,35.65946],[139.76885,35.65937]]]]}},{"type":"Feature","properties":{"name":"八丁堀一丁目","setai":48,"jinko":63,"key":"13102010001","units":1},"geometry":{"type":"Polygon","coordinates":[[[139.77539,35.67851],[139.77553,35.67846],[139.77555,35.6785],[139.77602,35.6783],[139.77603,35.6783],[139.77655,35.67808],[139.77655,35.67807],[139.77701,35.67787],[139.77716,35.67782],[139.77774,35.67757],[139.77845,35.67726],[139.77845,35.67725],[139.77911,35.67696],[139.77939,35.67685],[139.77902,35.67641],[139.77873,35.67648],[139.77831,35.6766],[139.77809,35.67668],[139.77732,35.67696],[139.77661,35.67726],[139.77614,35.67745],[139.77564,35.67766],[139.7756,35.67767],[139.77516,35.67786],[139.77512,35.67788],[139.77474,35.67803],[139.77473,35.67805],[139.7751,35.67869],[139.77512,35.67868],[139.77513,35.67868],[139.77542,35.67856],[139.77539,35.67851]]]}},{"type":"Feature","properties":{"name":"八丁堀二丁目","setai":682,"jinko":1103,"key":"13102010002","units":1},"geometry":{"type":"Polygon","coordinates":[[[139.77863,35.67517],[139.7785,35.67513],[139.77801,35.67526],[139.77776,35.67534],[139.77734,35.67545],[139.77724,35.67545],[139.77685,35.67557],[139.77652,35.67568],[139.77576,35.67592],[139.77564,35.67596],[139.77529,35.67608],[139.77481,35.67628],[139.77477,35.67629],[139.77438,35.67643],[139.77429,35.67646],[139.77412,35.67649],[139.77386,35.67659],[139.77474,35.67803],[139.77512,35.67788],[139.77516,35.67786],[139.7756,35.67767],[139.77564,35.67766],[139.77614,35.67745],[139.77661,35.67726],[139.77732,35.67696],[139.77809,35.67668],[139.77831,35.6766],[139.77873,35.67648],[139.77902,35.67641],[139.77901,35.67639],[139.77885,35.6762],[139.77944,35.67548],[139.77909,35.67534],[139.77907,35.6753],[139.77903,35.67529],[139.77863,35.67517]]]}},{"type":"Feature","properties":{"name":"八丁堀三丁目","setai":824,"jinko":1315,"key":"13102010003","units":1},"geometry":{"type":"Polygon","coordinates":[[[139.77801,35.67526],[139.7785,35.67513],[139.77863,35.67517],[139.77903,35.67529],[139.77907,35.6753],[139.77909,35.67534],[139.77944,35.67548],[139.78017,35.6746],[139.77985,35.67458],[139.77955,35.67457],[139.77928,35.67458],[139.77859,35.67458],[139.77779,35.67459],[139.77763,35.6746],[139.7773,35.6746],[139.77682,35.67461],[139.77629,35.67462],[139.77586,35.67462],[139.77582,35.67462],[139.77528,35.67463],[139.77482,35.67464],[139.7744,35.67466],[139.77381,35.6747],[139.77366,35.67471],[139.77338,35.67473],[139.77334,35.67475],[139.77318,35.67482],[139.77282,35.67497],[139.7728,35.67498],[139.77314,35.67549],[139.77384,35.67659],[139.77386,35.67659],[139.77412,35.67649],[139.77429,35.67646],[139.77438,35.67643],[139.77477,35.67629],[139.77481,35.67628],[139.77529,35.67608],[139.77564,35.67596],[139.77576,35.67592],[139.77652,35.67568],[139.77685,35.67557],[139.77724,35.67545],[139.77734,35.67545],[139.77776,35.67534],[139.77801,35.67526]]]}},{"type":"Feature","properties":{"name":"八丁堀四丁目","setai":652,"jinko":1090,"key":"13102010004","units":1},"geometry":{"type":"Polygon","coordinates":[[[139.77528,35.67463],[139.77582,35.67462],[139.77586,35.67462],[139.77629,35.67462],[139.77682,35.67461],[139.7773,35.6746],[139.77763,35.6746],[139.77779,35.67459],[139.77859,35.67458],[139.77928,35.67458],[139.77955,35.67457],[139.77985,35.67458],[139.78017,35.6746],[139.78055,35.67408],[139.78074,35.67382],[139.7803,35.67382],[139.7801,35.67382],[139.77858,35.67383],[139.77856,35.67384],[139.7779,35.67386],[139.77654,35.67389],[139.77579,35.6739],[139.77425,35.67392],[139.77423,35.67392],[139.77318,35.67399],[139.77315,35.67399],[139.77308,35.67404],[139.7725,35.67405],[139.77249,35.67405],[139.77247,35.67445],[139.77248,35.67445],[139.77282,35.67497],[139.77318,35.67482],[139.77334,35.67475],[139.77338,35.67473],[139.77366,35.67471],[139.77381,35.6747],[139.7744,35.67466],[139.77482,35.67464],[139.77528,35.67463]]]}},{"type":"Feature","properties":{"name":"新川一丁目","setai":2037,"jinko":3243,"key":"13102011001","units":1},"geometry":{"type":"Polygon","coordinates":[[[139.78746,35.67644],[139.7874,35.67632],[139.78734,35.67622],[139.78654,35.67639],[139.78657,35.67636],[139.78637,35.67562],[139.78646,35.67559],[139.78644,35.67543],[139.78631,35.67495],[139.78625,35.67483],[139.78591,35.67441],[139.78554,35.67395],[139.7853,35.6741],[139.78413,35.67482],[139.78317,35.67539],[139.78302,35.6755],[139.78265,35.67578],[139.7824,35.67596],[139.78192,35.67632],[139.78186,35.67636],[139.7816,35.67656],[139.78127,35.67681],[139.78124,35.67683],[139.78085,35.67712],[139.78055,35.67735],[139.78039,35.67745],[139.78009,35.67763],[139.78116,35.67871],[139.78116,35.67872],[139.78162,35.67917],[139.7816,35.67918],[139.7824,35.67994],[139.78252,35.67984],[139.7834,35.67919],[139.78418,35.67869],[139.785,35.67829],[139.78663,35.67749],[139.78664,35.67749],[139.7865,35.6773],[139.78656,35.67728],[139.78674,35.67715],[139.78683,35.677],[139.78685,35.67684],[139.78675,35.6767],[139.7866,35.67662],[139.78746,35.67644]]]}},{"type":"Feature","properties":{"name":"新川二丁目","setai":3458,"jinko":6132,"key":"13102011002","units":1},"geometry":{"type":"Polygon","coordinates":[[[139.785,35.67331],[139.78469,35.67294],[139.78461,35.67297],[139.78458,35.67294],[139.78441,35.67278],[139.78422,35.67265],[139.78394,35.67248],[139.78315,35.67202],[139.78301,35.67194],[139.78284,35.67194],[139.78275,35.67198],[139.78213,35.67261],[139.78195,35.6726],[139.78191,35.67253],[139.78189,35.67242],[139.78183,35.67241],[139.78176,35.67244],[139.7817,35.67254],[139.78156,35.67287],[139.78159,35.67288],[139.78146,35.673],[139.78137,35.67296],[139.78074,35.67382],[139.78055,35.67408],[139.78017,35.6746],[139.77944,35.67548],[139.77885,35.6762],[139.77901,35.67639],[139.77902,35.67641],[139.77939,35.67685],[139.7794,35.67685],[139.7798,35.67734],[139.78009,35.67766],[139.78009,35.67763],[139.78039,35.67745],[139.78055,35.67735],[139.78085,35.67712],[139.78124,35.67683],[139.78127,35.67681],[139.7816,35.67656],[139.78186,35.67636],[139.78192,35.67632],[139.7824,35.67596],[139.78265,35.67578],[139.78302,35.6755],[139.78317,35.67539],[139.78413,35.67482],[139.7853,35.6741],[139.78554,35.67395],[139.78545,35.67385],[139.785,35.67331]]]}},{"type":"Feature","properties":{"name":"日本橋本石町一丁目","setai":0,"jinko":0,"key":"13102012001","units":1},"geometry":{"type":"Polygon","coordinates":[[[139.77259,35.68585],[139.77293,35.68504],[139.77297,35.68495],[139.7731,35.68464],[139.7731,35.68462],[139.77301,35.68428],[139.77128,35.68456],[139.77091,35.68463],[139.77097,35.68484],[139.77092,35.68507],[139.77081,35.68529],[139.77081,35.6853],[139.77124,35.68523],[139.77119,35.68543],[139.77259,35.68585]]]}},{"type":"Feature","properties":{"name":"日本橋本石町二丁目","setai":0,"jinko":0,"key":"13102012002","units":1},"geometry":{"type":"Polygon","coordinates":[[[139.77191,35.68752],[139.77207,35.68711],[139.77259,35.68585],[139.77119,35.68543],[139.77124,35.68523],[139.77081,35.6853],[139.77045,35.6861],[139.77082,35.68621],[139.77038,35.68701],[139.77109,35.68725],[139.77191,35.68752]]]}},{"type":"Feature","properties":{"name":"日本橋本石町三丁目","setai":4,"jinko":4,"key":"13102012003","units":1},"geometry":{"type":"Polygon","coordinates":[[[139.77082,35.68621],[139.77045,35.6861],[139.77043,35.68614],[139.77027,35.68639],[139.76958,35.68722],[139.76999,35.6876],[139.76996,35.68764],[139.77076,35.68792],[139.77163,35.6882],[139.77191,35.68752],[139.77109,35.68725],[139.77038,35.68701],[139.77082,35.68621]]]}},{"type":"Feature","properties":{"name":"日本橋本石町四丁目","setai":51,"jinko":97,"key":"13102012004","units":1},"geometry":{"type":"Polygon","coordinates":[[[139.76999,35.6876],[139.76958,35.68722],[139.76952,35.68729],[139.76907,35.68777],[139.76859,35.6882],[139.76841,35.68845],[139.76839,35.68854],[139.76814,35.68859],[139.76813,35.6886],[139.7688,35.68884],[139.76881,35.68884],[139.76964,35.68912],[139.76965,35.68915],[139.77017,35.68929],[139.77032,35.68934],[139.77104,35.68957],[139.77105,35.68957],[139.77115,35.68933],[139.77132,35.68892],[139.77163,35.6882],[139.77076,35.68792],[139.76996,35.68764],[139.76999,35.6876]]]}},{"type":"Feature","properties":{"name":"日本橋室町一丁目","setai":108,"jinko":177,"key":"13102013001","units":1},"geometry":{"type":"Polygon","coordinates":[[[139.77598,35.68533],[139.77622,35.68478],[139.77687,35.68486],[139.77691,35.68431],[139.77548,35.68411],[139.77509,35.68408],[139.77478,35.68407],[139.77451,35.68406],[139.77447,35.68405],[139.77301,35.68428],[139.7731,35.68462],[139.7731,35.68464],[139.77297,35.68495],[139.77293,35.68504],[139.77259,35.68585],[139.77395,35.68628],[139.77459,35.68648],[139.77539,35.68674],[139.77556,35.68634],[139.77557,35.68632],[139.77573,35.68593],[139.7759,35.68555],[139.77598,35.68533]]]}},{"type":"Feature","properties":{"name":"日本橋室町二丁目","setai":42,"jinko":67,"key":"13102013002","units":1},"geometry":{"type":"Polygon","coordinates":[[[139.77406,35.68776],[139.77423,35.68734],[139.77503,35.6876],[139.77515,35.6873],[139.77539,35.68674],[139.77459,35.68648],[139.77395,35.68628],[139.77259,35.68585],[139.77207,35.68711],[139.77274,35.68732],[139.77342,35.68754],[139.77406,35.68776]]]}},{"type":"Feature","properties":{"name":"日本橋室町三丁目","setai":2,"jinko":5,"key":"13102013003","units":1},"geometry":{"type":"Polygon","coordinates":[[[139.77274,35.68732],[139.77207,35.68711],[139.77191,35.68752],[139.77163,35.6882],[139.77222,35.68839],[139.7723,35.68842],[139.77293,35.68862],[139.77297,35.68862],[139.7736,35.68883],[139.77377,35.68843],[139.77389,35.68815],[139.77406,35.68776],[139.77342,35.68754],[139.77274,35.68732]]]}},{"type":"Feature","properties":{"name":"日本橋室町四丁目","setai":27,"jinko":50,"key":"13102013004","units":1},"geometry":{"type":"Polygon","coordinates":[[[139.77238,35.69002],[139.77249,35.68978],[139.77312,35.68998],[139.77326,35.68961],[139.77341,35.68928],[139.7736,35.68883],[139.77297,35.68862],[139.77293,35.68862],[139.7723,35.68842],[139.77222,35.68839],[139.77163,35.6882],[139.77132,35.68892],[139.77115,35.68933],[139.77105,35.68957],[139.77156,35.68975],[139.77237,35.69001],[139.77238,35.69002]]]}},{"type":"Feature","properties":{"name":"日本橋本町一丁目","setai":176,"jinko":255,"key":"13102014001","units":1},"geometry":{"type":"Polygon","coordinates":[[[139.77823,35.68493],[139.77827,35.6843],[139.77825,35.6843],[139.77802,35.68435],[139.77778,35.68437],[139.77736,35.68436],[139.77691,35.68431],[139.77687,35.68486],[139.77622,35.68478],[139.77598,35.68533],[139.7759,35.68555],[139.77573,35.68593],[139.77557,35.68632],[139.77556,35.68634],[139.77539,35.68674],[139.77598,35.68692],[139.77665,35.68714],[139.7772,35.68731],[139.77721,35.6873],[139.77757,35.68647],[139.77756,35.68647],[139.77781,35.68588],[139.77821,35.68494],[139.77823,35.68493]]]}},{"type":"Feature","properties":{"name":"日本橋本町二丁目","setai":129,"jinko":217,"key":"13102014002","units":1},"geometry":{"type":"Polygon","coordinates":[[[139.7769,35.68804],[139.7772,35.68731],[139.77665,35.68714],[139.77598,35.68692],[139.77539,35.68674],[139.77515,35.6873],[139.77503,35.6876],[139.77423,35.68734],[139.77406,35.68776],[139.77486,35.68801],[139.77615,35.68844],[139.777,35.68872],[139.77764,35.68893],[139.77764,35.68893],[139.77776,35.68866],[139.77788,35.68838],[139.77772,35.68833],[139.77723,35.68816],[139.7769,35.68804]]]}},{"type":"Feature","properties":{"name":"日本橋本町三丁目","setai":179,"jinko":246,"key":"13102014003","units":1},"geometry":{"type":"Polygon","coordinates":[[[139.77748,35.68933],[139.77764,35.68893],[139.77764,35.68893],[139.777,35.68872],[139.77615,35.68844],[139.77486,35.68801],[139.77406,35.68776],[139.77389,35.68815],[139.77377,35.68843],[139.7736,35.68883],[139.77443,35.68909],[139.77569,35.68949],[139.77655,35.6898],[139.7772,35.69003],[139.77736,35.68964],[139.77738,35.6896],[139.77747,35.68934],[139.77748,35.68933]]]}},{"type":"Feature","properties":{"name":"日本橋本町四丁目","setai":431,"jinko":583,"key":"13102014004","units":1},"geometry":{"type":"Polygon","coordinates":[[[139.7772,35.69003],[139.77655,35.6898],[139.77569,35.68949],[139.77443,35.68909],[139.7736,35.68883],[139.77341,35.68928],[139.77326,35.68961],[139.77312,35.68998],[139.77249,35.68978],[139.77238,35.69002],[139.77312,35.69025],[139.77383,35.69049],[139.77508,35.69093],[139.77522,35.69097],[139.77659,35.69145],[139.77661,35.69145],[139.77671,35.69119],[139.77673,35.69117],[139.77688,35.69081],[139.77701,35.69047],[139.7772,35.69003]]]}},{"type":"Feature","properties":{"name":"日本橋小舟町","setai":594,"jinko":1023,"key":"131020150","units":1},"geometry":{"type":"Polygon","coordinates":[[[139.77894,35.6871],[139.77929,35.68631],[139.77945,35.68635],[139.77992,35.68527],[139.77992,35.68527],[139.77958,35.68517],[139.77955,35.68516],[139.77914,35.68507],[139.77863,35.68494],[139.77862,35.68493],[139.77823,35.68493],[139.77821,35.68494],[139.77781,35.68588],[139.77756,35.68647],[139.77757,35.68647],[139.77721,35.6873],[139.7772,35.68731],[139.7769,35.68804],[139.77723,35.68816],[139.77772,35.68833],[139.77788,35.68838],[139.77815,35.68847],[139.77847,35.68858],[139.77883,35.68774],[139.77894,35.68754],[139.77877,35.68749],[139.77885,35.68731],[139.77888,35.68724],[139.77894,35.6871]]]}},{"type":"Feature","properties":{"name":"日本橋小伝馬町","setai":601,"jinko":1050,"key":"131020160","units":1},"geometry":{"type":"Polygon","coordinates":[[[139.78128,35.69177],[139.78112,35.69168],[139.78107,35.69174],[139.77994,35.69098],[139.77936,35.69058],[139.77887,35.69024],[139.7787,35.69041],[139.77817,35.6901],[139.77736,35.68964],[139.7772,35.69003],[139.77701,35.69047],[139.77688,35.69081],[139.77673,35.69117],[139.77671,35.69119],[139.77661,35.69145],[139.77753,35.69185],[139.77757,35.69186],[139.7784,35.69221],[139.7787,35.69233],[139.77877,35.69235],[139.77955,35.69291],[139.77977,35.69306],[139.77979,35.69308],[139.77995,35.69319],[139.77997,35.69317],[139.78027,35.69288],[139.78029,35.69286],[139.78032,35.69279],[139.78055,35.69254],[139.78083,35.69224],[139.7809,35.69218],[139.78091,35.69216],[139.7812,35.69186],[139.78121,35.69185],[139.78122,35.69183],[139.78128,35.69177]]]}},{"type":"Feature","properties":{"name":"日本橋大伝馬町","setai":1027,"jinko":1759,"key":"131020170","units":1},"geometry":{"type":"Polygon","coordinates":[[[139.78128,35.69177],[139.78151,35.6915],[139.78152,35.6915],[139.78183,35.69116],[139.78182,35.69115],[139.7824,35.69049],[139.78241,35.69047],[139.78225,35.69038],[139.78199,35.69068],[139.78081,35.68996],[139.78022,35.68959],[139.77996,35.68988],[139.77948,35.68957],[139.77898,35.68925],[139.77871,35.68912],[139.77838,35.68896],[139.77776,35.68866],[139.77764,35.68893],[139.77748,35.68933],[139.77747,35.68934],[139.77738,35.6896],[139.77736,35.68964],[139.77817,35.6901],[139.7787,35.69041],[139.77887,35.69024],[139.77936,35.69058],[139.77994,35.69098],[139.78107,35.69174],[139.78112,35.69168],[139.78128,35.69177]]]}},{"type":"Feature","properties":{"name":"日本橋堀留町一丁目","setai":789,"jinko":1172,"key":"13102018001","units":1},"geometry":{"type":"Polygon","coordinates":[[[139.77996,35.68901],[139.78057,35.68831],[139.78087,35.68795],[139.78145,35.68729],[139.78093,35.68698],[139.7803,35.68658],[139.77977,35.68645],[139.77945,35.68635],[139.77929,35.68631],[139.77894,35.6871],[139.77888,35.68724],[139.77885,35.68731],[139.77877,35.68749],[139.77894,35.68754],[139.77883,35.68774],[139.77847,35.68858],[139.77815,35.68847],[139.77788,35.68838],[139.77776,35.68866],[139.77838,35.68896],[139.77871,35.68912],[139.77898,35.68925],[139.77948,35.68957],[139.77995,35.68904],[139.77996,35.68901]]]}},{"type":"Feature","properties":{"name":"日本橋堀留町二丁目","setai":1071,"jinko":1741,"key":"13102018002","units":1},"geometry":{"type":"Polygon","coordinates":[[[139.78109,35.68963],[139.78137,35.68932],[139.78166,35.68899],[139.78196,35.68867],[139.78227,35.6883],[139.78253,35.68799],[139.78196,35.68762],[139.78145,35.68729],[139.78087,35.68795],[139.78057,35.68831],[139.77996,35.68901],[139.77995,35.68904],[139.77948,35.68957],[139.77996,35.68988],[139.78022,35.68959],[139.78081,35.68996],[139.78109,35.68963]]]}},{"type":"Feature","properties":{"name":"日本橋富沢町","setai":921,"jinko":1570,"key":"131020190","units":1},"geometry":{"type":"Polygon","coordinates":[[[139.78199,35.69068],[139.78225,35.69038],[139.78241,35.69047],[139.78295,35.68985],[139.78294,35.68982],[139.783,35.68978],[139.78323,35.68953],[139.78331,35.6895],[139.78382,35.68892],[139.78381,35.68884],[139.78381,35.68882],[139.78382,35.68878],[139.78396,35.68862],[139.78398,35.68863],[139.78465,35.6879],[139.78466,35.68787],[139.78456,35.68781],[139.78455,35.6878],[139.78337,35.68703],[139.7831,35.68734],[139.78309,35.68735],[139.78296,35.68749],[139.78295,35.6875],[139.78282,35.68765],[139.78266,35.68785],[139.78253,35.68799],[139.78227,35.6883],[139.78196,35.68867],[139.78166,35.68899],[139.78137,35.68932],[139.78109,35.68963],[139.78081,35.68996],[139.78199,35.69068]]]}},{"type":"Feature","properties":{"name":"日本橋人形町一丁目","setai":828,"jinko":1496,"key":"13102020001","units":1},"geometry":{"type":"Polygon","coordinates":[[[139.78381,35.68461],[139.78405,35.68434],[139.78451,35.68383],[139.78402,35.68359],[139.78392,35.68354],[139.78373,35.68345],[139.7832,35.68318],[139.783,35.68342],[139.78296,35.68346],[139.78281,35.68364],[139.78254,35.68395],[139.78238,35.68414],[139.78236,35.68416],[139.78217,35.68439],[139.78137,35.68395],[139.78102,35.68438],[139.78067,35.68481],[139.78065,35.68483],[139.78027,35.68537],[139.78068,35.68556],[139.78101,35.68571],[139.78105,35.68573],[139.78176,35.68605],[139.78179,35.68607],[139.78229,35.68632],[139.78257,35.68601],[139.78276,35.6858],[139.78299,35.68553],[139.78302,35.6855],[139.78338,35.6851],[139.78365,35.6848],[139.78381,35.68461]]]}},{"type":"Feature","properties":{"name":"日本橋人形町二丁目","setai":1273,"jinko":2389,"key":"13102020002","units":1},"geometry":{"type":"Polygon","coordinates":[[[139.78495,35.68405],[139.78451,35.68383],[139.78405,35.68434],[139.78381,35.68461],[139.78365,35.6848],[139.78338,35.6851],[139.78302,35.6855],[139.78299,35.68553],[139.78276,35.6858],[139.78257,35.68601],[139.78229,35.68632],[139.78276,35.68663],[139.78283,35.68667],[139.78337,35.68703],[139.78455,35.6878],[139.78456,35.68781],[139.78466,35.68787],[139.78477,35.68787],[139.78496,35.68768],[139.78522,35.68743],[139.78523,35.68742],[139.7854,35.68726],[139.78556,35.68709],[139.78575,35.68691],[139.78598,35.68666],[139.78599,35.68664],[139.78618,35.68638],[139.78643,35.68597],[139.78656,35.68577],[139.78668,35.68559],[139.78702,35.68508],[139.78703,35.68507],[139.78691,35.68502],[139.78687,35.685],[139.78627,35.6847],[139.78622,35.68467],[139.78561,35.68438],[139.78559,35.68437],[139.78526,35.68421],[139.785,35.68408],[139.78495,35.68405]]]}},{"type":"Feature","properties":{"name":"日本橋人形町三丁目","setai":718,"jinko":1110,"key":"13102020003","units":1},"geometry":{"type":"Polygon","coordinates":[[[139.78026,35.68537],[139.77992,35.68527],[139.77945,35.68635],[139.77977,35.68645],[139.7803,35.68658],[139.78093,35.68698],[139.78145,35.68729],[139.78196,35.68762],[139.78253,35.68799],[139.78266,35.68785],[139.78282,35.68765],[139.78295,35.6875],[139.78296,35.68749],[139.78309,35.68735],[139.7831,35.68734],[139.78337,35.68703],[139.78283,35.68667],[139.78276,35.68663],[139.78229,35.68632],[139.78179,35.68607],[139.78176,35.68605],[139.78105,35.68573],[139.78101,35.68571],[139.78068,35.68556],[139.78027,35.68537],[139.78026,35.68537]]]}},{"type":"Feature","properties":{"name":"日本橋小網町","setai":850,"jinko":1325,"key":"131020210","units":1},"geometry":{"type":"Polygon","coordinates":[[[139.78102,35.68438],[139.78137,35.68395],[139.78062,35.68356],[139.78078,35.68345],[139.7809,35.68337],[139.78111,35.68321],[139.78115,35.68317],[139.78137,35.6829],[139.78152,35.68272],[139.78172,35.68247],[139.78178,35.6825],[139.78216,35.68207],[139.78248,35.6817],[139.78272,35.68142],[139.78272,35.6814],[139.78297,35.68113],[139.7832,35.68085],[139.78347,35.68053],[139.78321,35.68039],[139.78294,35.68025],[139.78291,35.68024],[139.78262,35.68008],[139.78277,35.67996],[139.78252,35.67984],[139.7824,35.67994],[139.78189,35.68034],[139.78158,35.68057],[139.78087,35.68119],[139.78041,35.68154],[139.78013,35.68182],[139.78002,35.68203],[139.77994,35.68225],[139.77995,35.68227],[139.77957,35.68341],[139.77953,35.68345],[139.77866,35.68404],[139.77865,35.68403],[139.77825,35.6843],[139.77827,35.6843],[139.77823,35.68493],[139.77862,35.68493],[139.77863,35.68494],[139.77914,35.68507],[139.77955,35.68516],[139.77958,35.68517],[139.77992,35.68527],[139.77992,35.68527],[139.78026,35.68537],[139.78027,35.68537],[139.78065,35.68483],[139.78067,35.68481],[139.78102,35.68438]]]}},{"type":"Feature","properties":{"name":"日本橋蛎殻町一丁目","setai":2164,"jinko":3717,"key":"13102022001","units":1},"geometry":{"type":"Polygon","coordinates":[[[139.783,35.68342],[139.7832,35.68318],[139.78373,35.68345],[139.78392,35.68354],[139.78402,35.68359],[139.78451,35.68383],[139.78487,35.68342],[139.78518,35.68309],[139.78546,35.68276],[139.78581,35.68234],[139.78583,35.68232],[139.78619,35.6819],[139.78634,35.68171],[139.78572,35.68143],[139.78494,35.68112],[139.78445,35.68096],[139.78399,35.68078],[139.78347,35.68053],[139.7832,35.68085],[139.78297,35.68113],[139.78272,35.6814],[139.78272,35.68142],[139.78248,35.6817],[139.78216,35.68207],[139.78178,35.6825],[139.78172,35.68247],[139.78152,35.68272],[139.78137,35.6829],[139.78115,35.68317],[139.78111,35.68321],[139.7809,35.68337],[139.78078,35.68345],[139.78062,35.68356],[139.78137,35.68395],[139.78217,35.68439],[139.78236,35.68416],[139.78238,35.68414],[139.78254,35.68395],[139.78281,35.68364],[139.78296,35.68346],[139.783,35.68342]]]}},{"type":"Feature","properties":{"name":"日本橋蛎殻町二丁目","setai":946,"jinko":1438,"key":"13102022002","units":1},"geometry":{"type":"Polygon","coordinates":[[[139.78734,35.68223],[139.78634,35.68171],[139.78619,35.6819],[139.78583,35.68232],[139.78581,35.68234],[139.78546,35.68276],[139.78518,35.68309],[139.78487,35.68342],[139.78451,35.68383],[139.78495,35.68405],[139.785,35.68408],[139.78526,35.68421],[139.78559,35.68437],[139.78561,35.68438],[139.78622,35.68467],[139.78627,35.6847],[139.78687,35.685],[139.78691,35.68502],[139.78703,35.68507],[139.78733,35.68466],[139.78782,35.68403],[139.78783,35.68401],[139.78816,35.68358],[139.78857,35.68304],[139.78851,35.683],[139.78854,35.68297],[139.78862,35.68286],[139.78856,35.68281],[139.78812,35.68257],[139.78752,35.6823],[139.78734,35.68223]]]}},{"type":"Feature","properties":{"name":"日本橋箱崎町","setai":2149,"jinko":3758,"key":"131020230","units":1},"geometry":{"type":"Polygon","coordinates":[[[139.78787,35.67714],[139.78778,35.67692],[139.78664,35.67749],[139.78663,35.67749],[139.785,35.67829],[139.78418,35.67869],[139.7834,35.67919],[139.78252,35.67984],[139.78277,35.67996],[139.78262,35.68008],[139.78291,35.68024],[139.78294,35.68025],[139.78321,35.68039],[139.78347,35.68053],[139.78399,35.68078],[139.78445,35.68096],[139.78494,35.68112],[139.78572,35.68143],[139.78634,35.68171],[139.78734,35.68223],[139.78752,35.6823],[139.78812,35.68257],[139.78856,35.68281],[139.78862,35.68286],[139.7887,35.68291],[139.78871,35.68289],[139.78904,35.68272],[139.78908,35.68262],[139.7892,35.68252],[139.78942,35.68235],[139.78944,35.68233],[139.78991,35.68196],[139.79014,35.68188],[139.78993,35.68164],[139.79067,35.68105],[139.79069,35.68103],[139.79045,35.68076],[139.78968,35.67974],[139.7894,35.67935],[139.7891,35.6789],[139.78906,35.67884],[139.78843,35.67795],[139.78796,35.67727],[139.78787,35.67714]]]}},{"type":"Feature","properties":{"name":"日本橋馬喰町一丁目","setai":882,"jinko":1406,"key":"13102024001","units":1},"geometry":{"type":"Polygon","coordinates":[[[139.78137,35.69195],[139.78121,35.69185],[139.7812,35.69186],[139.78091,35.69216],[139.7809,35.69218],[139.78083,35.69224],[139.78055,35.69254],[139.78032,35.69279],[139.78029,35.69286],[139.78039,35.69293],[139.78043,35.69296],[139.78116,35.6935],[139.78118,35.69351],[139.7822,35.69426],[139.78221,35.69426],[139.78275,35.69465],[139.78281,35.69469],[139.78287,35.6951],[139.78367,35.695],[139.78439,35.69489],[139.78502,35.69481],[139.78427,35.69419],[139.78325,35.69335],[139.78238,35.69263],[139.78227,35.69256],[139.78137,35.69195]]]}},{"type":"Feature","properties":{"name":"日本橋馬喰町二丁目","setai":541,"jinko":767,"key":"13102024002","units":1},"geometry":{"type":"Polygon","coordinates":[[[139.78437,35.69619],[139.7854,35.69586],[139.78522,35.69552],[139.78534,35.69539],[139.78532,35.69528],[139.78528,35.69501],[139.78502,35.69481],[139.78439,35.69489],[139.78367,35.695],[139.78287,35.6951],[139.78288,35.69514],[139.78278,35.69515],[139.78257,35.69516],[139.78224,35.69519],[139.78166,35.69523],[139.78171,35.69579],[139.78171,35.69582],[139.78175,35.6963],[139.78268,35.69618],[139.78273,35.69664],[139.78312,35.6966],[139.78411,35.69628],[139.78437,35.69619]]]}},{"type":"Feature","properties":{"name":"日本橋横山町","setai":588,"jinko":1078,"key":"131020250","units":1},"geometry":{"type":"Polygon","coordinates":[[[139.78508,35.69361],[139.78501,35.69316],[139.78436,35.69323],[139.78433,35.693],[139.78399,35.69274],[139.78295,35.69194],[139.78235,35.69153],[139.78198,35.69127],[139.78183,35.69116],[139.78152,35.6915],[139.78151,35.6915],[139.78128,35.69177],[139.78122,35.69183],[139.78121,35.69185],[139.78137,35.69195],[139.78227,35.69256],[139.78238,35.69263],[139.78325,35.69335],[139.78427,35.69419],[139.78502,35.69481],[139.78527,35.69478],[139.78522,35.69447],[139.7852,35.69434],[139.78517,35.69416],[139.78508,35.69361]]]}},{"type":"Feature","properties":{"name":"東日本橋一丁目","setai":715,"jinko":1196,"key":"13102026001","units":1},"geometry":{"type":"Polygon","coordinates":[[[139.78882,35.69202],[139.7874,35.69117],[139.78739,35.69118],[139.78696,35.69093],[139.78696,35.69092],[139.78663,35.69071],[139.78662,35.69071],[139.78656,35.69066],[139.78622,35.69044],[139.78621,35.69043],[139.78566,35.69007],[139.78565,35.69006],[139.78513,35.68972],[139.78497,35.68994],[139.78468,35.6904],[139.78444,35.69079],[139.78469,35.69096],[139.78496,35.69114],[139.78545,35.69149],[139.7855,35.69152],[139.78589,35.69179],[139.7862,35.69202],[139.78622,35.69203],[139.78662,35.69231],[139.78694,35.69255],[139.78728,35.69278],[139.78874,35.6938],[139.78872,35.69292],[139.78872,35.69291],[139.78882,35.69203],[139.78882,35.69202]]]}},{"type":"Feature","properties":{"name":"東日本橋二丁目","setai":1399,"jinko":2422,"key":"13102026002","units":1},"geometry":{"type":"Polygon","coordinates":[[[139.78496,35.69114],[139.78469,35.69096],[139.78485,35.69212],[139.78486,35.6922],[139.78489,35.69239],[139.78492,35.69252],[139.78501,35.69313],[139.78501,35.69316],[139.78508,35.69361],[139.78517,35.69416],[139.7852,35.69434],[139.78522,35.69447],[139.78527,35.69478],[139.78502,35.69481],[139.78528,35.69501],[139.78532,35.69528],[139.78534,35.69539],[139.78522,35.69552],[139.7854,35.69586],[139.78542,35.69585],[139.78641,35.69554],[139.78744,35.69521],[139.78747,35.6952],[139.78891,35.69479],[139.78895,35.69478],[139.78889,35.69461],[139.78881,35.69431],[139.78881,35.69429],[139.78874,35.6938],[139.78728,35.69278],[139.78694,35.69255],[139.78662,35.69231],[139.78622,35.69203],[139.7862,35.69202],[139.78589,35.69179],[139.7855,35.69152],[139.78545,35.69149],[139.78496,35.69114]]]}},{"type":"Feature","properties":{"name":"東日本橋三丁目","setai":1338,"jinko":2290,"key":"13102026003","units":1},"geometry":{"type":"Polygon","coordinates":[[[139.78311,35.68995],[139.78295,35.68985],[139.78241,35.69047],[139.7824,35.69049],[139.78182,35.69115],[139.78183,35.69116],[139.78198,35.69127],[139.78235,35.69153],[139.78295,35.69194],[139.78399,35.69274],[139.78433,35.693],[139.78436,35.69323],[139.78501,35.69316],[139.78501,35.69313],[139.78492,35.69252],[139.78489,35.69239],[139.78486,35.6922],[139.78485,35.69212],[139.78469,35.69096],[139.78444,35.69079],[139.7843,35.69069],[139.78388,35.69043],[139.78314,35.68997],[139.78311,35.68995]]]}},{"type":"Feature","properties":{"name":"日本橋久松町","setai":367,"jinko":663,"key":"131020270","units":1},"geometry":{"type":"Polygon","coordinates":[[[139.78581,35.68865],[139.78529,35.68831],[139.78529,35.68831],[139.78477,35.68797],[139.78465,35.6879],[139.78398,35.68863],[139.78396,35.68862],[139.78382,35.68878],[139.78381,35.68882],[139.78381,35.68884],[139.78382,35.68892],[139.78331,35.6895],[139.78323,35.68953],[139.783,35.68978],[139.78294,35.68982],[139.78295,35.68985],[139.78311,35.68995],[139.78314,35.68997],[139.78388,35.69043],[139.7843,35.69069],[139.78444,35.69079],[139.78468,35.6904],[139.78497,35.68994],[139.78513,35.68972],[139.78543,35.68925],[139.78543,35.68924],[139.78582,35.68867],[139.78581,35.68865]]]}},{"type":"Feature","properties":{"name":"日本橋浜町一丁目","setai":1184,"jinko":2149,"key":"13102028001","units":1},"geometry":{"type":"Polygon","coordinates":[[[139.78894,35.69148],[139.78903,35.69116],[139.78917,35.69084],[139.78811,35.69016],[139.78769,35.68988],[139.78758,35.68981],[139.78733,35.68965],[139.78721,35.68957],[139.78695,35.6894],[139.7869,35.68937],[139.78665,35.68921],[139.78643,35.68906],[139.78633,35.689],[139.78582,35.68867],[139.78543,35.68924],[139.78543,35.68925],[139.78513,35.68972],[139.78565,35.69006],[139.78566,35.69007],[139.78621,35.69043],[139.78622,35.69044],[139.78656,35.69066],[139.78662,35.69071],[139.78663,35.69071],[139.78696,35.69092],[139.78696,35.69093],[139.78739,35.69118],[139.7874,35.69117],[139.78882,35.69202],[139.78889,35.69169],[139.78894,35.69148]]]}},{"type":"Feature","properties":{"name":"日本橋浜町二丁目","setai":2728,"jinko":4921,"key":"13102028002","units":1},"geometry":{"type":"Polygon","coordinates":[[[139.79166,35.68791],[139.79185,35.68772],[139.79207,35.68746],[139.79208,35.68746],[139.79067,35.68679],[139.79064,35.68677],[139.79011,35.68652],[139.79004,35.68649],[139.78981,35.68639],[139.78948,35.68623],[139.78891,35.68596],[139.78874,35.68589],[139.78822,35.68564],[139.78783,35.68546],[139.78762,35.68536],[139.7876,35.68535],[139.7873,35.68521],[139.78702,35.68508],[139.78668,35.68559],[139.78656,35.68577],[139.78643,35.68597],[139.78618,35.68638],[139.78599,35.68664],[139.78598,35.68666],[139.78575,35.68691],[139.78556,35.68709],[139.7854,35.68726],[139.78523,35.68742],[139.78522,35.68743],[139.78496,35.68768],[139.78477,35.68787],[139.78466,35.68787],[139.78465,35.6879],[139.78477,35.68797],[139.78529,35.68831],[139.78529,35.68831],[139.78581,35.68865],[139.78582,35.68867],[139.78633,35.689],[139.78643,35.68906],[139.78665,35.68921],[139.7869,35.68937],[139.78695,35.6894],[139.78721,35.68957],[139.78733,35.68965],[139.78758,35.68981],[139.78769,35.68988],[139.78811,35.69016],[139.78917,35.69084],[139.78933,35.69058],[139.78948,35.69034],[139.79032,35.68931],[139.79042,35.6892],[139.79094,35.68865],[139.79109,35.6885],[139.7916,35.68797],[139.79166,35.68791]]]}},{"type":"Feature","properties":{"name":"日本橋浜町三丁目","setai":2586,"jinko":4708,"key":"13102028003","units":1},"geometry":{"type":"Polygon","coordinates":[[[139.78995,35.68365],[139.78895,35.6829],[139.78876,35.68294],[139.7887,35.68291],[139.78862,35.68286],[139.78854,35.68297],[139.78851,35.683],[139.78857,35.68304],[139.78816,35.68358],[139.78783,35.68401],[139.78782,35.68403],[139.78733,35.68466],[139.78703,35.68507],[139.78702,35.68508],[139.7873,35.68521],[139.7876,35.68535],[139.78762,35.68536],[139.78783,35.68546],[139.78822,35.68564],[139.78874,35.68589],[139.78891,35.68596],[139.78948,35.68623],[139.78981,35.68639],[139.79004,35.68649],[139.79011,35.68652],[139.79064,35.68677],[139.79067,35.68679],[139.79208,35.68746],[139.79234,35.68714],[139.79248,35.68695],[139.79258,35.68682],[139.79294,35.68633],[139.79295,35.68632],[139.79308,35.68611],[139.79311,35.68607],[139.79182,35.68511],[139.79127,35.68467],[139.79084,35.68431],[139.79082,35.6843],[139.78997,35.68366],[139.78995,35.68365]]]}},{"type":"Feature","properties":{"name":"日本橋中洲","setai":1404,"jinko":2547,"key":"131020290","units":1},"geometry":{"type":"Polygon","coordinates":[[[139.79261,35.68326],[139.79231,35.68284],[139.79228,35.6828],[139.79192,35.6824],[139.79155,35.68199],[139.79096,35.68136],[139.79067,35.68105],[139.78993,35.68164],[139.79014,35.68188],[139.78991,35.68196],[139.78944,35.68233],[139.78942,35.68235],[139.7892,35.68252],[139.78908,35.68262],[139.78904,35.68272],[139.78871,35.68289],[139.7887,35.68291],[139.78876,35.68294],[139.78895,35.6829],[139.78995,35.68365],[139.78997,35.68366],[139.79082,35.6843],[139.79084,35.68431],[139.79127,35.68467],[139.79182,35.68511],[139.79311,35.68607],[139.79318,35.68585],[139.7932,35.68565],[139.79318,35.68522],[139.79318,35.68509],[139.79303,35.68441],[139.79288,35.6839],[139.79278,35.68358],[139.79268,35.68337],[139.79265,35.68332],[139.79261,35.68326]]]}},{"type":"Feature","properties":{"name":"日本橋一丁目","setai":46,"jinko":69,"key":"13102031001","units":1},"geometry":{"type":"Polygon","coordinates":[[[139.77825,35.6843],[139.77865,35.68403],[139.77866,35.68402],[139.7784,35.68364],[139.77816,35.6838],[139.7781,35.68357],[139.77808,35.68354],[139.77804,35.68342],[139.7773,35.68226],[139.77729,35.68226],[139.77671,35.68134],[139.77645,35.68144],[139.77644,35.68145],[139.77575,35.68173],[139.77505,35.68201],[139.77371,35.68255],[139.7724,35.68305],[139.77266,35.68346],[139.77288,35.68381],[139.77301,35.68428],[139.77447,35.68405],[139.77451,35.68406],[139.77478,35.68407],[139.77509,35.68408],[139.77548,35.68411],[139.77691,35.68431],[139.77736,35.68436],[139.77778,35.68437],[139.77802,35.68435],[139.77825,35.6843]]]}},{"type":"Feature","properties":{"name":"日本橋二丁目","setai":35,"jinko":49,"key":"13102031002","units":1},"geometry":{"type":"Polygon","coordinates":[[[139.7756,35.67949],[139.77559,35.67948],[139.77531,35.6796],[139.77461,35.6799],[139.77394,35.68017],[139.77257,35.68073],[139.77259,35.68077],[139.77131,35.68128],[139.7717,35.68189],[139.77202,35.68241],[139.7724,35.68305],[139.77371,35.68255],[139.77505,35.68201],[139.77575,35.68173],[139.77644,35.68145],[139.77645,35.68144],[139.77671,35.68134],[139.77673,35.68133],[139.77666,35.68121],[139.7765,35.68095],[139.7756,35.67949]]]}},{"type":"Feature","properties":{"name":"日本橋三丁目","setai":119,"jinko":190,"key":"13102031003","units":1},"geometry":{"type":"Polygon","coordinates":[[[139.77531,35.6796],[139.77559,35.67948],[139.7756,35.67949],[139.77512,35.67868],[139.7751,35.67869],[139.77473,35.67805],[139.77442,35.67818],[139.77441,35.67816],[139.77371,35.67843],[139.7737,35.67846],[139.77304,35.67872],[139.77303,35.67872],[139.77253,35.67892],[139.77166,35.67928],[139.7704,35.67982],[139.77064,35.6802],[139.77084,35.68052],[139.77105,35.68086],[139.77131,35.68128],[139.77259,35.68077],[139.77257,35.68073],[139.77394,35.68017],[139.77461,35.6799],[139.77531,35.6796]]]}},{"type":"Feature","properties":{"name":"日本橋茅場町一丁目","setai":34,"jinko":49,"key":"13102032001","units":1},"geometry":{"type":"Polygon","coordinates":[[[139.7824,35.67994],[139.7816,35.67918],[139.78129,35.67935],[139.78097,35.67906],[139.78041,35.67929],[139.77985,35.67952],[139.77913,35.6798],[139.77855,35.68004],[139.77795,35.68029],[139.77797,35.68032],[139.77824,35.68072],[139.77859,35.68127],[139.77887,35.68161],[139.77926,35.68198],[139.7794,35.6821],[139.77955,35.68217],[139.77968,35.68221],[139.77994,35.68225],[139.78002,35.68203],[139.78013,35.68182],[139.78041,35.68154],[139.78087,35.68119],[139.78158,35.68057],[139.78189,35.68034],[139.7824,35.67994]]]}},{"type":"Feature","properties":{"name":"日本橋茅場町二丁目","setai":382,"jinko":560,"key":"13102032002","units":1},"geometry":{"type":"Polygon","coordinates":[[[139.78041,35.67929],[139.78097,35.67906],[139.78129,35.67935],[139.7816,35.67918],[139.78162,35.67917],[139.78116,35.67872],[139.78116,35.67871],[139.78009,35.67763],[139.78009,35.67766],[139.77975,35.67783],[139.77955,35.67792],[139.77899,35.67814],[139.77828,35.67842],[139.77768,35.67867],[139.77707,35.67892],[139.77732,35.67929],[139.77756,35.67967],[139.77772,35.67993],[139.77795,35.68029],[139.77855,35.68004],[139.77913,35.6798],[139.77985,35.67952],[139.78041,35.67929]]]}},{"type":"Feature","properties":{"name":"日本橋茅場町三丁目","setai":426,"jinko":683,"key":"13102032003","units":1},"geometry":{"type":"Polygon","coordinates":[[[139.7794,35.67685],[139.77939,35.67685],[139.77911,35.67696],[139.77845,35.67725],[139.77845,35.67726],[139.77774,35.67757],[139.77716,35.67782],[139.77701,35.67787],[139.77655,35.67807],[139.77655,35.67808],[139.77669,35.67832],[139.77683,35.6785],[139.77687,35.6786],[139.77707,35.67892],[139.77768,35.67867],[139.77828,35.67842],[139.77899,35.67814],[139.77955,35.67792],[139.77975,35.67783],[139.78009,35.67766],[139.7798,35.67734],[139.7794,35.67685]]]}},{"type":"Feature","properties":{"name":"日本橋兜町","setai":548,"jinko":727,"key":"131020330","units":1},"geometry":{"type":"Polygon","coordinates":[[[139.77866,35.68404],[139.77953,35.68345],[139.77957,35.68341],[139.77995,35.68227],[139.77994,35.68225],[139.77968,35.68221],[139.77955,35.68217],[139.7794,35.6821],[139.77926,35.68198],[139.77887,35.68161],[139.77859,35.68127],[139.77824,35.68072],[139.77797,35.68032],[139.77795,35.68029],[139.77772,35.67993],[139.77756,35.67967],[139.77732,35.67929],[139.77707,35.67892],[139.77687,35.6786],[139.77683,35.6785],[139.77669,35.67832],[139.77655,35.67808],[139.77603,35.6783],[139.77602,35.6783],[139.77555,35.6785],[139.77553,35.67846],[139.77539,35.67851],[139.77542,35.67856],[139.77513,35.67868],[139.77512,35.67868],[139.7756,35.67949],[139.7765,35.68095],[139.77666,35.68121],[139.77673,35.68133],[139.77671,35.68134],[139.77729,35.68226],[139.7773,35.68226],[139.77804,35.68342],[139.77808,35.68354],[139.7781,35.68357],[139.77816,35.6838],[139.7784,35.68364],[139.77866,35.68402],[139.77865,35.68403],[139.77866,35.68404]]]}},{"type":"Feature","properties":{"name":"佃一丁目","setai":1283,"jinko":2699,"key":"13102034001","units":1},"geometry":{"type":"Polygon","coordinates":[[[139.78371,35.66664],[139.78352,35.66626],[139.78345,35.66612],[139.78306,35.66627],[139.78296,35.66609],[139.78293,35.66611],[139.78228,35.66673],[139.78184,35.66712],[139.78191,35.66723],[139.78191,35.66731],[139.78193,35.66738],[139.78213,35.66782],[139.78237,35.66839],[139.78238,35.66863],[139.78237,35.66865],[139.78228,35.66866],[139.78228,35.66883],[139.78266,35.6697],[139.7827,35.66979],[139.78284,35.66996],[139.78302,35.67009],[139.78415,35.67076],[139.7846,35.67098],[139.78493,35.6697],[139.78507,35.66918],[139.78508,35.66915],[139.78516,35.66886],[139.78382,35.66861],[139.78401,35.66784],[139.78426,35.66769],[139.78393,35.66707],[139.78375,35.66672],[139.78371,35.66664]]]}},{"type":"Feature","properties":{"name":"佃二丁目","setai":4918,"jinko":10374,"key":"13102034002","units":1},"geometry":{"type":"Polygon","coordinates":[[[139.78645,35.67091],[139.78685,35.66999],[139.78697,35.67001],[139.787,35.66994],[139.78689,35.66992],[139.78694,35.66974],[139.7872,35.66979],[139.78722,35.6697],[139.78724,35.66962],[139.78701,35.66957],[139.78701,35.66955],[139.78702,35.66952],[139.78707,35.66925],[139.78717,35.66923],[139.78709,35.66913],[139.78744,35.66738],[139.78744,35.66728],[139.78737,35.66726],[139.78748,35.66663],[139.7875,35.66641],[139.78731,35.66627],[139.78669,35.6658],[139.78626,35.66549],[139.78599,35.6653],[139.78569,35.66507],[139.78558,35.66498],[139.78562,35.66495],[139.78558,35.66492],[139.7854,35.66478],[139.78531,35.66478],[139.78528,35.66476],[139.78526,35.66474],[139.7848,35.66441],[139.78386,35.66528],[139.78385,35.66529],[139.78296,35.66609],[139.78306,35.66627],[139.78345,35.66612],[139.78352,35.66626],[139.78371,35.66664],[139.78375,35.66672],[139.78393,35.66707],[139.78426,35.66769],[139.78401,35.66784],[139.78382,35.66861],[139.78516,35.66886],[139.78508,35.66915],[139.78507,35.66918],[139.78493,35.6697],[139.7846,35.67098],[139.78606,35.67169],[139.7861,35.67164],[139.78606,35.67161],[139.78645,35.67091]]]}},{"type":"Feature","properties":{"name":"佃三丁目","setai":1025,"jinko":1839,"key":"13102034003","units":1},"geometry":{"type":"Polygon","coordinates":[[[139.7875,35.66346],[139.78753,35.66287],[139.78745,35.66282],[139.78744,35.66273],[139.78733,35.66265],[139.78744,35.66254],[139.78738,35.6625],[139.78728,35.6626],[139.78719,35.66257],[139.78654,35.66321],[139.78631,35.66304],[139.78585,35.66344],[139.78579,35.6635],[139.78481,35.6644],[139.7848,35.66441],[139.78526,35.66474],[139.78528,35.66476],[139.78531,35.66478],[139.7854,35.66478],[139.78558,35.66492],[139.78562,35.66495],[139.78558,35.66498],[139.78569,35.66507],[139.78599,35.6653],[139.78626,35.66549],[139.78669,35.6658],[139.78731,35.66627],[139.7875,35.66641],[139.78753,35.66632],[139.78767,35.6663],[139.7877,35.66623],[139.78769,35.66598],[139.78765,35.66554],[139.78761,35.66526],[139.78757,35.66508],[139.78754,35.66484],[139.78749,35.66445],[139.78745,35.66426],[139.78748,35.66375],[139.7875,35.66362],[139.7875,35.6635],[139.78745,35.6635],[139.7875,35.66346]]]}},{"type":"Feature","properties":{"name":"月島一丁目","setai":2294,"jinko":4806,"key":"13102035001","units":1},"geometry":{"type":"Polygon","coordinates":[[[139.78288,35.66303],[139.78241,35.66269],[139.78188,35.66317],[139.78143,35.66359],[139.78101,35.66399],[139.78057,35.66439],[139.78036,35.66458],[139.78013,35.66479],[139.78032,35.66499],[139.78052,35.66521],[139.78095,35.66567],[139.78175,35.66651],[139.78175,35.66658],[139.78184,35.66712],[139.78228,35.66673],[139.78293,35.66611],[139.78296,35.66609],[139.78385,35.66529],[139.78386,35.66528],[139.7848,35.66441],[139.78481,35.6644],[139.78441,35.66411],[139.78425,35.664],[139.78413,35.66392],[139.78411,35.6639],[139.78398,35.66381],[139.78397,35.6638],[139.78383,35.6637],[139.78383,35.6637],[139.7837,35.6636],[139.78369,35.6636],[139.78341,35.6634],[139.78313,35.6632],[139.78298,35.66309],[139.78288,35.66303]]]}},{"type":"Feature","properties":{"name":"月島二丁目","setai":1592,"jinko":3080,"key":"13102035002","units":1},"geometry":{"type":"Polygon","coordinates":[[[139.78444,35.6609],[139.78432,35.66089],[139.78411,35.66109],[139.78381,35.66137],[139.78337,35.66178],[139.78294,35.66219],[139.78241,35.66269],[139.78288,35.66303],[139.78298,35.66309],[139.78313,35.6632],[139.78341,35.6634],[139.78369,35.6636],[139.7837,35.6636],[139.78383,35.6637],[139.78383,35.6637],[139.78397,35.6638],[139.78398,35.66381],[139.78411,35.6639],[139.78413,35.66392],[139.78425,35.664],[139.78441,35.66411],[139.78481,35.6644],[139.78579,35.6635],[139.78585,35.66344],[139.78631,35.66304],[139.78596,35.66271],[139.78568,35.66232],[139.78551,35.66213],[139.78519,35.66176],[139.78501,35.66161],[139.78481,35.66139],[139.78472,35.66128],[139.78454,35.66108],[139.78447,35.66103],[139.78453,35.66097],[139.78444,35.6609]]]}},{"type":"Feature","properties":{"name":"月島三丁目","setai":2929,"jinko":4637,"key":"13102035003","units":1},"geometry":{"type":"Polygon","coordinates":[[[139.77941,35.66056],[139.77897,35.66026],[139.77853,35.66068],[139.77806,35.66113],[139.77803,35.66116],[139.77758,35.66159],[139.77726,35.66191],[139.77718,35.66198],[139.77692,35.66222],[139.77709,35.66234],[139.77813,35.66309],[139.77922,35.66387],[139.77934,35.66395],[139.78013,35.66479],[139.78036,35.66458],[139.78057,35.66439],[139.78101,35.66399],[139.78143,35.66359],[139.78188,35.66317],[139.78241,35.66269],[139.78213,35.66249],[139.78173,35.66221],[139.7814,35.66197],[139.78084,35.66157],[139.78041,35.66126],[139.77998,35.66096],[139.77968,35.66074],[139.77941,35.66056]]]}},{"type":"Feature","properties":{"name":"月島四丁目","setai":2050,"jinko":3596,"key":"13102035004","units":1},"geometry":{"type":"Polygon","coordinates":[[[139.78432,35.66089],[139.78422,35.66083],[139.78419,35.66085],[139.7837,35.66053],[139.78324,35.66023],[139.78282,35.65995],[139.78274,35.6599],[139.78242,35.65969],[139.78223,35.65957],[139.78199,35.65928],[139.78196,35.65926],[139.78179,35.65928],[139.7812,35.6589],[139.78095,35.65874],[139.78073,35.65854],[139.78032,35.65894],[139.77993,35.65932],[139.77898,35.66025],[139.77897,35.66026],[139.77941,35.66056],[139.77968,35.66074],[139.77998,35.66096],[139.78041,35.66126],[139.78084,35.66157],[139.7814,35.66197],[139.78173,35.66221],[139.78213,35.66249],[139.78241,35.66269],[139.78294,35.66219],[139.78337,35.66178],[139.78381,35.66137],[139.78411,35.66109],[139.78432,35.66089]]]}},{"type":"Feature","properties":{"name":"勝どき一丁目","setai":2398,"jinko":4830,"key":"13102036001","units":1},"geometry":{"type":"Polygon","coordinates":[[[139.77686,35.65877],[139.77658,35.65859],[139.77608,35.65909],[139.77565,35.6595],[139.77523,35.65992],[139.7748,35.66034],[139.77455,35.66059],[139.77569,35.66139],[139.77692,35.66222],[139.77718,35.66198],[139.77726,35.66191],[139.77758,35.66159],[139.77803,35.66116],[139.77806,35.66113],[139.77853,35.66068],[139.77897,35.66026],[139.77898,35.66025],[139.77861,35.66],[139.77824,35.65974],[139.77766,35.65933],[139.77745,35.65919],[139.77722,35.65903],[139.77717,35.65899],[139.77686,35.65877]]]}},{"type":"Feature","properties":{"name":"勝どき二丁目","setai":1751,"jinko":2910,"key":"13102036002","units":1},"geometry":{"type":"Polygon","coordinates":[[[139.77938,35.65764],[139.77829,35.6569],[139.77795,35.65724],[139.77752,35.65766],[139.7771,35.65808],[139.77658,35.65859],[139.77686,35.65877],[139.77717,35.65899],[139.77722,35.65903],[139.77745,35.65919],[139.77766,35.65933],[139.77824,35.65974],[139.77861,35.66],[139.77898,35.66025],[139.77993,35.65932],[139.78032,35.65894],[139.78073,35.65854],[139.78055,35.65844],[139.78034,35.6583],[139.77991,35.658],[139.77977,35.65791],[139.77954,35.65774],[139.77938,35.65764]]]}},{"type":"Feature","properties":{"name":"勝どき三丁目","setai":1698,"jinko":3304,"key":"13102036003","units":1},"geometry":{"type":"Polygon","coordinates":[[[139.77453,35.65718],[139.77414,35.65692],[139.77321,35.65784],[139.77315,35.65791],[139.7724,35.65866],[139.77236,35.6587],[139.77213,35.65894],[139.77228,35.65906],[139.77359,35.65994],[139.77455,35.66059],[139.7748,35.66034],[139.77523,35.65992],[139.77565,35.6595],[139.77608,35.65909],[139.77658,35.65859],[139.77607,35.65824],[139.77599,35.65818],[139.77557,35.65788],[139.77537,35.65775],[139.77527,35.65768],[139.77513,35.65759],[139.77498,35.65749],[139.77482,35.65738],[139.77453,35.65718]]]}},{"type":"Feature","properties":{"name":"勝どき四丁目","setai":1003,"jinko":1787,"key":"13102036004","units":1},"geometry":{"type":"Polygon","coordinates":[[[139.77605,35.65536],[139.77582,35.6552],[139.77581,35.6552],[139.77513,35.65591],[139.77506,35.65597],[139.77414,35.65692],[139.77453,35.65718],[139.77482,35.65738],[139.77498,35.65749],[139.77513,35.65759],[139.77527,35.65768],[139.77537,35.65775],[139.77557,35.65788],[139.77599,35.65818],[139.77607,35.65824],[139.77658,35.65859],[139.7771,35.65808],[139.77752,35.65766],[139.77795,35.65724],[139.77829,35.6569],[139.77678,35.65587],[139.77605,35.65536]]]}},{"type":"Feature","properties":{"name":"勝どき五丁目","setai":3190,"jinko":6996,"key":"13102036005","units":1},"geometry":{"type":"Polygon","coordinates":[[[139.7724,35.65866],[139.77315,35.65791],[139.77321,35.65784],[139.77414,35.65692],[139.77368,35.65661],[139.77325,35.65633],[139.77321,35.6563],[139.77253,35.65584],[139.77228,35.65567],[139.77206,35.65551],[139.77141,35.65507],[139.77093,35.65474],[139.77064,35.65495],[139.76995,35.65565],[139.76895,35.65663],[139.76888,35.65671],[139.76945,35.65709],[139.76935,35.6572],[139.76929,35.65722],[139.76943,35.65731],[139.76946,35.65727],[139.76937,35.65721],[139.76947,35.65711],[139.77045,35.65777],[139.77031,35.65791],[139.77017,35.65782],[139.77015,35.65786],[139.77024,35.65791],[139.77032,35.65798],[139.77033,35.65793],[139.77048,35.65779],[139.77052,35.65784],[139.77106,35.6582],[139.77094,35.65833],[139.7708,35.65823],[139.77076,35.65827],[139.77085,35.65833],[139.77093,35.65838],[139.77105,35.65845],[139.77109,35.65842],[139.771,35.65836],[139.77095,35.65833],[139.77107,35.65822],[139.77166,35.65861],[139.7717,35.65863],[139.77159,35.65874],[139.77153,35.6587],[139.77149,35.65874],[139.77163,35.65883],[139.77165,35.6588],[139.7716,35.65876],[139.77173,35.65864],[139.77195,35.65879],[139.77213,35.65894],[139.77236,35.6587],[139.7724,35.65866]]]}},{"type":"Feature","properties":{"name":"勝どき六丁目","setai":3264,"jinko":7254,"key":"13102036006","units":1},"geometry":{"type":"Polygon","coordinates":[[[139.7755,35.65472],[139.7753,35.65459],[139.77517,35.6547],[139.77452,35.65425],[139.7743,35.65409],[139.77316,35.65332],[139.77303,35.65332],[139.77272,35.65364],[139.77216,35.6542],[139.77176,35.65393],[139.7717,35.65398],[139.77093,35.65474],[139.77141,35.65507],[139.77206,35.65551],[139.77228,35.65567],[139.77253,35.65584],[139.77321,35.6563],[139.77325,35.65633],[139.77368,35.65661],[139.77414,35.65692],[139.77506,35.65597],[139.77513,35.65591],[139.77581,35.6552],[139.77537,35.65491],[139.77534,35.65488],[139.7755,35.65472]]]}},{"type":"Feature","properties":{"name":"豊海町","setai":757,"jinko":1428,"key":"131020370","units":1},"geometry":{"type":"Polygon","coordinates":[[[139.7681,35.6558],[139.76964,35.65427],[139.77064,35.65495],[139.77093,35.65474],[139.7717,35.65398],[139.77176,35.65393],[139.77216,35.6542],[139.77272,35.65364],[139.77303,35.65332],[139.77176,35.65245],[139.77163,35.65258],[139.77134,35.65238],[139.77083,35.65203],[139.77006,35.65151],[139.7693,35.65099],[139.76836,35.65035],[139.76764,35.65106],[139.76741,35.65105],[139.76734,35.65105],[139.7672,35.65222],[139.76711,35.6532],[139.76709,35.6534],[139.7674,35.65342],[139.76733,35.65424],[139.76722,35.65522],[139.76796,35.65572],[139.7681,35.6558]]]}},{"type":"Feature","properties":{"name":"晴海一丁目","setai":1674,"jinko":4035,"key":"13102038001","units":1},"geometry":{"type":"Polygon","coordinates":[[[139.78765,35.66248],[139.78774,35.66241],[139.7878,35.66246],[139.78809,35.6622],[139.7883,35.66056],[139.78851,35.65895],[139.78842,35.65894],[139.78839,35.65873],[139.78663,35.65859],[139.78585,35.65806],[139.78462,35.65723],[139.78304,35.65618],[139.78175,35.6553],[139.78174,35.65529],[139.78108,35.65596],[139.78067,35.65636],[139.78057,35.65645],[139.78054,35.65646],[139.78024,35.65677],[139.78004,35.65697],[139.78003,35.65697],[139.78033,35.65717],[139.78029,35.65724],[139.78056,35.65742],[139.78062,35.65737],[139.78172,35.65812],[139.78291,35.65893],[139.7841,35.65973],[139.78492,35.66029],[139.78637,35.66128],[139.78673,35.66152],[139.78724,35.66186],[139.78722,35.66189],[139.78757,35.66214],[139.78748,35.66226],[139.7875,35.66229],[139.78744,35.66235],[139.78757,35.66244],[139.78765,35.66248]]]}},{"type":"Feature","properties":{"name":"晴海二丁目","setai":2863,"jinko":7040,"key":"13102038002","units":1},"geometry":{"type":"Polygon","coordinates":[[[139.78859,35.65657],[139.78822,35.65641],[139.78814,35.65637],[139.78806,35.65645],[139.78779,35.65627],[139.78788,35.65619],[139.7878,35.65614],[139.78772,35.65623],[139.78729,35.65593],[139.78722,35.65588],[139.78727,35.65583],[139.78703,35.65566],[139.78495,35.65425],[139.78365,35.65338],[139.78365,35.65339],[139.78317,35.65387],[139.78317,35.65387],[139.78265,35.65438],[139.78266,35.65439],[139.78175,35.6553],[139.78304,35.65618],[139.78462,35.65723],[139.78585,35.65806],[139.78663,35.65859],[139.78839,35.65873],[139.7884,35.65839],[139.78859,35.65681],[139.78856,35.65679],[139.78856,35.65665],[139.78849,35.6566],[139.78859,35.65657]]]}},{"type":"Feature","properties":{"name":"晴海三丁目","setai":2166,"jinko":4546,"key":"13102038003","units":1},"geometry":{"type":"Polygon","coordinates":[[[139.77914,35.65353],[139.77784,35.65265],[139.77726,35.65322],[139.77675,35.65373],[139.77669,35.65377],[139.77612,35.65434],[139.77743,35.65523],[139.77809,35.65567],[139.77932,35.6565],[139.78004,35.65697],[139.78024,35.65677],[139.78054,35.65646],[139.78057,35.65645],[139.78067,35.65636],[139.78108,35.65596],[139.78174,35.65529],[139.78103,35.65482],[139.78045,35.65441],[139.7798,35.65398],[139.77914,35.65353]]]}},{"type":"Feature","properties":{"name":"晴海四丁目","setai":74,"jinko":106,"key":"13102038004","units":1},"geometry":{"type":"Polygon","coordinates":[[[139.78106,35.65164],[139.77978,35.65077],[139.77928,35.65125],[139.77879,35.6517],[139.77875,35.65175],[139.77784,35.65265],[139.77914,35.65353],[139.7798,35.65398],[139.78045,35.65441],[139.78103,35.65482],[139.78174,35.65529],[139.78175,35.6553],[139.78266,35.65439],[139.78265,35.65438],[139.78317,35.65387],[139.78317,35.65387],[139.78365,35.65339],[139.78237,35.65253],[139.78106,35.65164]]]}},{"type":"Feature","properties":{"name":"晴海五丁目","setai":776,"jinko":1738,"key":"13102038005","units":1},"geometry":{"type":"Polygon","coordinates":[[[139.77583,35.65441],[139.77599,35.65426],[139.77612,35.65434],[139.77669,35.65377],[139.77675,35.65373],[139.77726,35.65322],[139.77784,35.65265],[139.77875,35.65175],[139.77879,35.6517],[139.77928,35.65125],[139.77978,35.65077],[139.77817,35.64968],[139.77656,35.6486],[139.77489,35.64747],[139.77294,35.64615],[139.77276,35.64603],[139.77274,35.64604],[139.77194,35.64682],[139.7718,35.64673],[139.77199,35.64654],[139.77191,35.6465],[139.7715,35.64691],[139.77157,35.64696],[139.77175,35.64678],[139.77189,35.64687],[139.77105,35.64771],[139.7709,35.64761],[139.77108,35.64744],[139.77101,35.64739],[139.7706,35.6478],[139.77067,35.64785],[139.77085,35.64767],[139.77099,35.64777],[139.77013,35.64861],[139.77,35.64852],[139.76997,35.64847],[139.77012,35.64834],[139.77005,35.64835],[139.76973,35.64867],[139.76977,35.64869],[139.7699,35.64855],[139.76996,35.64856],[139.77009,35.64865],[139.76948,35.64926],[139.76975,35.64944],[139.76968,35.64947],[139.76956,35.6496],[139.76964,35.64965],[139.76976,35.64952],[139.76979,35.64947],[139.77276,35.65147],[139.77241,35.65182],[139.77248,35.65187],[139.77492,35.65353],[139.77486,35.65359],[139.77506,35.65372],[139.77512,35.65366],[139.77578,35.65411],[139.77562,35.65427],[139.77583,35.65441]]]}}]}